{
"type": "FeatureCollection",
"name": "downstream_89307",
"crs": { "type": "name", "properties": { "name": "urn:ogc:def:crs:OGC:1.3:CRS84" } },
"features": [
{ "type": "Feature", "properties": { "COMID": 45053100, "id": "324", "lengthkm": 17.590714531602519, "order": 4, "uparea": 2067.9950903958861 }, "geometry": { "type": "LineString", "coordinates": [ [ 67.990833333333327, 24.833333333333343 ], [ 67.99, 24.83666666666668 ], [ 67.9925, 24.843333333333344 ], [ 68.0, 24.850833333333345 ], [ 68.005833333333328, 24.848333333333343 ], [ 68.01166666666667, 24.855833333333344 ], [ 68.015833333333333, 24.865 ], [ 68.034166666666664, 24.8825 ], [ 68.035833333333329, 24.886666666666677 ], [ 68.035833333333329, 24.895 ], [ 68.045, 24.9075 ], [ 68.045833333333334, 24.911666666666676 ], [ 68.049166666666665, 24.915 ], [ 68.053333333333327, 24.924166666666679 ], [ 68.061666666666667, 24.933333333333344 ], [ 68.06, 24.948333333333345 ], [ 68.056666666666658, 24.95416666666668 ] ] } },
{ "type": "Feature", "properties": { "COMID": 45056114, "id": "324", "lengthkm": 19.129275478158924, "order": 4, "uparea": 2158.1026357756164 }, "geometry": { "type": "LineString", "coordinates": [ [ 67.875, 24.828333333333347 ], [ 67.876666666666665, 24.819166666666678 ], [ 67.88666666666667, 24.8125 ], [ 67.885, 24.81 ], [ 67.88666666666667, 24.805833333333347 ], [ 67.895833333333329, 24.803333333333345 ], [ 67.900833333333338, 24.804166666666678 ], [ 67.905833333333334, 24.800833333333344 ], [ 67.910833333333329, 24.8025 ], [ 67.9125, 24.8 ], [ 67.913333333333327, 24.8025 ], [ 67.915833333333325, 24.800833333333344 ], [ 67.920833333333334, 24.803333333333345 ], [ 67.924166666666665, 24.8025 ], [ 67.945, 24.825833333333343 ], [ 67.948333333333338, 24.823333333333345 ], [ 67.94916666666667, 24.8275 ], [ 67.961666666666659, 24.828333333333347 ], [ 67.963333333333338, 24.826666666666679 ], [ 67.961666666666659, 24.824166666666677 ], [ 67.963333333333338, 24.8225 ], [ 67.980833333333337, 24.82 ], [ 67.980833333333337, 24.824166666666677 ], [ 67.985, 24.830833333333345 ], [ 67.990833333333327, 24.833333333333343 ] ] } },
{ "type": "Feature", "properties": { "COMID": 45056096, "id": "324", "lengthkm": 1.969237559548729, "order": 4, "uparea": 2202.7160380921482 }, "geometry": { "type": "LineString", "coordinates": [ [ 67.858333333333334, 24.8275 ], [ 67.869166666666658, 24.825 ], [ 67.875, 24.828333333333347 ] ] } },
{ "type": "Feature", "properties": { "COMID": 45056094, "id": "324", "lengthkm": 12.042471510901734, "order": 4, "uparea": 2254.2375515035792 }, "geometry": { "type": "LineString", "coordinates": [ [ 67.7875, 24.799166666666679 ], [ 67.789166666666659, 24.7975 ], [ 67.788333333333327, 24.790833333333346 ], [ 67.791666666666671, 24.785 ], [ 67.799166666666665, 24.785833333333343 ], [ 67.81583333333333, 24.800833333333344 ], [ 67.8175, 24.8 ], [ 67.831666666666663, 24.803333333333345 ], [ 67.831666666666663, 24.805 ], [ 67.836666666666659, 24.808333333333344 ], [ 67.84, 24.806666666666679 ], [ 67.844166666666666, 24.811666666666678 ], [ 67.851666666666659, 24.815833333333345 ], [ 67.850833333333327, 24.823333333333345 ], [ 67.858333333333334, 24.8275 ] ] } },
{ "type": "Feature", "properties": { "COMID": 45056090, "id": "324", "lengthkm": 0.50264783484563902, "order": 4, "uparea": 2573.0411807851651 }, "geometry": { "type": "LineString", "coordinates": [ [ 67.783333333333331, 24.799166666666679 ], [ 67.7875, 24.799166666666679 ] ] } },
{ "type": "Feature", "properties": { "COMID": 45056089, "id": "324", "lengthkm": 6.8790413818387677, "order": 4, "uparea": 2710.2972028482473 }, "geometry": { "type": "LineString", "coordinates": [ [ 67.755833333333328, 24.760833333333345 ], [ 67.7575, 24.7625 ], [ 67.755833333333328, 24.765833333333347 ], [ 67.759166666666658, 24.7725 ], [ 67.7575, 24.77416666666668 ], [ 67.759166666666658, 24.78 ], [ 67.765, 24.7825 ], [ 67.765, 24.786666666666676 ], [ 67.766666666666666, 24.788333333333345 ], [ 67.773333333333326, 24.790833333333346 ], [ 67.775833333333338, 24.79 ], [ 67.78, 24.7925 ], [ 67.783333333333331, 24.799166666666679 ] ] } },
{ "type": "Feature", "properties": { "COMID": 45056060, "id": "324", "lengthkm": 35.971459491235741, "order": 4, "uparea": 3155.8346447020194 }, "geometry": { "type": "LineString", "coordinates": [ [ 67.568333333333328, 24.626666666666679 ], [ 67.56583333333333, 24.628333333333345 ], [ 67.563333333333333, 24.6275 ], [ 67.560833333333335, 24.63 ], [ 67.558333333333337, 24.6275 ], [ 67.556666666666672, 24.633333333333347 ], [ 67.561666666666667, 24.640833333333347 ], [ 67.56583333333333, 24.643333333333345 ], [ 67.565, 24.645833333333343 ], [ 67.57, 24.65 ], [ 67.57, 24.653333333333343 ], [ 67.58, 24.6675 ], [ 67.579166666666666, 24.669166666666676 ], [ 67.585, 24.671666666666681 ], [ 67.598333333333329, 24.683333333333344 ], [ 67.600833333333327, 24.683333333333344 ], [ 67.609166666666667, 24.69 ], [ 67.610833333333332, 24.691666666666677 ], [ 67.610833333333332, 24.695 ], [ 67.615, 24.693333333333346 ], [ 67.62833333333333, 24.701666666666679 ], [ 67.645, 24.703333333333347 ], [ 67.650833333333338, 24.709166666666679 ], [ 67.6525, 24.708333333333343 ], [ 67.651666666666671, 24.709166666666679 ], [ 67.655, 24.71166666666668 ], [ 67.655, 24.713333333333345 ], [ 67.664166666666659, 24.71916666666668 ], [ 67.666666666666671, 24.7225 ], [ 67.675, 24.721666666666678 ], [ 67.680833333333325, 24.724166666666676 ], [ 67.683333333333337, 24.723333333333343 ], [ 67.693333333333328, 24.728333333333346 ], [ 67.69916666666667, 24.729166666666679 ], [ 67.715833333333336, 24.729166666666679 ], [ 67.716666666666669, 24.7275 ], [ 67.72, 24.728333333333346 ], [ 67.72, 24.73 ], [ 67.730833333333337, 24.731666666666676 ], [ 67.74, 24.735833333333346 ], [ 67.749166666666667, 24.736666666666679 ], [ 67.755, 24.739166666666677 ], [ 67.764166666666668, 24.739166666666677 ], [ 67.765, 24.743333333333347 ], [ 67.770833333333329, 24.75 ], [ 67.769166666666663, 24.751666666666679 ], [ 67.7675, 24.750833333333347 ], [ 67.766666666666666, 24.753333333333345 ], [ 67.76166666666667, 24.7575 ], [ 67.7575, 24.758333333333347 ], [ 67.755833333333328, 24.760833333333345 ] ] } },
{ "type": "Feature", "properties": { "COMID": 45056034, "id": "324", "lengthkm": 5.3597739957609569, "order": 4, "uparea": 3632.8027464018328 }, "geometry": { "type": "LineString", "coordinates": [ [ 67.526666666666671, 24.606666666666676 ], [ 67.568333333333328, 24.626666666666679 ] ] } },
{ "type": "Feature", "properties": { "COMID": 45056029, "id": "324", "lengthkm": 3.9234514628239401, "order": 4, "uparea": 3681.1490996271727 }, "geometry": { "type": "LineString", "coordinates": [ [ 67.51, 24.583333333333343 ], [ 67.51166666666667, 24.584166666666679 ], [ 67.515, 24.591666666666679 ], [ 67.513333333333335, 24.595833333333346 ], [ 67.514166666666668, 24.599166666666676 ], [ 67.516666666666666, 24.600833333333345 ], [ 67.5175, 24.6 ], [ 67.519166666666663, 24.603333333333346 ], [ 67.526666666666671, 24.606666666666676 ] ] } },
{ "type": "Feature", "properties": { "COMID": 45056025, "id": "324", "lengthkm": 12.294235755361649, "order": 4, "uparea": 3849.9641889453169 }, "geometry": { "type": "LineString", "coordinates": [ [ 67.454166666666666, 24.556666666666679 ], [ 67.460833333333326, 24.549166666666679 ], [ 67.465833333333336, 24.546666666666681 ], [ 67.4675, 24.548333333333346 ], [ 67.465833333333336, 24.555833333333347 ], [ 67.466666666666669, 24.559166666666677 ], [ 67.47, 24.561666666666678 ], [ 67.475, 24.560833333333346 ], [ 67.478333333333325, 24.564166666666679 ], [ 67.476666666666659, 24.5725 ], [ 67.479166666666671, 24.573333333333345 ], [ 67.4825, 24.568333333333346 ], [ 67.485833333333332, 24.57 ], [ 67.485833333333332, 24.573333333333345 ], [ 67.480833333333337, 24.575833333333343 ], [ 67.480833333333337, 24.578333333333347 ], [ 67.483333333333334, 24.580833333333345 ], [ 67.485, 24.580833333333345 ], [ 67.489166666666662, 24.575833333333343 ], [ 67.49166666666666, 24.575833333333343 ], [ 67.5025, 24.5825 ], [ 67.51, 24.583333333333343 ] ] } }
]
}
