{
"type": "FeatureCollection",
"name": "downstream_7201",
"crs": { "type": "name", "properties": { "name": "urn:ogc:def:crs:OGC:1.3:CRS84" } },
"features": [
{ "type": "Feature", "properties": { "COMID": 44042603, "id": "22855", "lengthkm": 13.205570917866359, "order": 1, "uparea": 57.589248983972475 }, "geometry": { "type": "LineString", "coordinates": [ [ 107.250833333333333, 12.769166666666671 ], [ 107.2525, 12.7675 ], [ 107.2475, 12.759166666666673 ], [ 107.24666666666667, 12.754166666666674 ], [ 107.243333333333325, 12.754166666666674 ], [ 107.240833333333327, 12.751666666666672 ], [ 107.240833333333327, 12.749166666666671 ], [ 107.236666666666665, 12.748333333333338 ], [ 107.236666666666665, 12.738333333333337 ], [ 107.233333333333334, 12.735833333333339 ], [ 107.231666666666655, 12.728333333333339 ], [ 107.2275, 12.721666666666671 ], [ 107.226666666666659, 12.713333333333338 ], [ 107.2275, 12.710833333333337 ], [ 107.229166666666657, 12.710833333333337 ], [ 107.229166666666657, 12.7075 ], [ 107.2325, 12.704166666666673 ], [ 107.2325, 12.69916666666667 ], [ 107.23, 12.7 ], [ 107.2275, 12.698333333333338 ], [ 107.226666666666659, 12.7 ], [ 107.223333333333329, 12.698333333333338 ], [ 107.223333333333329, 12.695 ], [ 107.225, 12.695 ], [ 107.225833333333327, 12.690833333333337 ] ] } },
{ "type": "Feature", "properties": { "COMID": 44039944, "id": "22855", "lengthkm": 13.907920935144267, "order": 2, "uparea": 374.67960805396348 }, "geometry": { "type": "LineString", "coordinates": [ [ 107.274166666666659, 12.833333333333339 ], [ 107.273333333333326, 12.830833333333338 ], [ 107.268333333333331, 12.8325 ], [ 107.266666666666666, 12.831666666666671 ], [ 107.265833333333333, 12.833333333333339 ], [ 107.2625, 12.8325 ], [ 107.26, 12.835 ], [ 107.258333333333326, 12.833333333333339 ], [ 107.261666666666656, 12.8225 ], [ 107.269166666666663, 12.81333333333334 ], [ 107.269166666666663, 12.8075 ], [ 107.266666666666666, 12.805833333333339 ], [ 107.265, 12.7975 ], [ 107.2625, 12.798333333333339 ], [ 107.26, 12.795 ], [ 107.256666666666661, 12.795 ], [ 107.263333333333321, 12.7825 ], [ 107.260833333333323, 12.78 ], [ 107.258333333333326, 12.781666666666673 ], [ 107.256666666666661, 12.780833333333337 ], [ 107.255833333333328, 12.7725 ], [ 107.254166666666663, 12.775 ], [ 107.251666666666665, 12.773333333333337 ], [ 107.2475, 12.773333333333337 ], [ 107.250833333333333, 12.769166666666671 ] ] } },
{ "type": "Feature", "properties": { "COMID": 44039942, "id": "22855", "lengthkm": 25.043588437890673, "order": 2, "uparea": 460.57821778657683 }, "geometry": { "type": "LineString", "coordinates": [ [ 107.248333333333335, 12.961666666666673 ], [ 107.250833333333333, 12.963333333333338 ], [ 107.254166666666663, 12.9625 ], [ 107.2575, 12.9575 ], [ 107.256666666666661, 12.954166666666673 ], [ 107.259166666666658, 12.950833333333339 ], [ 107.2575, 12.95 ], [ 107.261666666666656, 12.9475 ], [ 107.26, 12.943333333333339 ], [ 107.260833333333323, 12.94166666666667 ], [ 107.2575, 12.940833333333337 ], [ 107.256666666666661, 12.93833333333334 ], [ 107.2575, 12.935833333333338 ], [ 107.2625, 12.9325 ], [ 107.260833333333323, 12.929166666666671 ], [ 107.265833333333333, 12.925 ], [ 107.2625, 12.9225 ], [ 107.266666666666666, 12.9225 ], [ 107.269166666666663, 12.92 ], [ 107.275, 12.920833333333338 ], [ 107.274166666666659, 12.9175 ], [ 107.275833333333338, 12.915833333333339 ], [ 107.269166666666663, 12.911666666666672 ], [ 107.269166666666663, 12.906666666666673 ], [ 107.271666666666661, 12.905 ], [ 107.269166666666663, 12.901666666666671 ], [ 107.270833333333329, 12.9 ], [ 107.27, 12.894166666666671 ], [ 107.264166666666668, 12.891666666666673 ], [ 107.261666666666656, 12.885833333333338 ], [ 107.259166666666658, 12.884166666666673 ], [ 107.261666666666656, 12.8825 ], [ 107.2625, 12.879166666666674 ], [ 107.259166666666658, 12.876666666666672 ], [ 107.259166666666658, 12.874166666666671 ], [ 107.260833333333323, 12.8725 ], [ 107.269166666666663, 12.873333333333338 ], [ 107.270833333333329, 12.871666666666673 ], [ 107.266666666666666, 12.866666666666671 ], [ 107.268333333333331, 12.860833333333339 ], [ 107.27, 12.85916666666667 ], [ 107.271666666666661, 12.860833333333339 ], [ 107.275, 12.860833333333339 ], [ 107.2775, 12.858333333333338 ], [ 107.2775, 12.856666666666673 ], [ 107.274166666666659, 12.854166666666671 ], [ 107.270833333333329, 12.855 ], [ 107.266666666666666, 12.849166666666672 ], [ 107.266666666666666, 12.846666666666671 ], [ 107.274166666666659, 12.833333333333339 ] ] } },
{ "type": "Feature", "properties": { "COMID": 44039932, "id": "22855", "lengthkm": 52.984022923855278, "order": 3, "uparea": 873.57973904962557 }, "geometry": { "type": "LineString", "coordinates": [ [ 107.365, 13.246666666666673 ], [ 107.361666666666665, 13.243333333333339 ], [ 107.3625, 13.235 ], [ 107.359166666666667, 13.23416666666667 ], [ 107.36, 13.23083333333334 ], [ 107.355833333333322, 13.2275 ], [ 107.358333333333334, 13.225 ], [ 107.3525, 13.224166666666672 ], [ 107.351666666666659, 13.2225 ], [ 107.353333333333325, 13.22 ], [ 107.349166666666662, 13.2175 ], [ 107.35, 13.21583333333334 ], [ 107.3525, 13.21583333333334 ], [ 107.355, 13.2075 ], [ 107.3525, 13.205833333333338 ], [ 107.3525, 13.203333333333337 ], [ 107.346666666666664, 13.2025 ], [ 107.346666666666664, 13.19916666666667 ], [ 107.341666666666669, 13.19583333333334 ], [ 107.343333333333334, 13.194166666666671 ], [ 107.3425, 13.190833333333337 ], [ 107.344166666666666, 13.18833333333334 ], [ 107.336666666666659, 13.18833333333334 ], [ 107.335833333333326, 13.184166666666673 ], [ 107.333333333333329, 13.181666666666672 ], [ 107.335833333333326, 13.179166666666671 ], [ 107.336666666666659, 13.175 ], [ 107.333333333333329, 13.170833333333338 ], [ 107.338333333333338, 13.1675 ], [ 107.336666666666659, 13.163333333333338 ], [ 107.340833333333336, 13.163333333333338 ], [ 107.345, 13.156666666666673 ], [ 107.345, 13.154166666666672 ], [ 107.341666666666669, 13.15333333333334 ], [ 107.340833333333336, 13.15 ], [ 107.338333333333338, 13.15 ], [ 107.33, 13.1425 ], [ 107.325833333333321, 13.143333333333338 ], [ 107.324166666666656, 13.141666666666673 ], [ 107.318333333333328, 13.143333333333338 ], [ 107.3125, 13.140833333333337 ], [ 107.31583333333333, 13.135833333333338 ], [ 107.313333333333333, 13.135833333333338 ], [ 107.3125, 13.1325 ], [ 107.30916666666667, 13.131666666666671 ], [ 107.310833333333335, 13.12916666666667 ], [ 107.305, 13.1275 ], [ 107.305, 13.12583333333334 ], [ 107.3075, 13.123333333333338 ], [ 107.308333333333337, 13.119166666666672 ], [ 107.31, 13.119166666666672 ], [ 107.3125, 13.115833333333338 ], [ 107.3125, 13.1125 ], [ 107.310833333333335, 13.110833333333339 ], [ 107.3125, 13.1075 ], [ 107.31, 13.105 ], [ 107.313333333333333, 13.1 ], [ 107.308333333333337, 13.095833333333339 ], [ 107.30916666666667, 13.0925 ], [ 107.306666666666672, 13.09 ], [ 107.306666666666672, 13.0875 ], [ 107.298333333333332, 13.075833333333339 ], [ 107.299166666666665, 13.073333333333338 ], [ 107.301666666666662, 13.073333333333338 ], [ 107.301666666666662, 13.069166666666671 ], [ 107.295833333333334, 13.068333333333339 ], [ 107.293333333333322, 13.065 ], [ 107.295, 13.061666666666671 ], [ 107.290833333333325, 13.0575 ], [ 107.285833333333329, 13.0575 ], [ 107.285, 13.054166666666671 ], [ 107.281666666666666, 13.051666666666673 ], [ 107.2825, 13.0475 ], [ 107.285833333333329, 13.044166666666673 ], [ 107.285833333333329, 13.038333333333338 ], [ 107.2825, 13.035 ], [ 107.273333333333326, 13.033333333333339 ], [ 107.271666666666661, 13.030833333333337 ], [ 107.265833333333333, 13.0325 ], [ 107.2625, 13.03 ], [ 107.263333333333321, 13.025833333333338 ], [ 107.26, 13.023333333333337 ], [ 107.260833333333323, 13.021666666666672 ], [ 107.258333333333326, 13.019166666666671 ], [ 107.254166666666663, 13.018333333333338 ], [ 107.255, 13.013333333333339 ], [ 107.250833333333333, 13.00833333333334 ], [ 107.251666666666665, 13.005 ], [ 107.248333333333335, 13.0025 ], [ 107.25, 13.0 ], [ 107.245833333333337, 12.9975 ], [ 107.2475, 12.993333333333339 ], [ 107.24166666666666, 12.990833333333338 ], [ 107.245, 12.985 ], [ 107.245833333333337, 12.98 ], [ 107.248333333333335, 12.9775 ], [ 107.245, 12.969166666666673 ], [ 107.245, 12.966666666666672 ], [ 107.248333333333335, 12.961666666666673 ] ] } },
{ "type": "Feature", "properties": { "COMID": 44039879, "id": "22855", "lengthkm": 4.2150050870243971, "order": 5, "uparea": 16094.039145212708 }, "geometry": { "type": "LineString", "coordinates": [ [ 107.368333333333325, 13.2775 ], [ 107.370833333333337, 13.270833333333339 ], [ 107.370833333333337, 13.265 ], [ 107.360833333333332, 13.251666666666672 ], [ 107.360833333333332, 13.25 ], [ 107.365, 13.246666666666673 ] ] } },
{ "type": "Feature", "properties": { "COMID": 44039878, "id": "22855", "lengthkm": 5.9223832517722128, "order": 6, "uparea": 21210.420274459317 }, "geometry": { "type": "LineString", "coordinates": [ [ 107.336666666666659, 13.315833333333337 ], [ 107.3425, 13.310833333333338 ], [ 107.345833333333331, 13.304166666666671 ], [ 107.3575, 13.295833333333338 ], [ 107.36, 13.286666666666672 ], [ 107.368333333333325, 13.2775 ] ] } },
{ "type": "Feature", "properties": { "COMID": 44039877, "id": "22855", "lengthkm": 6.6586344709775593, "order": 6, "uparea": 23567.50296654076 }, "geometry": { "type": "LineString", "coordinates": [ [ 107.2875, 13.315833333333337 ], [ 107.2925, 13.309166666666673 ], [ 107.3075, 13.305833333333339 ], [ 107.313333333333333, 13.308333333333337 ], [ 107.313333333333333, 13.311666666666671 ], [ 107.316666666666663, 13.315 ], [ 107.3225, 13.31666666666667 ], [ 107.336666666666659, 13.315833333333337 ] ] } },
{ "type": "Feature", "properties": { "COMID": 44039875, "id": "22855", "lengthkm": 3.4047443581075911, "order": 6, "uparea": 23609.262042551763 }, "geometry": { "type": "LineString", "coordinates": [ [ 107.2775, 13.3425 ], [ 107.2875, 13.315833333333337 ] ] } },
{ "type": "Feature", "properties": { "COMID": 44039873, "id": "22855", "lengthkm": 5.8443909627066599, "order": 6, "uparea": 23686.583701240663 }, "geometry": { "type": "LineString", "coordinates": [ [ 107.24, 13.365833333333338 ], [ 107.2475, 13.3675 ], [ 107.2575, 13.3625 ], [ 107.2675, 13.360833333333339 ], [ 107.270833333333329, 13.3575 ], [ 107.2775, 13.3425 ] ] } },
{ "type": "Feature", "properties": { "COMID": 44039872, "id": "22855", "lengthkm": 4.9211324383401376, "order": 6, "uparea": 23744.89050645904 }, "geometry": { "type": "LineString", "coordinates": [ [ 107.225, 13.333333333333339 ], [ 107.230833333333322, 13.334166666666672 ], [ 107.236666666666665, 13.338333333333338 ], [ 107.2375, 13.346666666666671 ], [ 107.235, 13.353333333333339 ], [ 107.235, 13.35916666666667 ], [ 107.24, 13.365833333333338 ] ] } },
{ "type": "Feature", "properties": { "COMID": 44039869, "id": "22855", "lengthkm": 2.0217305040292808, "order": 6, "uparea": 23788.514892243307 }, "geometry": { "type": "LineString", "coordinates": [ [ 107.2125, 13.3225 ], [ 107.215833333333336, 13.328333333333337 ], [ 107.225, 13.333333333333339 ] ] } },
{ "type": "Feature", "properties": { "COMID": 44039868, "id": "22855", "lengthkm": 5.1787310291766104, "order": 6, "uparea": 23861.486397776913 }, "geometry": { "type": "LineString", "coordinates": [ [ 107.1725, 13.306666666666672 ], [ 107.19083333333333, 13.3075 ], [ 107.2, 13.314166666666672 ], [ 107.209166666666661, 13.3175 ], [ 107.2125, 13.3225 ] ] } },
{ "type": "Feature", "properties": { "COMID": 44039867, "id": "22855", "lengthkm": 14.04567715585048, "order": 6, "uparea": 24587.68227055273 }, "geometry": { "type": "LineString", "coordinates": [ [ 107.079166666666666, 13.32083333333334 ], [ 107.09, 13.310833333333338 ], [ 107.096666666666664, 13.308333333333337 ], [ 107.1075, 13.308333333333337 ], [ 107.1225, 13.314166666666672 ], [ 107.1325, 13.329166666666673 ], [ 107.145, 13.331666666666671 ], [ 107.156666666666666, 13.325 ], [ 107.159166666666664, 13.32 ], [ 107.158333333333331, 13.314166666666672 ], [ 107.160833333333329, 13.31 ], [ 107.165833333333325, 13.3075 ], [ 107.1725, 13.306666666666672 ] ] } },
{ "type": "Feature", "properties": { "COMID": 44039863, "id": "22855", "lengthkm": 6.6991696432329224, "order": 6, "uparea": 26634.412409609198 }, "geometry": { "type": "LineString", "coordinates": [ [ 107.053333333333327, 13.3675 ], [ 107.058333333333337, 13.366666666666671 ], [ 107.06, 13.3625 ], [ 107.064166666666665, 13.36 ], [ 107.066666666666663, 13.3475 ], [ 107.079166666666666, 13.32083333333334 ] ] } },
{ "type": "Feature", "properties": { "COMID": 44039861, "id": "22855", "lengthkm": 7.0746150114430524, "order": 6, "uparea": 27166.471474304049 }, "geometry": { "type": "LineString", "coordinates": [ [ 107.020833333333329, 13.41083333333334 ], [ 107.025, 13.4075 ], [ 107.03, 13.399166666666673 ], [ 107.04, 13.390833333333337 ], [ 107.040833333333325, 13.385 ], [ 107.038333333333327, 13.38 ], [ 107.040833333333325, 13.374166666666671 ], [ 107.053333333333327, 13.3675 ] ] } },
{ "type": "Feature", "properties": { "COMID": 44038099, "id": "22855", "lengthkm": 4.3871310915516153, "order": 6, "uparea": 27279.951095739154 }, "geometry": { "type": "LineString", "coordinates": [ [ 107.016666666666666, 13.446666666666673 ], [ 107.014166666666668, 13.436666666666671 ], [ 107.014166666666668, 13.429166666666671 ], [ 107.015833333333333, 13.426666666666673 ], [ 107.016666666666666, 13.416666666666671 ], [ 107.020833333333329, 13.41083333333334 ] ] } },
{ "type": "Feature", "properties": { "COMID": 44038095, "id": "22855", "lengthkm": 3.7017779750734139, "order": 6, "uparea": 27316.208551666845 }, "geometry": { "type": "LineString", "coordinates": [ [ 107.008333333333326, 13.47666666666667 ], [ 107.013333333333321, 13.4675 ], [ 107.016666666666666, 13.446666666666673 ] ] } },
{ "type": "Feature", "properties": { "COMID": 44038092, "id": "22855", "lengthkm": 8.6048676118809553, "order": 6, "uparea": 27609.684796874801 }, "geometry": { "type": "LineString", "coordinates": [ [ 106.961666666666659, 13.50833333333334 ], [ 106.965833333333336, 13.5075 ], [ 106.969166666666666, 13.503333333333337 ], [ 106.9725, 13.479166666666671 ], [ 106.976666666666659, 13.474166666666672 ], [ 106.983333333333334, 13.471666666666671 ], [ 106.9925, 13.471666666666671 ], [ 107.0, 13.475 ], [ 107.00333333333333, 13.478333333333339 ], [ 107.008333333333326, 13.47666666666667 ] ] } },
{ "type": "Feature", "properties": { "COMID": 44038088, "id": "22855", "lengthkm": 9.5641870680978567, "order": 6, "uparea": 27735.406493896102 }, "geometry": { "type": "LineString", "coordinates": [ [ 106.910833333333329, 13.471666666666671 ], [ 106.909166666666664, 13.489166666666673 ], [ 106.911666666666662, 13.493333333333339 ], [ 106.9175, 13.4925 ], [ 106.92583333333333, 13.485 ], [ 106.93, 13.48416666666667 ], [ 106.935, 13.486666666666672 ], [ 106.950833333333321, 13.5025 ], [ 106.961666666666659, 13.50833333333334 ] ] } },
{ "type": "Feature", "properties": { "COMID": 44038083, "id": "22855", "lengthkm": 4.7639512113247386, "order": 6, "uparea": 27801.768691273632 }, "geometry": { "type": "LineString", "coordinates": [ [ 106.884166666666658, 13.4925 ], [ 106.888333333333321, 13.490833333333338 ], [ 106.891666666666666, 13.486666666666672 ], [ 106.9, 13.470833333333339 ], [ 106.904166666666669, 13.468333333333337 ], [ 106.908333333333331, 13.468333333333337 ], [ 106.910833333333329, 13.471666666666671 ] ] } },
{ "type": "Feature", "properties": { "COMID": 44038079, "id": "22855", "lengthkm": 11.014989762241941, "order": 6, "uparea": 28162.165341035685 }, "geometry": { "type": "LineString", "coordinates": [ [ 106.844166666666666, 13.430833333333339 ], [ 106.851666666666659, 13.439166666666672 ], [ 106.868333333333325, 13.4375 ], [ 106.874166666666667, 13.44166666666667 ], [ 106.87833333333333, 13.45 ], [ 106.87833333333333, 13.455833333333338 ], [ 106.87166666666667, 13.46583333333334 ], [ 106.874166666666667, 13.485 ], [ 106.87833333333333, 13.491666666666671 ], [ 106.884166666666658, 13.4925 ] ] } },
{ "type": "Feature", "properties": { "COMID": 44038072, "id": "22855", "lengthkm": 1.637753352972021, "order": 6, "uparea": 28351.923443235599 }, "geometry": { "type": "LineString", "coordinates": [ [ 106.830833333333331, 13.426666666666673 ], [ 106.8375, 13.426666666666673 ], [ 106.844166666666666, 13.430833333333339 ] ] } },
{ "type": "Feature", "properties": { "COMID": 44038071, "id": "22855", "lengthkm": 5.5689081785390826, "order": 6, "uparea": 28666.076120087069 }, "geometry": { "type": "LineString", "coordinates": [ [ 106.795833333333334, 13.456666666666671 ], [ 106.798333333333332, 13.448333333333338 ], [ 106.803333333333327, 13.443333333333339 ], [ 106.808333333333337, 13.439166666666672 ], [ 106.82, 13.434166666666673 ], [ 106.8275, 13.426666666666673 ], [ 106.830833333333331, 13.426666666666673 ] ] } },
{ "type": "Feature", "properties": { "COMID": 44038068, "id": "22855", "lengthkm": 4.5590063045698166, "order": 6, "uparea": 28857.493117415597 }, "geometry": { "type": "LineString", "coordinates": [ [ 106.770833333333329, 13.470833333333339 ], [ 106.781666666666666, 13.47666666666667 ], [ 106.786666666666662, 13.475833333333338 ], [ 106.795, 13.465 ], [ 106.795833333333334, 13.456666666666671 ] ] } },
{ "type": "Feature", "properties": { "COMID": 44038066, "id": "22855", "lengthkm": 5.3812101647676691, "order": 6, "uparea": 28931.961015196532 }, "geometry": { "type": "LineString", "coordinates": [ [ 106.730833333333322, 13.463333333333338 ], [ 106.740833333333327, 13.47 ], [ 106.74666666666667, 13.47 ], [ 106.755, 13.465 ], [ 106.7625, 13.465 ], [ 106.766666666666666, 13.46583333333334 ], [ 106.770833333333329, 13.470833333333339 ] ] } },
{ "type": "Feature", "properties": { "COMID": 44038063, "id": "22855", "lengthkm": 1.249792713548417, "order": 6, "uparea": 29018.754548888453 }, "geometry": { "type": "LineString", "coordinates": [ [ 106.72, 13.461666666666673 ], [ 106.730833333333322, 13.463333333333338 ] ] } },
{ "type": "Feature", "properties": { "COMID": 44038060, "id": "22855", "lengthkm": 3.298822510347144, "order": 6, "uparea": 29054.930724361402 }, "geometry": { "type": "LineString", "coordinates": [ [ 106.691666666666663, 13.456666666666671 ], [ 106.701666666666668, 13.460833333333337 ], [ 106.72, 13.461666666666673 ] ] } },
{ "type": "Feature", "properties": { "COMID": 44038059, "id": "22855", "lengthkm": 12.751036928360787, "order": 6, "uparea": 29202.941009750961 }, "geometry": { "type": "LineString", "coordinates": [ [ 106.599166666666662, 13.45 ], [ 106.605, 13.4425 ], [ 106.61333333333333, 13.43833333333334 ], [ 106.62166666666667, 13.44 ], [ 106.636666666666656, 13.456666666666671 ], [ 106.651666666666671, 13.46583333333334 ], [ 106.665833333333325, 13.460833333333337 ], [ 106.673333333333332, 13.461666666666673 ], [ 106.68, 13.4575 ], [ 106.691666666666663, 13.456666666666671 ] ] } },
{ "type": "Feature", "properties": { "COMID": 44038054, "id": "22855", "lengthkm": 10.144235957306426, "order": 6, "uparea": 29549.993177907643 }, "geometry": { "type": "LineString", "coordinates": [ [ 106.5675, 13.523333333333337 ], [ 106.571666666666658, 13.518333333333338 ], [ 106.570833333333326, 13.516666666666673 ], [ 106.574166666666656, 13.51166666666667 ], [ 106.5725, 13.51 ], [ 106.575, 13.5075 ], [ 106.573333333333323, 13.505833333333339 ], [ 106.574166666666656, 13.4925 ], [ 106.578333333333333, 13.4875 ], [ 106.585, 13.470833333333339 ], [ 106.590833333333336, 13.465 ], [ 106.594166666666666, 13.456666666666671 ], [ 106.599166666666662, 13.45 ] ] } },
{ "type": "Feature", "properties": { "COMID": 44038050, "id": "22855", "lengthkm": 4.439593443099664, "order": 6, "uparea": 29638.990290127687 }, "geometry": { "type": "LineString", "coordinates": [ [ 106.543333333333322, 13.550833333333337 ], [ 106.55416666666666, 13.543333333333337 ], [ 106.558333333333337, 13.531666666666673 ], [ 106.5675, 13.523333333333337 ] ] } },
{ "type": "Feature", "properties": { "COMID": 44038048, "id": "22855", "lengthkm": 18.367259794422004, "order": 6, "uparea": 29800.591811123937 }, "geometry": { "type": "LineString", "coordinates": [ [ 106.489166666666662, 13.493333333333339 ], [ 106.490833333333327, 13.498333333333338 ], [ 106.49, 13.5025 ], [ 106.479166666666657, 13.509166666666673 ], [ 106.474166666666662, 13.514166666666672 ], [ 106.473333333333329, 13.520833333333339 ], [ 106.4675, 13.5275 ], [ 106.465, 13.535 ], [ 106.461666666666659, 13.538333333333338 ], [ 106.461666666666659, 13.540833333333339 ], [ 106.464166666666671, 13.5425 ], [ 106.460833333333326, 13.545 ], [ 106.461666666666659, 13.551666666666673 ], [ 106.473333333333329, 13.56 ], [ 106.479166666666657, 13.56 ], [ 106.5, 13.559166666666673 ], [ 106.5075, 13.556666666666672 ], [ 106.513333333333335, 13.551666666666673 ], [ 106.5375, 13.553333333333338 ], [ 106.543333333333322, 13.550833333333337 ] ] } },
{ "type": "Feature", "properties": { "COMID": 44038043, "id": "22855", "lengthkm": 3.378895111504534, "order": 6, "uparea": 29833.464897437079 }, "geometry": { "type": "LineString", "coordinates": [ [ 106.4675, 13.475833333333338 ], [ 106.4775, 13.483333333333338 ], [ 106.485833333333332, 13.486666666666672 ], [ 106.489166666666662, 13.493333333333339 ] ] } },
{ "type": "Feature", "properties": { "COMID": 44038041, "id": "22855", "lengthkm": 6.4158355169413808, "order": 6, "uparea": 29874.728991321343 }, "geometry": { "type": "LineString", "coordinates": [ [ 106.455, 13.426666666666673 ], [ 106.459166666666661, 13.431666666666672 ], [ 106.461666666666659, 13.4425 ], [ 106.460833333333326, 13.456666666666671 ], [ 106.458333333333329, 13.4625 ], [ 106.458333333333329, 13.466666666666672 ], [ 106.460833333333326, 13.470833333333339 ], [ 106.4675, 13.475833333333338 ] ] } },
{ "type": "Feature", "properties": { "COMID": 44038039, "id": "22855", "lengthkm": 2.6801840059613409, "order": 6, "uparea": 30082.151915579569 }, "geometry": { "type": "LineString", "coordinates": [ [ 106.431666666666672, 13.426666666666673 ], [ 106.445, 13.426666666666673 ], [ 106.4475, 13.425 ], [ 106.453333333333333, 13.425 ], [ 106.455, 13.426666666666673 ] ] } },
{ "type": "Feature", "properties": { "COMID": 44038037, "id": "22855", "lengthkm": 8.8443246170921412, "order": 6, "uparea": 30220.543965762383 }, "geometry": { "type": "LineString", "coordinates": [ [ 106.401666666666671, 13.464166666666671 ], [ 106.413333333333327, 13.463333333333338 ], [ 106.418333333333322, 13.46583333333334 ], [ 106.426666666666662, 13.466666666666672 ], [ 106.43416666666667, 13.4625 ], [ 106.436666666666667, 13.456666666666671 ], [ 106.436666666666667, 13.4475 ], [ 106.426666666666662, 13.435833333333338 ], [ 106.426666666666662, 13.430833333333339 ], [ 106.431666666666672, 13.426666666666673 ] ] } },
{ "type": "Feature", "properties": { "COMID": 44038036, "id": "22855", "lengthkm": 4.0157872490881141, "order": 6, "uparea": 30279.858542714828 }, "geometry": { "type": "LineString", "coordinates": [ [ 106.384166666666658, 13.485833333333339 ], [ 106.383333333333326, 13.485 ], [ 106.385833333333323, 13.48 ], [ 106.390833333333333, 13.47666666666667 ], [ 106.390833333333333, 13.4725 ], [ 106.394166666666663, 13.469166666666673 ], [ 106.393333333333331, 13.466666666666672 ], [ 106.395, 13.46583333333334 ], [ 106.398333333333326, 13.4675 ], [ 106.401666666666671, 13.464166666666671 ] ] } },
{ "type": "Feature", "properties": { "COMID": 44038034, "id": "22855", "lengthkm": 5.8127002777004328, "order": 6, "uparea": 30337.722916723818 }, "geometry": { "type": "LineString", "coordinates": [ [ 106.341666666666669, 13.505 ], [ 106.344166666666666, 13.503333333333337 ], [ 106.345833333333331, 13.50416666666667 ], [ 106.355, 13.50083333333334 ], [ 106.359166666666667, 13.50083333333334 ], [ 106.36666666666666, 13.496666666666673 ], [ 106.3675, 13.4975 ], [ 106.370833333333337, 13.494166666666672 ], [ 106.379166666666663, 13.4925 ], [ 106.384166666666658, 13.485833333333339 ] ] } },
{ "type": "Feature", "properties": { "COMID": 44038032, "id": "22855", "lengthkm": 6.5434577942034329, "order": 6, "uparea": 30547.874631251914 }, "geometry": { "type": "LineString", "coordinates": [ [ 106.295833333333334, 13.530833333333337 ], [ 106.299166666666665, 13.52833333333334 ], [ 106.301666666666662, 13.520833333333339 ], [ 106.305833333333325, 13.516666666666673 ], [ 106.32, 13.514166666666672 ], [ 106.325833333333335, 13.51166666666667 ], [ 106.334166666666661, 13.51166666666667 ], [ 106.336666666666659, 13.510833333333338 ], [ 106.341666666666669, 13.505 ] ] } },
{ "type": "Feature", "properties": { "COMID": 44038029, "id": "22855", "lengthkm": 2.4697436087579021, "order": 6, "uparea": 30631.926398699386 }, "geometry": { "type": "LineString", "coordinates": [ [ 106.283333333333331, 13.54666666666667 ], [ 106.289166666666659, 13.540833333333339 ], [ 106.289166666666659, 13.535 ], [ 106.295833333333334, 13.530833333333337 ] ] } },
{ "type": "Feature", "properties": { "COMID": 44038028, "id": "22855", "lengthkm": 18.214258555360878, "order": 6, "uparea": 49568.235081109386 }, "geometry": { "type": "LineString", "coordinates": [ [ 106.143333333333331, 13.561666666666671 ], [ 106.1475, 13.564166666666672 ], [ 106.17, 13.57 ], [ 106.18, 13.581666666666671 ], [ 106.18416666666667, 13.581666666666671 ], [ 106.193333333333328, 13.575833333333339 ], [ 106.1975, 13.575 ], [ 106.21, 13.57416666666667 ], [ 106.220833333333331, 13.575833333333339 ], [ 106.228333333333325, 13.573333333333338 ], [ 106.258333333333326, 13.553333333333338 ], [ 106.2675, 13.549166666666672 ], [ 106.283333333333331, 13.54666666666667 ] ] } },
{ "type": "Feature", "properties": { "COMID": 44038024, "id": "22855", "lengthkm": 4.7869945673042666, "order": 6, "uparea": 49668.251265041625 }, "geometry": { "type": "LineString", "coordinates": [ [ 106.105833333333322, 13.561666666666671 ], [ 106.1075, 13.56333333333334 ], [ 106.114166666666662, 13.56333333333334 ], [ 106.1175, 13.560833333333338 ], [ 106.12, 13.561666666666671 ], [ 106.12166666666667, 13.559166666666673 ], [ 106.125, 13.5625 ], [ 106.12833333333333, 13.5625 ], [ 106.13, 13.560833333333338 ], [ 106.143333333333331, 13.561666666666671 ] ] } },
{ "type": "Feature", "properties": { "COMID": 44038023, "id": "22855", "lengthkm": 5.0050706067004214, "order": 6, "uparea": 49740.804857064963 }, "geometry": { "type": "LineString", "coordinates": [ [ 106.0675, 13.543333333333337 ], [ 106.073333333333323, 13.548333333333339 ], [ 106.095, 13.559166666666673 ], [ 106.105833333333322, 13.561666666666671 ] ] } },
{ "type": "Feature", "properties": { "COMID": 44038021, "id": "22855", "lengthkm": 5.5966527499708736, "order": 6, "uparea": 49817.81026198047 }, "geometry": { "type": "LineString", "coordinates": [ [ 106.023333333333326, 13.554166666666671 ], [ 106.039166666666659, 13.545833333333338 ], [ 106.055, 13.540833333333339 ], [ 106.064166666666665, 13.540833333333339 ], [ 106.0675, 13.543333333333337 ] ] } },
{ "type": "Feature", "properties": { "COMID": 44037971, "id": "22855", "lengthkm": 8.5615938112327186, "order": 6, "uparea": 78732.020376826404 }, "geometry": { "type": "LineString", "coordinates": [ [ 105.955, 13.53916666666667 ], [ 105.964166666666671, 13.53583333333334 ], [ 105.980833333333322, 13.534166666666671 ], [ 105.993333333333325, 13.538333333333338 ], [ 105.998333333333335, 13.5425 ], [ 106.023333333333326, 13.554166666666671 ] ] } },
{ "type": "Feature", "properties": { "COMID": 44037953, "id": "22855", "lengthkm": 2.583551005728872, "order": 7, "uparea": 636985.77554160007 }, "geometry": { "type": "LineString", "coordinates": [ [ 105.936666666666667, 13.5275 ], [ 105.9425, 13.534166666666671 ], [ 105.955, 13.53916666666667 ] ] } },
{ "type": "Feature", "properties": { "COMID": 44037952, "id": "22855", "lengthkm": 3.3480699799657119, "order": 7, "uparea": 637551.33338222909 }, "geometry": { "type": "LineString", "coordinates": [ [ 105.92583333333333, 13.501666666666672 ], [ 105.9275, 13.514166666666672 ], [ 105.93416666666667, 13.521666666666672 ], [ 105.936666666666667, 13.5275 ] ] } },
{ "type": "Feature", "properties": { "COMID": 44037951, "id": "22855", "lengthkm": 7.0523683629704763, "order": 7, "uparea": 638082.72870787384 }, "geometry": { "type": "LineString", "coordinates": [ [ 105.9375, 13.444166666666671 ], [ 105.9375, 13.45 ], [ 105.931666666666658, 13.460833333333337 ], [ 105.92583333333333, 13.480833333333337 ], [ 105.92583333333333, 13.501666666666672 ] ] } },
{ "type": "Feature", "properties": { "COMID": 44037950, "id": "22855", "lengthkm": 2.9628881589546898, "order": 7, "uparea": 638140.71273385023 }, "geometry": { "type": "LineString", "coordinates": [ [ 105.933333333333337, 13.419166666666673 ], [ 105.936666666666667, 13.431666666666672 ], [ 105.9375, 13.444166666666671 ] ] } },
{ "type": "Feature", "properties": { "COMID": 44039774, "id": "22855", "lengthkm": 4.7727344026077034, "order": 7, "uparea": 638264.63766759238 }, "geometry": { "type": "LineString", "coordinates": [ [ 105.9325, 13.3825 ], [ 105.925, 13.401666666666671 ], [ 105.9275, 13.411666666666672 ], [ 105.933333333333337, 13.419166666666673 ] ] } },
{ "type": "Feature", "properties": { "COMID": 44039773, "id": "22855", "lengthkm": 6.672210038725404, "order": 7, "uparea": 638331.75427837751 }, "geometry": { "type": "LineString", "coordinates": [ [ 105.92916666666666, 13.339166666666671 ], [ 105.9325, 13.34 ], [ 105.943333333333328, 13.3525 ], [ 105.943333333333328, 13.355 ], [ 105.94083333333333, 13.3575 ], [ 105.93416666666667, 13.358333333333338 ], [ 105.93, 13.365 ], [ 105.93, 13.375 ], [ 105.9325, 13.37916666666667 ], [ 105.9325, 13.3825 ] ] } },
{ "type": "Feature", "properties": { "COMID": 44039772, "id": "22855", "lengthkm": 5.9777412697085142, "order": 7, "uparea": 638494.33212055825 }, "geometry": { "type": "LineString", "coordinates": [ [ 105.928333333333327, 13.291666666666671 ], [ 105.92583333333333, 13.31333333333334 ], [ 105.920833333333334, 13.319166666666671 ], [ 105.920833333333334, 13.328333333333337 ], [ 105.92916666666666, 13.339166666666671 ] ] } },
{ "type": "Feature", "properties": { "COMID": 44039771, "id": "22855", "lengthkm": 6.4296245377850756, "order": 7, "uparea": 639113.16834218067 }, "geometry": { "type": "LineString", "coordinates": [ [ 105.963333333333324, 13.2525 ], [ 105.9575, 13.25833333333334 ], [ 105.9575, 13.26 ], [ 105.936666666666667, 13.28 ], [ 105.92916666666666, 13.281666666666673 ], [ 105.928333333333327, 13.291666666666671 ] ] } },
{ "type": "Feature", "properties": { "COMID": 44039770, "id": "22855", "lengthkm": 8.258818620673896, "order": 7, "uparea": 639240.75469895452 }, "geometry": { "type": "LineString", "coordinates": [ [ 106.015, 13.221666666666671 ], [ 106.0125, 13.224166666666672 ], [ 106.005833333333328, 13.225 ], [ 106.001666666666665, 13.23 ], [ 105.995, 13.23416666666667 ], [ 105.990833333333327, 13.2325 ], [ 105.989166666666662, 13.23416666666667 ], [ 105.98, 13.231666666666673 ], [ 105.973333333333329, 13.231666666666673 ], [ 105.97, 13.235 ], [ 105.969166666666666, 13.240833333333338 ], [ 105.963333333333324, 13.2525 ] ] } },
{ "type": "Feature", "properties": { "COMID": 44039769, "id": "22855", "lengthkm": 6.4591977451643352, "order": 7, "uparea": 639519.52412222314 }, "geometry": { "type": "LineString", "coordinates": [ [ 106.025, 13.179166666666671 ], [ 106.02, 13.185833333333338 ], [ 106.014166666666668, 13.18833333333334 ], [ 106.014166666666668, 13.19583333333334 ], [ 106.0075, 13.201666666666672 ], [ 106.0075, 13.208333333333339 ], [ 106.01, 13.2125 ], [ 106.01, 13.21583333333334 ], [ 106.015, 13.219166666666673 ], [ 106.015, 13.221666666666671 ] ] } },
{ "type": "Feature", "properties": { "COMID": 44039768, "id": "22855", "lengthkm": 3.89551214223484, "order": 7, "uparea": 639686.40565063769 }, "geometry": { "type": "LineString", "coordinates": [ [ 106.015833333333333, 13.151666666666671 ], [ 106.02, 13.15333333333334 ], [ 106.0225, 13.16416666666667 ], [ 106.0275, 13.17166666666667 ], [ 106.025, 13.179166666666671 ] ] } },
{ "type": "Feature", "properties": { "COMID": 44039767, "id": "22855", "lengthkm": 9.6404352267185693, "order": 7, "uparea": 640426.18005107692 }, "geometry": { "type": "LineString", "coordinates": [ [ 106.0075, 13.076666666666672 ], [ 106.008333333333326, 13.0775 ], [ 106.005, 13.080833333333338 ], [ 106.006666666666661, 13.09083333333334 ], [ 106.005833333333328, 13.096666666666671 ], [ 106.0025, 13.099166666666672 ], [ 106.00333333333333, 13.108333333333338 ], [ 106.000833333333333, 13.115 ], [ 106.000833333333333, 13.120833333333337 ], [ 106.0025, 13.1225 ], [ 106.005, 13.134166666666673 ], [ 106.011666666666656, 13.1425 ], [ 106.015833333333333, 13.151666666666671 ] ] } },
{ "type": "Feature", "properties": { "COMID": 44039766, "id": "22855", "lengthkm": 9.4455768148937072, "order": 7, "uparea": 640496.77977728797 }, "geometry": { "type": "LineString", "coordinates": [ [ 105.973333333333329, 13.01 ], [ 105.975833333333327, 13.015 ], [ 105.974166666666662, 13.019166666666671 ], [ 105.9775, 13.025 ], [ 105.98833333333333, 13.034166666666671 ], [ 106.005, 13.056666666666672 ], [ 106.01, 13.06666666666667 ], [ 106.0075, 13.076666666666672 ] ] } },
{ "type": "Feature", "properties": { "COMID": 44039765, "id": "22855", "lengthkm": 6.4675468217871934, "order": 7, "uparea": 640798.77722031262 }, "geometry": { "type": "LineString", "coordinates": [ [ 105.9875, 12.9625 ], [ 105.99, 12.9775 ], [ 105.986666666666665, 12.98083333333334 ], [ 105.984166666666667, 12.98083333333334 ], [ 105.98, 12.99 ], [ 105.980833333333322, 12.993333333333339 ], [ 105.978333333333325, 12.9975 ], [ 105.9775, 13.005833333333339 ], [ 105.974166666666662, 13.0075 ], [ 105.973333333333329, 13.01 ] ] } },
{ "type": "Feature", "properties": { "COMID": 44039764, "id": "22855", "lengthkm": 11.508104759015081, "order": 7, "uparea": 640898.06793841161 }, "geometry": { "type": "LineString", "coordinates": [ [ 105.945833333333326, 12.876666666666672 ], [ 105.955, 12.89 ], [ 105.960833333333326, 12.90333333333334 ], [ 105.971666666666664, 12.91416666666667 ], [ 105.9775, 12.925833333333337 ], [ 105.985833333333332, 12.936666666666671 ], [ 105.9875, 12.9425 ], [ 105.9875, 12.9625 ] ] } },
{ "type": "Feature", "properties": { "COMID": 44039763, "id": "22855", "lengthkm": 3.903894491935366, "order": 7, "uparea": 640950.52136998496 }, "geometry": { "type": "LineString", "coordinates": [ [ 105.93416666666667, 12.846666666666671 ], [ 105.935, 12.856666666666673 ], [ 105.939166666666665, 12.869166666666672 ], [ 105.945833333333326, 12.876666666666672 ] ] } },
{ "type": "Feature", "properties": { "COMID": 44041371, "id": "22855", "lengthkm": 9.9073192351102133, "order": 7, "uparea": 641374.55556545558 }, "geometry": { "type": "LineString", "coordinates": [ [ 105.945833333333326, 12.774166666666673 ], [ 105.9425, 12.78 ], [ 105.936666666666667, 12.781666666666673 ], [ 105.93416666666667, 12.784166666666671 ], [ 105.9325, 12.78916666666667 ], [ 105.933333333333337, 12.805 ], [ 105.938333333333333, 12.809166666666673 ], [ 105.941666666666663, 12.815 ], [ 105.941666666666663, 12.8225 ], [ 105.93416666666667, 12.830833333333338 ], [ 105.93416666666667, 12.846666666666671 ] ] } },
{ "type": "Feature", "properties": { "COMID": 44041370, "id": "22855", "lengthkm": 1.216211418280952, "order": 7, "uparea": 641806.17016289127 }, "geometry": { "type": "LineString", "coordinates": [ [ 105.954166666666666, 12.7675 ], [ 105.945833333333326, 12.774166666666673 ] ] } },
{ "type": "Feature", "properties": { "COMID": 44041369, "id": "22855", "lengthkm": 3.537607767254328, "order": 7, "uparea": 646382.30820591503 }, "geometry": { "type": "LineString", "coordinates": [ [ 105.973333333333329, 12.746666666666673 ], [ 105.969166666666666, 12.749166666666671 ], [ 105.965, 12.749166666666671 ], [ 105.9625, 12.751666666666672 ], [ 105.954166666666666, 12.7675 ] ] } },
{ "type": "Feature", "properties": { "COMID": 44041368, "id": "22855", "lengthkm": 7.4622228208111681, "order": 7, "uparea": 646437.510342428 }, "geometry": { "type": "LineString", "coordinates": [ [ 105.999166666666667, 12.69583333333334 ], [ 105.993333333333325, 12.696666666666673 ], [ 105.99166666666666, 12.698333333333338 ], [ 105.99, 12.705833333333338 ], [ 105.986666666666665, 12.711666666666673 ], [ 105.99, 12.724166666666672 ], [ 105.9875, 12.73 ], [ 105.980833333333322, 12.735833333333339 ], [ 105.973333333333329, 12.746666666666673 ] ] } },
{ "type": "Feature", "properties": { "COMID": 44041367, "id": "22855", "lengthkm": 4.6077178156201866, "order": 7, "uparea": 646627.78126730688 }, "geometry": { "type": "LineString", "coordinates": [ [ 106.009166666666658, 12.66083333333334 ], [ 106.01, 12.6725 ], [ 106.0025, 12.68 ], [ 106.00333333333333, 12.684166666666673 ], [ 105.999166666666667, 12.69 ], [ 105.999166666666667, 12.69583333333334 ] ] } },
{ "type": "Feature", "properties": { "COMID": 44041366, "id": "22855", "lengthkm": 6.3808392470588444, "order": 7, "uparea": 646775.75605947291 }, "geometry": { "type": "LineString", "coordinates": [ [ 106.015, 12.611666666666672 ], [ 106.013333333333335, 12.620833333333337 ], [ 106.015833333333333, 12.621666666666673 ], [ 106.015833333333333, 12.63 ], [ 106.015, 12.635 ], [ 106.010833333333323, 12.638333333333339 ], [ 106.008333333333326, 12.6475 ], [ 106.008333333333326, 12.650833333333338 ], [ 106.01, 12.6525 ], [ 106.009166666666658, 12.66083333333334 ] ] } },
{ "type": "Feature", "properties": { "COMID": 44041365, "id": "22855", "lengthkm": 1.3328214982114741, "order": 7, "uparea": 647908.40840288217 }, "geometry": { "type": "LineString", "coordinates": [ [ 106.013333333333335, 12.60166666666667 ], [ 106.015, 12.603333333333339 ], [ 106.015, 12.606666666666673 ], [ 106.013333333333335, 12.608333333333338 ], [ 106.015, 12.611666666666672 ] ] } },
{ "type": "Feature", "properties": { "COMID": 44041364, "id": "22855", "lengthkm": 11.570842923750705, "order": 7, "uparea": 648096.66400981671 }, "geometry": { "type": "LineString", "coordinates": [ [ 106.006666666666661, 12.514166666666672 ], [ 105.993333333333325, 12.531666666666673 ], [ 105.995833333333337, 12.54333333333334 ], [ 106.006666666666661, 12.559166666666673 ], [ 106.014166666666668, 12.575 ], [ 106.016666666666666, 12.585 ], [ 106.015833333333333, 12.59 ], [ 106.0125, 12.595833333333339 ], [ 106.013333333333335, 12.60166666666667 ] ] } },
{ "type": "Feature", "properties": { "COMID": 44041363, "id": "22855", "lengthkm": 6.0386574047387596, "order": 7, "uparea": 648148.94085788494 }, "geometry": { "type": "LineString", "coordinates": [ [ 106.0175, 12.464166666666671 ], [ 106.015833333333333, 12.4775 ], [ 106.0125, 12.485833333333339 ], [ 106.0125, 12.5075 ], [ 106.006666666666661, 12.514166666666672 ] ] } },
{ "type": "Feature", "properties": { "COMID": 44041362, "id": "22855", "lengthkm": 2.2038544995270102, "order": 7, "uparea": 648853.42888243613 }, "geometry": { "type": "LineString", "coordinates": [ [ 106.023333333333326, 12.446666666666673 ], [ 106.0175, 12.464166666666671 ] ] } },
{ "type": "Feature", "properties": { "COMID": 44041361, "id": "22855", "lengthkm": 6.1694526719263374, "order": 7, "uparea": 653083.63648448454 }, "geometry": { "type": "LineString", "coordinates": [ [ 106.024166666666659, 12.394166666666671 ], [ 106.024166666666659, 12.404166666666672 ], [ 106.0275, 12.41833333333334 ], [ 106.024166666666659, 12.430833333333339 ], [ 106.023333333333326, 12.446666666666673 ] ] } },
{ "type": "Feature", "properties": { "COMID": 44041360, "id": "22855", "lengthkm": 7.352355896994438, "order": 7, "uparea": 653163.37290180451 }, "geometry": { "type": "LineString", "coordinates": [ [ 106.045833333333334, 12.336666666666673 ], [ 106.043333333333322, 12.34083333333334 ], [ 106.040833333333325, 12.35583333333334 ], [ 106.028333333333336, 12.376666666666672 ], [ 106.024166666666659, 12.394166666666671 ] ] } },
{ "type": "Feature", "properties": { "COMID": 44041359, "id": "22855", "lengthkm": 6.6851841476435974, "order": 7, "uparea": 653224.82392602402 }, "geometry": { "type": "LineString", "coordinates": [ [ 106.0225, 12.28583333333334 ], [ 106.0375, 12.311666666666671 ], [ 106.045833333333334, 12.336666666666673 ] ] } },
{ "type": "Feature", "properties": { "COMID": 44041358, "id": "22855", "lengthkm": 9.1935201241211519, "order": 7, "uparea": 653329.96944927471 }, "geometry": { "type": "LineString", "coordinates": [ [ 105.951666666666668, 12.266666666666673 ], [ 105.9675, 12.265 ], [ 105.975, 12.26166666666667 ], [ 105.9925, 12.26166666666667 ], [ 106.008333333333326, 12.270833333333339 ], [ 106.0225, 12.28583333333334 ] ] } },
{ "type": "Feature", "properties": { "COMID": 44041357, "id": "22855", "lengthkm": 33.68761811582732, "order": 7, "uparea": 653783.82358288323 }, "geometry": { "type": "LineString", "coordinates": [ [ 105.668333333333322, 12.2875 ], [ 105.6725, 12.28583333333334 ], [ 105.68416666666667, 12.28583333333334 ], [ 105.7, 12.281666666666673 ], [ 105.710833333333326, 12.280833333333337 ], [ 105.725833333333327, 12.2675 ], [ 105.743333333333325, 12.2625 ], [ 105.75, 12.2575 ], [ 105.761666666666656, 12.253333333333337 ], [ 105.776666666666671, 12.254166666666674 ], [ 105.798333333333332, 12.260833333333338 ], [ 105.825, 12.260833333333338 ], [ 105.831666666666663, 12.259166666666673 ], [ 105.834166666666661, 12.26 ], [ 105.838333333333324, 12.2575 ], [ 105.86, 12.2575 ], [ 105.8925, 12.26 ], [ 105.898333333333326, 12.2625 ], [ 105.943333333333328, 12.263333333333339 ], [ 105.951666666666668, 12.266666666666673 ] ] } },
{ "type": "Feature", "properties": { "COMID": 44042793, "id": "22855", "lengthkm": 20.237458916282328, "order": 7, "uparea": 654225.06609869457 }, "geometry": { "type": "LineString", "coordinates": [ [ 105.5375, 12.23 ], [ 105.544166666666669, 12.255 ], [ 105.549166666666665, 12.264166666666672 ], [ 105.55916666666667, 12.279166666666672 ], [ 105.566666666666663, 12.286666666666672 ], [ 105.5775, 12.294166666666673 ], [ 105.595, 12.301666666666673 ], [ 105.6125, 12.300833333333337 ], [ 105.625, 12.2975 ], [ 105.645, 12.2875 ], [ 105.650833333333324, 12.29 ], [ 105.659166666666664, 12.29 ], [ 105.668333333333322, 12.2875 ] ] } },
{ "type": "Feature", "properties": { "COMID": 44042792, "id": "22855", "lengthkm": 23.135426857617691, "order": 7, "uparea": 654581.86323657469 }, "geometry": { "type": "LineString", "coordinates": [ [ 105.49, 12.04666666666667 ], [ 105.495833333333337, 12.054166666666671 ], [ 105.500833333333333, 12.066666666666674 ], [ 105.5075, 12.076666666666672 ], [ 105.52, 12.09 ], [ 105.529166666666669, 12.105 ], [ 105.530833333333334, 12.125 ], [ 105.5325, 12.128333333333337 ], [ 105.535, 12.16416666666667 ], [ 105.541666666666657, 12.178333333333338 ], [ 105.538333333333327, 12.20333333333334 ], [ 105.535, 12.209166666666672 ], [ 105.5375, 12.219166666666673 ], [ 105.5375, 12.23 ] ] } },
{ "type": "Feature", "properties": { "COMID": 44042791, "id": "22855", "lengthkm": 8.7960497322341791, "order": 7, "uparea": 654949.48601183575 }, "geometry": { "type": "LineString", "coordinates": [ [ 105.469166666666666, 11.9775 ], [ 105.471666666666664, 11.994166666666672 ], [ 105.470833333333331, 12.01 ], [ 105.479166666666657, 12.02833333333334 ], [ 105.48, 12.034166666666671 ], [ 105.486666666666665, 12.039166666666674 ], [ 105.49, 12.04666666666667 ] ] } },
{ "type": "Feature", "properties": { "COMID": 44042790, "id": "22855", "lengthkm": 6.6333288003118724, "order": 7, "uparea": 655008.22297141701 }, "geometry": { "type": "LineString", "coordinates": [ [ 105.4625, 11.9225 ], [ 105.47, 11.93833333333334 ], [ 105.471666666666664, 11.9475 ], [ 105.471666666666664, 11.9625 ], [ 105.469166666666666, 11.9775 ] ] } },
{ "type": "Feature", "properties": { "COMID": 44042789, "id": "22855", "lengthkm": 20.389431346187674, "order": 7, "uparea": 662719.23706070322 }, "geometry": { "type": "LineString", "coordinates": [ [ 105.306666666666658, 11.934166666666673 ], [ 105.330833333333331, 11.9325 ], [ 105.343333333333334, 11.933333333333337 ], [ 105.353333333333325, 11.931666666666672 ], [ 105.375833333333333, 11.9175 ], [ 105.391666666666666, 11.900833333333338 ], [ 105.396666666666661, 11.8975 ], [ 105.408333333333331, 11.895 ], [ 105.415833333333325, 11.895 ], [ 105.43, 11.898333333333337 ], [ 105.445833333333326, 11.905833333333337 ], [ 105.454166666666666, 11.9125 ], [ 105.4625, 11.9225 ] ] } },
{ "type": "Feature", "properties": { "COMID": 44043941, "id": "22855", "lengthkm": 84.383365843787402, "order": 7, "uparea": 663282.95388426865 }, "geometry": { "type": "LineString", "coordinates": [ [ 104.9475, 11.560833333333338 ], [ 104.941666666666663, 11.595833333333339 ], [ 104.939166666666665, 11.600833333333338 ], [ 104.94, 11.603333333333339 ], [ 104.935, 11.61 ], [ 104.92916666666666, 11.63 ], [ 104.92, 11.648333333333337 ], [ 104.918333333333337, 11.66 ], [ 104.921666666666667, 11.670833333333338 ], [ 104.9325, 11.690833333333337 ], [ 104.961666666666659, 11.714166666666671 ], [ 104.9675, 11.71583333333334 ], [ 105.015, 11.7625 ], [ 105.016666666666666, 11.76583333333334 ], [ 105.018333333333331, 11.7775 ], [ 105.015833333333333, 11.78583333333334 ], [ 105.008333333333326, 11.79333333333334 ], [ 104.99666666666667, 11.80083333333334 ], [ 104.986666666666665, 11.80083333333334 ], [ 104.980833333333337, 11.804166666666671 ], [ 104.979166666666657, 11.81333333333334 ], [ 104.985833333333332, 11.83 ], [ 104.994166666666658, 11.8375 ], [ 105.000833333333333, 11.838333333333338 ], [ 105.005833333333328, 11.835833333333337 ], [ 105.011666666666656, 11.8375 ], [ 105.021666666666661, 11.84833333333334 ], [ 105.028333333333336, 11.85 ], [ 105.039166666666659, 11.849166666666672 ], [ 105.048333333333332, 11.8475 ], [ 105.05, 11.845833333333339 ], [ 105.066666666666663, 11.843333333333337 ], [ 105.088333333333338, 11.845 ], [ 105.098333333333329, 11.8425 ], [ 105.104166666666657, 11.844166666666673 ], [ 105.1325, 11.87 ], [ 105.138333333333335, 11.900833333333338 ], [ 105.145, 11.91083333333334 ], [ 105.170833333333334, 11.933333333333337 ], [ 105.18, 11.943333333333339 ], [ 105.195833333333326, 11.95 ], [ 105.215833333333336, 11.948333333333338 ], [ 105.243333333333325, 11.94 ], [ 105.265, 11.94 ], [ 105.273333333333326, 11.9375 ], [ 105.279166666666669, 11.933333333333337 ], [ 105.285, 11.935 ], [ 105.306666666666658, 11.934166666666673 ] ] } },
{ "type": "Feature", "properties": { "COMID": 44043940, "id": "22855", "lengthkm": 2.6721343464230611, "order": 7, "uparea": 751128.29172518873 }, "geometry": { "type": "LineString", "coordinates": [ [ 104.966666666666669, 11.548333333333339 ], [ 104.953333333333333, 11.555 ], [ 104.9475, 11.560833333333338 ] ] } },
{ "type": "Feature", "properties": { "COMID": 44043939, "id": "22855", "lengthkm": 27.602641817251001, "order": 7, "uparea": 751221.3391168192 }, "geometry": { "type": "LineString", "coordinates": [ [ 105.176666666666662, 11.4575 ], [ 105.1675, 11.463333333333338 ], [ 105.158333333333331, 11.4725 ], [ 105.145833333333329, 11.4775 ], [ 105.135, 11.485 ], [ 105.12166666666667, 11.490833333333338 ], [ 105.111666666666665, 11.5 ], [ 105.1, 11.505833333333339 ], [ 105.085833333333326, 11.518333333333338 ], [ 105.083333333333329, 11.523333333333337 ], [ 105.0775, 11.52833333333334 ], [ 105.061666666666667, 11.533333333333339 ], [ 105.056666666666658, 11.533333333333339 ], [ 105.033333333333331, 11.5425 ], [ 105.016666666666666, 11.54666666666667 ], [ 104.984166666666667, 11.5475 ], [ 104.974166666666662, 11.549166666666672 ], [ 104.966666666666669, 11.548333333333339 ] ] } },
{ "type": "Feature", "properties": { "COMID": 44043938, "id": "22855", "lengthkm": 22.169869394716191, "order": 7, "uparea": 752374.90433129028 }, "geometry": { "type": "LineString", "coordinates": [ [ 105.275, 11.306666666666672 ], [ 105.274166666666659, 11.321666666666673 ], [ 105.264166666666668, 11.35 ], [ 105.261666666666656, 11.3525 ], [ 105.260833333333323, 11.366666666666671 ], [ 105.255, 11.391666666666673 ], [ 105.239166666666662, 11.409166666666671 ], [ 105.229166666666657, 11.415 ], [ 105.210833333333326, 11.435 ], [ 105.195, 11.443333333333339 ], [ 105.176666666666662, 11.4575 ] ] } },
{ "type": "Feature", "properties": { "COMID": 44045069, "id": "22855", "lengthkm": 78.538432929652856, "order": 7, "uparea": 754973.09388872841 }, "geometry": { "type": "LineString", "coordinates": [ [ 105.335833333333326, 10.808333333333337 ], [ 105.325833333333335, 10.818333333333339 ], [ 105.313333333333333, 10.8225 ], [ 105.305, 10.8225 ], [ 105.286666666666662, 10.816666666666674 ], [ 105.283333333333331, 10.810833333333338 ], [ 105.276666666666671, 10.805 ], [ 105.264166666666668, 10.80083333333334 ], [ 105.2425, 10.805 ], [ 105.231666666666669, 10.805 ], [ 105.2275, 10.809166666666673 ], [ 105.2275, 10.811666666666671 ], [ 105.215833333333336, 10.835 ], [ 105.213333333333338, 10.8375 ], [ 105.210833333333326, 10.836666666666673 ], [ 105.203333333333333, 10.84083333333334 ], [ 105.193333333333328, 10.853333333333339 ], [ 105.19083333333333, 10.85916666666667 ], [ 105.19, 10.869166666666672 ], [ 105.1875, 10.871666666666673 ], [ 105.185833333333335, 10.88 ], [ 105.185833333333335, 10.894166666666671 ], [ 105.1875, 10.8975 ], [ 105.188333333333333, 10.9075 ], [ 105.186666666666667, 10.913333333333338 ], [ 105.185833333333335, 10.9475 ], [ 105.183333333333337, 10.964166666666671 ], [ 105.1875, 10.978333333333339 ], [ 105.1875, 11.001666666666672 ], [ 105.19083333333333, 11.020833333333339 ], [ 105.194166666666661, 11.025 ], [ 105.1975, 11.03583333333334 ], [ 105.1975, 11.041666666666671 ], [ 105.195, 11.045833333333338 ], [ 105.1925, 11.083333333333339 ], [ 105.195, 11.088333333333338 ], [ 105.203333333333333, 11.096666666666671 ], [ 105.21, 11.1 ], [ 105.213333333333338, 11.10583333333334 ], [ 105.234166666666667, 11.13 ], [ 105.236666666666665, 11.139166666666672 ], [ 105.235833333333332, 11.143333333333338 ], [ 105.24166666666666, 11.154166666666672 ], [ 105.23833333333333, 11.159166666666671 ], [ 105.235, 11.170833333333338 ], [ 105.235, 11.178333333333338 ], [ 105.250833333333333, 11.194166666666671 ], [ 105.255833333333328, 11.19583333333334 ], [ 105.259166666666658, 11.199166666666674 ], [ 105.268333333333331, 11.21583333333334 ], [ 105.271666666666661, 11.228333333333339 ], [ 105.279166666666669, 11.245833333333337 ], [ 105.280833333333334, 11.255 ], [ 105.28, 11.2775 ], [ 105.275, 11.29666666666667 ], [ 105.275, 11.306666666666672 ] ] } },
{ "type": "Feature", "properties": { "COMID": 44045068, "id": "22855", "lengthkm": 3.6899238053673629, "order": 7, "uparea": 755590.39581178268 }, "geometry": { "type": "LineString", "coordinates": [ [ 105.345833333333331, 10.779166666666672 ], [ 105.3375, 10.8 ], [ 105.335833333333326, 10.808333333333337 ] ] } },
{ "type": "Feature", "properties": { "COMID": 44045067, "id": "22855", "lengthkm": 8.1031903767886284, "order": 7, "uparea": 755633.45288342342 }, "geometry": { "type": "LineString", "coordinates": [ [ 105.350833333333327, 10.715 ], [ 105.355, 10.725 ], [ 105.359166666666667, 10.729166666666671 ], [ 105.359166666666667, 10.73416666666667 ], [ 105.355833333333322, 10.745 ], [ 105.355833333333322, 10.755833333333339 ], [ 105.351666666666659, 10.770833333333339 ], [ 105.345833333333331, 10.779166666666672 ] ] } },
{ "type": "Feature", "properties": { "COMID": 44045066, "id": "22855", "lengthkm": 17.48573855067545, "order": 7, "uparea": 755704.6604524802 }, "geometry": { "type": "LineString", "coordinates": [ [ 105.36666666666666, 10.574166666666674 ], [ 105.365833333333327, 10.583333333333339 ], [ 105.349166666666662, 10.6175 ], [ 105.34, 10.645833333333339 ], [ 105.338333333333338, 10.67583333333334 ], [ 105.345833333333331, 10.690833333333337 ], [ 105.350833333333327, 10.715 ] ] } },
{ "type": "Feature", "properties": { "COMID": 44045065, "id": "22855", "lengthkm": 6.0505441600601344, "order": 7, "uparea": 755739.88482001564 }, "geometry": { "type": "LineString", "coordinates": [ [ 105.3275, 10.540833333333339 ], [ 105.334166666666661, 10.548333333333339 ], [ 105.351666666666659, 10.556666666666672 ], [ 105.36666666666666, 10.574166666666674 ] ] } },
{ "type": "Feature", "properties": { "COMID": 44045924, "id": "22855", "lengthkm": 23.262980328980063, "order": 7, "uparea": 768296.12213371927 }, "geometry": { "type": "LineString", "coordinates": [ [ 105.445, 10.386666666666674 ], [ 105.431666666666658, 10.398333333333341 ], [ 105.414166666666659, 10.4175 ], [ 105.4075, 10.439166666666672 ], [ 105.385, 10.451666666666672 ], [ 105.361666666666665, 10.476666666666674 ], [ 105.346666666666664, 10.49 ], [ 105.33, 10.525833333333338 ], [ 105.3275, 10.540833333333339 ] ] } },
{ "type": "Feature", "properties": { "COMID": 44045923, "id": "22855", "lengthkm": 0.84564859880892596, "order": 7, "uparea": 770011.15033644927 }, "geometry": { "type": "LineString", "coordinates": [ [ 105.451666666666668, 10.384166666666673 ], [ 105.445, 10.386666666666674 ] ] } },
{ "type": "Feature", "properties": { "COMID": 44045922, "id": "22855", "lengthkm": 7.2556288478156619, "order": 7, "uparea": 770287.79144258949 }, "geometry": { "type": "LineString", "coordinates": [ [ 105.48833333333333, 10.334166666666672 ], [ 105.474166666666662, 10.3475 ], [ 105.4625, 10.3625 ], [ 105.456666666666663, 10.3725 ], [ 105.455, 10.38 ], [ 105.451666666666668, 10.384166666666673 ] ] } },
{ "type": "Feature", "properties": { "COMID": 44045921, "id": "22855", "lengthkm": 1.0025688598509439, "order": 7, "uparea": 770557.26773444971 }, "geometry": { "type": "LineString", "coordinates": [ [ 105.494166666666658, 10.3275 ], [ 105.48833333333333, 10.334166666666672 ] ] } },
{ "type": "Feature", "properties": { "COMID": 44045920, "id": "22855", "lengthkm": 22.999195181191958, "order": 7, "uparea": 770975.52559636952 }, "geometry": { "type": "LineString", "coordinates": [ [ 105.625, 10.186666666666671 ], [ 105.624166666666667, 10.1925 ], [ 105.615, 10.2175 ], [ 105.600833333333327, 10.23833333333334 ], [ 105.57, 10.268333333333338 ], [ 105.564166666666665, 10.27 ], [ 105.55916666666667, 10.275 ], [ 105.558333333333337, 10.27833333333334 ], [ 105.548333333333332, 10.2875 ], [ 105.525, 10.3025 ], [ 105.5175, 10.305833333333339 ], [ 105.515833333333333, 10.305 ], [ 105.494166666666658, 10.3275 ] ] } },
{ "type": "Feature", "properties": { "COMID": 44045919, "id": "22855", "lengthkm": 5.7164777464332648, "order": 7, "uparea": 771033.49665386393 }, "geometry": { "type": "LineString", "coordinates": [ [ 105.659166666666664, 10.15 ], [ 105.650833333333324, 10.158333333333339 ], [ 105.65, 10.1625 ], [ 105.625, 10.186666666666671 ] ] } },
{ "type": "Feature", "properties": { "COMID": 44045918, "id": "22855", "lengthkm": 15.015373103071788, "order": 7, "uparea": 772579.76282141218 }, "geometry": { "type": "LineString", "coordinates": [ [ 105.765, 10.0775 ], [ 105.7525, 10.09 ], [ 105.740833333333327, 10.095833333333339 ], [ 105.735, 10.095833333333339 ], [ 105.710833333333326, 10.116666666666671 ], [ 105.694166666666661, 10.12583333333334 ], [ 105.659166666666664, 10.15 ] ] } },
{ "type": "Feature", "properties": { "COMID": 44045917, "id": "22855", "lengthkm": 5.2380466363319433, "order": 7, "uparea": 772650.606293933 }, "geometry": { "type": "LineString", "coordinates": [ [ 105.798333333333332, 10.049166666666672 ], [ 105.793333333333322, 10.058333333333341 ], [ 105.784166666666664, 10.0675 ], [ 105.775833333333324, 10.073333333333338 ], [ 105.765, 10.0775 ] ] } },
{ "type": "Feature", "properties": { "COMID": 44045916, "id": "22855", "lengthkm": 0.57545517070872898, "order": 7, "uparea": 772739.76413985551 }, "geometry": { "type": "LineString", "coordinates": [ [ 105.80083333333333, 10.045 ], [ 105.798333333333332, 10.049166666666672 ] ] } },
{ "type": "Feature", "properties": { "COMID": 44045915, "id": "22855", "lengthkm": 17.013743803694048, "order": 7, "uparea": 773817.92850895261 }, "geometry": { "type": "LineString", "coordinates": [ [ 105.898333333333326, 9.936666666666671 ], [ 105.8775, 9.950833333333339 ], [ 105.846666666666664, 9.98 ], [ 105.819166666666661, 10.013333333333339 ], [ 105.8175, 10.016666666666673 ], [ 105.8175, 10.0225 ], [ 105.814166666666665, 10.03 ], [ 105.808333333333337, 10.038333333333338 ], [ 105.80083333333333, 10.045 ] ] } },
{ "type": "Feature", "properties": { "COMID": 44046400, "id": "22855", "lengthkm": 9.2908474740990226, "order": 7, "uparea": 774697.65067198128 }, "geometry": { "type": "LineString", "coordinates": [ [ 105.955, 9.880833333333339 ], [ 105.953333333333333, 9.885 ], [ 105.925, 9.91 ], [ 105.911666666666662, 9.925 ], [ 105.91, 9.93 ], [ 105.898333333333326, 9.936666666666671 ] ] } },
{ "type": "Feature", "properties": { "COMID": 44046399, "id": "22855", "lengthkm": 10.815765808967447, "order": 7, "uparea": 774772.97603668948 }, "geometry": { "type": "LineString", "coordinates": [ [ 106.025833333333338, 9.8175 ], [ 106.0175, 9.819166666666671 ], [ 106.014166666666668, 9.821666666666673 ], [ 105.955, 9.880833333333339 ] ] } },
{ "type": "Feature", "properties": { "COMID": 44046398, "id": "22855", "lengthkm": 2.955705689749085, "order": 7, "uparea": 775050.41322420561 }, "geometry": { "type": "LineString", "coordinates": [ [ 106.0475, 9.808333333333341 ], [ 106.034166666666664, 9.816666666666674 ], [ 106.025833333333338, 9.8175 ] ] } },
{ "type": "Feature", "properties": { "COMID": 44046397, "id": "22855", "lengthkm": 4.957685663430401, "order": 7, "uparea": 775140.78874230909 }, "geometry": { "type": "LineString", "coordinates": [ [ 106.069166666666661, 9.7725 ], [ 106.066666666666663, 9.7825 ], [ 106.0475, 9.808333333333341 ] ] } },
{ "type": "Feature", "properties": { "COMID": 44046396, "id": "22855", "lengthkm": 3.5701866387717152, "order": 7, "uparea": 775611.55126566498 }, "geometry": { "type": "LineString", "coordinates": [ [ 106.0975, 9.7625 ], [ 106.0775, 9.7725 ], [ 106.069166666666661, 9.7725 ] ] } },
{ "type": "Feature", "properties": { "COMID": 44046395, "id": "22855", "lengthkm": 2.355571900216527, "order": 7, "uparea": 775719.66045150871 }, "geometry": { "type": "LineString", "coordinates": [ [ 106.11333333333333, 9.749166666666671 ], [ 106.0975, 9.7625 ] ] } },
{ "type": "Feature", "properties": { "COMID": 44046394, "id": "22855", "lengthkm": 11.851812812818313, "order": 7, "uparea": 775833.02004996059 }, "geometry": { "type": "LineString", "coordinates": [ [ 106.185833333333335, 9.673333333333339 ], [ 106.161666666666662, 9.696666666666673 ], [ 106.15, 9.710833333333341 ], [ 106.12833333333333, 9.73083333333334 ], [ 106.11333333333333, 9.749166666666671 ] ] } },
{ "type": "Feature", "properties": { "COMID": 44046393, "id": "22855", "lengthkm": 4.0862544170249508, "order": 7, "uparea": 775876.22938334767 }, "geometry": { "type": "LineString", "coordinates": [ [ 106.2125, 9.648333333333341 ], [ 106.185833333333335, 9.673333333333339 ] ] } },
{ "type": "Feature", "properties": { "COMID": 44046392, "id": "22855", "lengthkm": 5.622978429100705, "order": 7, "uparea": 775976.91826970724 }, "geometry": { "type": "LineString", "coordinates": [ [ 106.25, 9.615833333333338 ], [ 106.2125, 9.648333333333341 ] ] } },
{ "type": "Feature", "properties": { "COMID": 44046391, "id": "22855", "lengthkm": 3.9342543909143042, "order": 7, "uparea": 776027.11519115441 }, "geometry": { "type": "LineString", "coordinates": [ [ 106.279166666666669, 9.6 ], [ 106.264166666666668, 9.606666666666673 ], [ 106.25, 9.615833333333338 ] ] } },
{ "type": "Feature", "properties": { "COMID": 44046390, "id": "22855", "lengthkm": 3.3861689994837838, "order": 7, "uparea": 776128.1625807212 }, "geometry": { "type": "LineString", "coordinates": [ [ 106.303333333333327, 9.584166666666672 ], [ 106.279166666666669, 9.6 ] ] } }
]
}
