{
"type": "FeatureCollection",
"name": "downstream_82176",
"crs": { "type": "name", "properties": { "name": "urn:ogc:def:crs:OGC:1.3:CRS84" } },
"features": [
{ "type": "Feature", "properties": { "COMID": 44040464, "id": "40309", "lengthkm": 13.141564714563186, "order": 2, "uparea": 209.77467342392305 }, "geometry": { "type": "LineString", "coordinates": [ [ 102.375833333333333, 13.030833333333337 ], [ 102.37, 13.029166666666672 ], [ 102.36666666666666, 13.034166666666671 ], [ 102.36333333333333, 13.034166666666671 ], [ 102.361666666666665, 13.0325 ], [ 102.36, 13.033333333333339 ], [ 102.353333333333325, 13.0275 ], [ 102.345833333333331, 13.033333333333339 ], [ 102.34, 13.024166666666673 ], [ 102.336666666666659, 13.02833333333334 ], [ 102.331666666666663, 13.0275 ], [ 102.328333333333333, 13.03 ], [ 102.325, 13.0275 ], [ 102.321666666666658, 13.029166666666672 ], [ 102.316666666666663, 13.0275 ], [ 102.314166666666665, 13.029166666666672 ], [ 102.311666666666667, 13.0275 ], [ 102.3075, 13.029166666666672 ], [ 102.30416666666666, 13.025 ], [ 102.306666666666672, 13.021666666666672 ], [ 102.296666666666667, 13.01166666666667 ] ] } },
{ "type": "Feature", "properties": { "COMID": 44040378, "id": "40309", "lengthkm": 0.90021281317527801, "order": 2, "uparea": 235.9958243791819 }, "geometry": { "type": "LineString", "coordinates": [ [ 102.375, 13.03583333333334 ], [ 102.375, 13.033333333333339 ], [ 102.3775, 13.0325 ], [ 102.375833333333333, 13.030833333333337 ] ] } },
{ "type": "Feature", "properties": { "COMID": 44040374, "id": "40309", "lengthkm": 5.1027654966081837, "order": 2, "uparea": 365.5093201062092 }, "geometry": { "type": "LineString", "coordinates": [ [ 102.404166666666669, 13.045 ], [ 102.405833333333334, 13.041666666666671 ], [ 102.399166666666659, 13.036666666666672 ], [ 102.3925, 13.038333333333338 ], [ 102.388333333333335, 13.034166666666671 ], [ 102.385833333333323, 13.0375 ], [ 102.384166666666658, 13.03583333333334 ], [ 102.37833333333333, 13.03583333333334 ], [ 102.376666666666665, 13.0375 ], [ 102.375, 13.03583333333334 ] ] } },
{ "type": "Feature", "properties": { "COMID": 44040348, "id": "40309", "lengthkm": 6.8620841059707773, "order": 2, "uparea": 454.54511221428146 }, "geometry": { "type": "LineString", "coordinates": [ [ 102.445833333333326, 13.030833333333337 ], [ 102.436666666666667, 13.0375 ], [ 102.431666666666672, 13.034166666666671 ], [ 102.42583333333333, 13.03916666666667 ], [ 102.42583333333333, 13.04333333333334 ], [ 102.423333333333332, 13.04666666666667 ], [ 102.420833333333334, 13.044166666666673 ], [ 102.418333333333337, 13.045 ], [ 102.414166666666659, 13.04333333333334 ], [ 102.408333333333331, 13.048333333333339 ], [ 102.404166666666669, 13.045 ] ] } },
{ "type": "Feature", "properties": { "COMID": 44040322, "id": "40309", "lengthkm": 20.973113663362671, "order": 2, "uparea": 559.14608969448682 }, "geometry": { "type": "LineString", "coordinates": [ [ 102.573333333333323, 13.06333333333334 ], [ 102.57, 13.06333333333334 ], [ 102.568333333333328, 13.061666666666671 ], [ 102.570833333333326, 13.059166666666673 ], [ 102.5675, 13.056666666666672 ], [ 102.56583333333333, 13.058333333333337 ], [ 102.560833333333335, 13.0575 ], [ 102.56, 13.06 ], [ 102.5575, 13.06 ], [ 102.555, 13.055833333333339 ], [ 102.55083333333333, 13.0575 ], [ 102.55, 13.06 ], [ 102.546666666666667, 13.058333333333337 ], [ 102.5425, 13.06 ], [ 102.539166666666659, 13.058333333333337 ], [ 102.533333333333331, 13.06 ], [ 102.528333333333336, 13.055833333333339 ], [ 102.5225, 13.055 ], [ 102.520833333333329, 13.056666666666672 ], [ 102.519166666666663, 13.055 ], [ 102.514166666666668, 13.055833333333339 ], [ 102.514166666666668, 13.054166666666671 ], [ 102.510833333333323, 13.055833333333339 ], [ 102.50333333333333, 13.051666666666673 ], [ 102.5, 13.053333333333338 ], [ 102.49666666666667, 13.049166666666672 ], [ 102.493333333333325, 13.05 ], [ 102.493333333333325, 13.048333333333339 ], [ 102.490833333333327, 13.048333333333339 ], [ 102.48833333333333, 13.045 ], [ 102.483333333333334, 13.048333333333339 ], [ 102.481666666666669, 13.04666666666667 ], [ 102.481666666666669, 13.04333333333334 ], [ 102.4775, 13.04333333333334 ], [ 102.475833333333327, 13.04 ], [ 102.4725, 13.0425 ], [ 102.468333333333334, 13.038333333333338 ], [ 102.4625, 13.038333333333338 ], [ 102.46, 13.03 ], [ 102.456666666666663, 13.03 ], [ 102.4525, 13.033333333333339 ], [ 102.4475, 13.03 ], [ 102.445833333333326, 13.030833333333337 ] ] } },
{ "type": "Feature", "properties": { "COMID": 44040086, "id": "40309", "lengthkm": 9.5691068683996185, "order": 3, "uparea": 1267.6801034835962 }, "geometry": { "type": "LineString", "coordinates": [ [ 102.605, 13.100833333333338 ], [ 102.6025, 13.099166666666672 ], [ 102.603333333333325, 13.095833333333339 ], [ 102.601666666666659, 13.094166666666673 ], [ 102.5975, 13.094166666666673 ], [ 102.601666666666659, 13.09 ], [ 102.600833333333327, 13.0875 ], [ 102.599166666666662, 13.085833333333337 ], [ 102.595833333333331, 13.0875 ], [ 102.5875, 13.086666666666673 ], [ 102.585833333333326, 13.085 ], [ 102.586666666666659, 13.081666666666671 ], [ 102.5925, 13.084166666666672 ], [ 102.593333333333334, 13.081666666666671 ], [ 102.586666666666659, 13.07416666666667 ], [ 102.58, 13.07416666666667 ], [ 102.578333333333333, 13.0725 ], [ 102.5775, 13.065 ], [ 102.573333333333323, 13.06333333333334 ] ] } },
{ "type": "Feature", "properties": { "COMID": 44040082, "id": "40309", "lengthkm": 5.7404171391692582, "order": 4, "uparea": 1822.7838063802467 }, "geometry": { "type": "LineString", "coordinates": [ [ 102.635833333333323, 13.115 ], [ 102.633333333333326, 13.113333333333337 ], [ 102.635, 13.110833333333339 ], [ 102.634166666666658, 13.105 ], [ 102.624166666666667, 13.104166666666671 ], [ 102.62166666666667, 13.100833333333338 ], [ 102.614166666666662, 13.1025 ], [ 102.61333333333333, 13.09833333333334 ], [ 102.61, 13.096666666666671 ], [ 102.605, 13.100833333333338 ] ] } },
{ "type": "Feature", "properties": { "COMID": 44040077, "id": "40309", "lengthkm": 6.479639767653298, "order": 4, "uparea": 1928.5797043531068 }, "geometry": { "type": "LineString", "coordinates": [ [ 102.674166666666665, 13.11 ], [ 102.674166666666665, 13.111666666666672 ], [ 102.668333333333337, 13.110833333333339 ], [ 102.67, 13.113333333333337 ], [ 102.665833333333325, 13.115833333333338 ], [ 102.663333333333327, 13.113333333333337 ], [ 102.6575, 13.115 ], [ 102.654166666666669, 13.113333333333337 ], [ 102.651666666666671, 13.116666666666671 ], [ 102.649166666666659, 13.116666666666671 ], [ 102.645, 13.111666666666672 ], [ 102.643333333333331, 13.111666666666672 ], [ 102.6425, 13.115 ], [ 102.635833333333323, 13.115 ] ] } },
{ "type": "Feature", "properties": { "COMID": 44040073, "id": "40309", "lengthkm": 5.7553891839458524, "order": 4, "uparea": 2289.3093708797692 }, "geometry": { "type": "LineString", "coordinates": [ [ 102.705, 13.096666666666671 ], [ 102.705833333333331, 13.103333333333339 ], [ 102.703333333333333, 13.106666666666673 ], [ 102.696666666666658, 13.10166666666667 ], [ 102.69, 13.104166666666671 ], [ 102.686666666666667, 13.10166666666667 ], [ 102.685, 13.106666666666673 ], [ 102.68, 13.110833333333339 ], [ 102.674166666666665, 13.11 ] ] } },
{ "type": "Feature", "properties": { "COMID": 44040072, "id": "40309", "lengthkm": 4.9306539192573586, "order": 4, "uparea": 2453.8905895545763 }, "geometry": { "type": "LineString", "coordinates": [ [ 102.734166666666667, 13.094166666666673 ], [ 102.731666666666669, 13.093333333333337 ], [ 102.720833333333331, 13.09833333333334 ], [ 102.718333333333334, 13.0975 ], [ 102.714166666666671, 13.0925 ], [ 102.711666666666659, 13.0925 ], [ 102.711666666666659, 13.09833333333334 ], [ 102.705, 13.095 ], [ 102.705, 13.096666666666671 ] ] } },
{ "type": "Feature", "properties": { "COMID": 44040070, "id": "40309", "lengthkm": 111.02043860158059, "order": 4, "uparea": 2884.1083228450543 }, "geometry": { "type": "LineString", "coordinates": [ [ 103.08, 13.3775 ], [ 103.0775, 13.3775 ], [ 103.075833333333335, 13.374166666666671 ], [ 103.0725, 13.3725 ], [ 103.069166666666661, 13.376666666666672 ], [ 103.065, 13.376666666666672 ], [ 103.064166666666665, 13.37916666666667 ], [ 103.055833333333325, 13.378333333333337 ], [ 103.053333333333327, 13.3825 ], [ 103.048333333333332, 13.381666666666671 ], [ 103.048333333333332, 13.375 ], [ 103.031666666666666, 13.368333333333339 ], [ 103.028333333333336, 13.360833333333339 ], [ 103.026666666666671, 13.35916666666667 ], [ 103.024166666666659, 13.36 ], [ 103.0225, 13.358333333333338 ], [ 103.024166666666659, 13.356666666666673 ], [ 103.021666666666661, 13.353333333333339 ], [ 103.015, 13.34833333333334 ], [ 103.015, 13.345 ], [ 103.013333333333335, 13.345 ], [ 103.0075, 13.339166666666671 ], [ 103.005, 13.341666666666672 ], [ 103.0025, 13.34 ], [ 103.001666666666665, 13.364166666666673 ], [ 103.0, 13.365 ], [ 103.001666666666665, 13.369166666666672 ], [ 103.004166666666663, 13.370833333333337 ], [ 103.0025, 13.373333333333338 ], [ 103.0025, 13.378333333333337 ], [ 103.009166666666658, 13.38333333333334 ], [ 103.01166666666667, 13.390833333333337 ], [ 103.006666666666661, 13.3925 ], [ 103.006666666666661, 13.394166666666671 ], [ 103.00333333333333, 13.396666666666672 ], [ 103.0025, 13.401666666666671 ], [ 103.000833333333333, 13.400833333333338 ], [ 103.0, 13.393333333333338 ], [ 102.99666666666667, 13.390833333333337 ], [ 102.9925, 13.390833333333337 ], [ 102.9925, 13.3875 ], [ 102.990833333333327, 13.38666666666667 ], [ 102.98833333333333, 13.38666666666667 ], [ 102.985, 13.39 ], [ 102.9825, 13.389166666666672 ], [ 102.98, 13.391666666666673 ], [ 102.98, 13.395 ], [ 102.9775, 13.395833333333339 ], [ 102.971666666666664, 13.38666666666667 ], [ 102.973333333333329, 13.381666666666671 ], [ 102.97, 13.381666666666671 ], [ 102.968333333333334, 13.38333333333334 ], [ 102.968333333333334, 13.381666666666671 ], [ 102.965, 13.380833333333339 ], [ 102.965833333333336, 13.37916666666667 ], [ 102.963333333333338, 13.37583333333334 ], [ 102.965833333333336, 13.373333333333338 ], [ 102.965, 13.37 ], [ 102.966666666666669, 13.368333333333339 ], [ 102.959166666666661, 13.365 ], [ 102.961666666666659, 13.3625 ], [ 102.960833333333326, 13.360833333333339 ], [ 102.954166666666666, 13.360833333333339 ], [ 102.945, 13.35 ], [ 102.94083333333333, 13.34833333333334 ], [ 102.944166666666661, 13.346666666666671 ], [ 102.944166666666661, 13.345 ], [ 102.9375, 13.344166666666673 ], [ 102.93416666666667, 13.34083333333334 ], [ 102.935, 13.3375 ], [ 102.9325, 13.333333333333339 ], [ 102.935, 13.329166666666673 ], [ 102.936666666666667, 13.33 ], [ 102.9425, 13.328333333333337 ], [ 102.941666666666663, 13.326666666666672 ], [ 102.939166666666665, 13.326666666666672 ], [ 102.94, 13.32416666666667 ], [ 102.939166666666665, 13.325 ], [ 102.9375, 13.321666666666673 ], [ 102.935, 13.3225 ], [ 102.933333333333337, 13.32083333333334 ], [ 102.93416666666667, 13.32 ], [ 102.925, 13.315833333333337 ], [ 102.9175, 13.3075 ], [ 102.914166666666659, 13.3075 ], [ 102.913333333333327, 13.309166666666673 ], [ 102.9125, 13.3075 ], [ 102.905833333333334, 13.308333333333337 ], [ 102.9025, 13.3075 ], [ 102.899166666666659, 13.303333333333338 ], [ 102.893333333333331, 13.305 ], [ 102.891666666666666, 13.304166666666671 ], [ 102.881666666666661, 13.275 ], [ 102.88, 13.2625 ], [ 102.880833333333328, 13.25833333333334 ], [ 102.876666666666665, 13.259166666666673 ], [ 102.8725, 13.255833333333339 ], [ 102.868333333333325, 13.2575 ], [ 102.8675, 13.256666666666671 ], [ 102.87, 13.2525 ], [ 102.86666666666666, 13.25 ], [ 102.86666666666666, 13.2475 ], [ 102.864166666666662, 13.248333333333338 ], [ 102.865, 13.245833333333337 ], [ 102.8625, 13.244166666666672 ], [ 102.86333333333333, 13.2425 ], [ 102.8675, 13.243333333333339 ], [ 102.87, 13.240833333333338 ], [ 102.8675, 13.239166666666673 ], [ 102.86666666666666, 13.2375 ], [ 102.87, 13.2375 ], [ 102.870833333333337, 13.236666666666672 ], [ 102.869166666666672, 13.23416666666667 ], [ 102.8725, 13.23416666666667 ], [ 102.874166666666667, 13.231666666666673 ], [ 102.8725, 13.23 ], [ 102.86666666666666, 13.23 ], [ 102.864166666666662, 13.228333333333339 ], [ 102.86333333333333, 13.2325 ], [ 102.861666666666665, 13.23083333333334 ], [ 102.855833333333337, 13.231666666666673 ], [ 102.85, 13.22666666666667 ], [ 102.849166666666662, 13.228333333333339 ], [ 102.848333333333329, 13.224166666666672 ], [ 102.8525, 13.221666666666671 ], [ 102.85, 13.2125 ], [ 102.848333333333329, 13.215 ], [ 102.845833333333331, 13.2125 ], [ 102.845833333333331, 13.210833333333337 ], [ 102.849166666666662, 13.208333333333339 ], [ 102.846666666666664, 13.208333333333339 ], [ 102.84, 13.201666666666672 ], [ 102.8375, 13.203333333333337 ], [ 102.833333333333329, 13.201666666666672 ], [ 102.835, 13.1975 ], [ 102.8325, 13.196666666666673 ], [ 102.830833333333331, 13.193333333333339 ], [ 102.8275, 13.194166666666671 ], [ 102.825833333333335, 13.18833333333334 ], [ 102.823333333333323, 13.186666666666671 ], [ 102.826666666666668, 13.180833333333339 ], [ 102.820833333333326, 13.180833333333339 ], [ 102.818333333333328, 13.175833333333337 ], [ 102.819166666666661, 13.1725 ], [ 102.814166666666665, 13.1725 ], [ 102.814166666666665, 13.169166666666673 ], [ 102.816666666666663, 13.169166666666673 ], [ 102.82, 13.165 ], [ 102.821666666666658, 13.165833333333339 ], [ 102.8225, 13.161666666666672 ], [ 102.825833333333335, 13.16 ], [ 102.825833333333335, 13.158333333333339 ], [ 102.820833333333326, 13.1575 ], [ 102.81583333333333, 13.159166666666671 ], [ 102.816666666666663, 13.156666666666673 ], [ 102.819166666666661, 13.156666666666673 ], [ 102.82, 13.15333333333334 ], [ 102.818333333333328, 13.151666666666671 ], [ 102.81583333333333, 13.1525 ], [ 102.8125, 13.149166666666673 ], [ 102.814166666666665, 13.145833333333339 ], [ 102.813333333333333, 13.144166666666671 ], [ 102.805, 13.15 ], [ 102.803333333333327, 13.145 ], [ 102.7975, 13.141666666666673 ], [ 102.8, 13.135833333333338 ], [ 102.796666666666667, 13.13666666666667 ], [ 102.793333333333337, 13.134166666666673 ], [ 102.788333333333327, 13.134166666666673 ], [ 102.7875, 13.13333333333334 ], [ 102.79, 13.131666666666671 ], [ 102.788333333333327, 13.1225 ], [ 102.786666666666662, 13.12583333333334 ], [ 102.7825, 13.1275 ], [ 102.779166666666669, 13.131666666666671 ], [ 102.783333333333331, 13.13333333333334 ], [ 102.781666666666666, 13.13666666666667 ], [ 102.778333333333336, 13.13666666666667 ], [ 102.775833333333338, 13.13333333333334 ], [ 102.774166666666659, 13.134166666666673 ], [ 102.77, 13.12916666666667 ], [ 102.771666666666661, 13.126666666666672 ], [ 102.774166666666659, 13.126666666666672 ], [ 102.774166666666659, 13.121666666666673 ], [ 102.77, 13.119166666666672 ], [ 102.77, 13.116666666666671 ], [ 102.765833333333333, 13.1175 ], [ 102.763333333333335, 13.121666666666673 ], [ 102.76, 13.1225 ], [ 102.7575, 13.118333333333339 ], [ 102.7575, 13.114166666666673 ], [ 102.755, 13.111666666666672 ], [ 102.7525, 13.113333333333337 ], [ 102.74666666666667, 13.113333333333337 ], [ 102.745833333333337, 13.11 ], [ 102.7425, 13.108333333333338 ], [ 102.7425, 13.106666666666673 ], [ 102.745, 13.105 ], [ 102.744166666666672, 13.1 ], [ 102.734166666666667, 13.105 ], [ 102.731666666666669, 13.103333333333339 ], [ 102.730833333333337, 13.1 ], [ 102.735, 13.1 ], [ 102.736666666666665, 13.09833333333334 ], [ 102.734166666666667, 13.094166666666673 ] ] } },
{ "type": "Feature", "properties": { "COMID": 44040065, "id": "40309", "lengthkm": 13.263368211774154, "order": 4, "uparea": 2930.7252553983612 }, "geometry": { "type": "LineString", "coordinates": [ [ 103.1425, 13.358333333333338 ], [ 103.139166666666668, 13.3625 ], [ 103.1375, 13.361666666666672 ], [ 103.135, 13.363333333333337 ], [ 103.130833333333328, 13.36 ], [ 103.13, 13.365 ], [ 103.131666666666661, 13.365833333333338 ], [ 103.129166666666663, 13.368333333333339 ], [ 103.1275, 13.3675 ], [ 103.125833333333333, 13.369166666666672 ], [ 103.12, 13.366666666666671 ], [ 103.119166666666672, 13.3675 ], [ 103.120833333333337, 13.369166666666672 ], [ 103.118333333333325, 13.370833333333337 ], [ 103.119166666666672, 13.371666666666673 ], [ 103.1175, 13.374166666666671 ], [ 103.115, 13.371666666666673 ], [ 103.1125, 13.374166666666671 ], [ 103.11, 13.3725 ], [ 103.108333333333334, 13.374166666666671 ], [ 103.1075, 13.373333333333338 ], [ 103.1025, 13.384166666666673 ], [ 103.1, 13.3825 ], [ 103.095833333333331, 13.3825 ], [ 103.090833333333336, 13.388333333333339 ], [ 103.085, 13.384166666666673 ], [ 103.085833333333326, 13.3825 ], [ 103.081666666666663, 13.376666666666672 ], [ 103.08, 13.3775 ] ] } },
{ "type": "Feature", "properties": { "COMID": 44040064, "id": "40309", "lengthkm": 1.5113446709958009, "order": 4, "uparea": 2963.2431831511503 }, "geometry": { "type": "LineString", "coordinates": [ [ 103.154166666666669, 13.35916666666667 ], [ 103.1475, 13.360833333333339 ], [ 103.1425, 13.358333333333338 ] ] } },
{ "type": "Feature", "properties": { "COMID": 44039845, "id": "40309", "lengthkm": 7.1576148168998337, "order": 4, "uparea": 3112.2179340097423 }, "geometry": { "type": "LineString", "coordinates": [ [ 103.175, 13.32416666666667 ], [ 103.170833333333334, 13.326666666666672 ], [ 103.171666666666667, 13.329166666666673 ], [ 103.17, 13.331666666666671 ], [ 103.166666666666657, 13.33 ], [ 103.1625, 13.3325 ], [ 103.1625, 13.335 ], [ 103.16, 13.3375 ], [ 103.1575, 13.336666666666673 ], [ 103.154166666666669, 13.341666666666672 ], [ 103.155833333333334, 13.344166666666673 ], [ 103.159166666666664, 13.344166666666673 ], [ 103.1575, 13.346666666666671 ], [ 103.154166666666669, 13.3475 ], [ 103.1525, 13.35166666666667 ], [ 103.154166666666669, 13.35916666666667 ] ] } },
{ "type": "Feature", "properties": { "COMID": 44039842, "id": "40309", "lengthkm": 4.9119821769554646, "order": 4, "uparea": 3311.9384086060386 }, "geometry": { "type": "LineString", "coordinates": [ [ 103.188333333333333, 13.305 ], [ 103.188333333333333, 13.309166666666673 ], [ 103.185, 13.310833333333338 ], [ 103.188333333333333, 13.314166666666672 ], [ 103.186666666666667, 13.315 ], [ 103.189166666666665, 13.31666666666667 ], [ 103.189166666666665, 13.321666666666673 ], [ 103.180833333333325, 13.328333333333337 ], [ 103.175, 13.32416666666667 ] ] } },
{ "type": "Feature", "properties": { "COMID": 44039840, "id": "40309", "lengthkm": 16.168242547460867, "order": 4, "uparea": 3490.229282734575 }, "geometry": { "type": "LineString", "coordinates": [ [ 103.2325, 13.236666666666672 ], [ 103.229166666666657, 13.231666666666673 ], [ 103.225833333333327, 13.233333333333338 ], [ 103.225, 13.235833333333339 ], [ 103.223333333333329, 13.23416666666667 ], [ 103.22, 13.236666666666672 ], [ 103.218333333333334, 13.2425 ], [ 103.220833333333331, 13.2475 ], [ 103.218333333333334, 13.251666666666672 ], [ 103.224166666666662, 13.259166666666673 ], [ 103.221666666666664, 13.2625 ], [ 103.215, 13.264166666666672 ], [ 103.214166666666671, 13.266666666666673 ], [ 103.215, 13.274166666666673 ], [ 103.219166666666666, 13.276666666666671 ], [ 103.2175, 13.286666666666672 ], [ 103.211666666666659, 13.2875 ], [ 103.21, 13.28583333333334 ], [ 103.2075, 13.288333333333338 ], [ 103.205833333333331, 13.286666666666672 ], [ 103.203333333333333, 13.29 ], [ 103.206666666666663, 13.294166666666673 ], [ 103.2, 13.298333333333339 ], [ 103.1975, 13.295833333333338 ], [ 103.195, 13.2975 ], [ 103.19, 13.2975 ], [ 103.1875, 13.3 ], [ 103.188333333333333, 13.305 ] ] } },
{ "type": "Feature", "properties": { "COMID": 44039832, "id": "40309", "lengthkm": 11.264772586828329, "order": 5, "uparea": 5020.3594117706607 }, "geometry": { "type": "LineString", "coordinates": [ [ 103.279166666666669, 13.215 ], [ 103.274166666666659, 13.215 ], [ 103.2725, 13.218333333333337 ], [ 103.2675, 13.218333333333337 ], [ 103.265833333333333, 13.22 ], [ 103.265, 13.2225 ], [ 103.266666666666666, 13.22666666666667 ], [ 103.265, 13.23083333333334 ], [ 103.266666666666666, 13.235 ], [ 103.2625, 13.241666666666671 ], [ 103.2575, 13.238333333333337 ], [ 103.256666666666661, 13.235833333333339 ], [ 103.259166666666658, 13.233333333333338 ], [ 103.255833333333328, 13.23083333333334 ], [ 103.250833333333333, 13.23416666666667 ], [ 103.2475, 13.233333333333338 ], [ 103.2425, 13.239166666666673 ], [ 103.239166666666662, 13.236666666666672 ], [ 103.2325, 13.239166666666673 ], [ 103.2325, 13.236666666666672 ] ] } },
{ "type": "Feature", "properties": { "COMID": 44039828, "id": "40309", "lengthkm": 6.0300734774223699, "order": 5, "uparea": 5069.3804253694398 }, "geometry": { "type": "LineString", "coordinates": [ [ 103.3125, 13.219166666666673 ], [ 103.310833333333335, 13.215 ], [ 103.306666666666672, 13.215 ], [ 103.308333333333337, 13.211666666666673 ], [ 103.305, 13.2075 ], [ 103.301666666666662, 13.21 ], [ 103.301666666666662, 13.211666666666673 ], [ 103.299166666666665, 13.211666666666673 ], [ 103.296666666666667, 13.215 ], [ 103.295, 13.214166666666671 ], [ 103.291666666666657, 13.2175 ], [ 103.285833333333329, 13.215 ], [ 103.283333333333331, 13.216666666666672 ], [ 103.28, 13.214166666666671 ], [ 103.279166666666669, 13.215 ] ] } },
{ "type": "Feature", "properties": { "COMID": 44039826, "id": "40309", "lengthkm": 19.727179503971588, "order": 5, "uparea": 5332.3390111912768 }, "geometry": { "type": "LineString", "coordinates": [ [ 103.4025, 13.31333333333334 ], [ 103.400833333333338, 13.310833333333338 ], [ 103.401666666666671, 13.305833333333339 ], [ 103.396666666666661, 13.303333333333338 ], [ 103.398333333333326, 13.298333333333339 ], [ 103.395, 13.294166666666673 ], [ 103.395833333333329, 13.291666666666671 ], [ 103.385833333333323, 13.2875 ], [ 103.3775, 13.29 ], [ 103.375, 13.286666666666672 ], [ 103.370833333333337, 13.28583333333334 ], [ 103.365833333333327, 13.28 ], [ 103.365833333333327, 13.270833333333339 ], [ 103.359166666666667, 13.268333333333338 ], [ 103.354166666666657, 13.263333333333339 ], [ 103.3525, 13.265 ], [ 103.346666666666664, 13.259166666666673 ], [ 103.345, 13.26 ], [ 103.345, 13.2625 ], [ 103.343333333333334, 13.260833333333338 ], [ 103.341666666666669, 13.2625 ], [ 103.335, 13.25416666666667 ], [ 103.335, 13.25083333333334 ], [ 103.33, 13.245833333333337 ], [ 103.326666666666668, 13.245833333333337 ], [ 103.320833333333326, 13.239166666666673 ], [ 103.318333333333328, 13.238333333333337 ], [ 103.320833333333326, 13.23416666666667 ], [ 103.32, 13.229166666666671 ], [ 103.318333333333328, 13.228333333333339 ], [ 103.32, 13.225833333333338 ], [ 103.31583333333333, 13.221666666666671 ], [ 103.314166666666665, 13.2225 ], [ 103.3125, 13.219166666666673 ] ] } },
{ "type": "Feature", "properties": { "COMID": 44039820, "id": "40309", "lengthkm": 2.7045496012500529, "order": 5, "uparea": 15696.256241118403 }, "geometry": { "type": "LineString", "coordinates": [ [ 103.408333333333331, 13.329166666666673 ], [ 103.408333333333331, 13.326666666666672 ], [ 103.4125, 13.321666666666673 ], [ 103.410833333333329, 13.32 ], [ 103.406666666666666, 13.32 ], [ 103.4025, 13.31333333333334 ] ] } },
{ "type": "Feature", "properties": { "COMID": 44039818, "id": "40309", "lengthkm": 6.8410244770630024, "order": 5, "uparea": 15732.393956089676 }, "geometry": { "type": "LineString", "coordinates": [ [ 103.458333333333329, 13.34833333333334 ], [ 103.453333333333333, 13.343333333333337 ], [ 103.450833333333335, 13.335833333333337 ], [ 103.43, 13.333333333333339 ], [ 103.424166666666665, 13.331666666666671 ], [ 103.421666666666667, 13.329166666666673 ], [ 103.408333333333331, 13.329166666666673 ] ] } },
{ "type": "Feature", "properties": { "COMID": 44039816, "id": "40309", "lengthkm": 14.137304394919505, "order": 6, "uparea": 22727.391249219359 }, "geometry": { "type": "LineString", "coordinates": [ [ 103.516666666666666, 13.3125 ], [ 103.5175, 13.319166666666671 ], [ 103.523333333333326, 13.32 ], [ 103.525, 13.321666666666673 ], [ 103.524166666666659, 13.329166666666673 ], [ 103.528333333333336, 13.335833333333337 ], [ 103.5275, 13.3475 ], [ 103.525, 13.35 ], [ 103.504166666666663, 13.3525 ], [ 103.498333333333335, 13.34833333333334 ], [ 103.495833333333337, 13.344166666666673 ], [ 103.490833333333327, 13.344166666666673 ], [ 103.476666666666659, 13.354166666666671 ], [ 103.473333333333329, 13.35 ], [ 103.466666666666669, 13.345833333333339 ], [ 103.458333333333329, 13.34833333333334 ] ] } },
{ "type": "Feature", "properties": { "COMID": 44039813, "id": "40309", "lengthkm": 10.018627766394506, "order": 6, "uparea": 22778.912148537158 }, "geometry": { "type": "LineString", "coordinates": [ [ 103.58, 13.265 ], [ 103.5725, 13.2675 ], [ 103.55416666666666, 13.2775 ], [ 103.548333333333332, 13.283333333333339 ], [ 103.5425, 13.295833333333338 ], [ 103.536666666666662, 13.301666666666673 ], [ 103.52, 13.3025 ], [ 103.5175, 13.305 ], [ 103.516666666666666, 13.3125 ] ] } },
{ "type": "Feature", "properties": { "COMID": 44039797, "id": "40309", "lengthkm": 0.27057024599847201, "order": 6, "uparea": 30865.494249367435 }, "geometry": { "type": "LineString", "coordinates": [ [ 103.5825, 13.265 ], [ 103.58, 13.265 ] ] } },
{ "type": "Feature", "properties": { "COMID": 44039796, "id": "40309", "lengthkm": 19.227081465526613, "order": 6, "uparea": 30922.94920086101 }, "geometry": { "type": "LineString", "coordinates": [ [ 103.725833333333327, 13.211666666666673 ], [ 103.710833333333326, 13.211666666666673 ], [ 103.685833333333335, 13.2175 ], [ 103.67583333333333, 13.229166666666671 ], [ 103.660833333333329, 13.23083333333334 ], [ 103.658333333333331, 13.233333333333338 ], [ 103.658333333333331, 13.2375 ], [ 103.66, 13.24 ], [ 103.65, 13.2475 ], [ 103.638333333333335, 13.249166666666671 ], [ 103.631666666666661, 13.245833333333337 ], [ 103.62, 13.2525 ], [ 103.604166666666657, 13.25416666666667 ], [ 103.5875, 13.26 ], [ 103.5825, 13.265 ] ] } },
{ "type": "Feature", "properties": { "COMID": 44039795, "id": "40309", "lengthkm": 1.30204997672331, "order": 6, "uparea": 31178.203957291622 }, "geometry": { "type": "LineString", "coordinates": [ [ 103.7375, 13.210833333333337 ], [ 103.725833333333327, 13.211666666666673 ] ] } },
{ "type": "Feature", "properties": { "COMID": 44039794, "id": "40309", "lengthkm": 11.214661256757736, "order": 6, "uparea": 34714.787699412453 }, "geometry": { "type": "LineString", "coordinates": [ [ 103.805833333333325, 13.1375 ], [ 103.786666666666662, 13.1625 ], [ 103.7375, 13.210833333333337 ] ] } },
{ "type": "Feature", "properties": { "COMID": 44039793, "id": "40309", "lengthkm": 1.478747510626975, "order": 6, "uparea": 34895.37603631911 }, "geometry": { "type": "LineString", "coordinates": [ [ 103.814166666666665, 13.1275 ], [ 103.805833333333325, 13.1375 ] ] } },
{ "type": "Feature", "properties": { "COMID": 44039792, "id": "40309", "lengthkm": 1.0588231790800831, "order": 6, "uparea": 34950.710054312127 }, "geometry": { "type": "LineString", "coordinates": [ [ 103.8225, 13.124166666666671 ], [ 103.814166666666665, 13.1275 ] ] } },
{ "type": "Feature", "properties": { "COMID": 44039791, "id": "40309", "lengthkm": 2.5177599271957991, "order": 6, "uparea": 35148.336534260256 }, "geometry": { "type": "LineString", "coordinates": [ [ 103.8425, 13.116666666666671 ], [ 103.8225, 13.124166666666671 ] ] } },
{ "type": "Feature", "properties": { "COMID": 44039790, "id": "40309", "lengthkm": 1.988382357941944, "order": 6, "uparea": 35205.838816871044 }, "geometry": { "type": "LineString", "coordinates": [ [ 103.858333333333334, 13.110833333333339 ], [ 103.8425, 13.116666666666671 ] ] } },
{ "type": "Feature", "properties": { "COMID": 44039789, "id": "40309", "lengthkm": 4.8612522071912876, "order": 6, "uparea": 36172.783800794772 }, "geometry": { "type": "LineString", "coordinates": [ [ 103.891666666666666, 13.084166666666672 ], [ 103.8725, 13.100833333333338 ], [ 103.86666666666666, 13.103333333333339 ], [ 103.858333333333334, 13.110833333333339 ] ] } },
{ "type": "Feature", "properties": { "COMID": 44039788, "id": "40309", "lengthkm": 2.4698349142888931, "order": 6, "uparea": 36246.459474928459 }, "geometry": { "type": "LineString", "coordinates": [ [ 103.908333333333331, 13.07 ], [ 103.891666666666666, 13.084166666666672 ] ] } },
{ "type": "Feature", "properties": { "COMID": 44039787, "id": "40309", "lengthkm": 2.4578448159225119, "order": 6, "uparea": 37111.62813217783 }, "geometry": { "type": "LineString", "coordinates": [ [ 103.924166666666665, 13.054166666666671 ], [ 103.908333333333331, 13.07 ] ] } },
{ "type": "Feature", "properties": { "COMID": 44039786, "id": "40309", "lengthkm": 2.201007904427744, "order": 6, "uparea": 37183.43238441689 }, "geometry": { "type": "LineString", "coordinates": [ [ 103.93416666666667, 13.038333333333338 ], [ 103.924166666666665, 13.054166666666671 ] ] } },
{ "type": "Feature", "properties": { "COMID": 44039785, "id": "40309", "lengthkm": 0.88811946852135104, "order": 6, "uparea": 37211.226158508747 }, "geometry": { "type": "LineString", "coordinates": [ [ 103.9375, 13.031666666666673 ], [ 103.93416666666667, 13.038333333333338 ] ] } },
{ "type": "Feature", "properties": { "COMID": 44039784, "id": "40309", "lengthkm": 0.50001852687402704, "order": 6, "uparea": 37275.488583803948 }, "geometry": { "type": "LineString", "coordinates": [ [ 103.938333333333333, 13.0275 ], [ 103.9375, 13.031666666666673 ] ] } },
{ "type": "Feature", "properties": { "COMID": 44039783, "id": "40309", "lengthkm": 0.35140108383854102, "order": 6, "uparea": 37844.773698072364 }, "geometry": { "type": "LineString", "coordinates": [ [ 103.94, 13.025 ], [ 103.938333333333333, 13.0275 ] ] } },
{ "type": "Feature", "properties": { "COMID": 44039782, "id": "40309", "lengthkm": 5.3253452226380276, "order": 6, "uparea": 38018.668113648258 }, "geometry": { "type": "LineString", "coordinates": [ [ 103.968333333333334, 12.988333333333337 ], [ 103.94, 13.025 ] ] } },
{ "type": "Feature", "properties": { "COMID": 44039781, "id": "40309", "lengthkm": 0.88816990536700202, "order": 6, "uparea": 41220.354827071569 }, "geometry": { "type": "LineString", "coordinates": [ [ 103.971666666666664, 12.981666666666673 ], [ 103.968333333333334, 12.988333333333337 ] ] } },
{ "type": "Feature", "properties": { "COMID": 44039780, "id": "40309", "lengthkm": 10.107793546570427, "order": 6, "uparea": 42010.559877115091 }, "geometry": { "type": "LineString", "coordinates": [ [ 104.029166666666669, 12.915 ], [ 104.021666666666661, 12.928333333333338 ], [ 103.99666666666667, 12.959166666666672 ], [ 103.971666666666664, 12.981666666666673 ] ] } },
{ "type": "Feature", "properties": { "COMID": 44039779, "id": "40309", "lengthkm": 2.121631701976689, "order": 6, "uparea": 42227.981329667498 }, "geometry": { "type": "LineString", "coordinates": [ [ 104.043333333333337, 12.9025 ], [ 104.029166666666669, 12.915 ] ] } },
{ "type": "Feature", "properties": { "COMID": 44039778, "id": "40309", "lengthkm": 4.3285635674759142, "order": 6, "uparea": 42556.02113961937 }, "geometry": { "type": "LineString", "coordinates": [ [ 104.0775, 12.889166666666672 ], [ 104.043333333333337, 12.9025 ] ] } },
{ "type": "Feature", "properties": { "COMID": 44039777, "id": "40309", "lengthkm": 9.2966542930198486, "order": 6, "uparea": 42667.710305607128 }, "geometry": { "type": "LineString", "coordinates": [ [ 104.134166666666658, 12.833333333333339 ], [ 104.125833333333333, 12.84833333333334 ], [ 104.109166666666667, 12.866666666666671 ], [ 104.0775, 12.889166666666672 ] ] } },
{ "type": "Feature", "properties": { "COMID": 44041388, "id": "40309", "lengthkm": 7.0806321144781439, "order": 6, "uparea": 42769.723676565314 }, "geometry": { "type": "LineString", "coordinates": [ [ 104.165, 12.783333333333339 ], [ 104.164166666666659, 12.7925 ], [ 104.155, 12.814166666666672 ], [ 104.144166666666663, 12.825833333333339 ], [ 104.134166666666658, 12.833333333333339 ] ] } },
{ "type": "Feature", "properties": { "COMID": 44041386, "id": "40309", "lengthkm": 8.792926198782494, "order": 6, "uparea": 48250.02736128532 }, "geometry": { "type": "LineString", "coordinates": [ [ 104.194166666666661, 12.71583333333334 ], [ 104.185833333333335, 12.724166666666672 ], [ 104.174166666666665, 12.7475 ], [ 104.165, 12.774166666666673 ], [ 104.165, 12.783333333333339 ] ] } },
{ "type": "Feature", "properties": { "COMID": 44041384, "id": "40309", "lengthkm": 5.8090248611157218, "order": 6, "uparea": 53060.48479676625 }, "geometry": { "type": "LineString", "coordinates": [ [ 104.225, 12.675833333333337 ], [ 104.219166666666666, 12.681666666666672 ], [ 104.203333333333333, 12.705833333333338 ], [ 104.194166666666661, 12.71583333333334 ] ] } },
{ "type": "Feature", "properties": { "COMID": 44041383, "id": "40309", "lengthkm": 5.1885931474014217, "order": 6, "uparea": 54140.251574264883 }, "geometry": { "type": "LineString", "coordinates": [ [ 104.261666666666656, 12.65 ], [ 104.243333333333325, 12.663333333333338 ], [ 104.233333333333334, 12.66833333333334 ], [ 104.225, 12.675833333333337 ] ] } },
{ "type": "Feature", "properties": { "COMID": 44041382, "id": "40309", "lengthkm": 10.079342261705417, "order": 6, "uparea": 54670.411034928926 }, "geometry": { "type": "LineString", "coordinates": [ [ 104.349166666666662, 12.6425 ], [ 104.32, 12.64 ], [ 104.290833333333325, 12.646666666666672 ], [ 104.261666666666656, 12.65 ] ] } },
{ "type": "Feature", "properties": { "COMID": 44041380, "id": "40309", "lengthkm": 18.391728020226054, "order": 6, "uparea": 55232.796133468095 }, "geometry": { "type": "LineString", "coordinates": [ [ 104.406666666666666, 12.515 ], [ 104.404166666666669, 12.5175 ], [ 104.394166666666663, 12.521666666666672 ], [ 104.385833333333323, 12.531666666666673 ], [ 104.370833333333337, 12.535 ], [ 104.36333333333333, 12.54 ], [ 104.3575, 12.5475 ], [ 104.358333333333334, 12.548333333333339 ], [ 104.355833333333337, 12.554166666666671 ], [ 104.356666666666669, 12.594166666666673 ], [ 104.349166666666662, 12.625 ], [ 104.349166666666662, 12.6425 ] ] } },
{ "type": "Feature", "properties": { "COMID": 44041378, "id": "40309", "lengthkm": 7.1829365377987733, "order": 6, "uparea": 55501.486707370655 }, "geometry": { "type": "LineString", "coordinates": [ [ 104.4625, 12.52 ], [ 104.455, 12.52 ], [ 104.4475, 12.523333333333337 ], [ 104.44083333333333, 12.52 ], [ 104.436666666666667, 12.52 ], [ 104.43, 12.524166666666673 ], [ 104.420833333333334, 12.525 ], [ 104.414166666666659, 12.516666666666673 ], [ 104.406666666666666, 12.515 ] ] } },
{ "type": "Feature", "properties": { "COMID": 44041377, "id": "40309", "lengthkm": 3.7392340909212338, "order": 6, "uparea": 55638.749316769172 }, "geometry": { "type": "LineString", "coordinates": [ [ 104.490833333333327, 12.514166666666672 ], [ 104.475, 12.5225 ], [ 104.4625, 12.52 ] ] } },
{ "type": "Feature", "properties": { "COMID": 44041376, "id": "40309", "lengthkm": 1.5521017460779629, "order": 6, "uparea": 70693.50631450073 }, "geometry": { "type": "LineString", "coordinates": [ [ 104.50333333333333, 12.51166666666667 ], [ 104.499166666666667, 12.513333333333339 ], [ 104.4925, 12.5125 ], [ 104.490833333333327, 12.514166666666672 ] ] } },
{ "type": "Feature", "properties": { "COMID": 44041375, "id": "40309", "lengthkm": 2.425940725983009, "order": 6, "uparea": 70784.051084025006 }, "geometry": { "type": "LineString", "coordinates": [ [ 104.51, 12.4925 ], [ 104.505833333333328, 12.499166666666671 ], [ 104.505833333333328, 12.505833333333339 ], [ 104.50333333333333, 12.51166666666667 ] ] } },
{ "type": "Feature", "properties": { "COMID": 44041374, "id": "40309", "lengthkm": 6.5527297229026944, "order": 6, "uparea": 70823.111967867299 }, "geometry": { "type": "LineString", "coordinates": [ [ 104.55, 12.45333333333334 ], [ 104.535, 12.465 ], [ 104.535, 12.466666666666672 ], [ 104.515, 12.490833333333338 ], [ 104.51, 12.4925 ] ] } },
{ "type": "Feature", "properties": { "COMID": 44041373, "id": "40309", "lengthkm": 14.326901427243236, "order": 6, "uparea": 71908.102590524228 }, "geometry": { "type": "LineString", "coordinates": [ [ 104.639166666666668, 12.3775 ], [ 104.636666666666656, 12.3825 ], [ 104.625833333333333, 12.391666666666673 ], [ 104.625833333333333, 12.3975 ], [ 104.6225, 12.4075 ], [ 104.619166666666658, 12.411666666666672 ], [ 104.614166666666662, 12.4125 ], [ 104.586666666666659, 12.434166666666673 ], [ 104.575, 12.440833333333337 ], [ 104.571666666666658, 12.440833333333337 ], [ 104.558333333333337, 12.4475 ], [ 104.55, 12.45333333333334 ] ] } },
{ "type": "Feature", "properties": { "COMID": 44041372, "id": "40309", "lengthkm": 10.734438376776213, "order": 6, "uparea": 72286.52996610335 }, "geometry": { "type": "LineString", "coordinates": [ [ 104.67583333333333, 12.305 ], [ 104.6775, 12.3075 ], [ 104.67583333333333, 12.3275 ], [ 104.669166666666669, 12.3425 ], [ 104.658333333333331, 12.3525 ], [ 104.651666666666671, 12.3525 ], [ 104.645833333333329, 12.35583333333334 ], [ 104.645833333333329, 12.3575 ], [ 104.640833333333333, 12.361666666666672 ], [ 104.639166666666668, 12.366666666666671 ], [ 104.639166666666668, 12.3775 ] ] } },
{ "type": "Feature", "properties": { "COMID": 44042805, "id": "40309", "lengthkm": 22.109522381462607, "order": 6, "uparea": 73221.045983143704 }, "geometry": { "type": "LineString", "coordinates": [ [ 104.813333333333333, 12.205 ], [ 104.806666666666658, 12.213333333333338 ], [ 104.798333333333332, 12.23 ], [ 104.788333333333327, 12.244166666666672 ], [ 104.774166666666659, 12.255 ], [ 104.763333333333335, 12.255 ], [ 104.756666666666661, 12.256666666666671 ], [ 104.724166666666662, 12.255 ], [ 104.7175, 12.25833333333334 ], [ 104.713333333333338, 12.25833333333334 ], [ 104.699166666666656, 12.2675 ], [ 104.686666666666667, 12.273333333333337 ], [ 104.67916666666666, 12.283333333333339 ], [ 104.67583333333333, 12.305 ] ] } },
{ "type": "Feature", "properties": { "COMID": 44042804, "id": "40309", "lengthkm": 3.5097408299225452, "order": 6, "uparea": 74104.603801547302 }, "geometry": { "type": "LineString", "coordinates": [ [ 104.839166666666671, 12.19 ], [ 104.831666666666663, 12.19583333333334 ], [ 104.813333333333333, 12.205 ] ] } },
{ "type": "Feature", "properties": { "COMID": 44042803, "id": "40309", "lengthkm": 15.532004492191751, "order": 6, "uparea": 83159.995830185057 }, "geometry": { "type": "LineString", "coordinates": [ [ 104.7775, 12.07833333333334 ], [ 104.78, 12.085833333333337 ], [ 104.796666666666667, 12.1 ], [ 104.805, 12.111666666666672 ], [ 104.8125, 12.130833333333339 ], [ 104.824166666666656, 12.148333333333337 ], [ 104.830833333333331, 12.16416666666667 ], [ 104.841666666666669, 12.179166666666671 ], [ 104.841666666666669, 12.185 ], [ 104.839166666666671, 12.19 ] ] } },
{ "type": "Feature", "properties": { "COMID": 44042802, "id": "40309", "lengthkm": 1.33421541148303, "order": 6, "uparea": 83202.330713355361 }, "geometry": { "type": "LineString", "coordinates": [ [ 104.776666666666671, 12.066666666666674 ], [ 104.7775, 12.07833333333334 ] ] } },
{ "type": "Feature", "properties": { "COMID": 44042801, "id": "40309", "lengthkm": 3.5944783947704679, "order": 6, "uparea": 83408.351808776788 }, "geometry": { "type": "LineString", "coordinates": [ [ 104.770833333333329, 12.036666666666672 ], [ 104.776666666666671, 12.055833333333339 ], [ 104.776666666666671, 12.066666666666674 ] ] } },
{ "type": "Feature", "properties": { "COMID": 44042800, "id": "40309", "lengthkm": 3.2582417441779601, "order": 6, "uparea": 83476.896953807824 }, "geometry": { "type": "LineString", "coordinates": [ [ 104.7825, 12.0125 ], [ 104.7725, 12.023333333333337 ], [ 104.770833333333329, 12.036666666666672 ] ] } },
{ "type": "Feature", "properties": { "COMID": 44042799, "id": "40309", "lengthkm": 22.166357726187531, "order": 6, "uparea": 83619.12103177348 }, "geometry": { "type": "LineString", "coordinates": [ [ 104.781666666666666, 11.88 ], [ 104.7825, 11.8825 ], [ 104.788333333333327, 11.8875 ], [ 104.808333333333337, 11.891666666666673 ], [ 104.8225, 11.905833333333337 ], [ 104.825833333333335, 11.915 ], [ 104.825833333333335, 11.936666666666671 ], [ 104.834166666666661, 11.960833333333337 ], [ 104.8325, 11.970833333333339 ], [ 104.833333333333329, 11.98416666666667 ], [ 104.8275, 11.9925 ], [ 104.819166666666661, 11.996666666666673 ], [ 104.80083333333333, 12.001666666666672 ], [ 104.7825, 12.0125 ] ] } },
{ "type": "Feature", "properties": { "COMID": 44042798, "id": "40309", "lengthkm": 3.739995259753973, "order": 6, "uparea": 84474.746325910339 }, "geometry": { "type": "LineString", "coordinates": [ [ 104.8, 11.854166666666671 ], [ 104.795833333333334, 11.861666666666672 ], [ 104.785833333333329, 11.870833333333337 ], [ 104.781666666666666, 11.88 ] ] } },
{ "type": "Feature", "properties": { "COMID": 44042797, "id": "40309", "lengthkm": 0.092662492290699006, "order": 6, "uparea": 84574.371777092747 }, "geometry": { "type": "LineString", "coordinates": [ [ 104.8, 11.853333333333339 ], [ 104.8, 11.854166666666671 ] ] } },
{ "type": "Feature", "properties": { "COMID": 44042796, "id": "40309", "lengthkm": 8.1154143457570811, "order": 6, "uparea": 85422.150834822416 }, "geometry": { "type": "LineString", "coordinates": [ [ 104.824166666666656, 11.79 ], [ 104.8125, 11.805833333333339 ], [ 104.803333333333327, 11.82416666666667 ], [ 104.801666666666662, 11.83 ], [ 104.801666666666662, 11.849166666666672 ], [ 104.8, 11.853333333333339 ] ] } },
{ "type": "Feature", "properties": { "COMID": 44042795, "id": "40309", "lengthkm": 3.2242638684319478, "order": 6, "uparea": 86032.279031289276 }, "geometry": { "type": "LineString", "coordinates": [ [ 104.83, 11.763333333333339 ], [ 104.828333333333333, 11.7775 ], [ 104.824166666666656, 11.79 ] ] } },
{ "type": "Feature", "properties": { "COMID": 44042794, "id": "40309", "lengthkm": 11.711163045860255, "order": 6, "uparea": 87664.889388178519 }, "geometry": { "type": "LineString", "coordinates": [ [ 104.86, 11.67 ], [ 104.8525, 11.680833333333339 ], [ 104.8425, 11.70333333333334 ], [ 104.8375, 11.729166666666671 ], [ 104.831666666666663, 11.745 ], [ 104.83, 11.763333333333339 ] ] } },
{ "type": "Feature", "properties": { "COMID": 44043943, "id": "40309", "lengthkm": 6.2530885194613859, "order": 6, "uparea": 87777.539914863752 }, "geometry": { "type": "LineString", "coordinates": [ [ 104.899166666666659, 11.63666666666667 ], [ 104.884166666666658, 11.641666666666673 ], [ 104.875, 11.648333333333337 ], [ 104.86, 11.67 ] ] } },
{ "type": "Feature", "properties": { "COMID": 44043942, "id": "40309", "lengthkm": 11.431621086972255, "order": 6, "uparea": 87839.983475464673 }, "geometry": { "type": "LineString", "coordinates": [ [ 104.9475, 11.560833333333338 ], [ 104.941666666666663, 11.56 ], [ 104.93416666666667, 11.566666666666674 ], [ 104.92916666666666, 11.5775 ], [ 104.921666666666667, 11.5875 ], [ 104.921666666666667, 11.605 ], [ 104.920833333333334, 11.6125 ], [ 104.918333333333337, 11.618333333333339 ], [ 104.9075, 11.631666666666671 ], [ 104.899166666666659, 11.63666666666667 ] ] } },
{ "type": "Feature", "properties": { "COMID": 44043940, "id": "40309", "lengthkm": 2.6721343464230611, "order": 7, "uparea": 751128.29172518873 }, "geometry": { "type": "LineString", "coordinates": [ [ 104.966666666666669, 11.548333333333339 ], [ 104.953333333333333, 11.555 ], [ 104.9475, 11.560833333333338 ] ] } },
{ "type": "Feature", "properties": { "COMID": 44043939, "id": "40309", "lengthkm": 27.602641817251001, "order": 7, "uparea": 751221.3391168192 }, "geometry": { "type": "LineString", "coordinates": [ [ 105.176666666666662, 11.4575 ], [ 105.1675, 11.463333333333338 ], [ 105.158333333333331, 11.4725 ], [ 105.145833333333329, 11.4775 ], [ 105.135, 11.485 ], [ 105.12166666666667, 11.490833333333338 ], [ 105.111666666666665, 11.5 ], [ 105.1, 11.505833333333339 ], [ 105.085833333333326, 11.518333333333338 ], [ 105.083333333333329, 11.523333333333337 ], [ 105.0775, 11.52833333333334 ], [ 105.061666666666667, 11.533333333333339 ], [ 105.056666666666658, 11.533333333333339 ], [ 105.033333333333331, 11.5425 ], [ 105.016666666666666, 11.54666666666667 ], [ 104.984166666666667, 11.5475 ], [ 104.974166666666662, 11.549166666666672 ], [ 104.966666666666669, 11.548333333333339 ] ] } },
{ "type": "Feature", "properties": { "COMID": 44043938, "id": "40309", "lengthkm": 22.169869394716191, "order": 7, "uparea": 752374.90433129028 }, "geometry": { "type": "LineString", "coordinates": [ [ 105.275, 11.306666666666672 ], [ 105.274166666666659, 11.321666666666673 ], [ 105.264166666666668, 11.35 ], [ 105.261666666666656, 11.3525 ], [ 105.260833333333323, 11.366666666666671 ], [ 105.255, 11.391666666666673 ], [ 105.239166666666662, 11.409166666666671 ], [ 105.229166666666657, 11.415 ], [ 105.210833333333326, 11.435 ], [ 105.195, 11.443333333333339 ], [ 105.176666666666662, 11.4575 ] ] } },
{ "type": "Feature", "properties": { "COMID": 44045069, "id": "40309", "lengthkm": 78.538432929652856, "order": 7, "uparea": 754973.09388872841 }, "geometry": { "type": "LineString", "coordinates": [ [ 105.335833333333326, 10.808333333333337 ], [ 105.325833333333335, 10.818333333333339 ], [ 105.313333333333333, 10.8225 ], [ 105.305, 10.8225 ], [ 105.286666666666662, 10.816666666666674 ], [ 105.283333333333331, 10.810833333333338 ], [ 105.276666666666671, 10.805 ], [ 105.264166666666668, 10.80083333333334 ], [ 105.2425, 10.805 ], [ 105.231666666666669, 10.805 ], [ 105.2275, 10.809166666666673 ], [ 105.2275, 10.811666666666671 ], [ 105.215833333333336, 10.835 ], [ 105.213333333333338, 10.8375 ], [ 105.210833333333326, 10.836666666666673 ], [ 105.203333333333333, 10.84083333333334 ], [ 105.193333333333328, 10.853333333333339 ], [ 105.19083333333333, 10.85916666666667 ], [ 105.19, 10.869166666666672 ], [ 105.1875, 10.871666666666673 ], [ 105.185833333333335, 10.88 ], [ 105.185833333333335, 10.894166666666671 ], [ 105.1875, 10.8975 ], [ 105.188333333333333, 10.9075 ], [ 105.186666666666667, 10.913333333333338 ], [ 105.185833333333335, 10.9475 ], [ 105.183333333333337, 10.964166666666671 ], [ 105.1875, 10.978333333333339 ], [ 105.1875, 11.001666666666672 ], [ 105.19083333333333, 11.020833333333339 ], [ 105.194166666666661, 11.025 ], [ 105.1975, 11.03583333333334 ], [ 105.1975, 11.041666666666671 ], [ 105.195, 11.045833333333338 ], [ 105.1925, 11.083333333333339 ], [ 105.195, 11.088333333333338 ], [ 105.203333333333333, 11.096666666666671 ], [ 105.21, 11.1 ], [ 105.213333333333338, 11.10583333333334 ], [ 105.234166666666667, 11.13 ], [ 105.236666666666665, 11.139166666666672 ], [ 105.235833333333332, 11.143333333333338 ], [ 105.24166666666666, 11.154166666666672 ], [ 105.23833333333333, 11.159166666666671 ], [ 105.235, 11.170833333333338 ], [ 105.235, 11.178333333333338 ], [ 105.250833333333333, 11.194166666666671 ], [ 105.255833333333328, 11.19583333333334 ], [ 105.259166666666658, 11.199166666666674 ], [ 105.268333333333331, 11.21583333333334 ], [ 105.271666666666661, 11.228333333333339 ], [ 105.279166666666669, 11.245833333333337 ], [ 105.280833333333334, 11.255 ], [ 105.28, 11.2775 ], [ 105.275, 11.29666666666667 ], [ 105.275, 11.306666666666672 ] ] } },
{ "type": "Feature", "properties": { "COMID": 44045068, "id": "40309", "lengthkm": 3.6899238053673629, "order": 7, "uparea": 755590.39581178268 }, "geometry": { "type": "LineString", "coordinates": [ [ 105.345833333333331, 10.779166666666672 ], [ 105.3375, 10.8 ], [ 105.335833333333326, 10.808333333333337 ] ] } },
{ "type": "Feature", "properties": { "COMID": 44045067, "id": "40309", "lengthkm": 8.1031903767886284, "order": 7, "uparea": 755633.45288342342 }, "geometry": { "type": "LineString", "coordinates": [ [ 105.350833333333327, 10.715 ], [ 105.355, 10.725 ], [ 105.359166666666667, 10.729166666666671 ], [ 105.359166666666667, 10.73416666666667 ], [ 105.355833333333322, 10.745 ], [ 105.355833333333322, 10.755833333333339 ], [ 105.351666666666659, 10.770833333333339 ], [ 105.345833333333331, 10.779166666666672 ] ] } },
{ "type": "Feature", "properties": { "COMID": 44045066, "id": "40309", "lengthkm": 17.48573855067545, "order": 7, "uparea": 755704.6604524802 }, "geometry": { "type": "LineString", "coordinates": [ [ 105.36666666666666, 10.574166666666674 ], [ 105.365833333333327, 10.583333333333339 ], [ 105.349166666666662, 10.6175 ], [ 105.34, 10.645833333333339 ], [ 105.338333333333338, 10.67583333333334 ], [ 105.345833333333331, 10.690833333333337 ], [ 105.350833333333327, 10.715 ] ] } },
{ "type": "Feature", "properties": { "COMID": 44045065, "id": "40309", "lengthkm": 6.0505441600601344, "order": 7, "uparea": 755739.88482001564 }, "geometry": { "type": "LineString", "coordinates": [ [ 105.3275, 10.540833333333339 ], [ 105.334166666666661, 10.548333333333339 ], [ 105.351666666666659, 10.556666666666672 ], [ 105.36666666666666, 10.574166666666674 ] ] } },
{ "type": "Feature", "properties": { "COMID": 44045924, "id": "40309", "lengthkm": 23.262980328980063, "order": 7, "uparea": 768296.12213371927 }, "geometry": { "type": "LineString", "coordinates": [ [ 105.445, 10.386666666666674 ], [ 105.431666666666658, 10.398333333333341 ], [ 105.414166666666659, 10.4175 ], [ 105.4075, 10.439166666666672 ], [ 105.385, 10.451666666666672 ], [ 105.361666666666665, 10.476666666666674 ], [ 105.346666666666664, 10.49 ], [ 105.33, 10.525833333333338 ], [ 105.3275, 10.540833333333339 ] ] } },
{ "type": "Feature", "properties": { "COMID": 44045923, "id": "40309", "lengthkm": 0.84564859880892596, "order": 7, "uparea": 770011.15033644927 }, "geometry": { "type": "LineString", "coordinates": [ [ 105.451666666666668, 10.384166666666673 ], [ 105.445, 10.386666666666674 ] ] } },
{ "type": "Feature", "properties": { "COMID": 44045922, "id": "40309", "lengthkm": 7.2556288478156619, "order": 7, "uparea": 770287.79144258949 }, "geometry": { "type": "LineString", "coordinates": [ [ 105.48833333333333, 10.334166666666672 ], [ 105.474166666666662, 10.3475 ], [ 105.4625, 10.3625 ], [ 105.456666666666663, 10.3725 ], [ 105.455, 10.38 ], [ 105.451666666666668, 10.384166666666673 ] ] } },
{ "type": "Feature", "properties": { "COMID": 44045921, "id": "40309", "lengthkm": 1.0025688598509439, "order": 7, "uparea": 770557.26773444971 }, "geometry": { "type": "LineString", "coordinates": [ [ 105.494166666666658, 10.3275 ], [ 105.48833333333333, 10.334166666666672 ] ] } },
{ "type": "Feature", "properties": { "COMID": 44045920, "id": "40309", "lengthkm": 22.999195181191958, "order": 7, "uparea": 770975.52559636952 }, "geometry": { "type": "LineString", "coordinates": [ [ 105.625, 10.186666666666671 ], [ 105.624166666666667, 10.1925 ], [ 105.615, 10.2175 ], [ 105.600833333333327, 10.23833333333334 ], [ 105.57, 10.268333333333338 ], [ 105.564166666666665, 10.27 ], [ 105.55916666666667, 10.275 ], [ 105.558333333333337, 10.27833333333334 ], [ 105.548333333333332, 10.2875 ], [ 105.525, 10.3025 ], [ 105.5175, 10.305833333333339 ], [ 105.515833333333333, 10.305 ], [ 105.494166666666658, 10.3275 ] ] } },
{ "type": "Feature", "properties": { "COMID": 44045919, "id": "40309", "lengthkm": 5.7164777464332648, "order": 7, "uparea": 771033.49665386393 }, "geometry": { "type": "LineString", "coordinates": [ [ 105.659166666666664, 10.15 ], [ 105.650833333333324, 10.158333333333339 ], [ 105.65, 10.1625 ], [ 105.625, 10.186666666666671 ] ] } },
{ "type": "Feature", "properties": { "COMID": 44045918, "id": "40309", "lengthkm": 15.015373103071788, "order": 7, "uparea": 772579.76282141218 }, "geometry": { "type": "LineString", "coordinates": [ [ 105.765, 10.0775 ], [ 105.7525, 10.09 ], [ 105.740833333333327, 10.095833333333339 ], [ 105.735, 10.095833333333339 ], [ 105.710833333333326, 10.116666666666671 ], [ 105.694166666666661, 10.12583333333334 ], [ 105.659166666666664, 10.15 ] ] } },
{ "type": "Feature", "properties": { "COMID": 44045917, "id": "40309", "lengthkm": 5.2380466363319433, "order": 7, "uparea": 772650.606293933 }, "geometry": { "type": "LineString", "coordinates": [ [ 105.798333333333332, 10.049166666666672 ], [ 105.793333333333322, 10.058333333333341 ], [ 105.784166666666664, 10.0675 ], [ 105.775833333333324, 10.073333333333338 ], [ 105.765, 10.0775 ] ] } },
{ "type": "Feature", "properties": { "COMID": 44045916, "id": "40309", "lengthkm": 0.57545517070872898, "order": 7, "uparea": 772739.76413985551 }, "geometry": { "type": "LineString", "coordinates": [ [ 105.80083333333333, 10.045 ], [ 105.798333333333332, 10.049166666666672 ] ] } },
{ "type": "Feature", "properties": { "COMID": 44045915, "id": "40309", "lengthkm": 17.013743803694048, "order": 7, "uparea": 773817.92850895261 }, "geometry": { "type": "LineString", "coordinates": [ [ 105.898333333333326, 9.936666666666671 ], [ 105.8775, 9.950833333333339 ], [ 105.846666666666664, 9.98 ], [ 105.819166666666661, 10.013333333333339 ], [ 105.8175, 10.016666666666673 ], [ 105.8175, 10.0225 ], [ 105.814166666666665, 10.03 ], [ 105.808333333333337, 10.038333333333338 ], [ 105.80083333333333, 10.045 ] ] } },
{ "type": "Feature", "properties": { "COMID": 44046400, "id": "40309", "lengthkm": 9.2908474740990226, "order": 7, "uparea": 774697.65067198128 }, "geometry": { "type": "LineString", "coordinates": [ [ 105.955, 9.880833333333339 ], [ 105.953333333333333, 9.885 ], [ 105.925, 9.91 ], [ 105.911666666666662, 9.925 ], [ 105.91, 9.93 ], [ 105.898333333333326, 9.936666666666671 ] ] } },
{ "type": "Feature", "properties": { "COMID": 44046399, "id": "40309", "lengthkm": 10.815765808967447, "order": 7, "uparea": 774772.97603668948 }, "geometry": { "type": "LineString", "coordinates": [ [ 106.025833333333338, 9.8175 ], [ 106.0175, 9.819166666666671 ], [ 106.014166666666668, 9.821666666666673 ], [ 105.955, 9.880833333333339 ] ] } },
{ "type": "Feature", "properties": { "COMID": 44046398, "id": "40309", "lengthkm": 2.955705689749085, "order": 7, "uparea": 775050.41322420561 }, "geometry": { "type": "LineString", "coordinates": [ [ 106.0475, 9.808333333333341 ], [ 106.034166666666664, 9.816666666666674 ], [ 106.025833333333338, 9.8175 ] ] } },
{ "type": "Feature", "properties": { "COMID": 44046397, "id": "40309", "lengthkm": 4.957685663430401, "order": 7, "uparea": 775140.78874230909 }, "geometry": { "type": "LineString", "coordinates": [ [ 106.069166666666661, 9.7725 ], [ 106.066666666666663, 9.7825 ], [ 106.0475, 9.808333333333341 ] ] } },
{ "type": "Feature", "properties": { "COMID": 44046396, "id": "40309", "lengthkm": 3.5701866387717152, "order": 7, "uparea": 775611.55126566498 }, "geometry": { "type": "LineString", "coordinates": [ [ 106.0975, 9.7625 ], [ 106.0775, 9.7725 ], [ 106.069166666666661, 9.7725 ] ] } },
{ "type": "Feature", "properties": { "COMID": 44046395, "id": "40309", "lengthkm": 2.355571900216527, "order": 7, "uparea": 775719.66045150871 }, "geometry": { "type": "LineString", "coordinates": [ [ 106.11333333333333, 9.749166666666671 ], [ 106.0975, 9.7625 ] ] } },
{ "type": "Feature", "properties": { "COMID": 44046394, "id": "40309", "lengthkm": 11.851812812818313, "order": 7, "uparea": 775833.02004996059 }, "geometry": { "type": "LineString", "coordinates": [ [ 106.185833333333335, 9.673333333333339 ], [ 106.161666666666662, 9.696666666666673 ], [ 106.15, 9.710833333333341 ], [ 106.12833333333333, 9.73083333333334 ], [ 106.11333333333333, 9.749166666666671 ] ] } },
{ "type": "Feature", "properties": { "COMID": 44046393, "id": "40309", "lengthkm": 4.0862544170249508, "order": 7, "uparea": 775876.22938334767 }, "geometry": { "type": "LineString", "coordinates": [ [ 106.2125, 9.648333333333341 ], [ 106.185833333333335, 9.673333333333339 ] ] } },
{ "type": "Feature", "properties": { "COMID": 44046392, "id": "40309", "lengthkm": 5.622978429100705, "order": 7, "uparea": 775976.91826970724 }, "geometry": { "type": "LineString", "coordinates": [ [ 106.25, 9.615833333333338 ], [ 106.2125, 9.648333333333341 ] ] } },
{ "type": "Feature", "properties": { "COMID": 44046391, "id": "40309", "lengthkm": 3.9342543909143042, "order": 7, "uparea": 776027.11519115441 }, "geometry": { "type": "LineString", "coordinates": [ [ 106.279166666666669, 9.6 ], [ 106.264166666666668, 9.606666666666673 ], [ 106.25, 9.615833333333338 ] ] } },
{ "type": "Feature", "properties": { "COMID": 44046390, "id": "40309", "lengthkm": 3.3861689994837838, "order": 7, "uparea": 776128.1625807212 }, "geometry": { "type": "LineString", "coordinates": [ [ 106.303333333333327, 9.584166666666672 ], [ 106.279166666666669, 9.6 ] ] } }
]
}
