{
"type": "FeatureCollection",
"name": "downstream_40050",
"crs": { "type": "name", "properties": { "name": "urn:ogc:def:crs:OGC:1.3:CRS84" } },
"features": [
{ "type": "Feature", "properties": { "COMID": 45031428, "id": "27164", "lengthkm": 14.628948511079884, "order": 4, "uparea": 7634.0428229046265 }, "geometry": { "type": "LineString", "coordinates": [ [ 83.474166666666662, 27.9725 ], [ 83.479166666666657, 27.975833333333341 ], [ 83.48333333333332, 27.981666666666676 ], [ 83.4875, 27.981666666666676 ], [ 83.493333333333325, 27.9775 ], [ 83.495833333333323, 27.978333333333342 ], [ 83.500833333333318, 27.976666666666674 ], [ 83.510833333333323, 27.9675 ], [ 83.5175, 27.966666666666676 ], [ 83.520833333333314, 27.964166666666678 ], [ 83.5275, 27.966666666666676 ], [ 83.53, 27.964166666666678 ], [ 83.53416666666665, 27.968333333333341 ], [ 83.541666666666657, 27.971666666666678 ], [ 83.54583333333332, 27.970833333333342 ], [ 83.54916666666665, 27.976666666666674 ], [ 83.554166666666646, 27.976666666666674 ], [ 83.559166666666655, 27.973333333333343 ], [ 83.565833333333316, 27.975833333333341 ], [ 83.578333333333319, 27.975 ], [ 83.580833333333317, 27.98 ], [ 83.585, 27.98 ] ] } },
{ "type": "Feature", "properties": { "COMID": 45031425, "id": "27164", "lengthkm": 6.2560733705295348, "order": 4, "uparea": 9660.2825063495638 }, "geometry": { "type": "LineString", "coordinates": [ [ 83.440833333333316, 27.935 ], [ 83.445833333333326, 27.939166666666676 ], [ 83.443333333333328, 27.944166666666675 ], [ 83.461666666666645, 27.95333333333334 ], [ 83.465, 27.961666666666677 ], [ 83.474166666666662, 27.9725 ] ] } },
{ "type": "Feature", "properties": { "COMID": 45031423, "id": "27164", "lengthkm": 4.8411266576593031, "order": 4, "uparea": 10271.579810123189 }, "geometry": { "type": "LineString", "coordinates": [ [ 83.475833333333327, 27.925 ], [ 83.46833333333332, 27.9275 ], [ 83.461666666666645, 27.934166666666677 ], [ 83.454166666666652, 27.933333333333344 ], [ 83.449166666666656, 27.928333333333342 ], [ 83.444166666666661, 27.931666666666676 ], [ 83.441666666666649, 27.931666666666676 ], [ 83.44, 27.933333333333344 ], [ 83.440833333333316, 27.935 ] ] } },
{ "type": "Feature", "properties": { "COMID": 45031421, "id": "27164", "lengthkm": 30.029568273128657, "order": 4, "uparea": 10422.732040236524 }, "geometry": { "type": "LineString", "coordinates": [ [ 83.635833333333323, 27.9 ], [ 83.6325, 27.900833333333345 ], [ 83.631666666666661, 27.910833333333343 ], [ 83.633333333333326, 27.914166666666674 ], [ 83.625, 27.915 ], [ 83.620833333333323, 27.918333333333344 ], [ 83.626666666666651, 27.925 ], [ 83.625, 27.926666666666677 ], [ 83.62, 27.926666666666677 ], [ 83.616666666666646, 27.930833333333343 ], [ 83.61, 27.925 ], [ 83.600833333333327, 27.923333333333343 ], [ 83.591666666666654, 27.931666666666676 ], [ 83.575, 27.93 ], [ 83.574166666666656, 27.9325 ], [ 83.576666666666654, 27.935 ], [ 83.576666666666654, 27.938333333333343 ], [ 83.570833333333326, 27.943333333333342 ], [ 83.5675, 27.940833333333345 ], [ 83.5675, 27.9375 ], [ 83.565, 27.934166666666677 ], [ 83.56, 27.935 ], [ 83.550833333333316, 27.928333333333342 ], [ 83.543333333333322, 27.929166666666674 ], [ 83.539166666666659, 27.9275 ], [ 83.536666666666662, 27.93 ], [ 83.5375, 27.936666666666675 ], [ 83.535, 27.939166666666676 ], [ 83.531666666666652, 27.939166666666676 ], [ 83.53, 27.9375 ], [ 83.531666666666652, 27.933333333333344 ], [ 83.528333333333322, 27.93 ], [ 83.528333333333322, 27.9275 ], [ 83.523333333333312, 27.924166666666675 ], [ 83.523333333333312, 27.93 ], [ 83.521666666666647, 27.9325 ], [ 83.515, 27.939166666666676 ], [ 83.506666666666661, 27.940833333333345 ], [ 83.503333333333316, 27.936666666666675 ], [ 83.51, 27.9325 ], [ 83.504166666666649, 27.9275 ], [ 83.495, 27.9275 ], [ 83.490833333333313, 27.929166666666674 ], [ 83.485, 27.9225 ], [ 83.475833333333327, 27.925 ] ] } },
{ "type": "Feature", "properties": { "COMID": 45031419, "id": "27164", "lengthkm": 39.137882196489322, "order": 4, "uparea": 10688.473016667465 }, "geometry": { "type": "LineString", "coordinates": [ [ 83.876666666666651, 27.888333333333343 ], [ 83.873333333333321, 27.885833333333345 ], [ 83.8625, 27.883333333333344 ], [ 83.86, 27.88 ], [ 83.86166666666665, 27.875 ], [ 83.8575, 27.873333333333342 ], [ 83.851666666666659, 27.874166666666675 ], [ 83.850833333333327, 27.88 ], [ 83.849166666666662, 27.881666666666675 ], [ 83.845, 27.881666666666675 ], [ 83.844166666666652, 27.878333333333345 ], [ 83.8475, 27.871666666666677 ], [ 83.844166666666652, 27.868333333333343 ], [ 83.831666666666649, 27.870833333333344 ], [ 83.8225, 27.8775 ], [ 83.82, 27.8775 ], [ 83.815833333333316, 27.874166666666675 ], [ 83.805833333333325, 27.873333333333342 ], [ 83.7975, 27.8825 ], [ 83.79, 27.884166666666676 ], [ 83.776666666666657, 27.9025 ], [ 83.7725, 27.905833333333341 ], [ 83.76, 27.91 ], [ 83.756666666666661, 27.908333333333342 ], [ 83.7575, 27.904166666666676 ], [ 83.755833333333328, 27.903333333333343 ], [ 83.75, 27.9075 ], [ 83.745833333333323, 27.908333333333342 ], [ 83.7425, 27.906666666666677 ], [ 83.7425, 27.905 ], [ 83.7475, 27.901666666666678 ], [ 83.743333333333325, 27.9 ], [ 83.73666666666665, 27.903333333333343 ], [ 83.7325, 27.909166666666678 ], [ 83.723333333333315, 27.913333333333341 ], [ 83.71833333333332, 27.920833333333341 ], [ 83.711666666666645, 27.916666666666679 ], [ 83.703333333333319, 27.918333333333344 ], [ 83.695833333333326, 27.9175 ], [ 83.688333333333318, 27.923333333333343 ], [ 83.685833333333321, 27.9175 ], [ 83.681666666666658, 27.916666666666679 ], [ 83.679166666666646, 27.919166666666676 ], [ 83.681666666666658, 27.925 ], [ 83.6775, 27.9275 ], [ 83.673333333333318, 27.926666666666677 ], [ 83.665833333333325, 27.92 ], [ 83.655, 27.9025 ], [ 83.648333333333312, 27.9025 ], [ 83.645, 27.899166666666677 ], [ 83.6425, 27.9 ], [ 83.641666666666652, 27.9025 ], [ 83.635833333333323, 27.9 ] ] } },
{ "type": "Feature", "properties": { "COMID": 45031418, "id": "27164", "lengthkm": 9.6636077388829396, "order": 4, "uparea": 10932.6483656829 }, "geometry": { "type": "LineString", "coordinates": [ [ 83.94, 27.878333333333345 ], [ 83.9375, 27.878333333333345 ], [ 83.9325, 27.8725 ], [ 83.92416666666665, 27.868333333333343 ], [ 83.919166666666655, 27.871666666666677 ], [ 83.911666666666662, 27.871666666666677 ], [ 83.91, 27.874166666666675 ], [ 83.914166666666659, 27.8775 ], [ 83.905, 27.8825 ], [ 83.8975, 27.883333333333344 ], [ 83.89, 27.886666666666677 ], [ 83.884166666666658, 27.8825 ], [ 83.88, 27.8825 ], [ 83.879166666666649, 27.884166666666676 ], [ 83.880833333333328, 27.886666666666677 ], [ 83.876666666666651, 27.888333333333343 ] ] } },
{ "type": "Feature", "properties": { "COMID": 45031417, "id": "27164", "lengthkm": 0.92737812824975896, "order": 4, "uparea": 11038.507340406943 }, "geometry": { "type": "LineString", "coordinates": [ [ 83.945, 27.871666666666677 ], [ 83.94, 27.878333333333345 ] ] } },
{ "type": "Feature", "properties": { "COMID": 45031416, "id": "27164", "lengthkm": 25.778777042531878, "order": 4, "uparea": 11371.138882362571 }, "geometry": { "type": "LineString", "coordinates": [ [ 84.09666666666665, 27.858333333333341 ], [ 84.095833333333317, 27.86 ], [ 84.1, 27.8625 ], [ 84.101666666666659, 27.865833333333342 ], [ 84.0925, 27.866666666666674 ], [ 84.084166666666647, 27.87 ], [ 84.0775, 27.87 ], [ 84.079166666666652, 27.864166666666677 ], [ 84.070833333333326, 27.864166666666677 ], [ 84.069166666666661, 27.858333333333341 ], [ 84.066666666666649, 27.855833333333344 ], [ 84.054166666666646, 27.849166666666676 ], [ 84.051666666666648, 27.849166666666676 ], [ 84.05, 27.855833333333344 ], [ 84.043333333333322, 27.855833333333344 ], [ 84.043333333333322, 27.851666666666674 ], [ 84.040833333333325, 27.85 ], [ 84.039166666666659, 27.851666666666674 ], [ 84.040833333333325, 27.855 ], [ 84.039166666666659, 27.8575 ], [ 84.028333333333322, 27.855833333333344 ], [ 84.021666666666647, 27.861666666666675 ], [ 84.015833333333319, 27.859166666666674 ], [ 84.016666666666652, 27.856666666666676 ], [ 84.0225, 27.853333333333342 ], [ 84.02, 27.850833333333341 ], [ 84.0175, 27.850833333333341 ], [ 84.0075, 27.855 ], [ 83.999166666666653, 27.855 ], [ 83.996666666666655, 27.858333333333341 ], [ 83.996666666666655, 27.864166666666677 ], [ 83.9925, 27.866666666666674 ], [ 83.978333333333325, 27.865833333333342 ], [ 83.97166666666665, 27.871666666666677 ], [ 83.965833333333322, 27.87 ], [ 83.959166666666647, 27.873333333333342 ], [ 83.951666666666654, 27.869166666666676 ], [ 83.948333333333323, 27.869166666666676 ], [ 83.945, 27.871666666666677 ] ] } },
{ "type": "Feature", "properties": { "COMID": 45031415, "id": "27164", "lengthkm": 4.681729275547883, "order": 4, "uparea": 11440.684833979922 }, "geometry": { "type": "LineString", "coordinates": [ [ 84.121666666666655, 27.846666666666678 ], [ 84.120833333333323, 27.848333333333343 ], [ 84.1225, 27.85 ], [ 84.120833333333323, 27.851666666666674 ], [ 84.115833333333313, 27.850833333333341 ], [ 84.113333333333316, 27.8525 ], [ 84.11, 27.861666666666675 ], [ 84.105833333333322, 27.86 ], [ 84.103333333333325, 27.855 ], [ 84.1, 27.855 ], [ 84.09666666666665, 27.858333333333341 ] ] } },
{ "type": "Feature", "properties": { "COMID": 45031414, "id": "27164", "lengthkm": 2.300428577257331, "order": 4, "uparea": 11483.855365292493 }, "geometry": { "type": "LineString", "coordinates": [ [ 84.141666666666652, 27.85 ], [ 84.1275, 27.845 ], [ 84.121666666666655, 27.846666666666678 ] ] } },
{ "type": "Feature", "properties": { "COMID": 45031413, "id": "27164", "lengthkm": 3.8964325872089098, "order": 4, "uparea": 11548.190823219742 }, "geometry": { "type": "LineString", "coordinates": [ [ 84.1625, 27.845833333333342 ], [ 84.1625, 27.840833333333343 ], [ 84.156666666666652, 27.839166666666678 ], [ 84.155, 27.840833333333343 ], [ 84.155, 27.844166666666677 ], [ 84.156666666666652, 27.845833333333342 ], [ 84.155, 27.848333333333343 ], [ 84.149166666666645, 27.8475 ], [ 84.145833333333314, 27.85 ], [ 84.141666666666652, 27.85 ] ] } },
{ "type": "Feature", "properties": { "COMID": 45031412, "id": "27164", "lengthkm": 0.90442736302984095, "order": 4, "uparea": 11600.154942993237 }, "geometry": { "type": "LineString", "coordinates": [ [ 84.17, 27.845833333333342 ], [ 84.1625, 27.845833333333342 ] ] } },
{ "type": "Feature", "properties": { "COMID": 45031411, "id": "27164", "lengthkm": 31.429767611125733, "order": 4, "uparea": 11784.281032767725 }, "geometry": { "type": "LineString", "coordinates": [ [ 84.323333333333323, 27.7525 ], [ 84.3225, 27.758333333333344 ], [ 84.315, 27.763333333333343 ], [ 84.318333333333328, 27.775 ], [ 84.314166666666651, 27.785 ], [ 84.305833333333311, 27.79 ], [ 84.301666666666648, 27.790833333333342 ], [ 84.29916666666665, 27.794166666666676 ], [ 84.3, 27.799166666666679 ], [ 84.2975, 27.806666666666676 ], [ 84.3025, 27.81 ], [ 84.300833333333316, 27.815 ], [ 84.305833333333311, 27.818333333333342 ], [ 84.3, 27.8225 ], [ 84.295, 27.830833333333345 ], [ 84.295, 27.834166666666675 ], [ 84.290833333333325, 27.838333333333345 ], [ 84.285, 27.836666666666677 ], [ 84.273333333333312, 27.836666666666677 ], [ 84.269166666666649, 27.834166666666675 ], [ 84.269166666666649, 27.8325 ], [ 84.266666666666652, 27.8325 ], [ 84.266666666666652, 27.8375 ], [ 84.264166666666654, 27.839166666666678 ], [ 84.250833333333318, 27.838333333333345 ], [ 84.243333333333311, 27.846666666666678 ], [ 84.235, 27.844166666666677 ], [ 84.23, 27.846666666666678 ], [ 84.2275, 27.845 ], [ 84.228333333333325, 27.839166666666678 ], [ 84.225, 27.836666666666677 ], [ 84.219166666666652, 27.845833333333342 ], [ 84.216666666666654, 27.846666666666678 ], [ 84.211666666666645, 27.845 ], [ 84.211666666666645, 27.84 ], [ 84.209166666666647, 27.839166666666678 ], [ 84.206666666666649, 27.841666666666676 ], [ 84.2075, 27.848333333333343 ], [ 84.203333333333319, 27.851666666666674 ], [ 84.2, 27.851666666666674 ], [ 84.194166666666661, 27.846666666666678 ], [ 84.189166666666651, 27.846666666666678 ], [ 84.180833333333311, 27.850833333333341 ], [ 84.173333333333318, 27.851666666666674 ], [ 84.171666666666653, 27.846666666666678 ], [ 84.17, 27.845833333333342 ] ] } },
{ "type": "Feature", "properties": { "COMID": 45035672, "id": "27164", "lengthkm": 17.04992627308869, "order": 4, "uparea": 11863.174582804548 }, "geometry": { "type": "LineString", "coordinates": [ [ 84.4225, 27.740833333333342 ], [ 84.421666666666653, 27.744166666666676 ], [ 84.42416666666665, 27.745833333333344 ], [ 84.418333333333322, 27.749166666666675 ], [ 84.4175, 27.751666666666676 ], [ 84.42, 27.755 ], [ 84.416666666666657, 27.759166666666676 ], [ 84.41, 27.76 ], [ 84.405, 27.7625 ], [ 84.394166666666649, 27.774166666666677 ], [ 84.38, 27.779166666666676 ], [ 84.373333333333321, 27.778333333333343 ], [ 84.368333333333311, 27.775 ], [ 84.36166666666665, 27.76 ], [ 84.36166666666665, 27.755 ], [ 84.359166666666653, 27.7525 ], [ 84.354166666666657, 27.751666666666676 ], [ 84.3525, 27.749166666666675 ], [ 84.34333333333332, 27.750833333333343 ], [ 84.341666666666654, 27.745 ], [ 84.339166666666657, 27.744166666666676 ], [ 84.334166666666647, 27.749166666666675 ], [ 84.326666666666654, 27.7475 ], [ 84.323333333333323, 27.7525 ] ] } },
{ "type": "Feature", "properties": { "COMID": 45035670, "id": "27164", "lengthkm": 14.423386507071891, "order": 5, "uparea": 31710.057432485013 }, "geometry": { "type": "LineString", "coordinates": [ [ 84.351666666666659, 27.701666666666675 ], [ 84.354166666666657, 27.698333333333345 ], [ 84.360833333333318, 27.695833333333344 ], [ 84.370833333333323, 27.684166666666677 ], [ 84.373333333333321, 27.6825 ], [ 84.379166666666649, 27.6825 ], [ 84.386666666666656, 27.685833333333342 ], [ 84.388333333333321, 27.685 ], [ 84.4075, 27.696666666666676 ], [ 84.419166666666655, 27.699166666666677 ], [ 84.429166666666646, 27.704166666666676 ], [ 84.431666666666658, 27.7075 ], [ 84.431666666666658, 27.710833333333341 ], [ 84.4225, 27.740833333333342 ] ] } },
{ "type": "Feature", "properties": { "COMID": 45035667, "id": "27164", "lengthkm": 10.72216531054165, "order": 5, "uparea": 31777.842766291691 }, "geometry": { "type": "LineString", "coordinates": [ [ 84.27, 27.669166666666676 ], [ 84.275, 27.669166666666676 ], [ 84.2875, 27.675833333333344 ], [ 84.3025, 27.675 ], [ 84.305833333333311, 27.676666666666677 ], [ 84.314166666666651, 27.676666666666677 ], [ 84.320833333333326, 27.681666666666676 ], [ 84.32, 27.685833333333342 ], [ 84.329166666666652, 27.695833333333344 ], [ 84.34666666666665, 27.70333333333334 ], [ 84.351666666666659, 27.701666666666675 ] ] } },
{ "type": "Feature", "properties": { "COMID": 45035665, "id": "27164", "lengthkm": 1.0682206012064599, "order": 5, "uparea": 31815.973362385968 }, "geometry": { "type": "LineString", "coordinates": [ [ 84.26, 27.6675 ], [ 84.27, 27.669166666666676 ] ] } },
{ "type": "Feature", "properties": { "COMID": 45035664, "id": "27164", "lengthkm": 10.645329046351494, "order": 5, "uparea": 31889.448183948021 }, "geometry": { "type": "LineString", "coordinates": [ [ 84.185833333333321, 27.6375 ], [ 84.189166666666651, 27.635833333333345 ], [ 84.1925, 27.638333333333343 ], [ 84.2, 27.64 ], [ 84.203333333333319, 27.643333333333345 ], [ 84.209166666666647, 27.643333333333345 ], [ 84.220833333333317, 27.655833333333341 ], [ 84.220833333333317, 27.658333333333342 ], [ 84.226666666666659, 27.658333333333342 ], [ 84.23, 27.660833333333343 ], [ 84.2375, 27.655833333333341 ], [ 84.2425, 27.655 ], [ 84.245833333333323, 27.6575 ], [ 84.244166666666658, 27.66 ], [ 84.2475, 27.663333333333341 ], [ 84.255, 27.664166666666674 ], [ 84.26, 27.6675 ] ] } },
{ "type": "Feature", "properties": { "COMID": 45035662, "id": "27164", "lengthkm": 13.897410296595266, "order": 5, "uparea": 31981.948221473638 }, "geometry": { "type": "LineString", "coordinates": [ [ 84.1175, 27.554166666666674 ], [ 84.12, 27.56 ], [ 84.126666666666651, 27.566666666666677 ], [ 84.1375, 27.574166666666677 ], [ 84.1375, 27.59 ], [ 84.135, 27.591666666666676 ], [ 84.135, 27.595 ], [ 84.15583333333332, 27.604166666666679 ], [ 84.161666666666662, 27.611666666666679 ], [ 84.1675, 27.615 ], [ 84.1725, 27.620833333333344 ], [ 84.173333333333318, 27.625 ], [ 84.178333333333313, 27.6275 ], [ 84.179166666666646, 27.630833333333342 ], [ 84.183333333333323, 27.631666666666675 ], [ 84.1825, 27.635833333333345 ], [ 84.183333333333323, 27.6375 ], [ 84.185833333333321, 27.6375 ] ] } },
{ "type": "Feature", "properties": { "COMID": 45035659, "id": "27164", "lengthkm": 1.6976748313589569, "order": 5, "uparea": 35159.406509128261 }, "geometry": { "type": "LineString", "coordinates": [ [ 84.103333333333325, 27.554166666666674 ], [ 84.106666666666655, 27.554166666666674 ], [ 84.10833333333332, 27.551666666666677 ], [ 84.1175, 27.554166666666674 ] ] } },
{ "type": "Feature", "properties": { "COMID": 45035658, "id": "27164", "lengthkm": 18.101743933274275, "order": 5, "uparea": 35334.024866607702 }, "geometry": { "type": "LineString", "coordinates": [ [ 83.9675, 27.5525 ], [ 83.974166666666662, 27.55 ], [ 83.98, 27.544166666666676 ], [ 83.99, 27.5425 ], [ 83.990833333333313, 27.544166666666676 ], [ 84.0, 27.545 ], [ 84.000833333333318, 27.546666666666674 ], [ 84.0225, 27.5375 ], [ 84.031666666666652, 27.536666666666676 ], [ 84.04, 27.545 ], [ 84.039166666666659, 27.5475 ], [ 84.04583333333332, 27.556666666666676 ], [ 84.04916666666665, 27.555 ], [ 84.0525, 27.555 ], [ 84.054166666666646, 27.556666666666676 ], [ 84.0575, 27.555833333333343 ], [ 84.060833333333321, 27.564166666666676 ], [ 84.066666666666649, 27.5625 ], [ 84.069166666666661, 27.564166666666676 ], [ 84.081666666666649, 27.556666666666676 ], [ 84.088333333333324, 27.555 ], [ 84.103333333333325, 27.554166666666674 ] ] } },
{ "type": "Feature", "properties": { "COMID": 45035655, "id": "27164", "lengthkm": 5.9415619614768529, "order": 5, "uparea": 35869.755012033078 }, "geometry": { "type": "LineString", "coordinates": [ [ 83.9225, 27.548333333333343 ], [ 83.928333333333313, 27.549166666666679 ], [ 83.939166666666651, 27.541666666666679 ], [ 83.95, 27.54 ], [ 83.951666666666654, 27.541666666666679 ], [ 83.95, 27.544166666666676 ], [ 83.950833333333321, 27.545 ], [ 83.9575, 27.549166666666679 ], [ 83.9675, 27.5525 ] ] } },
{ "type": "Feature", "properties": { "COMID": 45035652, "id": "27164", "lengthkm": 15.857496222463608, "order": 5, "uparea": 36253.161792616207 }, "geometry": { "type": "LineString", "coordinates": [ [ 83.94, 27.483333333333341 ], [ 83.938333333333318, 27.489166666666677 ], [ 83.939166666666651, 27.491666666666674 ], [ 83.945, 27.495833333333344 ], [ 83.954166666666652, 27.498333333333342 ], [ 83.963333333333324, 27.503333333333345 ], [ 83.969166666666652, 27.51 ], [ 83.969166666666652, 27.5175 ], [ 83.96, 27.525833333333345 ], [ 83.9525, 27.5275 ], [ 83.945, 27.5175 ], [ 83.939166666666651, 27.514166666666675 ], [ 83.928333333333313, 27.513333333333343 ], [ 83.923333333333318, 27.515833333333344 ], [ 83.921666666666653, 27.5175 ], [ 83.9225, 27.524166666666677 ], [ 83.919166666666655, 27.5275 ], [ 83.919166666666655, 27.544166666666676 ], [ 83.9225, 27.548333333333343 ] ] } },
{ "type": "Feature", "properties": { "COMID": 45035650, "id": "27164", "lengthkm": 4.1445550154957216, "order": 5, "uparea": 36340.702508977301 }, "geometry": { "type": "LineString", "coordinates": [ [ 83.934166666666655, 27.450833333333343 ], [ 83.941666666666649, 27.458333333333343 ], [ 83.944166666666661, 27.463333333333345 ], [ 83.944166666666661, 27.4725 ], [ 83.94, 27.483333333333341 ] ] } },
{ "type": "Feature", "properties": { "COMID": 45035648, "id": "27164", "lengthkm": 18.96070577376004, "order": 5, "uparea": 36491.093895721802 }, "geometry": { "type": "LineString", "coordinates": [ [ 83.84666666666665, 27.3425 ], [ 83.850833333333327, 27.345 ], [ 83.8525, 27.3525 ], [ 83.855, 27.355 ], [ 83.8575, 27.3625 ], [ 83.856666666666655, 27.374166666666675 ], [ 83.850833333333327, 27.390833333333344 ], [ 83.855833333333322, 27.395833333333343 ], [ 83.856666666666655, 27.4025 ], [ 83.859166666666653, 27.404166666666676 ], [ 83.85833333333332, 27.406666666666677 ], [ 83.86166666666665, 27.416666666666679 ], [ 83.86166666666665, 27.423333333333343 ], [ 83.868333333333311, 27.428333333333342 ], [ 83.895833333333314, 27.4375 ], [ 83.913333333333327, 27.440833333333345 ], [ 83.934166666666655, 27.450833333333343 ] ] } },
{ "type": "Feature", "properties": { "COMID": 45035645, "id": "27164", "lengthkm": 26.462442975444951, "order": 5, "uparea": 36777.296780823519 }, "geometry": { "type": "LineString", "coordinates": [ [ 83.96, 27.191666666666677 ], [ 83.955, 27.1975 ], [ 83.954166666666652, 27.2025 ], [ 83.941666666666649, 27.215 ], [ 83.930833333333311, 27.218333333333341 ], [ 83.92416666666665, 27.2225 ], [ 83.915833333333325, 27.220833333333346 ], [ 83.900833333333324, 27.225 ], [ 83.895833333333314, 27.221666666666678 ], [ 83.89, 27.226666666666677 ], [ 83.883333333333326, 27.2275 ], [ 83.881666666666661, 27.23 ], [ 83.880833333333328, 27.229166666666679 ], [ 83.878333333333316, 27.231666666666676 ], [ 83.874166666666653, 27.2325 ], [ 83.8675, 27.239166666666677 ], [ 83.866666666666646, 27.248333333333342 ], [ 83.860833333333318, 27.26 ], [ 83.85, 27.271666666666675 ], [ 83.849166666666662, 27.275833333333345 ], [ 83.840833333333322, 27.2825 ], [ 83.836666666666645, 27.2925 ], [ 83.836666666666645, 27.295833333333341 ], [ 83.839166666666657, 27.2975 ], [ 83.839166666666657, 27.299166666666679 ], [ 83.835833333333312, 27.301666666666677 ], [ 83.836666666666645, 27.311666666666675 ], [ 83.84, 27.314166666666676 ], [ 83.838333333333324, 27.318333333333342 ], [ 83.8425, 27.321666666666676 ], [ 83.845, 27.33 ], [ 83.844166666666652, 27.3375 ], [ 83.84666666666665, 27.3425 ] ] } },
{ "type": "Feature", "properties": { "COMID": 45039752, "id": "27164", "lengthkm": 8.9177617263148683, "order": 5, "uparea": 37024.96182516744 }, "geometry": { "type": "LineString", "coordinates": [ [ 84.0, 27.130833333333342 ], [ 84.0, 27.1375 ], [ 83.9975, 27.145833333333343 ], [ 83.990833333333313, 27.150833333333345 ], [ 83.98666666666665, 27.158333333333346 ], [ 83.979166666666657, 27.163333333333341 ], [ 83.970833333333317, 27.173333333333343 ], [ 83.96833333333332, 27.173333333333343 ], [ 83.958333333333314, 27.183333333333344 ], [ 83.958333333333314, 27.185833333333342 ], [ 83.960833333333312, 27.188333333333343 ], [ 83.96, 27.191666666666677 ] ] } },
{ "type": "Feature", "properties": { "COMID": 45039749, "id": "27164", "lengthkm": 1.4855845713528999, "order": 5, "uparea": 37089.547570528935 }, "geometry": { "type": "LineString", "coordinates": [ [ 83.998333333333321, 27.119166666666679 ], [ 83.9975, 27.121666666666677 ], [ 84.0, 27.125833333333343 ], [ 84.0, 27.130833333333342 ] ] } },
{ "type": "Feature", "properties": { "COMID": 45039748, "id": "27164", "lengthkm": 25.99784100858805, "order": 5, "uparea": 37224.022109851074 }, "geometry": { "type": "LineString", "coordinates": [ [ 84.14, 27.013333333333343 ], [ 84.13, 27.013333333333343 ], [ 84.128333333333316, 27.011666666666677 ], [ 84.123333333333321, 27.011666666666677 ], [ 84.10833333333332, 27.005833333333342 ], [ 84.095833333333317, 27.01 ], [ 84.090833333333322, 27.013333333333343 ], [ 84.08, 27.015 ], [ 84.0725, 27.024166666666677 ], [ 84.065833333333316, 27.025 ], [ 84.063333333333318, 27.029166666666676 ], [ 84.065, 27.035 ], [ 84.061666666666653, 27.036666666666676 ], [ 84.053333333333313, 27.046666666666678 ], [ 84.055833333333311, 27.050833333333344 ], [ 84.0525, 27.0525 ], [ 84.053333333333313, 27.054166666666674 ], [ 84.050833333333316, 27.0575 ], [ 84.0425, 27.060833333333342 ], [ 84.039166666666659, 27.069166666666675 ], [ 84.03083333333332, 27.068333333333342 ], [ 84.025, 27.0725 ], [ 84.02, 27.073333333333345 ], [ 84.015, 27.071666666666676 ], [ 84.010833333333323, 27.074166666666677 ], [ 84.01, 27.0775 ], [ 84.013333333333321, 27.085833333333344 ], [ 84.009166666666658, 27.09 ], [ 84.0075, 27.095 ], [ 84.003333333333316, 27.093333333333341 ], [ 84.000833333333318, 27.095 ], [ 84.0025, 27.1 ], [ 83.998333333333321, 27.101666666666677 ], [ 83.998333333333321, 27.105 ], [ 84.0025, 27.111666666666679 ], [ 84.0025, 27.114166666666677 ], [ 83.998333333333321, 27.119166666666679 ] ] } },
{ "type": "Feature", "properties": { "COMID": 45039746, "id": "27164", "lengthkm": 7.6738682365715079, "order": 5, "uparea": 37506.304447726659 }, "geometry": { "type": "LineString", "coordinates": [ [ 84.179166666666646, 26.960833333333344 ], [ 84.1725, 26.969166666666677 ], [ 84.171666666666653, 26.9725 ], [ 84.165, 26.98 ], [ 84.160833333333315, 26.980833333333344 ], [ 84.160833333333315, 26.983333333333341 ], [ 84.153333333333322, 26.990833333333342 ], [ 84.148333333333312, 27.0025 ], [ 84.14, 27.013333333333343 ] ] } },
{ "type": "Feature", "properties": { "COMID": 45039744, "id": "27164", "lengthkm": 14.710045518675773, "order": 5, "uparea": 37611.269152875422 }, "geometry": { "type": "LineString", "coordinates": [ [ 84.220833333333317, 26.894166666666678 ], [ 84.215, 26.894166666666678 ], [ 84.209166666666647, 26.898333333333344 ], [ 84.206666666666649, 26.898333333333344 ], [ 84.2, 26.89 ], [ 84.189166666666651, 26.888333333333343 ], [ 84.178333333333313, 26.898333333333344 ], [ 84.1775, 26.9 ], [ 84.179166666666646, 26.9025 ], [ 84.184166666666655, 26.906666666666677 ], [ 84.186666666666653, 26.906666666666677 ], [ 84.190833333333316, 26.911666666666676 ], [ 84.19, 26.913333333333341 ], [ 84.1925, 26.915 ], [ 84.191666666666649, 26.918333333333344 ], [ 84.195833333333326, 26.925 ], [ 84.195, 26.9375 ], [ 84.191666666666649, 26.946666666666676 ], [ 84.189166666666651, 26.948333333333345 ], [ 84.188333333333318, 26.9475 ], [ 84.178333333333313, 26.96 ], [ 84.179166666666646, 26.960833333333344 ] ] } },
{ "type": "Feature", "properties": { "COMID": 45039741, "id": "27164", "lengthkm": 8.147355743973101, "order": 5, "uparea": 37693.898820166629 }, "geometry": { "type": "LineString", "coordinates": [ [ 84.283333333333317, 26.859166666666678 ], [ 84.261666666666656, 26.866666666666674 ], [ 84.254166666666649, 26.874166666666675 ], [ 84.246666666666655, 26.875833333333343 ], [ 84.240833333333313, 26.881666666666675 ], [ 84.238333333333316, 26.881666666666675 ], [ 84.2275, 26.8875 ], [ 84.2225, 26.894166666666678 ], [ 84.220833333333317, 26.894166666666678 ] ] } },
{ "type": "Feature", "properties": { "COMID": 45039739, "id": "27164", "lengthkm": 19.89430053762884, "order": 5, "uparea": 37793.254959076585 }, "geometry": { "type": "LineString", "coordinates": [ [ 84.378333333333316, 26.753333333333345 ], [ 84.353333333333325, 26.7675 ], [ 84.35, 26.765833333333344 ], [ 84.3475, 26.768333333333345 ], [ 84.34333333333332, 26.768333333333345 ], [ 84.3425, 26.77 ], [ 84.339166666666657, 26.769166666666678 ], [ 84.334166666666647, 26.771666666666675 ], [ 84.32, 26.785833333333343 ], [ 84.320833333333326, 26.786666666666676 ], [ 84.315833333333316, 26.79 ], [ 84.306666666666658, 26.793333333333344 ], [ 84.2975, 26.794166666666676 ], [ 84.291666666666657, 26.7975 ], [ 84.289166666666659, 26.800833333333344 ], [ 84.29, 26.811666666666675 ], [ 84.296666666666653, 26.818333333333342 ], [ 84.305, 26.831666666666678 ], [ 84.301666666666648, 26.838333333333345 ], [ 84.293333333333322, 26.8475 ], [ 84.289166666666659, 26.849166666666676 ], [ 84.283333333333317, 26.859166666666678 ] ] } },
{ "type": "Feature", "properties": { "COMID": 45039736, "id": "27164", "lengthkm": 8.3585830492888036, "order": 5, "uparea": 38095.113365265999 }, "geometry": { "type": "LineString", "coordinates": [ [ 84.428333333333313, 26.700833333333343 ], [ 84.418333333333322, 26.708333333333343 ], [ 84.415, 26.715833333333343 ], [ 84.406666666666652, 26.723333333333343 ], [ 84.40583333333332, 26.73 ], [ 84.4, 26.736666666666679 ], [ 84.378333333333316, 26.753333333333345 ] ] } },
{ "type": "Feature", "properties": { "COMID": 45039735, "id": "27164", "lengthkm": 8.8561594340747654, "order": 5, "uparea": 38143.898422924656 }, "geometry": { "type": "LineString", "coordinates": [ [ 84.435, 26.631666666666675 ], [ 84.438333333333318, 26.635833333333345 ], [ 84.438333333333318, 26.640833333333344 ], [ 84.436666666666653, 26.644166666666678 ], [ 84.430833333333311, 26.6475 ], [ 84.4325, 26.649166666666677 ], [ 84.43, 26.653333333333343 ], [ 84.431666666666658, 26.660833333333343 ], [ 84.430833333333311, 26.665833333333346 ], [ 84.434166666666655, 26.681666666666679 ], [ 84.431666666666658, 26.6975 ], [ 84.428333333333313, 26.700833333333343 ] ] } },
{ "type": "Feature", "properties": { "COMID": 45039734, "id": "27164", "lengthkm": 3.639243204217113, "order": 5, "uparea": 38929.849717260091 }, "geometry": { "type": "LineString", "coordinates": [ [ 84.4525, 26.605833333333344 ], [ 84.4475, 26.609166666666678 ], [ 84.439166666666651, 26.620833333333344 ], [ 84.438333333333318, 26.626666666666679 ], [ 84.435, 26.631666666666675 ] ] } },
{ "type": "Feature", "properties": { "COMID": 45043759, "id": "27164", "lengthkm": 7.2777240468366786, "order": 5, "uparea": 38987.120740854611 }, "geometry": { "type": "LineString", "coordinates": [ [ 84.46833333333332, 26.5475 ], [ 84.47, 26.55 ], [ 84.466666666666654, 26.554166666666678 ], [ 84.465833333333322, 26.561666666666675 ], [ 84.461666666666645, 26.566666666666677 ], [ 84.455, 26.585 ], [ 84.455, 26.6 ], [ 84.4525, 26.605833333333344 ] ] } },
{ "type": "Feature", "properties": { "COMID": 45043757, "id": "27164", "lengthkm": 16.836477470475842, "order": 5, "uparea": 39143.435601002908 }, "geometry": { "type": "LineString", "coordinates": [ [ 84.556666666666658, 26.520833333333343 ], [ 84.5525, 26.521666666666675 ], [ 84.541666666666657, 26.518333333333345 ], [ 84.536666666666648, 26.5125 ], [ 84.535, 26.5075 ], [ 84.53, 26.505 ], [ 84.53083333333332, 26.495 ], [ 84.523333333333312, 26.489166666666677 ], [ 84.510833333333323, 26.490833333333342 ], [ 84.508333333333326, 26.4925 ], [ 84.506666666666661, 26.491666666666678 ], [ 84.504166666666649, 26.495 ], [ 84.499166666666653, 26.511666666666677 ], [ 84.495, 26.515 ], [ 84.499166666666653, 26.519166666666678 ], [ 84.4825, 26.536666666666676 ], [ 84.478333333333325, 26.5375 ], [ 84.475, 26.5425 ], [ 84.470833333333317, 26.544166666666676 ], [ 84.46833333333332, 26.5475 ] ] } },
{ "type": "Feature", "properties": { "COMID": 45043756, "id": "27164", "lengthkm": 16.995716486757381, "order": 5, "uparea": 39373.796721187493 }, "geometry": { "type": "LineString", "coordinates": [ [ 84.665833333333325, 26.471666666666678 ], [ 84.661666666666648, 26.476666666666677 ], [ 84.656666666666652, 26.476666666666677 ], [ 84.653333333333322, 26.48 ], [ 84.643333333333317, 26.48 ], [ 84.634166666666658, 26.475833333333345 ], [ 84.625, 26.476666666666677 ], [ 84.620833333333323, 26.478333333333346 ], [ 84.61166666666665, 26.49 ], [ 84.6025, 26.4925 ], [ 84.591666666666654, 26.490833333333342 ], [ 84.574166666666656, 26.4825 ], [ 84.5675, 26.4825 ], [ 84.563333333333318, 26.4975 ], [ 84.561666666666653, 26.499166666666675 ], [ 84.561666666666653, 26.51 ], [ 84.56, 26.516666666666676 ], [ 84.556666666666658, 26.520833333333343 ] ] } },
{ "type": "Feature", "properties": { "COMID": 45043754, "id": "27164", "lengthkm": 36.241204833763064, "order": 5, "uparea": 39574.821774817749 }, "geometry": { "type": "LineString", "coordinates": [ [ 84.8425, 26.2575 ], [ 84.84, 26.276666666666678 ], [ 84.8425, 26.280833333333344 ], [ 84.845, 26.281666666666677 ], [ 84.845, 26.283333333333346 ], [ 84.8375, 26.286666666666676 ], [ 84.823333333333323, 26.301666666666677 ], [ 84.821666666666658, 26.306666666666679 ], [ 84.8175, 26.310833333333342 ], [ 84.8125, 26.310833333333342 ], [ 84.806666666666658, 26.314166666666679 ], [ 84.7975, 26.314166666666679 ], [ 84.78416666666665, 26.3225 ], [ 84.7725, 26.335 ], [ 84.77, 26.335 ], [ 84.7675, 26.3375 ], [ 84.765833333333319, 26.3425 ], [ 84.740833333333313, 26.368333333333347 ], [ 84.73333333333332, 26.388333333333343 ], [ 84.73666666666665, 26.408333333333346 ], [ 84.73666666666665, 26.4125 ], [ 84.73333333333332, 26.419166666666676 ], [ 84.7275, 26.423333333333346 ], [ 84.706666666666649, 26.423333333333346 ], [ 84.688333333333318, 26.4275 ], [ 84.685833333333321, 26.431666666666679 ], [ 84.686666666666653, 26.438333333333343 ], [ 84.685, 26.443333333333342 ], [ 84.681666666666658, 26.445833333333344 ], [ 84.680833333333311, 26.466666666666676 ], [ 84.67416666666665, 26.4725 ], [ 84.665833333333325, 26.471666666666678 ] ] } },
{ "type": "Feature", "properties": { "COMID": 45043751, "id": "27164", "lengthkm": 5.8650909989248836, "order": 5, "uparea": 39662.227937198659 }, "geometry": { "type": "LineString", "coordinates": [ [ 84.869166666666644, 26.2325 ], [ 84.8575, 26.231666666666676 ], [ 84.854166666666657, 26.234166666666678 ], [ 84.8425, 26.236666666666679 ], [ 84.838333333333324, 26.244166666666679 ], [ 84.839166666666657, 26.25 ], [ 84.844166666666652, 26.253333333333345 ], [ 84.8425, 26.2575 ] ] } },
{ "type": "Feature", "properties": { "COMID": 45043749, "id": "27164", "lengthkm": 23.4497498887917, "order": 5, "uparea": 39780.528604275438 }, "geometry": { "type": "LineString", "coordinates": [ [ 84.948333333333323, 26.108333333333341 ], [ 84.916666666666657, 26.129166666666677 ], [ 84.898333333333312, 26.148333333333344 ], [ 84.896666666666647, 26.1525 ], [ 84.894166666666649, 26.1725 ], [ 84.899166666666645, 26.1825 ], [ 84.903333333333322, 26.185 ], [ 84.9125, 26.185 ], [ 84.915, 26.188333333333343 ], [ 84.925833333333316, 26.191666666666677 ], [ 84.93, 26.19666666666668 ], [ 84.928333333333313, 26.205 ], [ 84.923333333333318, 26.210833333333344 ], [ 84.908333333333317, 26.219166666666677 ], [ 84.896666666666647, 26.228333333333346 ], [ 84.894166666666649, 26.228333333333346 ], [ 84.889166666666654, 26.231666666666676 ], [ 84.869166666666644, 26.2325 ] ] } },
{ "type": "Feature", "properties": { "COMID": 45047827, "id": "27164", "lengthkm": 19.289396809689556, "order": 5, "uparea": 39921.547015120843 }, "geometry": { "type": "LineString", "coordinates": [ [ 85.044166666666655, 25.990833333333342 ], [ 85.0325, 25.995 ], [ 85.01, 26.01 ], [ 85.0025, 26.010833333333345 ], [ 84.98333333333332, 26.01666666666668 ], [ 84.97, 26.0275 ], [ 84.965833333333322, 26.043333333333344 ], [ 84.9675, 26.046666666666678 ], [ 84.965, 26.065 ], [ 84.965833333333322, 26.080833333333345 ], [ 84.9575, 26.095 ], [ 84.956666666666649, 26.100833333333345 ], [ 84.948333333333323, 26.108333333333341 ] ] } },
{ "type": "Feature", "properties": { "COMID": 45047825, "id": "27164", "lengthkm": 42.916764177651494, "order": 5, "uparea": 40143.236526251945 }, "geometry": { "type": "LineString", "coordinates": [ [ 85.193333333333314, 25.680833333333347 ], [ 85.194166666666661, 25.691666666666677 ], [ 85.1925, 25.693333333333342 ], [ 85.193333333333314, 25.699166666666677 ], [ 85.191666666666649, 25.7025 ], [ 85.190833333333316, 25.7125 ], [ 85.173333333333318, 25.745 ], [ 85.175, 25.75 ], [ 85.173333333333318, 25.755833333333342 ], [ 85.17416666666665, 25.7675 ], [ 85.17083333333332, 25.780833333333344 ], [ 85.17083333333332, 25.788333333333345 ], [ 85.1725, 25.79 ], [ 85.17083333333332, 25.811666666666678 ], [ 85.164166666666659, 25.835 ], [ 85.16, 25.84 ], [ 85.1425, 25.848333333333343 ], [ 85.136666666666656, 25.849166666666676 ], [ 85.125833333333318, 25.858333333333345 ], [ 85.118333333333311, 25.873333333333342 ], [ 85.114166666666648, 25.895833333333343 ], [ 85.085833333333312, 25.918333333333344 ], [ 85.074166666666656, 25.935 ], [ 85.0725, 25.95 ], [ 85.074166666666656, 25.9675 ], [ 85.0725, 25.970833333333346 ], [ 85.060833333333321, 25.984166666666678 ], [ 85.044166666666655, 25.990833333333342 ] ] } },
{ "type": "Feature", "properties": { "COMID": 45047821, "id": "27164", "lengthkm": 4.3512653102885794, "order": 5, "uparea": 40532.359433252859 }, "geometry": { "type": "LineString", "coordinates": [ [ 85.185, 25.646666666666675 ], [ 85.1875, 25.654166666666676 ], [ 85.191666666666649, 25.658333333333346 ], [ 85.191666666666649, 25.665 ], [ 85.193333333333314, 25.665833333333346 ], [ 85.194166666666661, 25.669166666666676 ], [ 85.193333333333314, 25.680833333333347 ] ] } },
{ "type": "Feature", "properties": { "COMID": 45047820, "id": "27164", "lengthkm": 3.011838712412076, "order": 5, "uparea": 43513.540708262233 }, "geometry": { "type": "LineString", "coordinates": [ [ 85.1825, 25.623333333333342 ], [ 85.181666666666644, 25.626666666666679 ], [ 85.185833333333321, 25.63416666666668 ], [ 85.1825, 25.640833333333344 ], [ 85.185, 25.646666666666675 ] ] } },
{ "type": "Feature", "properties": { "COMID": 45047761, "id": "27164", "lengthkm": 30.113487532903513, "order": 7, "uparea": 767508.01009255531 }, "geometry": { "type": "LineString", "coordinates": [ [ 85.430833333333311, 25.58 ], [ 85.413333333333327, 25.581666666666678 ], [ 85.4, 25.585833333333344 ], [ 85.385833333333323, 25.595833333333346 ], [ 85.3675, 25.601666666666677 ], [ 85.349166666666648, 25.61 ], [ 85.338333333333324, 25.619166666666679 ], [ 85.326666666666654, 25.625 ], [ 85.323333333333323, 25.628333333333345 ], [ 85.301666666666648, 25.638333333333343 ], [ 85.285833333333315, 25.639166666666675 ], [ 85.28, 25.635833333333345 ], [ 85.273333333333312, 25.6275 ], [ 85.2675, 25.626666666666679 ], [ 85.2625, 25.621666666666677 ], [ 85.255, 25.6225 ], [ 85.253333333333316, 25.620833333333344 ], [ 85.2475, 25.62 ], [ 85.230833333333322, 25.610833333333346 ], [ 85.219166666666652, 25.613333333333344 ], [ 85.2025, 25.62 ], [ 85.195833333333326, 25.62 ], [ 85.1825, 25.623333333333342 ] ] } },
{ "type": "Feature", "properties": { "COMID": 45047760, "id": "27164", "lengthkm": 9.0384393626184476, "order": 7, "uparea": 767569.71665228531 }, "geometry": { "type": "LineString", "coordinates": [ [ 85.4925, 25.535833333333343 ], [ 85.488333333333316, 25.5425 ], [ 85.4825, 25.545833333333345 ], [ 85.476666666666659, 25.5525 ], [ 85.4725, 25.559166666666677 ], [ 85.470833333333317, 25.565833333333345 ], [ 85.465833333333322, 25.57 ], [ 85.460833333333312, 25.5725 ], [ 85.439166666666651, 25.575 ], [ 85.430833333333311, 25.58 ] ] } },
{ "type": "Feature", "properties": { "COMID": 45047759, "id": "27164", "lengthkm": 8.2564527523421436, "order": 7, "uparea": 767659.27251053485 }, "geometry": { "type": "LineString", "coordinates": [ [ 85.539166666666659, 25.483333333333345 ], [ 85.5175, 25.499166666666678 ], [ 85.510833333333323, 25.501666666666679 ], [ 85.503333333333316, 25.50916666666668 ], [ 85.498333333333321, 25.528333333333343 ], [ 85.4925, 25.535833333333343 ] ] } },
{ "type": "Feature", "properties": { "COMID": 45047758, "id": "27164", "lengthkm": 8.8055427635086136, "order": 7, "uparea": 777324.74148085795 }, "geometry": { "type": "LineString", "coordinates": [ [ 85.615, 25.5025 ], [ 85.609166666666653, 25.501666666666679 ], [ 85.598333333333315, 25.504166666666677 ], [ 85.583333333333314, 25.501666666666679 ], [ 85.575, 25.499166666666678 ], [ 85.56, 25.489166666666677 ], [ 85.539166666666659, 25.483333333333345 ] ] } },
{ "type": "Feature", "properties": { "COMID": 45047757, "id": "27164", "lengthkm": 22.634750168892783, "order": 7, "uparea": 777513.88358226442 }, "geometry": { "type": "LineString", "coordinates": [ [ 85.814166666666651, 25.508333333333347 ], [ 85.800833333333316, 25.510833333333345 ], [ 85.769166666666649, 25.510833333333345 ], [ 85.7525, 25.515 ], [ 85.730833333333322, 25.515 ], [ 85.723333333333315, 25.513333333333343 ], [ 85.7125, 25.5025 ], [ 85.686666666666653, 25.4975 ], [ 85.673333333333318, 25.491666666666678 ], [ 85.66, 25.491666666666678 ], [ 85.653333333333322, 25.494166666666679 ], [ 85.6325, 25.4925 ], [ 85.623333333333321, 25.499166666666678 ], [ 85.615, 25.5025 ] ] } },
{ "type": "Feature", "properties": { "COMID": 45047756, "id": "27164", "lengthkm": 10.308416660271217, "order": 7, "uparea": 777638.42763592943 }, "geometry": { "type": "LineString", "coordinates": [ [ 85.903333333333322, 25.4875 ], [ 85.8875, 25.493333333333347 ], [ 85.871666666666655, 25.490833333333345 ], [ 85.853333333333325, 25.500833333333347 ], [ 85.8475, 25.5025 ], [ 85.833333333333314, 25.5025 ], [ 85.814166666666651, 25.508333333333347 ] ] } },
{ "type": "Feature", "properties": { "COMID": 45047755, "id": "27164", "lengthkm": 0.99993157790438203, "order": 7, "uparea": 777695.62104906433 }, "geometry": { "type": "LineString", "coordinates": [ [ 85.910833333333315, 25.4825 ], [ 85.903333333333322, 25.4875 ] ] } },
{ "type": "Feature", "properties": { "COMID": 45051904, "id": "27164", "lengthkm": 13.817278566774267, "order": 7, "uparea": 779994.32015777251 }, "geometry": { "type": "LineString", "coordinates": [ [ 85.988333333333316, 25.403333333333343 ], [ 85.98666666666665, 25.415833333333346 ], [ 85.98, 25.431666666666679 ], [ 85.975833333333327, 25.435833333333342 ], [ 85.938333333333318, 25.443333333333342 ], [ 85.930833333333311, 25.453333333333344 ], [ 85.92416666666665, 25.46916666666668 ], [ 85.910833333333315, 25.4825 ] ] } },
{ "type": "Feature", "properties": { "COMID": 45051903, "id": "27164", "lengthkm": 9.658181609541872, "order": 7, "uparea": 780083.72666677891 }, "geometry": { "type": "LineString", "coordinates": [ [ 86.033333333333317, 25.335833333333344 ], [ 86.01, 25.360833333333346 ], [ 85.994166666666644, 25.375 ], [ 85.9925, 25.380833333333342 ], [ 85.98666666666665, 25.389166666666679 ], [ 85.99, 25.398333333333344 ], [ 85.99, 25.401666666666678 ], [ 85.988333333333316, 25.403333333333343 ] ] } },
{ "type": "Feature", "properties": { "COMID": 45051902, "id": "27164", "lengthkm": 15.462205649258101, "order": 7, "uparea": 780184.89537061797 }, "geometry": { "type": "LineString", "coordinates": [ [ 86.169166666666655, 25.32916666666668 ], [ 86.15083333333331, 25.3275 ], [ 86.146666666666647, 25.32916666666668 ], [ 86.141666666666652, 25.334166666666675 ], [ 86.134166666666658, 25.33666666666668 ], [ 86.1175, 25.335 ], [ 86.1125, 25.3325 ], [ 86.09333333333332, 25.3325 ], [ 86.0875, 25.334166666666675 ], [ 86.081666666666649, 25.330833333333345 ], [ 86.071666666666658, 25.335833333333344 ], [ 86.063333333333318, 25.330833333333345 ], [ 86.0475, 25.331666666666678 ], [ 86.043333333333322, 25.334166666666675 ], [ 86.033333333333317, 25.335833333333344 ] ] } },
{ "type": "Feature", "properties": { "COMID": 45051901, "id": "27164", "lengthkm": 3.344402738247271, "order": 7, "uparea": 780233.96666283952 }, "geometry": { "type": "LineString", "coordinates": [ [ 86.199166666666656, 25.3275 ], [ 86.195, 25.328333333333344 ], [ 86.185833333333321, 25.325833333333343 ], [ 86.179166666666646, 25.325833333333343 ], [ 86.169166666666655, 25.32916666666668 ] ] } },
{ "type": "Feature", "properties": { "COMID": 45051900, "id": "27164", "lengthkm": 2.6302205788259521, "order": 7, "uparea": 780284.04408593173 }, "geometry": { "type": "LineString", "coordinates": [ [ 86.220833333333317, 25.33666666666668 ], [ 86.199166666666656, 25.3275 ] ] } },
{ "type": "Feature", "properties": { "COMID": 45051899, "id": "27164", "lengthkm": 30.224758920126764, "order": 7, "uparea": 780524.47802505293 }, "geometry": { "type": "LineString", "coordinates": [ [ 86.455, 25.390833333333344 ], [ 86.4525, 25.388333333333343 ], [ 86.4425, 25.385833333333345 ], [ 86.4275, 25.379166666666677 ], [ 86.42083333333332, 25.378333333333345 ], [ 86.418333333333322, 25.375833333333347 ], [ 86.413333333333313, 25.376666666666679 ], [ 86.408333333333317, 25.3725 ], [ 86.405, 25.371666666666677 ], [ 86.4, 25.360833333333346 ], [ 86.40083333333331, 25.358333333333345 ], [ 86.399166666666645, 25.354166666666679 ], [ 86.386666666666656, 25.3375 ], [ 86.383333333333326, 25.33 ], [ 86.375833333333318, 25.3225 ], [ 86.366666666666646, 25.316666666666677 ], [ 86.35, 25.313333333333347 ], [ 86.34, 25.313333333333347 ], [ 86.320833333333326, 25.3175 ], [ 86.3075, 25.3225 ], [ 86.286666666666648, 25.333333333333343 ], [ 86.264166666666654, 25.3325 ], [ 86.26, 25.33 ], [ 86.255, 25.33 ], [ 86.245833333333323, 25.330833333333345 ], [ 86.235833333333318, 25.33666666666668 ], [ 86.220833333333317, 25.33666666666668 ] ] } },
{ "type": "Feature", "properties": { "COMID": 45051898, "id": "27164", "lengthkm": 1.517771935763004, "order": 7, "uparea": 797978.70179993298 }, "geometry": { "type": "LineString", "coordinates": [ [ 86.464166666666642, 25.400833333333345 ], [ 86.464166666666642, 25.39916666666668 ], [ 86.455, 25.390833333333344 ] ] } },
{ "type": "Feature", "properties": { "COMID": 45047754, "id": "27164", "lengthkm": 20.421149380785184, "order": 7, "uparea": 798180.41303007549 }, "geometry": { "type": "LineString", "coordinates": [ [ 86.605833333333322, 25.445 ], [ 86.599166666666648, 25.455 ], [ 86.581666666666649, 25.470833333333346 ], [ 86.565, 25.478333333333346 ], [ 86.546666666666653, 25.476666666666677 ], [ 86.538333333333313, 25.473333333333343 ], [ 86.505833333333314, 25.4375 ], [ 86.493333333333311, 25.4275 ], [ 86.4875, 25.418333333333344 ], [ 86.481666666666655, 25.4125 ], [ 86.470833333333317, 25.4075 ], [ 86.464166666666642, 25.400833333333345 ] ] } },
{ "type": "Feature", "properties": { "COMID": 45051897, "id": "27164", "lengthkm": 12.983959519354329, "order": 7, "uparea": 812325.75933562126 }, "geometry": { "type": "LineString", "coordinates": [ [ 86.573333333333323, 25.348333333333343 ], [ 86.574166666666656, 25.35 ], [ 86.5675, 25.36 ], [ 86.5675, 25.365833333333345 ], [ 86.569166666666646, 25.368333333333347 ], [ 86.566666666666649, 25.375 ], [ 86.569166666666646, 25.38416666666668 ], [ 86.573333333333323, 25.393333333333345 ], [ 86.576666666666654, 25.396666666666675 ], [ 86.5775, 25.40666666666668 ], [ 86.6, 25.4275 ], [ 86.606666666666655, 25.439166666666679 ], [ 86.605833333333322, 25.445 ] ] } },
{ "type": "Feature", "properties": { "COMID": 45051896, "id": "27164", "lengthkm": 14.840987314726481, "order": 7, "uparea": 812440.08428712515 }, "geometry": { "type": "LineString", "coordinates": [ [ 86.639166666666654, 25.248333333333346 ], [ 86.636666666666656, 25.250833333333347 ], [ 86.6325, 25.250833333333347 ], [ 86.629166666666649, 25.253333333333345 ], [ 86.629166666666649, 25.258333333333347 ], [ 86.623333333333321, 25.264166666666679 ], [ 86.616666666666646, 25.268333333333345 ], [ 86.609166666666653, 25.269166666666678 ], [ 86.5875, 25.290833333333346 ], [ 86.584166666666647, 25.2975 ], [ 86.585833333333312, 25.31 ], [ 86.576666666666654, 25.331666666666678 ], [ 86.573333333333323, 25.348333333333343 ] ] } },
{ "type": "Feature", "properties": { "COMID": 45051895, "id": "27164", "lengthkm": 2.3420771517654129, "order": 7, "uparea": 812804.86404177081 }, "geometry": { "type": "LineString", "coordinates": [ [ 86.66, 25.245 ], [ 86.65583333333332, 25.246666666666677 ], [ 86.646666666666647, 25.245833333333344 ], [ 86.639166666666654, 25.248333333333346 ] ] } },
{ "type": "Feature", "properties": { "COMID": 45051894, "id": "27164", "lengthkm": 8.5315261258591235, "order": 7, "uparea": 813444.02121682768 }, "geometry": { "type": "LineString", "coordinates": [ [ 86.735833333333318, 25.263333333333343 ], [ 86.7325, 25.26 ], [ 86.719166666666652, 25.254166666666677 ], [ 86.7025, 25.249166666666678 ], [ 86.671666666666653, 25.245 ], [ 86.66, 25.245 ] ] } },
{ "type": "Feature", "properties": { "COMID": 45051893, "id": "27164", "lengthkm": 22.268182584772731, "order": 7, "uparea": 813709.90019180183 }, "geometry": { "type": "LineString", "coordinates": [ [ 86.919166666666655, 25.3275 ], [ 86.916666666666657, 25.328333333333344 ], [ 86.906666666666652, 25.3225 ], [ 86.9025, 25.318333333333342 ], [ 86.90083333333331, 25.314166666666679 ], [ 86.896666666666647, 25.311666666666678 ], [ 86.876666666666651, 25.3075 ], [ 86.863333333333316, 25.308333333333344 ], [ 86.855833333333322, 25.305 ], [ 86.83833333333331, 25.306666666666679 ], [ 86.835833333333312, 25.305833333333347 ], [ 86.826666666666654, 25.295 ], [ 86.8225, 25.2925 ], [ 86.81, 25.29 ], [ 86.803333333333313, 25.285 ], [ 86.78416666666665, 25.28166666666668 ], [ 86.754166666666649, 25.27 ], [ 86.7475, 25.265833333333344 ], [ 86.735833333333318, 25.263333333333343 ] ] } },
{ "type": "Feature", "properties": { "COMID": 45051892, "id": "27164", "lengthkm": 12.385365758953569, "order": 7, "uparea": 813980.71451910015 }, "geometry": { "type": "LineString", "coordinates": [ [ 87.005833333333314, 25.275833333333345 ], [ 87.0025, 25.289166666666677 ], [ 86.994166666666644, 25.301666666666677 ], [ 86.975833333333313, 25.309166666666677 ], [ 86.97166666666665, 25.3125 ], [ 86.956666666666649, 25.313333333333347 ], [ 86.951666666666654, 25.316666666666677 ], [ 86.948333333333323, 25.316666666666677 ], [ 86.9425, 25.3225 ], [ 86.934166666666655, 25.32166666666668 ], [ 86.9225, 25.325 ], [ 86.919166666666655, 25.3275 ] ] } },
{ "type": "Feature", "properties": { "COMID": 45051891, "id": "27164", "lengthkm": 19.399482122811264, "order": 7, "uparea": 815681.5700693588 }, "geometry": { "type": "LineString", "coordinates": [ [ 87.1775, 25.285833333333343 ], [ 87.165833333333325, 25.285833333333343 ], [ 87.1575, 25.289166666666677 ], [ 87.143333333333317, 25.291666666666679 ], [ 87.13, 25.289166666666677 ], [ 87.119166666666644, 25.291666666666679 ], [ 87.099166666666648, 25.2825 ], [ 87.09666666666665, 25.28 ], [ 87.078333333333319, 25.275 ], [ 87.066666666666649, 25.275833333333345 ], [ 87.055833333333311, 25.2725 ], [ 87.0325, 25.2725 ], [ 87.014166666666654, 25.275833333333345 ], [ 87.005833333333314, 25.275833333333345 ] ] } },
{ "type": "Feature", "properties": { "COMID": 45051890, "id": "27164", "lengthkm": 5.6081068768050901, "order": 7, "uparea": 815785.04170398985 }, "geometry": { "type": "LineString", "coordinates": [ [ 87.21833333333332, 25.261666666666677 ], [ 87.211666666666645, 25.264166666666679 ], [ 87.206666666666649, 25.264166666666679 ], [ 87.189166666666651, 25.270833333333343 ], [ 87.181666666666644, 25.280833333333344 ], [ 87.180833333333311, 25.284166666666678 ], [ 87.1775, 25.285833333333343 ] ] } },
{ "type": "Feature", "properties": { "COMID": 45051889, "id": "27164", "lengthkm": 18.197669785274751, "order": 7, "uparea": 820852.02448098827 }, "geometry": { "type": "LineString", "coordinates": [ [ 87.263333333333321, 25.405833333333344 ], [ 87.263333333333321, 25.388333333333343 ], [ 87.26, 25.380833333333342 ], [ 87.260833333333323, 25.378333333333345 ], [ 87.2575, 25.364166666666677 ], [ 87.259166666666658, 25.3525 ], [ 87.2575, 25.345 ], [ 87.251666666666651, 25.334166666666675 ], [ 87.251666666666651, 25.326666666666679 ], [ 87.248333333333321, 25.314166666666679 ], [ 87.248333333333321, 25.296666666666678 ], [ 87.238333333333316, 25.2825 ], [ 87.223333333333315, 25.268333333333345 ], [ 87.21833333333332, 25.261666666666677 ] ] } },
{ "type": "Feature", "properties": { "COMID": 45047753, "id": "27164", "lengthkm": 10.63545491288312, "order": 8, "uparea": 908465.45903252438 }, "geometry": { "type": "LineString", "coordinates": [ [ 87.329166666666652, 25.471666666666678 ], [ 87.308333333333309, 25.46166666666668 ], [ 87.281666666666652, 25.43 ], [ 87.27583333333331, 25.419166666666676 ], [ 87.263333333333321, 25.405833333333344 ] ] } },
{ "type": "Feature", "properties": { "COMID": 45047752, "id": "27164", "lengthkm": 11.928686171297414, "order": 8, "uparea": 909001.60085836588 }, "geometry": { "type": "LineString", "coordinates": [ [ 87.425833333333316, 25.43 ], [ 87.41, 25.4425 ], [ 87.399166666666645, 25.448333333333345 ], [ 87.3875, 25.46 ], [ 87.38, 25.465 ], [ 87.374166666666653, 25.465 ], [ 87.359166666666653, 25.46916666666668 ], [ 87.3575, 25.470833333333346 ], [ 87.341666666666654, 25.470833333333346 ], [ 87.3375, 25.473333333333343 ], [ 87.329166666666652, 25.471666666666678 ] ] } },
{ "type": "Feature", "properties": { "COMID": 45047751, "id": "27164", "lengthkm": 0.249715855933, "order": 8, "uparea": 909088.14573655487 }, "geometry": { "type": "LineString", "coordinates": [ [ 87.4275, 25.428333333333345 ], [ 87.425833333333316, 25.43 ] ] } },
{ "type": "Feature", "properties": { "COMID": 45051888, "id": "27164", "lengthkm": 2.542436208690138, "order": 8, "uparea": 909148.18835281557 }, "geometry": { "type": "LineString", "coordinates": [ [ 87.446666666666658, 25.415833333333346 ], [ 87.4275, 25.428333333333345 ] ] } },
{ "type": "Feature", "properties": { "COMID": 45051887, "id": "27164", "lengthkm": 16.223620669381372, "order": 8, "uparea": 909268.28953174292 }, "geometry": { "type": "LineString", "coordinates": [ [ 87.58, 25.37 ], [ 87.565833333333316, 25.375833333333347 ], [ 87.56, 25.381666666666678 ], [ 87.551666666666648, 25.386666666666677 ], [ 87.546666666666653, 25.388333333333343 ], [ 87.545, 25.386666666666677 ], [ 87.535833333333315, 25.386666666666677 ], [ 87.5225, 25.39 ], [ 87.518333333333317, 25.393333333333345 ], [ 87.51, 25.39166666666668 ], [ 87.501666666666651, 25.395 ], [ 87.496666666666655, 25.4025 ], [ 87.493333333333311, 25.404166666666676 ], [ 87.4675, 25.409166666666678 ], [ 87.446666666666658, 25.415833333333346 ] ] } },
{ "type": "Feature", "properties": { "COMID": 45051886, "id": "27164", "lengthkm": 11.340273762566071, "order": 8, "uparea": 911533.71387224959 }, "geometry": { "type": "LineString", "coordinates": [ [ 87.633333333333326, 25.3 ], [ 87.623333333333321, 25.32166666666668 ], [ 87.615833333333313, 25.33 ], [ 87.61166666666665, 25.330833333333345 ], [ 87.6025, 25.326666666666679 ], [ 87.6, 25.32916666666668 ], [ 87.59, 25.3475 ], [ 87.59, 25.3525 ], [ 87.586666666666645, 25.359166666666678 ], [ 87.580833333333317, 25.365 ], [ 87.58, 25.37 ] ] } },
{ "type": "Feature", "properties": { "COMID": 45051885, "id": "27164", "lengthkm": 13.863521198171522, "order": 8, "uparea": 911647.70952676877 }, "geometry": { "type": "LineString", "coordinates": [ [ 87.7475, 25.283333333333346 ], [ 87.735833333333318, 25.294166666666676 ], [ 87.728333333333325, 25.2975 ], [ 87.720833333333317, 25.295833333333345 ], [ 87.703333333333319, 25.296666666666678 ], [ 87.6925, 25.301666666666677 ], [ 87.683333333333309, 25.308333333333344 ], [ 87.678333333333313, 25.305833333333347 ], [ 87.67, 25.305 ], [ 87.651666666666642, 25.299166666666679 ], [ 87.646666666666647, 25.294166666666676 ], [ 87.633333333333326, 25.3 ] ] } },
{ "type": "Feature", "properties": { "COMID": 45051884, "id": "27164", "lengthkm": 19.453443007339239, "order": 8, "uparea": 912311.87636824907 }, "geometry": { "type": "LineString", "coordinates": [ [ 87.79583333333332, 25.138333333333343 ], [ 87.8, 25.146666666666679 ], [ 87.79916666666665, 25.160833333333343 ], [ 87.8025, 25.165833333333346 ], [ 87.8, 25.185833333333346 ], [ 87.7975, 25.19 ], [ 87.7975, 25.19666666666668 ], [ 87.8, 25.203333333333347 ], [ 87.8, 25.216666666666676 ], [ 87.798333333333318, 25.223333333333343 ], [ 87.789166666666645, 25.234166666666678 ], [ 87.7875, 25.244166666666679 ], [ 87.7725, 25.268333333333345 ], [ 87.765833333333319, 25.275 ], [ 87.75, 25.283333333333346 ], [ 87.7475, 25.283333333333346 ] ] } },
{ "type": "Feature", "properties": { "COMID": 45051883, "id": "27164", "lengthkm": 8.4233897037171097, "order": 8, "uparea": 912398.53779064561 }, "geometry": { "type": "LineString", "coordinates": [ [ 87.8425, 25.09 ], [ 87.831666666666649, 25.096666666666678 ], [ 87.824166666666656, 25.0975 ], [ 87.809166666666655, 25.104166666666679 ], [ 87.800833333333316, 25.111666666666679 ], [ 87.79583333333332, 25.138333333333343 ] ] } },
{ "type": "Feature", "properties": { "COMID": 45051882, "id": "27164", "lengthkm": 4.624669222525001, "order": 8, "uparea": 925782.72516854433 }, "geometry": { "type": "LineString", "coordinates": [ [ 87.859166666666653, 25.056666666666679 ], [ 87.859166666666653, 25.065 ], [ 87.855833333333322, 25.07166666666668 ], [ 87.850833333333313, 25.076666666666679 ], [ 87.84333333333332, 25.080833333333345 ], [ 87.8425, 25.09 ] ] } },
{ "type": "Feature", "properties": { "COMID": 45051881, "id": "27164", "lengthkm": 16.310926103587931, "order": 8, "uparea": 926013.7177719574 }, "geometry": { "type": "LineString", "coordinates": [ [ 87.9775, 24.986666666666679 ], [ 87.975, 24.9925 ], [ 87.975, 24.998333333333346 ], [ 87.9725, 25.0025 ], [ 87.955833333333317, 25.02 ], [ 87.945833333333326, 25.02416666666668 ], [ 87.9375, 25.0225 ], [ 87.915, 25.039166666666681 ], [ 87.884166666666658, 25.048333333333346 ], [ 87.88, 25.048333333333346 ], [ 87.859166666666653, 25.056666666666679 ] ] } },
{ "type": "Feature", "properties": { "COMID": 45051880, "id": "27164", "lengthkm": 5.8290387575091316, "order": 8, "uparea": 926120.48174118099 }, "geometry": { "type": "LineString", "coordinates": [ [ 87.954166666666652, 24.945 ], [ 87.958333333333314, 24.964166666666678 ], [ 87.965, 24.9725 ], [ 87.9675, 24.9725 ], [ 87.973333333333315, 24.978333333333346 ], [ 87.9775, 24.986666666666679 ] ] } },
{ "type": "Feature", "properties": { "COMID": 45051879, "id": "27164", "lengthkm": 1.9875447233118191, "order": 8, "uparea": 926150.97283760435 }, "geometry": { "type": "LineString", "coordinates": [ [ 87.948333333333323, 24.929166666666678 ], [ 87.954166666666652, 24.945 ] ] } },
{ "type": "Feature", "properties": { "COMID": 45055811, "id": "27164", "lengthkm": 11.842913045794596, "order": 8, "uparea": 926235.6052297313 }, "geometry": { "type": "LineString", "coordinates": [ [ 87.933333333333309, 24.830833333333345 ], [ 87.9375, 24.838333333333345 ], [ 87.95, 24.8725 ], [ 87.950833333333321, 24.8875 ], [ 87.948333333333323, 24.905 ], [ 87.95, 24.919166666666676 ], [ 87.948333333333323, 24.929166666666678 ] ] } },
{ "type": "Feature", "properties": { "COMID": 45055810, "id": "27164", "lengthkm": 4.1564438395794436, "order": 8, "uparea": 928053.97487974737 }, "geometry": { "type": "LineString", "coordinates": [ [ 87.935833333333321, 24.796666666666678 ], [ 87.93, 24.811666666666678 ], [ 87.933333333333309, 24.830833333333345 ] ] } },
{ "type": "Feature", "properties": { "COMID": 45055809, "id": "27164", "lengthkm": 18.91204942228471, "order": 8, "uparea": 928162.58505011222 }, "geometry": { "type": "LineString", "coordinates": [ [ 87.9975, 24.655 ], [ 87.985, 24.661666666666676 ], [ 87.951666666666654, 24.69666666666668 ], [ 87.948333333333323, 24.7025 ], [ 87.945, 24.7175 ], [ 87.940833333333316, 24.725 ], [ 87.941666666666649, 24.731666666666676 ], [ 87.935833333333321, 24.744166666666679 ], [ 87.935833333333321, 24.753333333333345 ], [ 87.9375, 24.75916666666668 ], [ 87.936666666666653, 24.77 ], [ 87.938333333333318, 24.773333333333348 ], [ 87.938333333333318, 24.785 ], [ 87.935833333333321, 24.79 ], [ 87.935833333333321, 24.796666666666678 ] ] } },
{ "type": "Feature", "properties": { "COMID": 45055808, "id": "27164", "lengthkm": 13.442091377572416, "order": 8, "uparea": 928295.92314064282 }, "geometry": { "type": "LineString", "coordinates": [ [ 88.114166666666648, 24.630833333333346 ], [ 88.106666666666655, 24.630833333333346 ], [ 88.0975, 24.635 ], [ 88.086666666666645, 24.631666666666678 ], [ 88.065833333333316, 24.6325 ], [ 88.0625, 24.636666666666677 ], [ 88.051666666666648, 24.6375 ], [ 88.0425, 24.64166666666668 ], [ 88.03083333333332, 24.64166666666668 ], [ 88.018333333333317, 24.64916666666668 ], [ 88.001666666666651, 24.651666666666678 ], [ 87.9975, 24.655 ] ] } },
{ "type": "Feature", "properties": { "COMID": 45055807, "id": "27164", "lengthkm": 2.017086504194705, "order": 8, "uparea": 928364.89436697715 }, "geometry": { "type": "LineString", "coordinates": [ [ 88.1325, 24.6275 ], [ 88.114166666666648, 24.630833333333346 ] ] } },
{ "type": "Feature", "properties": { "COMID": 45055806, "id": "27164", "lengthkm": 0.58739129867411499, "order": 8, "uparea": 928465.09523491957 }, "geometry": { "type": "LineString", "coordinates": [ [ 88.1375, 24.625833333333347 ], [ 88.1325, 24.6275 ] ] } },
{ "type": "Feature", "properties": { "COMID": 45055805, "id": "27164", "lengthkm": 8.8614851493486899, "order": 8, "uparea": 928806.70236828271 }, "geometry": { "type": "LineString", "coordinates": [ [ 88.17083333333332, 24.563333333333347 ], [ 88.17, 24.58 ], [ 88.168333333333322, 24.581666666666678 ], [ 88.17083333333332, 24.58666666666668 ], [ 88.166666666666657, 24.5975 ], [ 88.16, 24.605 ], [ 88.148333333333312, 24.610833333333346 ], [ 88.141666666666652, 24.6225 ], [ 88.1375, 24.625833333333347 ] ] } },
{ "type": "Feature", "properties": { "COMID": 45055804, "id": "27164", "lengthkm": 14.818630745559563, "order": 8, "uparea": 928925.58192239841 }, "geometry": { "type": "LineString", "coordinates": [ [ 88.166666666666657, 24.4575 ], [ 88.163333333333313, 24.4725 ], [ 88.156666666666652, 24.485 ], [ 88.155, 24.486666666666679 ], [ 88.145833333333314, 24.486666666666679 ], [ 88.144166666666649, 24.488333333333344 ], [ 88.144166666666649, 24.504166666666677 ], [ 88.1425, 24.511666666666677 ], [ 88.148333333333312, 24.5225 ], [ 88.1525, 24.540833333333346 ], [ 88.158333333333317, 24.5425 ], [ 88.166666666666657, 24.551666666666677 ], [ 88.17, 24.553333333333345 ], [ 88.169166666666655, 24.558333333333344 ], [ 88.17083333333332, 24.563333333333347 ] ] } },
{ "type": "Feature", "properties": { "COMID": 45055803, "id": "27164", "lengthkm": 16.926292420309789, "order": 8, "uparea": 929096.59630489291 }, "geometry": { "type": "LineString", "coordinates": [ [ 88.310833333333321, 24.466666666666679 ], [ 88.29, 24.47 ], [ 88.285833333333315, 24.46916666666668 ], [ 88.27583333333331, 24.474166666666676 ], [ 88.2675, 24.4725 ], [ 88.258333333333312, 24.468333333333344 ], [ 88.250833333333318, 24.4675 ], [ 88.23666666666665, 24.46 ], [ 88.214166666666642, 24.4525 ], [ 88.206666666666649, 24.451666666666679 ], [ 88.199166666666656, 24.4475 ], [ 88.194166666666646, 24.44666666666668 ], [ 88.181666666666644, 24.4475 ], [ 88.175833333333316, 24.45 ], [ 88.166666666666657, 24.4575 ] ] } },
{ "type": "Feature", "properties": { "COMID": 45055802, "id": "27164", "lengthkm": 10.477427731132073, "order": 8, "uparea": 939805.3367173369 }, "geometry": { "type": "LineString", "coordinates": [ [ 88.376666666666651, 24.3975 ], [ 88.350833333333313, 24.420833333333345 ], [ 88.310833333333321, 24.466666666666679 ] ] } },
{ "type": "Feature", "properties": { "COMID": 45055801, "id": "27164", "lengthkm": 16.764260880470527, "order": 8, "uparea": 939927.1019903702 }, "geometry": { "type": "LineString", "coordinates": [ [ 88.499166666666653, 24.355833333333344 ], [ 88.4925, 24.354166666666679 ], [ 88.485833333333318, 24.359166666666681 ], [ 88.476666666666645, 24.361666666666679 ], [ 88.47166666666665, 24.365833333333345 ], [ 88.465, 24.368333333333347 ], [ 88.460833333333312, 24.375 ], [ 88.451666666666654, 24.380833333333346 ], [ 88.448333333333323, 24.376666666666679 ], [ 88.44, 24.375 ], [ 88.42416666666665, 24.376666666666679 ], [ 88.415833333333325, 24.375 ], [ 88.40916666666665, 24.368333333333347 ], [ 88.40083333333331, 24.37 ], [ 88.383333333333312, 24.385833333333345 ], [ 88.376666666666651, 24.3975 ] ] } },
{ "type": "Feature", "properties": { "COMID": 45055800, "id": "27164", "lengthkm": 4.7403365705019116, "order": 8, "uparea": 939965.39136937284 }, "geometry": { "type": "LineString", "coordinates": [ [ 88.536666666666648, 24.33666666666668 ], [ 88.52583333333331, 24.346666666666678 ], [ 88.514166666666654, 24.35 ], [ 88.510833333333323, 24.353333333333346 ], [ 88.501666666666651, 24.354166666666679 ], [ 88.499166666666653, 24.355833333333344 ] ] } },
{ "type": "Feature", "properties": { "COMID": 45055799, "id": "27164", "lengthkm": 13.622724206393936, "order": 8, "uparea": 940189.5927166536 }, "geometry": { "type": "LineString", "coordinates": [ [ 88.65083333333331, 24.3425 ], [ 88.6425, 24.348333333333343 ], [ 88.628333333333316, 24.348333333333343 ], [ 88.62, 24.353333333333346 ], [ 88.613333333333316, 24.353333333333346 ], [ 88.599166666666648, 24.3575 ], [ 88.581666666666649, 24.358333333333345 ], [ 88.569166666666646, 24.355 ], [ 88.563333333333318, 24.355 ], [ 88.558333333333309, 24.34916666666668 ], [ 88.536666666666648, 24.33666666666668 ] ] } },
{ "type": "Feature", "properties": { "COMID": 45055798, "id": "27164", "lengthkm": 12.084574955454938, "order": 8, "uparea": 940269.46241819265 }, "geometry": { "type": "LineString", "coordinates": [ [ 88.73, 24.280833333333348 ], [ 88.71833333333332, 24.303333333333345 ], [ 88.71333333333331, 24.308333333333344 ], [ 88.710833333333312, 24.314166666666679 ], [ 88.700833333333321, 24.326666666666679 ], [ 88.691666666666649, 24.3325 ], [ 88.6875, 24.3325 ], [ 88.684166666666641, 24.335833333333348 ], [ 88.67416666666665, 24.34 ], [ 88.65083333333331, 24.3425 ] ] } },
{ "type": "Feature", "properties": { "COMID": 45059549, "id": "27164", "lengthkm": 9.8177318212372029, "order": 8, "uparea": 940453.68058515922 }, "geometry": { "type": "LineString", "coordinates": [ [ 88.7425, 24.201666666666679 ], [ 88.738333333333316, 24.209166666666679 ], [ 88.738333333333316, 24.23 ], [ 88.740833333333313, 24.249166666666678 ], [ 88.7425, 24.251666666666679 ], [ 88.741666666666646, 24.261666666666677 ], [ 88.7375, 24.271666666666679 ], [ 88.73, 24.280833333333348 ] ] } },
{ "type": "Feature", "properties": { "COMID": 45059548, "id": "27164", "lengthkm": 14.781405750183545, "order": 8, "uparea": 940599.66758226848 }, "geometry": { "type": "LineString", "coordinates": [ [ 88.825833333333321, 24.109166666666681 ], [ 88.8225, 24.1125 ], [ 88.810833333333321, 24.116666666666681 ], [ 88.796666666666653, 24.13416666666668 ], [ 88.794166666666655, 24.140833333333347 ], [ 88.795, 24.15 ], [ 88.788333333333313, 24.160833333333343 ], [ 88.783333333333317, 24.165833333333346 ], [ 88.78083333333332, 24.171666666666681 ], [ 88.766666666666652, 24.183333333333344 ], [ 88.758333333333312, 24.1875 ], [ 88.748333333333321, 24.198333333333345 ], [ 88.7425, 24.201666666666679 ] ] } },
{ "type": "Feature", "properties": { "COMID": 45059547, "id": "27164", "lengthkm": 3.7864573176344982, "order": 8, "uparea": 940665.13999928441 }, "geometry": { "type": "LineString", "coordinates": [ [ 88.8575, 24.09916666666668 ], [ 88.8475, 24.09916666666668 ], [ 88.84, 24.105 ], [ 88.825833333333321, 24.109166666666681 ] ] } },
{ "type": "Feature", "properties": { "COMID": 45059546, "id": "27164", "lengthkm": 5.1835086046142838, "order": 8, "uparea": 940831.0093502223 }, "geometry": { "type": "LineString", "coordinates": [ [ 88.903333333333308, 24.106666666666676 ], [ 88.894166666666649, 24.104166666666679 ], [ 88.885833333333323, 24.104166666666679 ], [ 88.883333333333312, 24.1025 ], [ 88.875, 24.103333333333346 ], [ 88.870833333333309, 24.100833333333345 ], [ 88.866666666666646, 24.101666666666681 ], [ 88.8575, 24.09916666666668 ] ] } },
{ "type": "Feature", "properties": { "COMID": 45059545, "id": "27164", "lengthkm": 11.847255038531785, "order": 8, "uparea": 940936.67437459121 }, "geometry": { "type": "LineString", "coordinates": [ [ 88.990833333333313, 24.160833333333343 ], [ 88.978333333333325, 24.153333333333343 ], [ 88.97, 24.151666666666678 ], [ 88.96, 24.140833333333347 ], [ 88.945833333333312, 24.13416666666668 ], [ 88.936666666666653, 24.1325 ], [ 88.92083333333332, 24.115 ], [ 88.9125, 24.113333333333344 ], [ 88.903333333333308, 24.106666666666676 ] ] } },
{ "type": "Feature", "properties": { "COMID": 45059544, "id": "27164", "lengthkm": 15.193131007366883, "order": 8, "uparea": 941063.0249915187 }, "geometry": { "type": "LineString", "coordinates": [ [ 89.029166666666654, 24.051666666666677 ], [ 89.026666666666642, 24.069166666666678 ], [ 89.024166666666645, 24.075 ], [ 89.025, 24.080833333333345 ], [ 89.0225, 24.08666666666668 ], [ 89.021666666666647, 24.096666666666678 ], [ 89.023333333333312, 24.115 ], [ 89.026666666666642, 24.119166666666679 ], [ 89.026666666666642, 24.124166666666678 ], [ 89.024166666666645, 24.133333333333347 ], [ 89.020833333333314, 24.138333333333346 ], [ 89.019166666666649, 24.15 ], [ 89.011666666666656, 24.155833333333348 ], [ 89.005, 24.15666666666668 ], [ 89.0, 24.16 ], [ 88.990833333333313, 24.160833333333343 ] ] } },
{ "type": "Feature", "properties": { "COMID": 45059543, "id": "27164", "lengthkm": 22.919025509622344, "order": 8, "uparea": 941232.2068096787 }, "geometry": { "type": "LineString", "coordinates": [ [ 89.165833333333325, 23.938333333333347 ], [ 89.144166666666649, 23.944166666666678 ], [ 89.13, 23.951666666666679 ], [ 89.123333333333321, 23.951666666666679 ], [ 89.119166666666644, 23.953333333333347 ], [ 89.115, 23.9575 ], [ 89.099166666666648, 23.966666666666679 ], [ 89.090833333333308, 23.965833333333347 ], [ 89.083333333333314, 23.971666666666678 ], [ 89.074166666666656, 23.973333333333347 ], [ 89.0725, 23.975 ], [ 89.074166666666656, 23.9825 ], [ 89.068333333333314, 23.985833333333346 ], [ 89.0575, 23.985833333333346 ], [ 89.054166666666646, 23.991666666666678 ], [ 89.046666666666653, 23.999166666666678 ], [ 89.04583333333332, 24.003333333333345 ], [ 89.04, 24.013333333333346 ], [ 89.035, 24.025833333333345 ], [ 89.03083333333332, 24.05 ], [ 89.029166666666654, 24.051666666666677 ] ] } },
{ "type": "Feature", "properties": { "COMID": 45059542, "id": "27164", "lengthkm": 15.197449232252884, "order": 8, "uparea": 941358.96584197984 }, "geometry": { "type": "LineString", "coordinates": [ [ 89.3025, 23.921666666666678 ], [ 89.279166666666654, 23.9225 ], [ 89.270833333333314, 23.923333333333346 ], [ 89.268333333333317, 23.925 ], [ 89.260833333333323, 23.924166666666679 ], [ 89.255, 23.9275 ], [ 89.230833333333322, 23.931666666666679 ], [ 89.203333333333319, 23.931666666666679 ], [ 89.199166666666656, 23.93 ], [ 89.1875, 23.93 ], [ 89.165833333333325, 23.938333333333347 ] ] } },
{ "type": "Feature", "properties": { "COMID": 45059541, "id": "27164", "lengthkm": 6.1512703978047636, "order": 8, "uparea": 941533.36392942001 }, "geometry": { "type": "LineString", "coordinates": [ [ 89.348333333333315, 23.893333333333345 ], [ 89.336666666666645, 23.901666666666678 ], [ 89.3275, 23.904166666666679 ], [ 89.320833333333312, 23.91166666666668 ], [ 89.315, 23.914166666666677 ], [ 89.310833333333321, 23.914166666666677 ], [ 89.3025, 23.921666666666678 ] ] } },
{ "type": "Feature", "properties": { "COMID": 45059540, "id": "27164", "lengthkm": 9.8895827490848394, "order": 8, "uparea": 941605.2616197234 }, "geometry": { "type": "LineString", "coordinates": [ [ 89.4275, 23.875 ], [ 89.40583333333332, 23.875 ], [ 89.3975, 23.880833333333346 ], [ 89.389166666666654, 23.883333333333347 ], [ 89.3825, 23.8925 ], [ 89.373333333333321, 23.895 ], [ 89.366666666666646, 23.89916666666668 ], [ 89.36, 23.89916666666668 ], [ 89.355833333333322, 23.894166666666678 ], [ 89.348333333333315, 23.893333333333345 ] ] } },
{ "type": "Feature", "properties": { "COMID": 45059539, "id": "27164", "lengthkm": 14.848932183059439, "order": 8, "uparea": 941696.71093742794 }, "geometry": { "type": "LineString", "coordinates": [ [ 89.538333333333313, 23.813333333333347 ], [ 89.52583333333331, 23.82 ], [ 89.508333333333312, 23.8325 ], [ 89.485833333333318, 23.841666666666679 ], [ 89.4775, 23.850833333333345 ], [ 89.466666666666654, 23.851666666666677 ], [ 89.464166666666642, 23.8575 ], [ 89.459166666666647, 23.8625 ], [ 89.439166666666651, 23.875 ], [ 89.4275, 23.875 ] ] } },
{ "type": "Feature", "properties": { "COMID": 45059538, "id": "27164", "lengthkm": 23.557629231964349, "order": 8, "uparea": 942043.13008880126 }, "geometry": { "type": "LineString", "coordinates": [ [ 89.7425, 23.810833333333346 ], [ 89.731666666666655, 23.803333333333345 ], [ 89.706666666666649, 23.798333333333346 ], [ 89.696666666666644, 23.8025 ], [ 89.695, 23.805 ], [ 89.690833333333316, 23.805 ], [ 89.685833333333321, 23.8 ], [ 89.676666666666648, 23.7975 ], [ 89.661666666666648, 23.796666666666678 ], [ 89.65583333333332, 23.798333333333346 ], [ 89.644166666666649, 23.796666666666678 ], [ 89.623333333333321, 23.796666666666678 ], [ 89.619166666666644, 23.798333333333346 ], [ 89.615, 23.8025 ], [ 89.604166666666657, 23.805 ], [ 89.571666666666644, 23.806666666666679 ], [ 89.565833333333316, 23.81 ], [ 89.551666666666648, 23.814166666666679 ], [ 89.538333333333313, 23.813333333333347 ] ] } },
{ "type": "Feature", "properties": { "COMID": 45059537, "id": "27164", "lengthkm": 2.364264633039713, "order": 8, "uparea": 1480070.8617546074 }, "geometry": { "type": "LineString", "coordinates": [ [ 89.763333333333321, 23.8125 ], [ 89.7425, 23.810833333333346 ] ] } },
{ "type": "Feature", "properties": { "COMID": 45059536, "id": "27164", "lengthkm": 3.3533933894008552, "order": 8, "uparea": 1480461.6324491578 }, "geometry": { "type": "LineString", "coordinates": [ [ 89.786666666666648, 23.7925 ], [ 89.765, 23.8125 ], [ 89.763333333333321, 23.8125 ] ] } },
{ "type": "Feature", "properties": { "COMID": 45059535, "id": "27164", "lengthkm": 2.028552639801394, "order": 8, "uparea": 1480549.6332875148 }, "geometry": { "type": "LineString", "coordinates": [ [ 89.79916666666665, 23.779166666666679 ], [ 89.786666666666648, 23.7925 ] ] } },
{ "type": "Feature", "properties": { "COMID": 45059534, "id": "27164", "lengthkm": 24.147820154197287, "order": 8, "uparea": 1480725.0136060892 }, "geometry": { "type": "LineString", "coordinates": [ [ 89.995, 23.705833333333345 ], [ 89.9925, 23.708333333333346 ], [ 89.9825, 23.7125 ], [ 89.960833333333312, 23.715833333333347 ], [ 89.94, 23.723333333333347 ], [ 89.919166666666655, 23.725833333333345 ], [ 89.910833333333315, 23.725 ], [ 89.9025, 23.729166666666679 ], [ 89.886666666666656, 23.729166666666679 ], [ 89.871666666666641, 23.733333333333345 ], [ 89.855, 23.73 ], [ 89.83833333333331, 23.743333333333347 ], [ 89.813333333333318, 23.768333333333345 ], [ 89.79916666666665, 23.779166666666679 ] ] } },
{ "type": "Feature", "properties": { "COMID": 45063347, "id": "27164", "lengthkm": 5.2676845882940846, "order": 8, "uparea": 1480789.2229896402 }, "geometry": { "type": "LineString", "coordinates": [ [ 89.991666666666646, 23.660833333333347 ], [ 89.996666666666641, 23.67666666666668 ], [ 89.995, 23.705833333333345 ] ] } },
{ "type": "Feature", "properties": { "COMID": 45063346, "id": "27164", "lengthkm": 7.283326201289265, "order": 8, "uparea": 1480948.0639584674 }, "geometry": { "type": "LineString", "coordinates": [ [ 90.009166666666644, 23.605 ], [ 90.008333333333312, 23.620833333333344 ], [ 90.0125, 23.628333333333345 ], [ 90.0125, 23.633333333333347 ], [ 90.003333333333316, 23.65 ], [ 89.991666666666646, 23.660833333333347 ] ] } },
{ "type": "Feature", "properties": { "COMID": 45063345, "id": "27164", "lengthkm": 7.3301595308811152, "order": 8, "uparea": 1481136.7888560903 }, "geometry": { "type": "LineString", "coordinates": [ [ 90.059166666666641, 23.5625 ], [ 90.03, 23.5925 ], [ 90.0125, 23.601666666666681 ], [ 90.009166666666644, 23.605 ] ] } },
{ "type": "Feature", "properties": { "COMID": 45063344, "id": "27164", "lengthkm": 12.769887712414294, "order": 8, "uparea": 1481312.4314660509 }, "geometry": { "type": "LineString", "coordinates": [ [ 90.115833333333313, 23.475 ], [ 90.109166666666653, 23.4875 ], [ 90.0975, 23.503333333333345 ], [ 90.0925, 23.514166666666679 ], [ 90.090833333333308, 23.520833333333346 ], [ 90.09166666666664, 23.541666666666679 ], [ 90.084166666666647, 23.5475 ], [ 90.065, 23.5575 ], [ 90.059166666666641, 23.5625 ] ] } },
{ "type": "Feature", "properties": { "COMID": 45063343, "id": "27164", "lengthkm": 7.5193073133645347, "order": 8, "uparea": 1481911.4042069917 }, "geometry": { "type": "LineString", "coordinates": [ [ 90.179166666666646, 23.466666666666679 ], [ 90.176666666666648, 23.4675 ], [ 90.17083333333332, 23.465 ], [ 90.146666666666647, 23.460833333333348 ], [ 90.1275, 23.465833333333347 ], [ 90.115833333333313, 23.475 ] ] } },
{ "type": "Feature", "properties": { "COMID": 45063342, "id": "27164", "lengthkm": 0.084998536493851001, "order": 8, "uparea": 1482022.2761364332 }, "geometry": { "type": "LineString", "coordinates": [ [ 90.18, 23.466666666666679 ], [ 90.179166666666646, 23.466666666666679 ] ] } },
{ "type": "Feature", "properties": { "COMID": 45063341, "id": "27164", "lengthkm": 22.24883309536888, "order": 8, "uparea": 1482212.7252700049 }, "geometry": { "type": "LineString", "coordinates": [ [ 90.373333333333306, 23.42 ], [ 90.355, 23.423333333333346 ], [ 90.3325, 23.433333333333344 ], [ 90.315833333333316, 23.4325 ], [ 90.313333333333318, 23.43416666666668 ], [ 90.301666666666648, 23.435 ], [ 90.28083333333332, 23.44666666666668 ], [ 90.25, 23.45 ], [ 90.241666666666646, 23.4525 ], [ 90.24, 23.451666666666679 ], [ 90.215833333333308, 23.460833333333348 ], [ 90.203333333333319, 23.460833333333348 ], [ 90.193333333333314, 23.465 ], [ 90.18, 23.466666666666679 ] ] } },
{ "type": "Feature", "properties": { "COMID": 45063340, "id": "27164", "lengthkm": 11.879566167536154, "order": 8, "uparea": 1482501.2272524796 }, "geometry": { "type": "LineString", "coordinates": [ [ 90.436666666666653, 23.34 ], [ 90.434166666666641, 23.343333333333344 ], [ 90.430833333333311, 23.360833333333346 ], [ 90.419166666666655, 23.375833333333347 ], [ 90.40916666666665, 23.385833333333345 ], [ 90.399166666666645, 23.401666666666678 ], [ 90.373333333333306, 23.42 ] ] } },
{ "type": "Feature", "properties": { "COMID": 45063339, "id": "27164", "lengthkm": 0.714071485172183, "order": 8, "uparea": 1482555.5706116247 }, "geometry": { "type": "LineString", "coordinates": [ [ 90.441666666666649, 23.335833333333348 ], [ 90.436666666666653, 23.34 ] ] } },
{ "type": "Feature", "properties": { "COMID": 45063338, "id": "27164", "lengthkm": 3.684757535951662, "order": 8, "uparea": 1482765.1194097816 }, "geometry": { "type": "LineString", "coordinates": [ [ 90.474166666666648, 23.331666666666678 ], [ 90.454166666666652, 23.330833333333345 ], [ 90.449166666666656, 23.331666666666678 ], [ 90.441666666666649, 23.335833333333348 ] ] } },
{ "type": "Feature", "properties": { "COMID": 45063337, "id": "27164", "lengthkm": 1.9350875813103481, "order": 8, "uparea": 1482797.5267805532 }, "geometry": { "type": "LineString", "coordinates": [ [ 90.488333333333316, 23.32166666666668 ], [ 90.481666666666655, 23.324166666666681 ], [ 90.474166666666648, 23.331666666666678 ] ] } },
{ "type": "Feature", "properties": { "COMID": 45063336, "id": "27164", "lengthkm": 5.8385379776508346, "order": 8, "uparea": 1482976.942876504 }, "geometry": { "type": "LineString", "coordinates": [ [ 90.538333333333313, 23.306666666666679 ], [ 90.52916666666664, 23.3075 ], [ 90.5225, 23.310833333333346 ], [ 90.5125, 23.32 ], [ 90.488333333333316, 23.32166666666668 ] ] } },
{ "type": "Feature", "properties": { "COMID": 45063335, "id": "27164", "lengthkm": 6.305659495608567, "order": 8, "uparea": 1483033.5524042775 }, "geometry": { "type": "LineString", "coordinates": [ [ 90.5875, 23.295833333333345 ], [ 90.575833333333321, 23.293333333333347 ], [ 90.5625, 23.30166666666668 ], [ 90.554166666666646, 23.305 ], [ 90.550833333333316, 23.31 ], [ 90.543333333333322, 23.306666666666679 ], [ 90.538333333333313, 23.306666666666679 ] ] } },
{ "type": "Feature", "properties": { "COMID": 45063334, "id": "27164", "lengthkm": 7.8191387100587306, "order": 8, "uparea": 1483124.8605031187 }, "geometry": { "type": "LineString", "coordinates": [ [ 90.626666666666651, 23.24 ], [ 90.610833333333318, 23.25916666666668 ], [ 90.60833333333332, 23.268333333333345 ], [ 90.6, 23.276666666666678 ], [ 90.599166666666648, 23.28166666666668 ], [ 90.595833333333317, 23.2875 ], [ 90.5875, 23.295833333333345 ] ] } },
{ "type": "Feature", "properties": { "COMID": 45063333, "id": "27164", "lengthkm": 8.8182140991362683, "order": 8, "uparea": 1572400.525695469 }, "geometry": { "type": "LineString", "coordinates": [ [ 90.61166666666665, 23.166666666666679 ], [ 90.615, 23.186666666666678 ], [ 90.620833333333309, 23.1975 ], [ 90.626666666666651, 23.218333333333344 ], [ 90.626666666666651, 23.24 ] ] } },
{ "type": "Feature", "properties": { "COMID": 45063332, "id": "27164", "lengthkm": 7.6543775006214121, "order": 8, "uparea": 1572504.0563616927 }, "geometry": { "type": "LineString", "coordinates": [ [ 90.59333333333332, 23.105 ], [ 90.5975, 23.113333333333347 ], [ 90.601666666666645, 23.133333333333347 ], [ 90.60833333333332, 23.14916666666668 ], [ 90.6075, 23.1525 ], [ 90.61166666666665, 23.16166666666668 ], [ 90.61166666666665, 23.166666666666679 ] ] } },
{ "type": "Feature", "properties": { "COMID": 45066867, "id": "27164", "lengthkm": 8.8264913247611076, "order": 8, "uparea": 1572667.3889131162 }, "geometry": { "type": "LineString", "coordinates": [ [ 90.584166666666647, 23.0325 ], [ 90.584166666666647, 23.035 ], [ 90.590833333333308, 23.043333333333347 ], [ 90.598333333333315, 23.07166666666668 ], [ 90.598333333333315, 23.085833333333348 ], [ 90.59333333333332, 23.105 ] ] } },
{ "type": "Feature", "properties": { "COMID": 45066866, "id": "27164", "lengthkm": 11.626908692823784, "order": 8, "uparea": 1573607.9737473868 }, "geometry": { "type": "LineString", "coordinates": [ [ 90.631666666666646, 22.945 ], [ 90.628333333333316, 22.953333333333347 ], [ 90.615, 22.975 ], [ 90.61, 22.98 ], [ 90.605, 22.991666666666681 ], [ 90.600833333333313, 22.995833333333348 ], [ 90.594166666666652, 23.0125 ], [ 90.5875, 23.02 ], [ 90.584166666666647, 23.0325 ] ] } },
{ "type": "Feature", "properties": { "COMID": 45066865, "id": "27164", "lengthkm": 2.2123776367557291, "order": 8, "uparea": 1573652.1037601084 }, "geometry": { "type": "LineString", "coordinates": [ [ 90.638333333333321, 22.9275 ], [ 90.631666666666646, 22.945 ] ] } },
{ "type": "Feature", "properties": { "COMID": 45066864, "id": "27164", "lengthkm": 2.286353277797005, "order": 8, "uparea": 1573882.3011841814 }, "geometry": { "type": "LineString", "coordinates": [ [ 90.649166666666645, 22.910833333333347 ], [ 90.638333333333321, 22.9275 ] ] } },
{ "type": "Feature", "properties": { "COMID": 45066863, "id": "27164", "lengthkm": 10.136653461461982, "order": 8, "uparea": 1574012.6907671301 }, "geometry": { "type": "LineString", "coordinates": [ [ 90.7125, 22.846666666666678 ], [ 90.694166666666646, 22.861666666666679 ], [ 90.6875, 22.8725 ], [ 90.673333333333318, 22.8875 ], [ 90.663333333333313, 22.900833333333345 ], [ 90.649166666666645, 22.910833333333347 ] ] } },
{ "type": "Feature", "properties": { "COMID": 45066862, "id": "27164", "lengthkm": 6.9867986145700964, "order": 8, "uparea": 1574545.5744448761 }, "geometry": { "type": "LineString", "coordinates": [ [ 90.723333333333315, 22.788333333333345 ], [ 90.719166666666652, 22.7975 ], [ 90.7125, 22.846666666666678 ] ] } },
{ "type": "Feature", "properties": { "COMID": 45066861, "id": "27164", "lengthkm": 1.3973938849260481, "order": 8, "uparea": 1574591.2623521597 }, "geometry": { "type": "LineString", "coordinates": [ [ 90.720833333333317, 22.776666666666681 ], [ 90.723333333333315, 22.788333333333345 ] ] } },
{ "type": "Feature", "properties": { "COMID": 45066860, "id": "27164", "lengthkm": 3.3249251226456198, "order": 8, "uparea": 1574680.9067696885 }, "geometry": { "type": "LineString", "coordinates": [ [ 90.7275, 22.749166666666678 ], [ 90.7225, 22.764166666666679 ], [ 90.720833333333317, 22.776666666666681 ] ] } },
{ "type": "Feature", "properties": { "COMID": 45066859, "id": "27164", "lengthkm": 0.31137575033335202, "order": 8, "uparea": 1574708.4456096634 }, "geometry": { "type": "LineString", "coordinates": [ [ 90.72833333333331, 22.74666666666668 ], [ 90.7275, 22.749166666666678 ] ] } },
{ "type": "Feature", "properties": { "COMID": 45066858, "id": "27164", "lengthkm": 7.2847450964907097, "order": 8, "uparea": 1574834.2982043759 }, "geometry": { "type": "LineString", "coordinates": [ [ 90.7575, 22.691666666666681 ], [ 90.744166666666644, 22.713333333333345 ], [ 90.740833333333313, 22.725 ], [ 90.72833333333331, 22.74666666666668 ] ] } },
{ "type": "Feature", "properties": { "COMID": 45066857, "id": "27164", "lengthkm": 2.3985656537863922, "order": 8, "uparea": 1574898.6207858638 }, "geometry": { "type": "LineString", "coordinates": [ [ 90.764166666666654, 22.6725 ], [ 90.7575, 22.691666666666681 ] ] } },
{ "type": "Feature", "properties": { "COMID": 45066856, "id": "27164", "lengthkm": 7.0912977241002322, "order": 8, "uparea": 1575032.5004286871 }, "geometry": { "type": "LineString", "coordinates": [ [ 90.81, 22.626666666666679 ], [ 90.795, 22.644166666666681 ], [ 90.764166666666654, 22.6725 ] ] } },
{ "type": "Feature", "properties": { "COMID": 45066855, "id": "27164", "lengthkm": 7.5775848669324732, "order": 8, "uparea": 1575385.9506649468 }, "geometry": { "type": "LineString", "coordinates": [ [ 90.803333333333313, 22.563333333333347 ], [ 90.8, 22.573333333333348 ], [ 90.8, 22.589166666666681 ], [ 90.8075, 22.6125 ], [ 90.81, 22.626666666666679 ] ] } },
{ "type": "Feature", "properties": { "COMID": 45070323, "id": "27164", "lengthkm": 16.643676992320035, "order": 8, "uparea": 1575630.991704083 }, "geometry": { "type": "LineString", "coordinates": [ [ 90.9, 22.4575 ], [ 90.888333333333321, 22.4625 ], [ 90.88, 22.46916666666668 ], [ 90.868333333333311, 22.475 ], [ 90.850833333333313, 22.490833333333345 ], [ 90.839166666666642, 22.508333333333347 ], [ 90.83833333333331, 22.5175 ], [ 90.814166666666651, 22.54416666666668 ], [ 90.803333333333313, 22.563333333333347 ] ] } },
{ "type": "Feature", "properties": { "COMID": 45070322, "id": "27164", "lengthkm": 0.12617354695302499, "order": 8, "uparea": 1575661.803881095 }, "geometry": { "type": "LineString", "coordinates": [ [ 90.90083333333331, 22.456666666666681 ], [ 90.9, 22.4575 ] ] } }
]
}
