{
"type": "FeatureCollection",
"name": "downstream_78724",
"crs": { "type": "name", "properties": { "name": "urn:ogc:def:crs:OGC:1.3:CRS84" } },
"features": [
{ "type": "Feature", "properties": { "COMID": 44041544, "id": "10468", "lengthkm": 23.705530514707561, "order": 4, "uparea": 1184.5625111977474 }, "geometry": { "type": "LineString", "coordinates": [ [ 105.0225, 12.56 ], [ 105.0275, 12.560833333333338 ], [ 105.0325, 12.558333333333337 ], [ 105.043333333333337, 12.5575 ], [ 105.053333333333327, 12.57 ], [ 105.0575, 12.57 ], [ 105.061666666666667, 12.565833333333337 ], [ 105.063333333333333, 12.5675 ], [ 105.065, 12.566666666666674 ], [ 105.066666666666663, 12.568333333333339 ], [ 105.06583333333333, 12.57 ], [ 105.07, 12.575 ], [ 105.0725, 12.571666666666673 ], [ 105.076666666666668, 12.5725 ], [ 105.080833333333331, 12.5775 ], [ 105.085, 12.575 ], [ 105.089166666666671, 12.581666666666671 ], [ 105.090833333333336, 12.5775 ], [ 105.093333333333334, 12.579166666666673 ], [ 105.095, 12.5775 ], [ 105.095833333333331, 12.57833333333334 ], [ 105.096666666666664, 12.575833333333339 ], [ 105.101666666666659, 12.575 ], [ 105.103333333333325, 12.581666666666671 ], [ 105.105, 12.58 ], [ 105.108333333333334, 12.581666666666671 ], [ 105.1075, 12.585 ], [ 105.109166666666667, 12.5875 ], [ 105.110833333333332, 12.585833333333337 ], [ 105.11666666666666, 12.5875 ], [ 105.120833333333337, 12.5825 ], [ 105.123333333333335, 12.584166666666672 ], [ 105.12833333333333, 12.584166666666672 ], [ 105.13, 12.581666666666671 ], [ 105.135833333333323, 12.583333333333339 ], [ 105.14, 12.5825 ], [ 105.140833333333333, 12.588333333333338 ], [ 105.146666666666661, 12.585833333333337 ], [ 105.148333333333326, 12.586666666666673 ], [ 105.151666666666671, 12.584166666666672 ], [ 105.155833333333334, 12.584166666666672 ], [ 105.156666666666666, 12.585833333333337 ], [ 105.158333333333331, 12.584166666666672 ], [ 105.159166666666664, 12.5875 ], [ 105.161666666666662, 12.585 ] ] } },
{ "type": "Feature", "properties": { "COMID": 44041530, "id": "10468", "lengthkm": 4.9210209712839701, "order": 4, "uparea": 1242.2731780074096 }, "geometry": { "type": "LineString", "coordinates": [ [ 105.00333333333333, 12.5375 ], [ 105.001666666666665, 12.53916666666667 ], [ 105.004166666666663, 12.541666666666671 ], [ 105.005833333333328, 12.5475 ], [ 105.008333333333326, 12.549166666666672 ], [ 105.008333333333326, 12.5525 ], [ 105.010833333333323, 12.551666666666673 ], [ 105.011666666666656, 12.549166666666672 ], [ 105.014166666666668, 12.549166666666672 ], [ 105.019166666666663, 12.5525 ], [ 105.019166666666663, 12.555833333333339 ], [ 105.0225, 12.56 ] ] } },
{ "type": "Feature", "properties": { "COMID": 44041487, "id": "10468", "lengthkm": 27.070242782591443, "order": 4, "uparea": 5689.7670952680455 }, "geometry": { "type": "LineString", "coordinates": [ [ 104.888333333333335, 12.446666666666673 ], [ 104.890833333333333, 12.44583333333334 ], [ 104.8925, 12.45 ], [ 104.895833333333329, 12.446666666666673 ], [ 104.898333333333326, 12.4475 ], [ 104.900833333333338, 12.445 ], [ 104.905, 12.44916666666667 ], [ 104.904166666666669, 12.454166666666673 ], [ 104.911666666666662, 12.454166666666673 ], [ 104.913333333333327, 12.455833333333338 ], [ 104.9175, 12.454166666666673 ], [ 104.9225, 12.4575 ], [ 104.9275, 12.45333333333334 ], [ 104.9325, 12.45333333333334 ], [ 104.936666666666667, 12.456666666666671 ], [ 104.938333333333333, 12.454166666666673 ], [ 104.943333333333328, 12.4525 ], [ 104.945833333333326, 12.45333333333334 ], [ 104.949166666666656, 12.458333333333339 ], [ 104.9525, 12.46 ], [ 104.953333333333333, 12.464166666666671 ], [ 104.955833333333331, 12.465 ], [ 104.955833333333331, 12.468333333333337 ], [ 104.96, 12.4725 ], [ 104.963333333333338, 12.4725 ], [ 104.963333333333338, 12.478333333333339 ], [ 104.956666666666663, 12.49 ], [ 104.959166666666661, 12.503333333333337 ], [ 104.9525, 12.506666666666671 ], [ 104.9575, 12.5125 ], [ 104.955833333333331, 12.514166666666672 ], [ 104.956666666666663, 12.5225 ], [ 104.958333333333329, 12.524166666666673 ], [ 104.960833333333326, 12.5225 ], [ 104.966666666666669, 12.525 ], [ 104.969166666666666, 12.523333333333337 ], [ 104.973333333333329, 12.526666666666671 ], [ 104.976666666666659, 12.525833333333338 ], [ 104.976666666666659, 12.52833333333334 ], [ 104.979166666666657, 12.530833333333337 ], [ 104.981666666666669, 12.529166666666672 ], [ 104.986666666666665, 12.529166666666672 ], [ 104.99, 12.530833333333337 ], [ 104.990833333333327, 12.534166666666671 ], [ 104.994166666666658, 12.535 ], [ 104.99666666666667, 12.5325 ], [ 104.9975, 12.53583333333334 ], [ 105.00333333333333, 12.5375 ] ] } },
{ "type": "Feature", "properties": { "COMID": 44041486, "id": "10468", "lengthkm": 10.811136246445198, "order": 4, "uparea": 5731.5777581575903 }, "geometry": { "type": "LineString", "coordinates": [ [ 104.885, 12.38333333333334 ], [ 104.885833333333323, 12.39083333333334 ], [ 104.884166666666658, 12.3925 ], [ 104.885833333333323, 12.393333333333338 ], [ 104.885833333333323, 12.395833333333339 ], [ 104.89, 12.396666666666672 ], [ 104.889166666666668, 12.399166666666673 ], [ 104.891666666666666, 12.400833333333338 ], [ 104.889166666666668, 12.4025 ], [ 104.888333333333335, 12.405833333333337 ], [ 104.891666666666666, 12.41083333333334 ], [ 104.89, 12.41083333333334 ], [ 104.889166666666668, 12.41416666666667 ], [ 104.886666666666656, 12.41416666666667 ], [ 104.8775, 12.420833333333338 ], [ 104.879166666666663, 12.4225 ], [ 104.87833333333333, 12.4275 ], [ 104.88, 12.429166666666671 ], [ 104.879166666666663, 12.4375 ], [ 104.8825, 12.436666666666671 ], [ 104.888333333333335, 12.446666666666673 ] ] } },
{ "type": "Feature", "properties": { "COMID": 44041485, "id": "10468", "lengthkm": 12.022165309511788, "order": 4, "uparea": 6565.9369583963344 }, "geometry": { "type": "LineString", "coordinates": [ [ 104.858333333333334, 12.3225 ], [ 104.854166666666657, 12.325 ], [ 104.853333333333325, 12.32833333333334 ], [ 104.855833333333337, 12.331666666666671 ], [ 104.855, 12.334166666666672 ], [ 104.8575, 12.335833333333337 ], [ 104.8575, 12.345 ], [ 104.856666666666669, 12.346666666666671 ], [ 104.855, 12.345 ], [ 104.849166666666662, 12.345 ], [ 104.85, 12.3475 ], [ 104.855, 12.350833333333338 ], [ 104.853333333333325, 12.3525 ], [ 104.856666666666669, 12.358333333333338 ], [ 104.86, 12.358333333333338 ], [ 104.861666666666665, 12.36 ], [ 104.865, 12.35916666666667 ], [ 104.8725, 12.3675 ], [ 104.875833333333333, 12.3675 ], [ 104.879166666666663, 12.370833333333337 ], [ 104.8875, 12.380833333333339 ], [ 104.885, 12.38333333333334 ] ] } },
{ "type": "Feature", "properties": { "COMID": 44041484, "id": "10468", "lengthkm": 12.418791365418995, "order": 4, "uparea": 7186.6547935922608 }, "geometry": { "type": "LineString", "coordinates": [ [ 104.795833333333334, 12.301666666666673 ], [ 104.799166666666665, 12.304166666666671 ], [ 104.8025, 12.304166666666671 ], [ 104.803333333333327, 12.3025 ], [ 104.806666666666658, 12.303333333333338 ], [ 104.80916666666667, 12.300833333333337 ], [ 104.808333333333337, 12.298333333333339 ], [ 104.810833333333335, 12.2975 ], [ 104.81, 12.295833333333338 ], [ 104.816666666666663, 12.2975 ], [ 104.816666666666663, 12.295833333333338 ], [ 104.8225, 12.291666666666671 ], [ 104.8325, 12.295833333333338 ], [ 104.8375, 12.295 ], [ 104.84, 12.298333333333339 ], [ 104.844166666666666, 12.295833333333338 ], [ 104.850833333333327, 12.299166666666672 ], [ 104.8525, 12.304166666666671 ], [ 104.8575, 12.3075 ], [ 104.855, 12.310833333333338 ], [ 104.856666666666669, 12.3125 ], [ 104.855833333333337, 12.315833333333337 ], [ 104.859166666666667, 12.318333333333339 ], [ 104.858333333333334, 12.3225 ] ] } },
{ "type": "Feature", "properties": { "COMID": 44041483, "id": "10468", "lengthkm": 1.9197567481063991, "order": 4, "uparea": 7273.2791074719516 }, "geometry": { "type": "LineString", "coordinates": [ [ 104.789166666666659, 12.290833333333339 ], [ 104.790833333333325, 12.2925 ], [ 104.790833333333325, 12.299166666666672 ], [ 104.7925, 12.300833333333337 ], [ 104.795, 12.3 ], [ 104.795833333333334, 12.301666666666673 ] ] } },
{ "type": "Feature", "properties": { "COMID": 44042898, "id": "10468", "lengthkm": 16.972279892530803, "order": 4, "uparea": 7394.0061371771799 }, "geometry": { "type": "LineString", "coordinates": [ [ 104.870833333333337, 12.2425 ], [ 104.8725, 12.245 ], [ 104.869166666666658, 12.25 ], [ 104.8725, 12.253333333333337 ], [ 104.8725, 12.255833333333339 ], [ 104.868333333333325, 12.26166666666667 ], [ 104.86333333333333, 12.260833333333338 ], [ 104.860833333333332, 12.256666666666671 ], [ 104.855, 12.256666666666671 ], [ 104.8525, 12.260833333333338 ], [ 104.848333333333329, 12.259166666666673 ], [ 104.848333333333329, 12.26166666666667 ], [ 104.839166666666671, 12.268333333333338 ], [ 104.8325, 12.276666666666671 ], [ 104.825, 12.275 ], [ 104.81583333333333, 12.2825 ], [ 104.81, 12.279166666666672 ], [ 104.8075, 12.280833333333337 ], [ 104.805, 12.279166666666672 ], [ 104.8, 12.281666666666673 ], [ 104.80083333333333, 12.284166666666671 ], [ 104.805833333333325, 12.288333333333338 ], [ 104.805, 12.290833333333339 ], [ 104.803333333333327, 12.28916666666667 ], [ 104.80083333333333, 12.290833333333339 ], [ 104.796666666666667, 12.286666666666672 ], [ 104.791666666666657, 12.2875 ], [ 104.789166666666659, 12.290833333333339 ] ] } },
{ "type": "Feature", "properties": { "COMID": 44042859, "id": "10468", "lengthkm": 6.8868572760461184, "order": 4, "uparea": 8071.7566758641615 }, "geometry": { "type": "LineString", "coordinates": [ [ 104.8825, 12.21 ], [ 104.8825, 12.2125 ], [ 104.885, 12.213333333333338 ], [ 104.885, 12.218333333333337 ], [ 104.889166666666668, 12.22 ], [ 104.8825, 12.22666666666667 ], [ 104.8775, 12.22666666666667 ], [ 104.876666666666665, 12.23 ], [ 104.8725, 12.233333333333338 ], [ 104.870833333333337, 12.231666666666673 ], [ 104.87, 12.235 ], [ 104.865, 12.24 ], [ 104.865833333333327, 12.241666666666671 ], [ 104.870833333333337, 12.2425 ] ] } },
{ "type": "Feature", "properties": { "COMID": 44042857, "id": "10468", "lengthkm": 5.036800251528649, "order": 4, "uparea": 8252.0607643647636 }, "geometry": { "type": "LineString", "coordinates": [ [ 104.849166666666662, 12.196666666666673 ], [ 104.851666666666659, 12.200833333333339 ], [ 104.855, 12.2 ], [ 104.8575, 12.20333333333334 ], [ 104.8675, 12.20333333333334 ], [ 104.870833333333337, 12.201666666666672 ], [ 104.8825, 12.21 ] ] } },
{ "type": "Feature", "properties": { "COMID": 44042855, "id": "10468", "lengthkm": 1.4525400391590499, "order": 4, "uparea": 8979.4569030710682 }, "geometry": { "type": "LineString", "coordinates": [ [ 104.839166666666671, 12.19 ], [ 104.845, 12.196666666666673 ], [ 104.849166666666662, 12.196666666666673 ] ] } },
{ "type": "Feature", "properties": { "COMID": 44042803, "id": "10468", "lengthkm": 15.532004492191751, "order": 6, "uparea": 83159.995830185057 }, "geometry": { "type": "LineString", "coordinates": [ [ 104.7775, 12.07833333333334 ], [ 104.78, 12.085833333333337 ], [ 104.796666666666667, 12.1 ], [ 104.805, 12.111666666666672 ], [ 104.8125, 12.130833333333339 ], [ 104.824166666666656, 12.148333333333337 ], [ 104.830833333333331, 12.16416666666667 ], [ 104.841666666666669, 12.179166666666671 ], [ 104.841666666666669, 12.185 ], [ 104.839166666666671, 12.19 ] ] } },
{ "type": "Feature", "properties": { "COMID": 44042802, "id": "10468", "lengthkm": 1.33421541148303, "order": 6, "uparea": 83202.330713355361 }, "geometry": { "type": "LineString", "coordinates": [ [ 104.776666666666671, 12.066666666666674 ], [ 104.7775, 12.07833333333334 ] ] } },
{ "type": "Feature", "properties": { "COMID": 44042801, "id": "10468", "lengthkm": 3.5944783947704679, "order": 6, "uparea": 83408.351808776788 }, "geometry": { "type": "LineString", "coordinates": [ [ 104.770833333333329, 12.036666666666672 ], [ 104.776666666666671, 12.055833333333339 ], [ 104.776666666666671, 12.066666666666674 ] ] } },
{ "type": "Feature", "properties": { "COMID": 44042800, "id": "10468", "lengthkm": 3.2582417441779601, "order": 6, "uparea": 83476.896953807824 }, "geometry": { "type": "LineString", "coordinates": [ [ 104.7825, 12.0125 ], [ 104.7725, 12.023333333333337 ], [ 104.770833333333329, 12.036666666666672 ] ] } },
{ "type": "Feature", "properties": { "COMID": 44042799, "id": "10468", "lengthkm": 22.166357726187531, "order": 6, "uparea": 83619.12103177348 }, "geometry": { "type": "LineString", "coordinates": [ [ 104.781666666666666, 11.88 ], [ 104.7825, 11.8825 ], [ 104.788333333333327, 11.8875 ], [ 104.808333333333337, 11.891666666666673 ], [ 104.8225, 11.905833333333337 ], [ 104.825833333333335, 11.915 ], [ 104.825833333333335, 11.936666666666671 ], [ 104.834166666666661, 11.960833333333337 ], [ 104.8325, 11.970833333333339 ], [ 104.833333333333329, 11.98416666666667 ], [ 104.8275, 11.9925 ], [ 104.819166666666661, 11.996666666666673 ], [ 104.80083333333333, 12.001666666666672 ], [ 104.7825, 12.0125 ] ] } },
{ "type": "Feature", "properties": { "COMID": 44042798, "id": "10468", "lengthkm": 3.739995259753973, "order": 6, "uparea": 84474.746325910339 }, "geometry": { "type": "LineString", "coordinates": [ [ 104.8, 11.854166666666671 ], [ 104.795833333333334, 11.861666666666672 ], [ 104.785833333333329, 11.870833333333337 ], [ 104.781666666666666, 11.88 ] ] } },
{ "type": "Feature", "properties": { "COMID": 44042797, "id": "10468", "lengthkm": 0.092662492290699006, "order": 6, "uparea": 84574.371777092747 }, "geometry": { "type": "LineString", "coordinates": [ [ 104.8, 11.853333333333339 ], [ 104.8, 11.854166666666671 ] ] } },
{ "type": "Feature", "properties": { "COMID": 44042796, "id": "10468", "lengthkm": 8.1154143457570811, "order": 6, "uparea": 85422.150834822416 }, "geometry": { "type": "LineString", "coordinates": [ [ 104.824166666666656, 11.79 ], [ 104.8125, 11.805833333333339 ], [ 104.803333333333327, 11.82416666666667 ], [ 104.801666666666662, 11.83 ], [ 104.801666666666662, 11.849166666666672 ], [ 104.8, 11.853333333333339 ] ] } },
{ "type": "Feature", "properties": { "COMID": 44042795, "id": "10468", "lengthkm": 3.2242638684319478, "order": 6, "uparea": 86032.279031289276 }, "geometry": { "type": "LineString", "coordinates": [ [ 104.83, 11.763333333333339 ], [ 104.828333333333333, 11.7775 ], [ 104.824166666666656, 11.79 ] ] } },
{ "type": "Feature", "properties": { "COMID": 44042794, "id": "10468", "lengthkm": 11.711163045860255, "order": 6, "uparea": 87664.889388178519 }, "geometry": { "type": "LineString", "coordinates": [ [ 104.86, 11.67 ], [ 104.8525, 11.680833333333339 ], [ 104.8425, 11.70333333333334 ], [ 104.8375, 11.729166666666671 ], [ 104.831666666666663, 11.745 ], [ 104.83, 11.763333333333339 ] ] } },
{ "type": "Feature", "properties": { "COMID": 44043943, "id": "10468", "lengthkm": 6.2530885194613859, "order": 6, "uparea": 87777.539914863752 }, "geometry": { "type": "LineString", "coordinates": [ [ 104.899166666666659, 11.63666666666667 ], [ 104.884166666666658, 11.641666666666673 ], [ 104.875, 11.648333333333337 ], [ 104.86, 11.67 ] ] } },
{ "type": "Feature", "properties": { "COMID": 44043942, "id": "10468", "lengthkm": 11.431621086972255, "order": 6, "uparea": 87839.983475464673 }, "geometry": { "type": "LineString", "coordinates": [ [ 104.9475, 11.560833333333338 ], [ 104.941666666666663, 11.56 ], [ 104.93416666666667, 11.566666666666674 ], [ 104.92916666666666, 11.5775 ], [ 104.921666666666667, 11.5875 ], [ 104.921666666666667, 11.605 ], [ 104.920833333333334, 11.6125 ], [ 104.918333333333337, 11.618333333333339 ], [ 104.9075, 11.631666666666671 ], [ 104.899166666666659, 11.63666666666667 ] ] } },
{ "type": "Feature", "properties": { "COMID": 44043940, "id": "10468", "lengthkm": 2.6721343464230611, "order": 7, "uparea": 751128.29172518873 }, "geometry": { "type": "LineString", "coordinates": [ [ 104.966666666666669, 11.548333333333339 ], [ 104.953333333333333, 11.555 ], [ 104.9475, 11.560833333333338 ] ] } },
{ "type": "Feature", "properties": { "COMID": 44043939, "id": "10468", "lengthkm": 27.602641817251001, "order": 7, "uparea": 751221.3391168192 }, "geometry": { "type": "LineString", "coordinates": [ [ 105.176666666666662, 11.4575 ], [ 105.1675, 11.463333333333338 ], [ 105.158333333333331, 11.4725 ], [ 105.145833333333329, 11.4775 ], [ 105.135, 11.485 ], [ 105.12166666666667, 11.490833333333338 ], [ 105.111666666666665, 11.5 ], [ 105.1, 11.505833333333339 ], [ 105.085833333333326, 11.518333333333338 ], [ 105.083333333333329, 11.523333333333337 ], [ 105.0775, 11.52833333333334 ], [ 105.061666666666667, 11.533333333333339 ], [ 105.056666666666658, 11.533333333333339 ], [ 105.033333333333331, 11.5425 ], [ 105.016666666666666, 11.54666666666667 ], [ 104.984166666666667, 11.5475 ], [ 104.974166666666662, 11.549166666666672 ], [ 104.966666666666669, 11.548333333333339 ] ] } },
{ "type": "Feature", "properties": { "COMID": 44043938, "id": "10468", "lengthkm": 22.169869394716191, "order": 7, "uparea": 752374.90433129028 }, "geometry": { "type": "LineString", "coordinates": [ [ 105.275, 11.306666666666672 ], [ 105.274166666666659, 11.321666666666673 ], [ 105.264166666666668, 11.35 ], [ 105.261666666666656, 11.3525 ], [ 105.260833333333323, 11.366666666666671 ], [ 105.255, 11.391666666666673 ], [ 105.239166666666662, 11.409166666666671 ], [ 105.229166666666657, 11.415 ], [ 105.210833333333326, 11.435 ], [ 105.195, 11.443333333333339 ], [ 105.176666666666662, 11.4575 ] ] } },
{ "type": "Feature", "properties": { "COMID": 44045069, "id": "10468", "lengthkm": 78.538432929652856, "order": 7, "uparea": 754973.09388872841 }, "geometry": { "type": "LineString", "coordinates": [ [ 105.335833333333326, 10.808333333333337 ], [ 105.325833333333335, 10.818333333333339 ], [ 105.313333333333333, 10.8225 ], [ 105.305, 10.8225 ], [ 105.286666666666662, 10.816666666666674 ], [ 105.283333333333331, 10.810833333333338 ], [ 105.276666666666671, 10.805 ], [ 105.264166666666668, 10.80083333333334 ], [ 105.2425, 10.805 ], [ 105.231666666666669, 10.805 ], [ 105.2275, 10.809166666666673 ], [ 105.2275, 10.811666666666671 ], [ 105.215833333333336, 10.835 ], [ 105.213333333333338, 10.8375 ], [ 105.210833333333326, 10.836666666666673 ], [ 105.203333333333333, 10.84083333333334 ], [ 105.193333333333328, 10.853333333333339 ], [ 105.19083333333333, 10.85916666666667 ], [ 105.19, 10.869166666666672 ], [ 105.1875, 10.871666666666673 ], [ 105.185833333333335, 10.88 ], [ 105.185833333333335, 10.894166666666671 ], [ 105.1875, 10.8975 ], [ 105.188333333333333, 10.9075 ], [ 105.186666666666667, 10.913333333333338 ], [ 105.185833333333335, 10.9475 ], [ 105.183333333333337, 10.964166666666671 ], [ 105.1875, 10.978333333333339 ], [ 105.1875, 11.001666666666672 ], [ 105.19083333333333, 11.020833333333339 ], [ 105.194166666666661, 11.025 ], [ 105.1975, 11.03583333333334 ], [ 105.1975, 11.041666666666671 ], [ 105.195, 11.045833333333338 ], [ 105.1925, 11.083333333333339 ], [ 105.195, 11.088333333333338 ], [ 105.203333333333333, 11.096666666666671 ], [ 105.21, 11.1 ], [ 105.213333333333338, 11.10583333333334 ], [ 105.234166666666667, 11.13 ], [ 105.236666666666665, 11.139166666666672 ], [ 105.235833333333332, 11.143333333333338 ], [ 105.24166666666666, 11.154166666666672 ], [ 105.23833333333333, 11.159166666666671 ], [ 105.235, 11.170833333333338 ], [ 105.235, 11.178333333333338 ], [ 105.250833333333333, 11.194166666666671 ], [ 105.255833333333328, 11.19583333333334 ], [ 105.259166666666658, 11.199166666666674 ], [ 105.268333333333331, 11.21583333333334 ], [ 105.271666666666661, 11.228333333333339 ], [ 105.279166666666669, 11.245833333333337 ], [ 105.280833333333334, 11.255 ], [ 105.28, 11.2775 ], [ 105.275, 11.29666666666667 ], [ 105.275, 11.306666666666672 ] ] } },
{ "type": "Feature", "properties": { "COMID": 44045068, "id": "10468", "lengthkm": 3.6899238053673629, "order": 7, "uparea": 755590.39581178268 }, "geometry": { "type": "LineString", "coordinates": [ [ 105.345833333333331, 10.779166666666672 ], [ 105.3375, 10.8 ], [ 105.335833333333326, 10.808333333333337 ] ] } },
{ "type": "Feature", "properties": { "COMID": 44045067, "id": "10468", "lengthkm": 8.1031903767886284, "order": 7, "uparea": 755633.45288342342 }, "geometry": { "type": "LineString", "coordinates": [ [ 105.350833333333327, 10.715 ], [ 105.355, 10.725 ], [ 105.359166666666667, 10.729166666666671 ], [ 105.359166666666667, 10.73416666666667 ], [ 105.355833333333322, 10.745 ], [ 105.355833333333322, 10.755833333333339 ], [ 105.351666666666659, 10.770833333333339 ], [ 105.345833333333331, 10.779166666666672 ] ] } },
{ "type": "Feature", "properties": { "COMID": 44045066, "id": "10468", "lengthkm": 17.48573855067545, "order": 7, "uparea": 755704.6604524802 }, "geometry": { "type": "LineString", "coordinates": [ [ 105.36666666666666, 10.574166666666674 ], [ 105.365833333333327, 10.583333333333339 ], [ 105.349166666666662, 10.6175 ], [ 105.34, 10.645833333333339 ], [ 105.338333333333338, 10.67583333333334 ], [ 105.345833333333331, 10.690833333333337 ], [ 105.350833333333327, 10.715 ] ] } },
{ "type": "Feature", "properties": { "COMID": 44045065, "id": "10468", "lengthkm": 6.0505441600601344, "order": 7, "uparea": 755739.88482001564 }, "geometry": { "type": "LineString", "coordinates": [ [ 105.3275, 10.540833333333339 ], [ 105.334166666666661, 10.548333333333339 ], [ 105.351666666666659, 10.556666666666672 ], [ 105.36666666666666, 10.574166666666674 ] ] } },
{ "type": "Feature", "properties": { "COMID": 44045924, "id": "10468", "lengthkm": 23.262980328980063, "order": 7, "uparea": 768296.12213371927 }, "geometry": { "type": "LineString", "coordinates": [ [ 105.445, 10.386666666666674 ], [ 105.431666666666658, 10.398333333333341 ], [ 105.414166666666659, 10.4175 ], [ 105.4075, 10.439166666666672 ], [ 105.385, 10.451666666666672 ], [ 105.361666666666665, 10.476666666666674 ], [ 105.346666666666664, 10.49 ], [ 105.33, 10.525833333333338 ], [ 105.3275, 10.540833333333339 ] ] } },
{ "type": "Feature", "properties": { "COMID": 44045923, "id": "10468", "lengthkm": 0.84564859880892596, "order": 7, "uparea": 770011.15033644927 }, "geometry": { "type": "LineString", "coordinates": [ [ 105.451666666666668, 10.384166666666673 ], [ 105.445, 10.386666666666674 ] ] } },
{ "type": "Feature", "properties": { "COMID": 44045922, "id": "10468", "lengthkm": 7.2556288478156619, "order": 7, "uparea": 770287.79144258949 }, "geometry": { "type": "LineString", "coordinates": [ [ 105.48833333333333, 10.334166666666672 ], [ 105.474166666666662, 10.3475 ], [ 105.4625, 10.3625 ], [ 105.456666666666663, 10.3725 ], [ 105.455, 10.38 ], [ 105.451666666666668, 10.384166666666673 ] ] } },
{ "type": "Feature", "properties": { "COMID": 44045921, "id": "10468", "lengthkm": 1.0025688598509439, "order": 7, "uparea": 770557.26773444971 }, "geometry": { "type": "LineString", "coordinates": [ [ 105.494166666666658, 10.3275 ], [ 105.48833333333333, 10.334166666666672 ] ] } },
{ "type": "Feature", "properties": { "COMID": 44045920, "id": "10468", "lengthkm": 22.999195181191958, "order": 7, "uparea": 770975.52559636952 }, "geometry": { "type": "LineString", "coordinates": [ [ 105.625, 10.186666666666671 ], [ 105.624166666666667, 10.1925 ], [ 105.615, 10.2175 ], [ 105.600833333333327, 10.23833333333334 ], [ 105.57, 10.268333333333338 ], [ 105.564166666666665, 10.27 ], [ 105.55916666666667, 10.275 ], [ 105.558333333333337, 10.27833333333334 ], [ 105.548333333333332, 10.2875 ], [ 105.525, 10.3025 ], [ 105.5175, 10.305833333333339 ], [ 105.515833333333333, 10.305 ], [ 105.494166666666658, 10.3275 ] ] } },
{ "type": "Feature", "properties": { "COMID": 44045919, "id": "10468", "lengthkm": 5.7164777464332648, "order": 7, "uparea": 771033.49665386393 }, "geometry": { "type": "LineString", "coordinates": [ [ 105.659166666666664, 10.15 ], [ 105.650833333333324, 10.158333333333339 ], [ 105.65, 10.1625 ], [ 105.625, 10.186666666666671 ] ] } },
{ "type": "Feature", "properties": { "COMID": 44045918, "id": "10468", "lengthkm": 15.015373103071788, "order": 7, "uparea": 772579.76282141218 }, "geometry": { "type": "LineString", "coordinates": [ [ 105.765, 10.0775 ], [ 105.7525, 10.09 ], [ 105.740833333333327, 10.095833333333339 ], [ 105.735, 10.095833333333339 ], [ 105.710833333333326, 10.116666666666671 ], [ 105.694166666666661, 10.12583333333334 ], [ 105.659166666666664, 10.15 ] ] } },
{ "type": "Feature", "properties": { "COMID": 44045917, "id": "10468", "lengthkm": 5.2380466363319433, "order": 7, "uparea": 772650.606293933 }, "geometry": { "type": "LineString", "coordinates": [ [ 105.798333333333332, 10.049166666666672 ], [ 105.793333333333322, 10.058333333333341 ], [ 105.784166666666664, 10.0675 ], [ 105.775833333333324, 10.073333333333338 ], [ 105.765, 10.0775 ] ] } },
{ "type": "Feature", "properties": { "COMID": 44045916, "id": "10468", "lengthkm": 0.57545517070872898, "order": 7, "uparea": 772739.76413985551 }, "geometry": { "type": "LineString", "coordinates": [ [ 105.80083333333333, 10.045 ], [ 105.798333333333332, 10.049166666666672 ] ] } },
{ "type": "Feature", "properties": { "COMID": 44045915, "id": "10468", "lengthkm": 17.013743803694048, "order": 7, "uparea": 773817.92850895261 }, "geometry": { "type": "LineString", "coordinates": [ [ 105.898333333333326, 9.936666666666671 ], [ 105.8775, 9.950833333333339 ], [ 105.846666666666664, 9.98 ], [ 105.819166666666661, 10.013333333333339 ], [ 105.8175, 10.016666666666673 ], [ 105.8175, 10.0225 ], [ 105.814166666666665, 10.03 ], [ 105.808333333333337, 10.038333333333338 ], [ 105.80083333333333, 10.045 ] ] } },
{ "type": "Feature", "properties": { "COMID": 44046400, "id": "10468", "lengthkm": 9.2908474740990226, "order": 7, "uparea": 774697.65067198128 }, "geometry": { "type": "LineString", "coordinates": [ [ 105.955, 9.880833333333339 ], [ 105.953333333333333, 9.885 ], [ 105.925, 9.91 ], [ 105.911666666666662, 9.925 ], [ 105.91, 9.93 ], [ 105.898333333333326, 9.936666666666671 ] ] } },
{ "type": "Feature", "properties": { "COMID": 44046399, "id": "10468", "lengthkm": 10.815765808967447, "order": 7, "uparea": 774772.97603668948 }, "geometry": { "type": "LineString", "coordinates": [ [ 106.025833333333338, 9.8175 ], [ 106.0175, 9.819166666666671 ], [ 106.014166666666668, 9.821666666666673 ], [ 105.955, 9.880833333333339 ] ] } },
{ "type": "Feature", "properties": { "COMID": 44046398, "id": "10468", "lengthkm": 2.955705689749085, "order": 7, "uparea": 775050.41322420561 }, "geometry": { "type": "LineString", "coordinates": [ [ 106.0475, 9.808333333333341 ], [ 106.034166666666664, 9.816666666666674 ], [ 106.025833333333338, 9.8175 ] ] } },
{ "type": "Feature", "properties": { "COMID": 44046397, "id": "10468", "lengthkm": 4.957685663430401, "order": 7, "uparea": 775140.78874230909 }, "geometry": { "type": "LineString", "coordinates": [ [ 106.069166666666661, 9.7725 ], [ 106.066666666666663, 9.7825 ], [ 106.0475, 9.808333333333341 ] ] } },
{ "type": "Feature", "properties": { "COMID": 44046396, "id": "10468", "lengthkm": 3.5701866387717152, "order": 7, "uparea": 775611.55126566498 }, "geometry": { "type": "LineString", "coordinates": [ [ 106.0975, 9.7625 ], [ 106.0775, 9.7725 ], [ 106.069166666666661, 9.7725 ] ] } },
{ "type": "Feature", "properties": { "COMID": 44046395, "id": "10468", "lengthkm": 2.355571900216527, "order": 7, "uparea": 775719.66045150871 }, "geometry": { "type": "LineString", "coordinates": [ [ 106.11333333333333, 9.749166666666671 ], [ 106.0975, 9.7625 ] ] } },
{ "type": "Feature", "properties": { "COMID": 44046394, "id": "10468", "lengthkm": 11.851812812818313, "order": 7, "uparea": 775833.02004996059 }, "geometry": { "type": "LineString", "coordinates": [ [ 106.185833333333335, 9.673333333333339 ], [ 106.161666666666662, 9.696666666666673 ], [ 106.15, 9.710833333333341 ], [ 106.12833333333333, 9.73083333333334 ], [ 106.11333333333333, 9.749166666666671 ] ] } },
{ "type": "Feature", "properties": { "COMID": 44046393, "id": "10468", "lengthkm": 4.0862544170249508, "order": 7, "uparea": 775876.22938334767 }, "geometry": { "type": "LineString", "coordinates": [ [ 106.2125, 9.648333333333341 ], [ 106.185833333333335, 9.673333333333339 ] ] } },
{ "type": "Feature", "properties": { "COMID": 44046392, "id": "10468", "lengthkm": 5.622978429100705, "order": 7, "uparea": 775976.91826970724 }, "geometry": { "type": "LineString", "coordinates": [ [ 106.25, 9.615833333333338 ], [ 106.2125, 9.648333333333341 ] ] } },
{ "type": "Feature", "properties": { "COMID": 44046391, "id": "10468", "lengthkm": 3.9342543909143042, "order": 7, "uparea": 776027.11519115441 }, "geometry": { "type": "LineString", "coordinates": [ [ 106.279166666666669, 9.6 ], [ 106.264166666666668, 9.606666666666673 ], [ 106.25, 9.615833333333338 ] ] } },
{ "type": "Feature", "properties": { "COMID": 44046390, "id": "10468", "lengthkm": 3.3861689994837838, "order": 7, "uparea": 776128.1625807212 }, "geometry": { "type": "LineString", "coordinates": [ [ 106.303333333333327, 9.584166666666672 ], [ 106.279166666666669, 9.6 ] ] } }
]
}
