{
"type": "FeatureCollection",
"name": "downstream_73060",
"crs": { "type": "name", "properties": { "name": "urn:ogc:def:crs:OGC:1.3:CRS84" } },
"features": [
{ "type": "Feature", "properties": { "COMID": 45033835, "id": "9405", "lengthkm": 12.577573209955185, "order": 1, "uparea": 86.52025209956021 }, "geometry": { "type": "LineString", "coordinates": [ [ 86.45, 27.875833333333343 ], [ 86.458333333333314, 27.870833333333344 ], [ 86.46, 27.868333333333343 ], [ 86.466666666666654, 27.869166666666676 ], [ 86.47166666666665, 27.866666666666674 ], [ 86.495833333333323, 27.843333333333341 ], [ 86.496666666666655, 27.844166666666677 ], [ 86.5025, 27.84 ], [ 86.504166666666649, 27.841666666666676 ], [ 86.505, 27.839166666666678 ], [ 86.509166666666658, 27.839166666666678 ], [ 86.515, 27.834166666666675 ], [ 86.523333333333312, 27.830833333333345 ], [ 86.535, 27.841666666666676 ], [ 86.5375, 27.846666666666678 ] ] } },
{ "type": "Feature", "properties": { "COMID": 45033297, "id": "9405", "lengthkm": 26.529407404275304, "order": 2, "uparea": 305.93239504158015 }, "geometry": { "type": "LineString", "coordinates": [ [ 86.2225, 27.881666666666675 ], [ 86.228333333333325, 27.879166666666677 ], [ 86.23333333333332, 27.88 ], [ 86.239166666666648, 27.885 ], [ 86.2475, 27.8875 ], [ 86.2525, 27.891666666666676 ], [ 86.260833333333323, 27.8925 ], [ 86.2725, 27.903333333333343 ], [ 86.278333333333322, 27.904166666666676 ], [ 86.285833333333315, 27.9025 ], [ 86.29583333333332, 27.905 ], [ 86.3325, 27.901666666666678 ], [ 86.3375, 27.903333333333343 ], [ 86.3425, 27.9025 ], [ 86.365, 27.905833333333341 ], [ 86.376666666666651, 27.901666666666678 ], [ 86.384166666666658, 27.8925 ], [ 86.4025, 27.883333333333344 ], [ 86.4075, 27.881666666666675 ], [ 86.4175, 27.8825 ], [ 86.4225, 27.88 ], [ 86.433333333333323, 27.879166666666677 ], [ 86.4375, 27.876666666666676 ], [ 86.444166666666646, 27.878333333333345 ], [ 86.45, 27.875833333333343 ] ] } },
{ "type": "Feature", "properties": { "COMID": 45032676, "id": "9405", "lengthkm": 7.6315592621394828, "order": 4, "uparea": 2148.2218687756517 }, "geometry": { "type": "LineString", "coordinates": [ [ 86.228333333333325, 27.8225 ], [ 86.2275, 27.826666666666675 ], [ 86.22166666666665, 27.831666666666678 ], [ 86.2175, 27.840833333333343 ], [ 86.219166666666652, 27.843333333333341 ], [ 86.21833333333332, 27.848333333333343 ], [ 86.22, 27.849166666666676 ], [ 86.219166666666652, 27.853333333333342 ], [ 86.22166666666665, 27.856666666666676 ], [ 86.220833333333317, 27.876666666666676 ], [ 86.2225, 27.878333333333345 ], [ 86.2225, 27.881666666666675 ] ] } },
{ "type": "Feature", "properties": { "COMID": 45032645, "id": "9405", "lengthkm": 8.4373494920988374, "order": 4, "uparea": 2237.8808216691741 }, "geometry": { "type": "LineString", "coordinates": [ [ 86.196666666666658, 27.759166666666676 ], [ 86.2, 27.763333333333343 ], [ 86.203333333333319, 27.775833333333345 ], [ 86.2075, 27.781666666666677 ], [ 86.21, 27.7825 ], [ 86.2175, 27.798333333333343 ], [ 86.224166666666648, 27.806666666666676 ], [ 86.224166666666648, 27.810833333333342 ], [ 86.226666666666659, 27.814166666666676 ], [ 86.226666666666659, 27.82 ], [ 86.228333333333325, 27.8225 ] ] } },
{ "type": "Feature", "properties": { "COMID": 45036137, "id": "9405", "lengthkm": 2.1408467601690302, "order": 4, "uparea": 2471.644293551994 }, "geometry": { "type": "LineString", "coordinates": [ [ 86.18, 27.749166666666675 ], [ 86.196666666666658, 27.759166666666676 ] ] } },
{ "type": "Feature", "properties": { "COMID": 45036118, "id": "9405", "lengthkm": 2.296694730737904, "order": 4, "uparea": 2503.1611195035957 }, "geometry": { "type": "LineString", "coordinates": [ [ 86.165, 27.735833333333343 ], [ 86.173333333333318, 27.741666666666674 ], [ 86.18, 27.749166666666675 ] ] } },
{ "type": "Feature", "properties": { "COMID": 45036113, "id": "9405", "lengthkm": 2.729083922828619, "order": 4, "uparea": 2742.4766436642708 }, "geometry": { "type": "LineString", "coordinates": [ [ 86.15083333333331, 27.718333333333341 ], [ 86.15916666666665, 27.725 ], [ 86.16, 27.73 ], [ 86.165, 27.735833333333343 ] ] } },
{ "type": "Feature", "properties": { "COMID": 45036110, "id": "9405", "lengthkm": 0.91660800076499704, "order": 4, "uparea": 2779.4973517149238 }, "geometry": { "type": "LineString", "coordinates": [ [ 86.15083333333331, 27.711666666666677 ], [ 86.149166666666645, 27.715 ], [ 86.149166666666645, 27.7175 ], [ 86.15083333333331, 27.718333333333341 ] ] } },
{ "type": "Feature", "properties": { "COMID": 45036109, "id": "9405", "lengthkm": 7.1144524358413204, "order": 4, "uparea": 2853.3412894188423 }, "geometry": { "type": "LineString", "coordinates": [ [ 86.105, 27.680833333333343 ], [ 86.105833333333322, 27.6825 ], [ 86.109166666666653, 27.680833333333343 ], [ 86.114166666666648, 27.684166666666677 ], [ 86.12, 27.685 ], [ 86.120833333333323, 27.69 ], [ 86.123333333333321, 27.6925 ], [ 86.129166666666649, 27.691666666666677 ], [ 86.1325, 27.698333333333345 ], [ 86.140833333333319, 27.700833333333343 ], [ 86.15083333333331, 27.711666666666677 ] ] } },
{ "type": "Feature", "properties": { "COMID": 45036098, "id": "9405", "lengthkm": 9.2502934445523781, "order": 4, "uparea": 2937.9931872108227 }, "geometry": { "type": "LineString", "coordinates": [ [ 86.075, 27.615 ], [ 86.075, 27.616666666666674 ], [ 86.08, 27.620833333333344 ], [ 86.0825, 27.631666666666675 ], [ 86.085, 27.634166666666676 ], [ 86.084166666666647, 27.639166666666675 ], [ 86.086666666666645, 27.6425 ], [ 86.0875, 27.659166666666678 ], [ 86.094166666666652, 27.670833333333341 ], [ 86.105, 27.676666666666677 ], [ 86.105, 27.680833333333343 ] ] } },
{ "type": "Feature", "properties": { "COMID": 45036088, "id": "9405", "lengthkm": 0.21646857958203899, "order": 4, "uparea": 3077.8645148648643 }, "geometry": { "type": "LineString", "coordinates": [ [ 86.075833333333321, 27.613333333333344 ], [ 86.075, 27.615 ] ] } },
{ "type": "Feature", "properties": { "COMID": 45036087, "id": "9405", "lengthkm": 6.4389612583382414, "order": 4, "uparea": 3184.6298721626081 }, "geometry": { "type": "LineString", "coordinates": [ [ 86.083333333333314, 27.561666666666675 ], [ 86.083333333333314, 27.57 ], [ 86.085, 27.571666666666676 ], [ 86.084166666666647, 27.579166666666676 ], [ 86.081666666666649, 27.581666666666678 ], [ 86.0825, 27.59 ], [ 86.079166666666652, 27.599166666666676 ], [ 86.078333333333319, 27.609166666666674 ], [ 86.075833333333321, 27.610833333333343 ], [ 86.075833333333321, 27.613333333333344 ] ] } },
{ "type": "Feature", "properties": { "COMID": 45036077, "id": "9405", "lengthkm": 8.0484340564880057, "order": 4, "uparea": 3264.9392590722468 }, "geometry": { "type": "LineString", "coordinates": [ [ 86.0925, 27.500833333333343 ], [ 86.09333333333332, 27.505833333333342 ], [ 86.0875, 27.508333333333344 ], [ 86.085833333333312, 27.510833333333345 ], [ 86.0875, 27.515833333333344 ], [ 86.085, 27.525 ], [ 86.085833333333312, 27.530833333333341 ], [ 86.081666666666649, 27.5375 ], [ 86.0825, 27.541666666666679 ], [ 86.080833333333317, 27.5425 ], [ 86.084166666666647, 27.548333333333343 ], [ 86.083333333333314, 27.553333333333342 ], [ 86.085, 27.56 ], [ 86.083333333333314, 27.561666666666675 ] ] } },
{ "type": "Feature", "properties": { "COMID": 45036067, "id": "9405", "lengthkm": 4.2364356731028554, "order": 4, "uparea": 3349.2143429041557 }, "geometry": { "type": "LineString", "coordinates": [ [ 86.113333333333316, 27.475 ], [ 86.115, 27.48 ], [ 86.11, 27.4825 ], [ 86.106666666666655, 27.486666666666679 ], [ 86.106666666666655, 27.49 ], [ 86.098333333333315, 27.498333333333342 ], [ 86.0925, 27.500833333333343 ] ] } },
{ "type": "Feature", "properties": { "COMID": 45036062, "id": "9405", "lengthkm": 3.7947029003657922, "order": 4, "uparea": 3813.528993793821 }, "geometry": { "type": "LineString", "coordinates": [ [ 86.105833333333322, 27.446666666666676 ], [ 86.109166666666653, 27.451666666666675 ], [ 86.1075, 27.455 ], [ 86.1125, 27.461666666666677 ], [ 86.110833333333318, 27.471666666666678 ], [ 86.113333333333316, 27.475 ] ] } },
{ "type": "Feature", "properties": { "COMID": 45036058, "id": "9405", "lengthkm": 4.9682737166587128, "order": 4, "uparea": 3868.9059537376256 }, "geometry": { "type": "LineString", "coordinates": [ [ 86.0825, 27.415 ], [ 86.085, 27.416666666666679 ], [ 86.085, 27.425833333333344 ], [ 86.091666666666654, 27.429166666666674 ], [ 86.09333333333332, 27.435833333333342 ], [ 86.099166666666648, 27.44 ], [ 86.101666666666659, 27.44 ], [ 86.105, 27.443333333333342 ], [ 86.105833333333322, 27.446666666666676 ] ] } },
{ "type": "Feature", "properties": { "COMID": 45036048, "id": "9405", "lengthkm": 5.3020794071485708, "order": 4, "uparea": 3919.000505550468 }, "geometry": { "type": "LineString", "coordinates": [ [ 86.050833333333316, 27.385 ], [ 86.056666666666644, 27.39 ], [ 86.06, 27.396666666666675 ], [ 86.069166666666646, 27.404166666666676 ], [ 86.071666666666658, 27.41 ], [ 86.078333333333319, 27.410833333333343 ], [ 86.0825, 27.415 ] ] } },
{ "type": "Feature", "properties": { "COMID": 45036045, "id": "9405", "lengthkm": 1.011120600453113, "order": 4, "uparea": 3957.1305697369521 }, "geometry": { "type": "LineString", "coordinates": [ [ 86.045, 27.381666666666675 ], [ 86.0475, 27.385833333333345 ], [ 86.050833333333316, 27.385 ] ] } },
{ "type": "Feature", "properties": { "COMID": 45036043, "id": "9405", "lengthkm": 1.648645196783566, "order": 4, "uparea": 4000.8120014320643 }, "geometry": { "type": "LineString", "coordinates": [ [ 86.03083333333332, 27.376666666666676 ], [ 86.035, 27.3775 ], [ 86.0375, 27.38 ], [ 86.043333333333322, 27.38 ], [ 86.045, 27.381666666666675 ] ] } },
{ "type": "Feature", "properties": { "COMID": 45036041, "id": "9405", "lengthkm": 7.5784443695136332, "order": 4, "uparea": 4118.4895253395316 }, "geometry": { "type": "LineString", "coordinates": [ [ 85.9825, 27.351666666666677 ], [ 85.988333333333316, 27.358333333333341 ], [ 85.989166666666648, 27.365 ], [ 85.994166666666644, 27.369166666666679 ], [ 85.993333333333311, 27.370833333333344 ], [ 85.996666666666655, 27.374166666666675 ], [ 86.004166666666649, 27.373333333333342 ], [ 86.005833333333314, 27.375 ], [ 86.005, 27.376666666666676 ], [ 86.008333333333326, 27.379166666666677 ], [ 86.021666666666647, 27.375833333333343 ], [ 86.02583333333331, 27.373333333333342 ], [ 86.03083333333332, 27.376666666666676 ] ] } },
{ "type": "Feature", "properties": { "COMID": 45035882, "id": "9405", "lengthkm": 21.10284365806147, "order": 5, "uparea": 10297.594592084395 }, "geometry": { "type": "LineString", "coordinates": [ [ 86.106666666666655, 27.268333333333345 ], [ 86.0925, 27.268333333333345 ], [ 86.081666666666649, 27.275833333333345 ], [ 86.078333333333319, 27.275 ], [ 86.075, 27.279166666666676 ], [ 86.076666666666654, 27.285 ], [ 86.074166666666656, 27.291666666666679 ], [ 86.0625, 27.291666666666679 ], [ 86.059166666666655, 27.2875 ], [ 86.0575, 27.2875 ], [ 86.055, 27.288333333333341 ], [ 86.0475, 27.2975 ], [ 86.045, 27.296666666666674 ], [ 86.039166666666659, 27.298333333333343 ], [ 86.03083333333332, 27.31 ], [ 86.028333333333322, 27.310833333333342 ], [ 86.025, 27.308333333333344 ], [ 86.021666666666647, 27.309166666666677 ], [ 86.020833333333314, 27.311666666666675 ], [ 86.023333333333312, 27.314166666666676 ], [ 86.02, 27.316666666666677 ], [ 86.018333333333317, 27.320833333333344 ], [ 86.010833333333323, 27.325 ], [ 85.9975, 27.3375 ], [ 85.990833333333313, 27.338333333333345 ], [ 85.98666666666665, 27.335 ], [ 85.9825, 27.336666666666677 ], [ 85.9825, 27.351666666666677 ] ] } },
{ "type": "Feature", "properties": { "COMID": 45035877, "id": "9405", "lengthkm": 11.3988829351437, "order": 5, "uparea": 10420.467156151626 }, "geometry": { "type": "LineString", "coordinates": [ [ 86.183333333333323, 27.2525 ], [ 86.1575, 27.253333333333345 ], [ 86.154166666666654, 27.249166666666675 ], [ 86.1525, 27.243333333333343 ], [ 86.148333333333312, 27.2425 ], [ 86.143333333333317, 27.2475 ], [ 86.135, 27.250833333333343 ], [ 86.129166666666649, 27.259166666666676 ], [ 86.129166666666649, 27.263333333333343 ], [ 86.1275, 27.265 ], [ 86.125833333333318, 27.264166666666675 ], [ 86.1225, 27.2675 ], [ 86.1175, 27.268333333333345 ], [ 86.1125, 27.273333333333344 ], [ 86.106666666666655, 27.268333333333345 ] ] } },
{ "type": "Feature", "properties": { "COMID": 45035876, "id": "9405", "lengthkm": 2.3090637507151981, "order": 5, "uparea": 10501.518659355308 }, "geometry": { "type": "LineString", "coordinates": [ [ 86.204166666666652, 27.250833333333343 ], [ 86.199166666666656, 27.2525 ], [ 86.190833333333316, 27.2525 ], [ 86.188333333333318, 27.254166666666677 ], [ 86.183333333333323, 27.2525 ] ] } },
{ "type": "Feature", "properties": { "COMID": 45035875, "id": "9405", "lengthkm": 25.47817967942327, "order": 5, "uparea": 11705.626597730256 }, "geometry": { "type": "LineString", "coordinates": [ [ 86.371666666666655, 27.191666666666677 ], [ 86.368333333333311, 27.1925 ], [ 86.35833333333332, 27.201666666666675 ], [ 86.349166666666648, 27.200833333333343 ], [ 86.3425, 27.203333333333344 ], [ 86.34, 27.21 ], [ 86.34, 27.215 ], [ 86.34333333333332, 27.22 ], [ 86.340833333333322, 27.225 ], [ 86.340833333333322, 27.229166666666679 ], [ 86.331666666666649, 27.231666666666676 ], [ 86.3275, 27.23 ], [ 86.31, 27.2325 ], [ 86.3075, 27.234166666666674 ], [ 86.306666666666644, 27.2375 ], [ 86.295, 27.238333333333344 ], [ 86.288333333333327, 27.245833333333344 ], [ 86.281666666666652, 27.245833333333344 ], [ 86.276666666666657, 27.250833333333343 ], [ 86.2675, 27.253333333333345 ], [ 86.265833333333319, 27.261666666666677 ], [ 86.261666666666656, 27.2575 ], [ 86.2575, 27.258333333333344 ], [ 86.255833333333314, 27.253333333333345 ], [ 86.25, 27.248333333333342 ], [ 86.243333333333311, 27.2475 ], [ 86.2375, 27.24 ], [ 86.230833333333322, 27.2375 ], [ 86.220833333333317, 27.24 ], [ 86.214166666666657, 27.245833333333344 ], [ 86.210833333333312, 27.245833333333344 ], [ 86.204166666666652, 27.250833333333343 ] ] } },
{ "type": "Feature", "properties": { "COMID": 45035858, "id": "9405", "lengthkm": 0.74331605450446203, "order": 5, "uparea": 11757.03084694025 }, "geometry": { "type": "LineString", "coordinates": [ [ 86.3775, 27.193333333333342 ], [ 86.375, 27.194166666666675 ], [ 86.371666666666655, 27.191666666666677 ] ] } },
{ "type": "Feature", "properties": { "COMID": 45035857, "id": "9405", "lengthkm": 2.310427691125676, "order": 5, "uparea": 12171.521478434441 }, "geometry": { "type": "LineString", "coordinates": [ [ 86.39, 27.18 ], [ 86.385, 27.180833333333343 ], [ 86.3825, 27.183333333333344 ], [ 86.3825, 27.188333333333343 ], [ 86.379166666666649, 27.193333333333342 ], [ 86.3775, 27.193333333333342 ] ] } },
{ "type": "Feature", "properties": { "COMID": 45039923, "id": "9405", "lengthkm": 7.4388583966826287, "order": 5, "uparea": 12253.116313092023 }, "geometry": { "type": "LineString", "coordinates": [ [ 86.434166666666655, 27.149166666666677 ], [ 86.430833333333311, 27.149166666666677 ], [ 86.428333333333313, 27.146666666666675 ], [ 86.421666666666653, 27.149166666666677 ], [ 86.419166666666655, 27.151666666666678 ], [ 86.419166666666655, 27.1625 ], [ 86.416666666666657, 27.166666666666679 ], [ 86.410833333333315, 27.17 ], [ 86.403333333333322, 27.17 ], [ 86.4, 27.173333333333343 ], [ 86.4, 27.1775 ], [ 86.395833333333314, 27.1775 ], [ 86.39, 27.18 ] ] } },
{ "type": "Feature", "properties": { "COMID": 45039918, "id": "9405", "lengthkm": 12.719084341799336, "order": 5, "uparea": 16383.646020461332 }, "geometry": { "type": "LineString", "coordinates": [ [ 86.49, 27.105 ], [ 86.485, 27.11 ], [ 86.4825, 27.11 ], [ 86.48, 27.109166666666678 ], [ 86.475, 27.1025 ], [ 86.4725, 27.1025 ], [ 86.47, 27.105 ], [ 86.4675, 27.104166666666679 ], [ 86.46833333333332, 27.108333333333341 ], [ 86.46, 27.119166666666679 ], [ 86.453333333333319, 27.119166666666679 ], [ 86.451666666666654, 27.120833333333344 ], [ 86.445833333333326, 27.133333333333344 ], [ 86.44, 27.134166666666676 ], [ 86.434166666666655, 27.130833333333342 ], [ 86.429166666666646, 27.130833333333342 ], [ 86.425833333333316, 27.134166666666676 ], [ 86.426666666666648, 27.136666666666677 ], [ 86.434166666666655, 27.140833333333344 ], [ 86.438333333333318, 27.146666666666675 ], [ 86.434166666666655, 27.149166666666677 ] ] } },
{ "type": "Feature", "properties": { "COMID": 45039915, "id": "9405", "lengthkm": 3.480367352187804, "order": 5, "uparea": 16434.131023997903 }, "geometry": { "type": "LineString", "coordinates": [ [ 86.516666666666652, 27.115833333333342 ], [ 86.51, 27.1125 ], [ 86.5025, 27.115 ], [ 86.494166666666644, 27.105833333333344 ], [ 86.49, 27.105 ] ] } },
{ "type": "Feature", "properties": { "COMID": 45039914, "id": "9405", "lengthkm": 7.639067199244808, "order": 5, "uparea": 16554.343801397048 }, "geometry": { "type": "LineString", "coordinates": [ [ 86.571666666666658, 27.148333333333344 ], [ 86.563333333333318, 27.146666666666675 ], [ 86.555, 27.140833333333344 ], [ 86.551666666666648, 27.141666666666676 ], [ 86.546666666666653, 27.1375 ], [ 86.541666666666657, 27.138333333333343 ], [ 86.533333333333317, 27.135833333333345 ], [ 86.525, 27.126666666666676 ], [ 86.523333333333312, 27.121666666666677 ], [ 86.516666666666652, 27.115833333333342 ] ] } },
{ "type": "Feature", "properties": { "COMID": 45039913, "id": "9405", "lengthkm": 12.479965814492765, "order": 5, "uparea": 16665.644331860924 }, "geometry": { "type": "LineString", "coordinates": [ [ 86.67083333333332, 27.115 ], [ 86.6675, 27.120833333333344 ], [ 86.655, 27.125 ], [ 86.65083333333331, 27.13 ], [ 86.644166666666649, 27.130833333333342 ], [ 86.64, 27.133333333333344 ], [ 86.635, 27.1325 ], [ 86.629166666666649, 27.134166666666676 ], [ 86.614166666666648, 27.140833333333344 ], [ 86.605, 27.14 ], [ 86.585833333333312, 27.1525 ], [ 86.575, 27.151666666666678 ], [ 86.571666666666658, 27.148333333333344 ] ] } },
{ "type": "Feature", "properties": { "COMID": 45039910, "id": "9405", "lengthkm": 4.6355599544260659, "order": 5, "uparea": 16769.801503665556 }, "geometry": { "type": "LineString", "coordinates": [ [ 86.7, 27.089166666666678 ], [ 86.698333333333323, 27.095 ], [ 86.690833333333316, 27.1025 ], [ 86.6825, 27.103333333333346 ], [ 86.67083333333332, 27.115 ] ] } },
{ "type": "Feature", "properties": { "COMID": 45039909, "id": "9405", "lengthkm": 7.3923124171559529, "order": 5, "uparea": 17180.221219460258 }, "geometry": { "type": "LineString", "coordinates": [ [ 86.728333333333325, 27.038333333333341 ], [ 86.725833333333313, 27.040833333333346 ], [ 86.726666666666659, 27.046666666666678 ], [ 86.72, 27.055833333333343 ], [ 86.72, 27.0625 ], [ 86.714166666666642, 27.064166666666676 ], [ 86.71, 27.068333333333342 ], [ 86.710833333333312, 27.073333333333345 ], [ 86.705, 27.08 ], [ 86.701666666666654, 27.081666666666678 ], [ 86.698333333333323, 27.086666666666677 ], [ 86.7, 27.089166666666678 ] ] } },
{ "type": "Feature", "properties": { "COMID": 45039908, "id": "9405", "lengthkm": 4.345168833366853, "order": 5, "uparea": 17254.102495253603 }, "geometry": { "type": "LineString", "coordinates": [ [ 86.749166666666653, 27.01 ], [ 86.7475, 27.014166666666675 ], [ 86.7475, 27.024166666666677 ], [ 86.739166666666648, 27.033333333333346 ], [ 86.731666666666655, 27.035 ], [ 86.728333333333325, 27.038333333333341 ] ] } },
{ "type": "Feature", "properties": { "COMID": 45039906, "id": "9405", "lengthkm": 4.6191351834927934, "order": 5, "uparea": 17409.804748626593 }, "geometry": { "type": "LineString", "coordinates": [ [ 86.755, 26.975 ], [ 86.756666666666646, 26.985833333333343 ], [ 86.755833333333314, 26.9875 ], [ 86.7525, 26.988333333333344 ], [ 86.7525, 26.995 ], [ 86.754166666666649, 26.9975 ], [ 86.753333333333316, 27.0075 ], [ 86.749166666666653, 27.01 ] ] } },
{ "type": "Feature", "properties": { "COMID": 45039905, "id": "9405", "lengthkm": 29.859330869008154, "order": 5, "uparea": 17772.883861383249 }, "geometry": { "type": "LineString", "coordinates": [ [ 86.918333333333322, 26.899166666666677 ], [ 86.915833333333325, 26.896666666666675 ], [ 86.91, 26.896666666666675 ], [ 86.908333333333317, 26.898333333333344 ], [ 86.896666666666647, 26.896666666666675 ], [ 86.8925, 26.898333333333344 ], [ 86.8875, 26.8975 ], [ 86.885, 26.899166666666677 ], [ 86.8825, 26.8975 ], [ 86.875, 26.8975 ], [ 86.869166666666644, 26.894166666666678 ], [ 86.86166666666665, 26.895 ], [ 86.8525, 26.888333333333343 ], [ 86.84666666666665, 26.888333333333343 ], [ 86.83833333333331, 26.885 ], [ 86.836666666666645, 26.883333333333344 ], [ 86.836666666666645, 26.878333333333345 ], [ 86.834166666666647, 26.875 ], [ 86.8275, 26.875833333333343 ], [ 86.823333333333323, 26.8725 ], [ 86.815, 26.875 ], [ 86.810833333333321, 26.875 ], [ 86.806666666666644, 26.8725 ], [ 86.798333333333318, 26.878333333333345 ], [ 86.785833333333315, 26.880833333333342 ], [ 86.78, 26.888333333333343 ], [ 86.7725, 26.885 ], [ 86.771666666666647, 26.888333333333343 ], [ 86.774166666666645, 26.896666666666675 ], [ 86.7675, 26.903333333333343 ], [ 86.7675, 26.91 ], [ 86.764166666666654, 26.919166666666676 ], [ 86.760833333333323, 26.923333333333343 ], [ 86.764166666666654, 26.933333333333344 ], [ 86.764166666666654, 26.938333333333343 ], [ 86.761666666666656, 26.941666666666677 ], [ 86.764166666666654, 26.95 ], [ 86.764166666666654, 26.958333333333343 ], [ 86.760833333333323, 26.965 ], [ 86.760833333333323, 26.970833333333346 ], [ 86.756666666666646, 26.9725 ], [ 86.755, 26.975 ] ] } },
{ "type": "Feature", "properties": { "COMID": 45039900, "id": "9405", "lengthkm": 27.768110008148035, "order": 5, "uparea": 18030.21946524005 }, "geometry": { "type": "LineString", "coordinates": [ [ 87.115833333333313, 26.923333333333343 ], [ 87.110833333333318, 26.918333333333344 ], [ 87.094166666666652, 26.9175 ], [ 87.0925, 26.915833333333346 ], [ 87.09333333333332, 26.91 ], [ 87.085833333333312, 26.91 ], [ 87.081666666666649, 26.9125 ], [ 87.075833333333321, 26.908333333333346 ], [ 87.065833333333316, 26.9075 ], [ 87.063333333333318, 26.910833333333343 ], [ 87.059166666666655, 26.910833333333343 ], [ 87.0575, 26.906666666666677 ], [ 87.050833333333316, 26.9025 ], [ 87.04583333333332, 26.905 ], [ 87.044166666666655, 26.9075 ], [ 87.041666666666657, 26.906666666666677 ], [ 87.0375, 26.901666666666678 ], [ 87.0325, 26.904166666666676 ], [ 87.029166666666654, 26.9025 ], [ 87.026666666666642, 26.898333333333344 ], [ 87.018333333333317, 26.895833333333343 ], [ 87.015, 26.8925 ], [ 87.005833333333314, 26.8925 ], [ 87.0025, 26.886666666666677 ], [ 86.999166666666653, 26.8875 ], [ 86.998333333333321, 26.89 ], [ 86.995, 26.889166666666675 ], [ 86.990833333333313, 26.893333333333345 ], [ 86.98, 26.895833333333343 ], [ 86.978333333333325, 26.898333333333344 ], [ 86.978333333333325, 26.906666666666677 ], [ 86.975833333333313, 26.906666666666677 ], [ 86.97166666666665, 26.901666666666678 ], [ 86.965833333333322, 26.9 ], [ 86.9625, 26.903333333333343 ], [ 86.9575, 26.905 ], [ 86.940833333333316, 26.903333333333343 ], [ 86.931666666666644, 26.908333333333346 ], [ 86.925833333333316, 26.905 ], [ 86.921666666666653, 26.905 ], [ 86.918333333333322, 26.899166666666677 ] ] } },
{ "type": "Feature", "properties": { "COMID": 45039893, "id": "9405", "lengthkm": 4.8350540914887787, "order": 5, "uparea": 18151.905703573124 }, "geometry": { "type": "LineString", "coordinates": [ [ 87.155, 26.916666666666679 ], [ 87.15083333333331, 26.924166666666679 ], [ 87.145833333333314, 26.9275 ], [ 87.134166666666658, 26.9275 ], [ 87.128333333333316, 26.925 ], [ 87.115833333333313, 26.923333333333343 ] ] } },
{ "type": "Feature", "properties": { "COMID": 45039781, "id": "9405", "lengthkm": 1.0954866759051911, "order": 6, "uparea": 47879.174478907313 }, "geometry": { "type": "LineString", "coordinates": [ [ 87.161666666666648, 26.91 ], [ 87.156666666666652, 26.913333333333341 ], [ 87.155, 26.916666666666679 ] ] } },
{ "type": "Feature", "properties": { "COMID": 45039780, "id": "9405", "lengthkm": 3.826090398837553, "order": 6, "uparea": 53945.105443759705 }, "geometry": { "type": "LineString", "coordinates": [ [ 87.165833333333325, 26.879166666666677 ], [ 87.168333333333322, 26.888333333333343 ], [ 87.168333333333322, 26.9 ], [ 87.165, 26.9075 ], [ 87.161666666666648, 26.91 ] ] } },
{ "type": "Feature", "properties": { "COMID": 45039779, "id": "9405", "lengthkm": 10.459093703006907, "order": 6, "uparea": 54036.898716703698 }, "geometry": { "type": "LineString", "coordinates": [ [ 87.149166666666645, 26.804166666666674 ], [ 87.1525, 26.808333333333344 ], [ 87.153333333333322, 26.815 ], [ 87.140833333333319, 26.83 ], [ 87.140833333333319, 26.833333333333343 ], [ 87.15, 26.8475 ], [ 87.1525, 26.87 ], [ 87.1575, 26.875833333333343 ], [ 87.163333333333313, 26.875833333333343 ], [ 87.165833333333325, 26.879166666666677 ] ] } },
{ "type": "Feature", "properties": { "COMID": 45043846, "id": "9405", "lengthkm": 44.084323105315292, "order": 6, "uparea": 54218.407644724284 }, "geometry": { "type": "LineString", "coordinates": [ [ 86.93, 26.53 ], [ 86.9325, 26.5325 ], [ 86.938333333333318, 26.5325 ], [ 86.940833333333316, 26.534166666666678 ], [ 86.946666666666658, 26.530833333333344 ], [ 86.95, 26.534166666666678 ], [ 86.951666666666654, 26.54 ], [ 86.958333333333314, 26.544166666666676 ], [ 86.965, 26.545833333333341 ], [ 86.973333333333315, 26.5525 ], [ 86.978333333333325, 26.56 ], [ 86.9925, 26.573333333333345 ], [ 86.995833333333309, 26.581666666666678 ], [ 86.998333333333321, 26.584166666666675 ], [ 87.0, 26.5925 ], [ 87.0025, 26.5925 ], [ 87.006666666666646, 26.596666666666678 ], [ 87.015, 26.611666666666679 ], [ 87.021666666666647, 26.619166666666679 ], [ 87.021666666666647, 26.621666666666677 ], [ 87.028333333333322, 26.628333333333345 ], [ 87.03416666666665, 26.6375 ], [ 87.031666666666652, 26.644166666666678 ], [ 87.031666666666652, 26.654166666666676 ], [ 87.039166666666659, 26.6675 ], [ 87.053333333333313, 26.683333333333344 ], [ 87.075, 26.689166666666679 ], [ 87.0775, 26.691666666666677 ], [ 87.08, 26.696666666666676 ], [ 87.080833333333317, 26.705 ], [ 87.086666666666645, 26.715 ], [ 87.085, 26.725833333333341 ], [ 87.0925, 26.735 ], [ 87.09666666666665, 26.746666666666677 ], [ 87.101666666666659, 26.751666666666679 ], [ 87.12, 26.7525 ], [ 87.124166666666653, 26.756666666666675 ], [ 87.126666666666651, 26.761666666666677 ], [ 87.124166666666653, 26.784166666666678 ], [ 87.125, 26.7875 ], [ 87.134166666666658, 26.794166666666676 ], [ 87.141666666666652, 26.7975 ], [ 87.149166666666645, 26.804166666666674 ] ] } },
{ "type": "Feature", "properties": { "COMID": 45043843, "id": "9405", "lengthkm": 9.0929640545484798, "order": 6, "uparea": 55549.774489234173 }, "geometry": { "type": "LineString", "coordinates": [ [ 86.860833333333318, 26.4975 ], [ 86.860833333333318, 26.5 ], [ 86.866666666666646, 26.505 ], [ 86.8725, 26.505 ], [ 86.875, 26.5075 ], [ 86.8825, 26.5075 ], [ 86.886666666666656, 26.51 ], [ 86.898333333333312, 26.50916666666668 ], [ 86.905, 26.520833333333343 ], [ 86.913333333333313, 26.5225 ], [ 86.916666666666657, 26.525 ], [ 86.925833333333316, 26.525833333333345 ], [ 86.93, 26.53 ] ] } },
{ "type": "Feature", "properties": { "COMID": 45043840, "id": "9405", "lengthkm": 10.860043838434819, "order": 6, "uparea": 55706.4991176283 }, "geometry": { "type": "LineString", "coordinates": [ [ 86.79583333333332, 26.4475 ], [ 86.805833333333311, 26.453333333333344 ], [ 86.815833333333316, 26.455833333333345 ], [ 86.8175, 26.4575 ], [ 86.821666666666658, 26.4575 ], [ 86.830833333333317, 26.466666666666676 ], [ 86.831666666666649, 26.47 ], [ 86.8375, 26.4775 ], [ 86.8375, 26.48 ], [ 86.841666666666654, 26.483333333333341 ], [ 86.84666666666665, 26.485 ], [ 86.851666666666659, 26.480833333333344 ], [ 86.856666666666655, 26.480833333333344 ], [ 86.860833333333318, 26.485 ], [ 86.860833333333318, 26.4975 ] ] } },
{ "type": "Feature", "properties": { "COMID": 45043839, "id": "9405", "lengthkm": 42.622333464672067, "order": 6, "uparea": 55856.590125280491 }, "geometry": { "type": "LineString", "coordinates": [ [ 86.56, 26.2 ], [ 86.565, 26.2 ], [ 86.5675, 26.205 ], [ 86.570833333333326, 26.205833333333345 ], [ 86.573333333333323, 26.20416666666668 ], [ 86.579166666666652, 26.206666666666678 ], [ 86.585, 26.2125 ], [ 86.585, 26.215 ], [ 86.594166666666652, 26.223333333333343 ], [ 86.6, 26.2375 ], [ 86.6075, 26.24 ], [ 86.6175, 26.24 ], [ 86.619166666666644, 26.241666666666678 ], [ 86.618333333333311, 26.253333333333345 ], [ 86.625, 26.260833333333345 ], [ 86.625833333333318, 26.265 ], [ 86.628333333333316, 26.2675 ], [ 86.636666666666656, 26.270833333333343 ], [ 86.641666666666652, 26.278333333333343 ], [ 86.649166666666645, 26.283333333333346 ], [ 86.65083333333331, 26.2875 ], [ 86.65083333333331, 26.294166666666676 ], [ 86.653333333333322, 26.2975 ], [ 86.655, 26.305 ], [ 86.6575, 26.305833333333347 ], [ 86.6575, 26.308333333333344 ], [ 86.663333333333313, 26.315833333333345 ], [ 86.6625, 26.3175 ], [ 86.6675, 26.324166666666677 ], [ 86.676666666666648, 26.331666666666678 ], [ 86.678333333333313, 26.34 ], [ 86.685833333333321, 26.353333333333346 ], [ 86.694166666666646, 26.3575 ], [ 86.696666666666658, 26.3625 ], [ 86.705, 26.365 ], [ 86.720833333333317, 26.38 ], [ 86.723333333333315, 26.385 ], [ 86.7325, 26.389166666666675 ], [ 86.738333333333316, 26.389166666666675 ], [ 86.748333333333321, 26.395833333333343 ], [ 86.764166666666654, 26.400833333333345 ], [ 86.7675, 26.405833333333344 ], [ 86.766666666666652, 26.41 ], [ 86.768333333333317, 26.413333333333345 ], [ 86.773333333333312, 26.419166666666676 ], [ 86.781666666666652, 26.424166666666679 ], [ 86.785833333333315, 26.430833333333343 ], [ 86.796666666666653, 26.440833333333345 ], [ 86.7975, 26.445 ], [ 86.79583333333332, 26.4475 ] ] } },
{ "type": "Feature", "properties": { "COMID": 45043833, "id": "9405", "lengthkm": 6.4608542243158187, "order": 6, "uparea": 55919.751989439173 }, "geometry": { "type": "LineString", "coordinates": [ [ 86.53083333333332, 26.155833333333344 ], [ 86.53416666666665, 26.1625 ], [ 86.538333333333313, 26.166666666666679 ], [ 86.5375, 26.170833333333341 ], [ 86.539166666666659, 26.175 ], [ 86.545, 26.179166666666678 ], [ 86.545, 26.181666666666679 ], [ 86.553333333333313, 26.186666666666678 ], [ 86.555833333333311, 26.195 ], [ 86.56, 26.2 ] ] } },
{ "type": "Feature", "properties": { "COMID": 45043832, "id": "9405", "lengthkm": 0.185324887317522, "order": 6, "uparea": 55948.328460063211 }, "geometry": { "type": "LineString", "coordinates": [ [ 86.53083333333332, 26.154166666666676 ], [ 86.53083333333332, 26.155833333333344 ] ] } },
{ "type": "Feature", "properties": { "COMID": 45043831, "id": "9405", "lengthkm": 6.5261768353821754, "order": 6, "uparea": 56171.148938023587 }, "geometry": { "type": "LineString", "coordinates": [ [ 86.515, 26.106666666666676 ], [ 86.514166666666654, 26.1125 ], [ 86.520833333333314, 26.121666666666677 ], [ 86.520833333333314, 26.1275 ], [ 86.52583333333331, 26.133333333333344 ], [ 86.53083333333332, 26.135833333333345 ], [ 86.531666666666652, 26.144166666666678 ], [ 86.5275, 26.1475 ], [ 86.53083333333332, 26.154166666666676 ] ] } },
{ "type": "Feature", "properties": { "COMID": 45043829, "id": "9405", "lengthkm": 13.844512123720722, "order": 6, "uparea": 56430.16844794093 }, "geometry": { "type": "LineString", "coordinates": [ [ 86.4675, 26.014166666666675 ], [ 86.476666666666659, 26.019166666666678 ], [ 86.4775, 26.025 ], [ 86.48, 26.029166666666676 ], [ 86.48333333333332, 26.0525 ], [ 86.485833333333318, 26.055 ], [ 86.481666666666655, 26.059166666666677 ], [ 86.480833333333322, 26.066666666666677 ], [ 86.48666666666665, 26.075 ], [ 86.48333333333332, 26.07916666666668 ], [ 86.503333333333316, 26.089166666666678 ], [ 86.513333333333321, 26.1 ], [ 86.5125, 26.100833333333345 ], [ 86.515833333333319, 26.105 ], [ 86.515, 26.106666666666676 ] ] } },
{ "type": "Feature", "properties": { "COMID": 45043827, "id": "9405", "lengthkm": 1.016107236214715, "order": 6, "uparea": 57308.258295649903 }, "geometry": { "type": "LineString", "coordinates": [ [ 86.465, 26.0075 ], [ 86.465833333333322, 26.00916666666668 ], [ 86.464166666666642, 26.010833333333345 ], [ 86.4675, 26.014166666666675 ] ] } },
{ "type": "Feature", "properties": { "COMID": 45047859, "id": "9405", "lengthkm": 3.3741582835023212, "order": 6, "uparea": 57340.780818830339 }, "geometry": { "type": "LineString", "coordinates": [ [ 86.440833333333316, 25.996666666666677 ], [ 86.444166666666646, 26.004166666666677 ], [ 86.4525, 26.0025 ], [ 86.465, 26.0075 ] ] } },
{ "type": "Feature", "properties": { "COMID": 45047856, "id": "9405", "lengthkm": 19.708117862637067, "order": 6, "uparea": 57467.427978339401 }, "geometry": { "type": "LineString", "coordinates": [ [ 86.445833333333326, 25.845833333333346 ], [ 86.445833333333326, 25.868333333333347 ], [ 86.449166666666656, 25.870833333333344 ], [ 86.449166666666656, 25.873333333333342 ], [ 86.4475, 25.875 ], [ 86.445833333333326, 25.890833333333344 ], [ 86.440833333333316, 25.901666666666678 ], [ 86.441666666666649, 25.909166666666678 ], [ 86.4375, 25.913333333333345 ], [ 86.4375, 25.916666666666679 ], [ 86.44, 25.919166666666676 ], [ 86.4425, 25.935 ], [ 86.4375, 25.9425 ], [ 86.435, 25.941666666666677 ], [ 86.431666666666644, 25.943333333333342 ], [ 86.434166666666655, 25.9525 ], [ 86.430833333333311, 25.9575 ], [ 86.433333333333323, 25.968333333333344 ], [ 86.434166666666655, 25.986666666666679 ], [ 86.44, 25.989166666666677 ], [ 86.443333333333314, 25.9925 ], [ 86.440833333333316, 25.996666666666677 ] ] } },
{ "type": "Feature", "properties": { "COMID": 45047852, "id": "9405", "lengthkm": 42.656467167369215, "order": 6, "uparea": 57978.840466382528 }, "geometry": { "type": "LineString", "coordinates": [ [ 86.65583333333332, 25.604166666666679 ], [ 86.648333333333312, 25.606666666666676 ], [ 86.644166666666649, 25.61 ], [ 86.631666666666646, 25.613333333333344 ], [ 86.60833333333332, 25.613333333333344 ], [ 86.603333333333325, 25.611666666666679 ], [ 86.59666666666665, 25.615833333333345 ], [ 86.59, 25.616666666666678 ], [ 86.585, 25.62 ], [ 86.579166666666652, 25.63 ], [ 86.5725, 25.635833333333345 ], [ 86.563333333333318, 25.636666666666677 ], [ 86.5525, 25.633333333333344 ], [ 86.546666666666653, 25.635833333333345 ], [ 86.5425, 25.64 ], [ 86.540833333333325, 25.645 ], [ 86.529166666666654, 25.658333333333346 ], [ 86.5275, 25.673333333333346 ], [ 86.52583333333331, 25.676666666666677 ], [ 86.5275, 25.705 ], [ 86.52, 25.710833333333344 ], [ 86.51, 25.713333333333345 ], [ 86.499166666666653, 25.721666666666678 ], [ 86.494166666666644, 25.723333333333343 ], [ 86.488333333333316, 25.729166666666679 ], [ 86.48, 25.7325 ], [ 86.464166666666642, 25.749166666666678 ], [ 86.461666666666645, 25.7575 ], [ 86.458333333333314, 25.761666666666677 ], [ 86.459166666666647, 25.770833333333343 ], [ 86.456666666666649, 25.783333333333346 ], [ 86.453333333333319, 25.785833333333343 ], [ 86.449166666666656, 25.801666666666677 ], [ 86.440833333333316, 25.815833333333345 ], [ 86.440833333333316, 25.828333333333344 ], [ 86.445833333333326, 25.845833333333346 ] ] } },
{ "type": "Feature", "properties": { "COMID": 45047850, "id": "9405", "lengthkm": 6.2210498058025676, "order": 6, "uparea": 59149.178670645997 }, "geometry": { "type": "LineString", "coordinates": [ [ 86.684166666666655, 25.5725 ], [ 86.6775, 25.575 ], [ 86.66, 25.576666666666675 ], [ 86.658333333333317, 25.58 ], [ 86.65916666666665, 25.583333333333343 ], [ 86.6575, 25.59 ], [ 86.6575, 25.595 ], [ 86.66, 25.598333333333343 ], [ 86.65583333333332, 25.604166666666679 ] ] } },
{ "type": "Feature", "properties": { "COMID": 45047849, "id": "9405", "lengthkm": 5.0507855229699476, "order": 6, "uparea": 61838.723778484025 }, "geometry": { "type": "LineString", "coordinates": [ [ 86.715833333333322, 25.545 ], [ 86.714166666666642, 25.5525 ], [ 86.710833333333312, 25.556666666666679 ], [ 86.696666666666658, 25.5675 ], [ 86.693333333333314, 25.569166666666678 ], [ 86.6875, 25.569166666666678 ], [ 86.684166666666655, 25.5725 ] ] } },
{ "type": "Feature", "properties": { "COMID": 45047848, "id": "9405", "lengthkm": 6.4930525656243923, "order": 7, "uparea": 83739.094780408312 }, "geometry": { "type": "LineString", "coordinates": [ [ 86.739166666666648, 25.500833333333347 ], [ 86.735833333333318, 25.5125 ], [ 86.734166666666653, 25.536666666666676 ], [ 86.7225, 25.544166666666676 ], [ 86.715833333333322, 25.545 ] ] } },
{ "type": "Feature", "properties": { "COMID": 45047847, "id": "9405", "lengthkm": 16.107578387545633, "order": 7, "uparea": 83812.323206839763 }, "geometry": { "type": "LineString", "coordinates": [ [ 86.806666666666644, 25.463333333333345 ], [ 86.79, 25.468333333333344 ], [ 86.7875, 25.470833333333346 ], [ 86.789166666666659, 25.474166666666676 ], [ 86.785, 25.4775 ], [ 86.796666666666653, 25.49 ], [ 86.798333333333318, 25.500833333333347 ], [ 86.7875, 25.5225 ], [ 86.783333333333317, 25.525 ], [ 86.78, 25.526666666666678 ], [ 86.774166666666645, 25.526666666666678 ], [ 86.770833333333314, 25.525 ], [ 86.76, 25.515833333333344 ], [ 86.755833333333314, 25.508333333333347 ], [ 86.7475, 25.499166666666678 ], [ 86.739166666666648, 25.500833333333347 ] ] } },
{ "type": "Feature", "properties": { "COMID": 45047846, "id": "9405", "lengthkm": 7.5643478294324122, "order": 7, "uparea": 84091.476251968503 }, "geometry": { "type": "LineString", "coordinates": [ [ 86.8575, 25.46 ], [ 86.855833333333322, 25.45416666666668 ], [ 86.845833333333317, 25.444166666666678 ], [ 86.8425, 25.4425 ], [ 86.836666666666645, 25.4425 ], [ 86.8275, 25.448333333333345 ], [ 86.82, 25.46 ], [ 86.806666666666644, 25.463333333333345 ] ] } },
{ "type": "Feature", "properties": { "COMID": 45047845, "id": "9405", "lengthkm": 7.5379271880780268, "order": 7, "uparea": 84397.857088387595 }, "geometry": { "type": "LineString", "coordinates": [ [ 86.918333333333322, 25.4825 ], [ 86.916666666666657, 25.480833333333344 ], [ 86.910833333333315, 25.480833333333344 ], [ 86.9, 25.4775 ], [ 86.888333333333321, 25.468333333333344 ], [ 86.875, 25.47 ], [ 86.863333333333316, 25.465 ], [ 86.86, 25.465 ], [ 86.8575, 25.46 ] ] } },
{ "type": "Feature", "properties": { "COMID": 45047844, "id": "9405", "lengthkm": 2.0873195606481429, "order": 7, "uparea": 84732.175110721189 }, "geometry": { "type": "LineString", "coordinates": [ [ 86.936666666666653, 25.4875 ], [ 86.928333333333313, 25.4875 ], [ 86.92083333333332, 25.4825 ], [ 86.918333333333322, 25.4825 ] ] } },
{ "type": "Feature", "properties": { "COMID": 45047843, "id": "9405", "lengthkm": 12.104557084314244, "order": 7, "uparea": 85029.993724829299 }, "geometry": { "type": "LineString", "coordinates": [ [ 87.014166666666654, 25.4225 ], [ 87.005, 25.4325 ], [ 87.005, 25.436666666666678 ], [ 87.000833333333318, 25.445833333333347 ], [ 86.988333333333316, 25.4625 ], [ 86.979166666666657, 25.468333333333344 ], [ 86.9625, 25.468333333333344 ], [ 86.959166666666647, 25.471666666666678 ], [ 86.955, 25.4725 ], [ 86.950833333333321, 25.479166666666679 ], [ 86.945833333333326, 25.480833333333344 ], [ 86.936666666666653, 25.4875 ] ] } },
{ "type": "Feature", "properties": { "COMID": 45047842, "id": "9405", "lengthkm": 4.0515971446332983, "order": 7, "uparea": 85119.73643330537 }, "geometry": { "type": "LineString", "coordinates": [ [ 87.05, 25.421666666666678 ], [ 87.038333333333313, 25.421666666666678 ], [ 87.03416666666665, 25.419166666666676 ], [ 87.02583333333331, 25.418333333333344 ], [ 87.014166666666654, 25.4225 ] ] } },
{ "type": "Feature", "properties": { "COMID": 45047841, "id": "9405", "lengthkm": 2.54789182934935, "order": 7, "uparea": 85304.87757278682 }, "geometry": { "type": "LineString", "coordinates": [ [ 87.0725, 25.4175 ], [ 87.060833333333321, 25.4175 ], [ 87.05, 25.421666666666678 ] ] } },
{ "type": "Feature", "properties": { "COMID": 45047840, "id": "9405", "lengthkm": 4.1758681959871886, "order": 7, "uparea": 85361.811815779103 }, "geometry": { "type": "LineString", "coordinates": [ [ 87.1025, 25.44 ], [ 87.094166666666652, 25.430833333333347 ], [ 87.0775, 25.419166666666676 ], [ 87.0725, 25.4175 ] ] } },
{ "type": "Feature", "properties": { "COMID": 45047839, "id": "9405", "lengthkm": 0.626914066484906, "order": 7, "uparea": 85392.0790603801 }, "geometry": { "type": "LineString", "coordinates": [ [ 87.10833333333332, 25.440833333333345 ], [ 87.1025, 25.44 ] ] } },
{ "type": "Feature", "properties": { "COMID": 45047838, "id": "9405", "lengthkm": 7.4699061414875434, "order": 7, "uparea": 85433.571582678123 }, "geometry": { "type": "LineString", "coordinates": [ [ 87.17083333333332, 25.425 ], [ 87.155, 25.436666666666678 ], [ 87.141666666666652, 25.441666666666677 ], [ 87.1225, 25.445 ], [ 87.110833333333318, 25.443333333333342 ], [ 87.10833333333332, 25.440833333333345 ] ] } },
{ "type": "Feature", "properties": { "COMID": 45047837, "id": "9405", "lengthkm": 4.0927645063178977, "order": 7, "uparea": 85489.851179239573 }, "geometry": { "type": "LineString", "coordinates": [ [ 87.206666666666649, 25.421666666666678 ], [ 87.1975, 25.418333333333344 ], [ 87.1875, 25.418333333333344 ], [ 87.1825, 25.42 ], [ 87.1775, 25.424166666666679 ], [ 87.17083333333332, 25.425 ] ] } },
{ "type": "Feature", "properties": { "COMID": 45047836, "id": "9405", "lengthkm": 3.515100071031132, "order": 7, "uparea": 85529.849490705543 }, "geometry": { "type": "LineString", "coordinates": [ [ 87.220833333333317, 25.443333333333342 ], [ 87.21333333333331, 25.441666666666677 ], [ 87.209166666666647, 25.4375 ], [ 87.205833333333317, 25.425833333333344 ], [ 87.206666666666649, 25.421666666666678 ] ] } },
{ "type": "Feature", "properties": { "COMID": 45051957, "id": "9405", "lengthkm": 7.2925747309238842, "order": 7, "uparea": 87578.626965761709 }, "geometry": { "type": "LineString", "coordinates": [ [ 87.263333333333321, 25.405833333333344 ], [ 87.250833333333318, 25.4075 ], [ 87.23333333333332, 25.4175 ], [ 87.225, 25.428333333333345 ], [ 87.225, 25.4325 ], [ 87.2275, 25.438333333333347 ], [ 87.225, 25.441666666666677 ], [ 87.220833333333317, 25.443333333333342 ] ] } },
{ "type": "Feature", "properties": { "COMID": 45047753, "id": "9405", "lengthkm": 10.63545491288312, "order": 8, "uparea": 908465.45903252438 }, "geometry": { "type": "LineString", "coordinates": [ [ 87.329166666666652, 25.471666666666678 ], [ 87.308333333333309, 25.46166666666668 ], [ 87.281666666666652, 25.43 ], [ 87.27583333333331, 25.419166666666676 ], [ 87.263333333333321, 25.405833333333344 ] ] } },
{ "type": "Feature", "properties": { "COMID": 45047752, "id": "9405", "lengthkm": 11.928686171297414, "order": 8, "uparea": 909001.60085836588 }, "geometry": { "type": "LineString", "coordinates": [ [ 87.425833333333316, 25.43 ], [ 87.41, 25.4425 ], [ 87.399166666666645, 25.448333333333345 ], [ 87.3875, 25.46 ], [ 87.38, 25.465 ], [ 87.374166666666653, 25.465 ], [ 87.359166666666653, 25.46916666666668 ], [ 87.3575, 25.470833333333346 ], [ 87.341666666666654, 25.470833333333346 ], [ 87.3375, 25.473333333333343 ], [ 87.329166666666652, 25.471666666666678 ] ] } },
{ "type": "Feature", "properties": { "COMID": 45047751, "id": "9405", "lengthkm": 0.249715855933, "order": 8, "uparea": 909088.14573655487 }, "geometry": { "type": "LineString", "coordinates": [ [ 87.4275, 25.428333333333345 ], [ 87.425833333333316, 25.43 ] ] } },
{ "type": "Feature", "properties": { "COMID": 45051888, "id": "9405", "lengthkm": 2.542436208690138, "order": 8, "uparea": 909148.18835281557 }, "geometry": { "type": "LineString", "coordinates": [ [ 87.446666666666658, 25.415833333333346 ], [ 87.4275, 25.428333333333345 ] ] } },
{ "type": "Feature", "properties": { "COMID": 45051887, "id": "9405", "lengthkm": 16.223620669381372, "order": 8, "uparea": 909268.28953174292 }, "geometry": { "type": "LineString", "coordinates": [ [ 87.58, 25.37 ], [ 87.565833333333316, 25.375833333333347 ], [ 87.56, 25.381666666666678 ], [ 87.551666666666648, 25.386666666666677 ], [ 87.546666666666653, 25.388333333333343 ], [ 87.545, 25.386666666666677 ], [ 87.535833333333315, 25.386666666666677 ], [ 87.5225, 25.39 ], [ 87.518333333333317, 25.393333333333345 ], [ 87.51, 25.39166666666668 ], [ 87.501666666666651, 25.395 ], [ 87.496666666666655, 25.4025 ], [ 87.493333333333311, 25.404166666666676 ], [ 87.4675, 25.409166666666678 ], [ 87.446666666666658, 25.415833333333346 ] ] } },
{ "type": "Feature", "properties": { "COMID": 45051886, "id": "9405", "lengthkm": 11.340273762566071, "order": 8, "uparea": 911533.71387224959 }, "geometry": { "type": "LineString", "coordinates": [ [ 87.633333333333326, 25.3 ], [ 87.623333333333321, 25.32166666666668 ], [ 87.615833333333313, 25.33 ], [ 87.61166666666665, 25.330833333333345 ], [ 87.6025, 25.326666666666679 ], [ 87.6, 25.32916666666668 ], [ 87.59, 25.3475 ], [ 87.59, 25.3525 ], [ 87.586666666666645, 25.359166666666678 ], [ 87.580833333333317, 25.365 ], [ 87.58, 25.37 ] ] } },
{ "type": "Feature", "properties": { "COMID": 45051885, "id": "9405", "lengthkm": 13.863521198171522, "order": 8, "uparea": 911647.70952676877 }, "geometry": { "type": "LineString", "coordinates": [ [ 87.7475, 25.283333333333346 ], [ 87.735833333333318, 25.294166666666676 ], [ 87.728333333333325, 25.2975 ], [ 87.720833333333317, 25.295833333333345 ], [ 87.703333333333319, 25.296666666666678 ], [ 87.6925, 25.301666666666677 ], [ 87.683333333333309, 25.308333333333344 ], [ 87.678333333333313, 25.305833333333347 ], [ 87.67, 25.305 ], [ 87.651666666666642, 25.299166666666679 ], [ 87.646666666666647, 25.294166666666676 ], [ 87.633333333333326, 25.3 ] ] } },
{ "type": "Feature", "properties": { "COMID": 45051884, "id": "9405", "lengthkm": 19.453443007339239, "order": 8, "uparea": 912311.87636824907 }, "geometry": { "type": "LineString", "coordinates": [ [ 87.79583333333332, 25.138333333333343 ], [ 87.8, 25.146666666666679 ], [ 87.79916666666665, 25.160833333333343 ], [ 87.8025, 25.165833333333346 ], [ 87.8, 25.185833333333346 ], [ 87.7975, 25.19 ], [ 87.7975, 25.19666666666668 ], [ 87.8, 25.203333333333347 ], [ 87.8, 25.216666666666676 ], [ 87.798333333333318, 25.223333333333343 ], [ 87.789166666666645, 25.234166666666678 ], [ 87.7875, 25.244166666666679 ], [ 87.7725, 25.268333333333345 ], [ 87.765833333333319, 25.275 ], [ 87.75, 25.283333333333346 ], [ 87.7475, 25.283333333333346 ] ] } },
{ "type": "Feature", "properties": { "COMID": 45051883, "id": "9405", "lengthkm": 8.4233897037171097, "order": 8, "uparea": 912398.53779064561 }, "geometry": { "type": "LineString", "coordinates": [ [ 87.8425, 25.09 ], [ 87.831666666666649, 25.096666666666678 ], [ 87.824166666666656, 25.0975 ], [ 87.809166666666655, 25.104166666666679 ], [ 87.800833333333316, 25.111666666666679 ], [ 87.79583333333332, 25.138333333333343 ] ] } },
{ "type": "Feature", "properties": { "COMID": 45051882, "id": "9405", "lengthkm": 4.624669222525001, "order": 8, "uparea": 925782.72516854433 }, "geometry": { "type": "LineString", "coordinates": [ [ 87.859166666666653, 25.056666666666679 ], [ 87.859166666666653, 25.065 ], [ 87.855833333333322, 25.07166666666668 ], [ 87.850833333333313, 25.076666666666679 ], [ 87.84333333333332, 25.080833333333345 ], [ 87.8425, 25.09 ] ] } },
{ "type": "Feature", "properties": { "COMID": 45051881, "id": "9405", "lengthkm": 16.310926103587931, "order": 8, "uparea": 926013.7177719574 }, "geometry": { "type": "LineString", "coordinates": [ [ 87.9775, 24.986666666666679 ], [ 87.975, 24.9925 ], [ 87.975, 24.998333333333346 ], [ 87.9725, 25.0025 ], [ 87.955833333333317, 25.02 ], [ 87.945833333333326, 25.02416666666668 ], [ 87.9375, 25.0225 ], [ 87.915, 25.039166666666681 ], [ 87.884166666666658, 25.048333333333346 ], [ 87.88, 25.048333333333346 ], [ 87.859166666666653, 25.056666666666679 ] ] } },
{ "type": "Feature", "properties": { "COMID": 45051880, "id": "9405", "lengthkm": 5.8290387575091316, "order": 8, "uparea": 926120.48174118099 }, "geometry": { "type": "LineString", "coordinates": [ [ 87.954166666666652, 24.945 ], [ 87.958333333333314, 24.964166666666678 ], [ 87.965, 24.9725 ], [ 87.9675, 24.9725 ], [ 87.973333333333315, 24.978333333333346 ], [ 87.9775, 24.986666666666679 ] ] } },
{ "type": "Feature", "properties": { "COMID": 45051879, "id": "9405", "lengthkm": 1.9875447233118191, "order": 8, "uparea": 926150.97283760435 }, "geometry": { "type": "LineString", "coordinates": [ [ 87.948333333333323, 24.929166666666678 ], [ 87.954166666666652, 24.945 ] ] } },
{ "type": "Feature", "properties": { "COMID": 45055811, "id": "9405", "lengthkm": 11.842913045794596, "order": 8, "uparea": 926235.6052297313 }, "geometry": { "type": "LineString", "coordinates": [ [ 87.933333333333309, 24.830833333333345 ], [ 87.9375, 24.838333333333345 ], [ 87.95, 24.8725 ], [ 87.950833333333321, 24.8875 ], [ 87.948333333333323, 24.905 ], [ 87.95, 24.919166666666676 ], [ 87.948333333333323, 24.929166666666678 ] ] } },
{ "type": "Feature", "properties": { "COMID": 45055810, "id": "9405", "lengthkm": 4.1564438395794436, "order": 8, "uparea": 928053.97487974737 }, "geometry": { "type": "LineString", "coordinates": [ [ 87.935833333333321, 24.796666666666678 ], [ 87.93, 24.811666666666678 ], [ 87.933333333333309, 24.830833333333345 ] ] } },
{ "type": "Feature", "properties": { "COMID": 45055809, "id": "9405", "lengthkm": 18.91204942228471, "order": 8, "uparea": 928162.58505011222 }, "geometry": { "type": "LineString", "coordinates": [ [ 87.9975, 24.655 ], [ 87.985, 24.661666666666676 ], [ 87.951666666666654, 24.69666666666668 ], [ 87.948333333333323, 24.7025 ], [ 87.945, 24.7175 ], [ 87.940833333333316, 24.725 ], [ 87.941666666666649, 24.731666666666676 ], [ 87.935833333333321, 24.744166666666679 ], [ 87.935833333333321, 24.753333333333345 ], [ 87.9375, 24.75916666666668 ], [ 87.936666666666653, 24.77 ], [ 87.938333333333318, 24.773333333333348 ], [ 87.938333333333318, 24.785 ], [ 87.935833333333321, 24.79 ], [ 87.935833333333321, 24.796666666666678 ] ] } },
{ "type": "Feature", "properties": { "COMID": 45055808, "id": "9405", "lengthkm": 13.442091377572416, "order": 8, "uparea": 928295.92314064282 }, "geometry": { "type": "LineString", "coordinates": [ [ 88.114166666666648, 24.630833333333346 ], [ 88.106666666666655, 24.630833333333346 ], [ 88.0975, 24.635 ], [ 88.086666666666645, 24.631666666666678 ], [ 88.065833333333316, 24.6325 ], [ 88.0625, 24.636666666666677 ], [ 88.051666666666648, 24.6375 ], [ 88.0425, 24.64166666666668 ], [ 88.03083333333332, 24.64166666666668 ], [ 88.018333333333317, 24.64916666666668 ], [ 88.001666666666651, 24.651666666666678 ], [ 87.9975, 24.655 ] ] } },
{ "type": "Feature", "properties": { "COMID": 45055807, "id": "9405", "lengthkm": 2.017086504194705, "order": 8, "uparea": 928364.89436697715 }, "geometry": { "type": "LineString", "coordinates": [ [ 88.1325, 24.6275 ], [ 88.114166666666648, 24.630833333333346 ] ] } },
{ "type": "Feature", "properties": { "COMID": 45055806, "id": "9405", "lengthkm": 0.58739129867411499, "order": 8, "uparea": 928465.09523491957 }, "geometry": { "type": "LineString", "coordinates": [ [ 88.1375, 24.625833333333347 ], [ 88.1325, 24.6275 ] ] } },
{ "type": "Feature", "properties": { "COMID": 45055805, "id": "9405", "lengthkm": 8.8614851493486899, "order": 8, "uparea": 928806.70236828271 }, "geometry": { "type": "LineString", "coordinates": [ [ 88.17083333333332, 24.563333333333347 ], [ 88.17, 24.58 ], [ 88.168333333333322, 24.581666666666678 ], [ 88.17083333333332, 24.58666666666668 ], [ 88.166666666666657, 24.5975 ], [ 88.16, 24.605 ], [ 88.148333333333312, 24.610833333333346 ], [ 88.141666666666652, 24.6225 ], [ 88.1375, 24.625833333333347 ] ] } },
{ "type": "Feature", "properties": { "COMID": 45055804, "id": "9405", "lengthkm": 14.818630745559563, "order": 8, "uparea": 928925.58192239841 }, "geometry": { "type": "LineString", "coordinates": [ [ 88.166666666666657, 24.4575 ], [ 88.163333333333313, 24.4725 ], [ 88.156666666666652, 24.485 ], [ 88.155, 24.486666666666679 ], [ 88.145833333333314, 24.486666666666679 ], [ 88.144166666666649, 24.488333333333344 ], [ 88.144166666666649, 24.504166666666677 ], [ 88.1425, 24.511666666666677 ], [ 88.148333333333312, 24.5225 ], [ 88.1525, 24.540833333333346 ], [ 88.158333333333317, 24.5425 ], [ 88.166666666666657, 24.551666666666677 ], [ 88.17, 24.553333333333345 ], [ 88.169166666666655, 24.558333333333344 ], [ 88.17083333333332, 24.563333333333347 ] ] } },
{ "type": "Feature", "properties": { "COMID": 45055803, "id": "9405", "lengthkm": 16.926292420309789, "order": 8, "uparea": 929096.59630489291 }, "geometry": { "type": "LineString", "coordinates": [ [ 88.310833333333321, 24.466666666666679 ], [ 88.29, 24.47 ], [ 88.285833333333315, 24.46916666666668 ], [ 88.27583333333331, 24.474166666666676 ], [ 88.2675, 24.4725 ], [ 88.258333333333312, 24.468333333333344 ], [ 88.250833333333318, 24.4675 ], [ 88.23666666666665, 24.46 ], [ 88.214166666666642, 24.4525 ], [ 88.206666666666649, 24.451666666666679 ], [ 88.199166666666656, 24.4475 ], [ 88.194166666666646, 24.44666666666668 ], [ 88.181666666666644, 24.4475 ], [ 88.175833333333316, 24.45 ], [ 88.166666666666657, 24.4575 ] ] } },
{ "type": "Feature", "properties": { "COMID": 45055802, "id": "9405", "lengthkm": 10.477427731132073, "order": 8, "uparea": 939805.3367173369 }, "geometry": { "type": "LineString", "coordinates": [ [ 88.376666666666651, 24.3975 ], [ 88.350833333333313, 24.420833333333345 ], [ 88.310833333333321, 24.466666666666679 ] ] } },
{ "type": "Feature", "properties": { "COMID": 45055801, "id": "9405", "lengthkm": 16.764260880470527, "order": 8, "uparea": 939927.1019903702 }, "geometry": { "type": "LineString", "coordinates": [ [ 88.499166666666653, 24.355833333333344 ], [ 88.4925, 24.354166666666679 ], [ 88.485833333333318, 24.359166666666681 ], [ 88.476666666666645, 24.361666666666679 ], [ 88.47166666666665, 24.365833333333345 ], [ 88.465, 24.368333333333347 ], [ 88.460833333333312, 24.375 ], [ 88.451666666666654, 24.380833333333346 ], [ 88.448333333333323, 24.376666666666679 ], [ 88.44, 24.375 ], [ 88.42416666666665, 24.376666666666679 ], [ 88.415833333333325, 24.375 ], [ 88.40916666666665, 24.368333333333347 ], [ 88.40083333333331, 24.37 ], [ 88.383333333333312, 24.385833333333345 ], [ 88.376666666666651, 24.3975 ] ] } },
{ "type": "Feature", "properties": { "COMID": 45055800, "id": "9405", "lengthkm": 4.7403365705019116, "order": 8, "uparea": 939965.39136937284 }, "geometry": { "type": "LineString", "coordinates": [ [ 88.536666666666648, 24.33666666666668 ], [ 88.52583333333331, 24.346666666666678 ], [ 88.514166666666654, 24.35 ], [ 88.510833333333323, 24.353333333333346 ], [ 88.501666666666651, 24.354166666666679 ], [ 88.499166666666653, 24.355833333333344 ] ] } },
{ "type": "Feature", "properties": { "COMID": 45055799, "id": "9405", "lengthkm": 13.622724206393936, "order": 8, "uparea": 940189.5927166536 }, "geometry": { "type": "LineString", "coordinates": [ [ 88.65083333333331, 24.3425 ], [ 88.6425, 24.348333333333343 ], [ 88.628333333333316, 24.348333333333343 ], [ 88.62, 24.353333333333346 ], [ 88.613333333333316, 24.353333333333346 ], [ 88.599166666666648, 24.3575 ], [ 88.581666666666649, 24.358333333333345 ], [ 88.569166666666646, 24.355 ], [ 88.563333333333318, 24.355 ], [ 88.558333333333309, 24.34916666666668 ], [ 88.536666666666648, 24.33666666666668 ] ] } },
{ "type": "Feature", "properties": { "COMID": 45055798, "id": "9405", "lengthkm": 12.084574955454938, "order": 8, "uparea": 940269.46241819265 }, "geometry": { "type": "LineString", "coordinates": [ [ 88.73, 24.280833333333348 ], [ 88.71833333333332, 24.303333333333345 ], [ 88.71333333333331, 24.308333333333344 ], [ 88.710833333333312, 24.314166666666679 ], [ 88.700833333333321, 24.326666666666679 ], [ 88.691666666666649, 24.3325 ], [ 88.6875, 24.3325 ], [ 88.684166666666641, 24.335833333333348 ], [ 88.67416666666665, 24.34 ], [ 88.65083333333331, 24.3425 ] ] } },
{ "type": "Feature", "properties": { "COMID": 45059549, "id": "9405", "lengthkm": 9.8177318212372029, "order": 8, "uparea": 940453.68058515922 }, "geometry": { "type": "LineString", "coordinates": [ [ 88.7425, 24.201666666666679 ], [ 88.738333333333316, 24.209166666666679 ], [ 88.738333333333316, 24.23 ], [ 88.740833333333313, 24.249166666666678 ], [ 88.7425, 24.251666666666679 ], [ 88.741666666666646, 24.261666666666677 ], [ 88.7375, 24.271666666666679 ], [ 88.73, 24.280833333333348 ] ] } },
{ "type": "Feature", "properties": { "COMID": 45059548, "id": "9405", "lengthkm": 14.781405750183545, "order": 8, "uparea": 940599.66758226848 }, "geometry": { "type": "LineString", "coordinates": [ [ 88.825833333333321, 24.109166666666681 ], [ 88.8225, 24.1125 ], [ 88.810833333333321, 24.116666666666681 ], [ 88.796666666666653, 24.13416666666668 ], [ 88.794166666666655, 24.140833333333347 ], [ 88.795, 24.15 ], [ 88.788333333333313, 24.160833333333343 ], [ 88.783333333333317, 24.165833333333346 ], [ 88.78083333333332, 24.171666666666681 ], [ 88.766666666666652, 24.183333333333344 ], [ 88.758333333333312, 24.1875 ], [ 88.748333333333321, 24.198333333333345 ], [ 88.7425, 24.201666666666679 ] ] } },
{ "type": "Feature", "properties": { "COMID": 45059547, "id": "9405", "lengthkm": 3.7864573176344982, "order": 8, "uparea": 940665.13999928441 }, "geometry": { "type": "LineString", "coordinates": [ [ 88.8575, 24.09916666666668 ], [ 88.8475, 24.09916666666668 ], [ 88.84, 24.105 ], [ 88.825833333333321, 24.109166666666681 ] ] } },
{ "type": "Feature", "properties": { "COMID": 45059546, "id": "9405", "lengthkm": 5.1835086046142838, "order": 8, "uparea": 940831.0093502223 }, "geometry": { "type": "LineString", "coordinates": [ [ 88.903333333333308, 24.106666666666676 ], [ 88.894166666666649, 24.104166666666679 ], [ 88.885833333333323, 24.104166666666679 ], [ 88.883333333333312, 24.1025 ], [ 88.875, 24.103333333333346 ], [ 88.870833333333309, 24.100833333333345 ], [ 88.866666666666646, 24.101666666666681 ], [ 88.8575, 24.09916666666668 ] ] } },
{ "type": "Feature", "properties": { "COMID": 45059545, "id": "9405", "lengthkm": 11.847255038531785, "order": 8, "uparea": 940936.67437459121 }, "geometry": { "type": "LineString", "coordinates": [ [ 88.990833333333313, 24.160833333333343 ], [ 88.978333333333325, 24.153333333333343 ], [ 88.97, 24.151666666666678 ], [ 88.96, 24.140833333333347 ], [ 88.945833333333312, 24.13416666666668 ], [ 88.936666666666653, 24.1325 ], [ 88.92083333333332, 24.115 ], [ 88.9125, 24.113333333333344 ], [ 88.903333333333308, 24.106666666666676 ] ] } },
{ "type": "Feature", "properties": { "COMID": 45059544, "id": "9405", "lengthkm": 15.193131007366883, "order": 8, "uparea": 941063.0249915187 }, "geometry": { "type": "LineString", "coordinates": [ [ 89.029166666666654, 24.051666666666677 ], [ 89.026666666666642, 24.069166666666678 ], [ 89.024166666666645, 24.075 ], [ 89.025, 24.080833333333345 ], [ 89.0225, 24.08666666666668 ], [ 89.021666666666647, 24.096666666666678 ], [ 89.023333333333312, 24.115 ], [ 89.026666666666642, 24.119166666666679 ], [ 89.026666666666642, 24.124166666666678 ], [ 89.024166666666645, 24.133333333333347 ], [ 89.020833333333314, 24.138333333333346 ], [ 89.019166666666649, 24.15 ], [ 89.011666666666656, 24.155833333333348 ], [ 89.005, 24.15666666666668 ], [ 89.0, 24.16 ], [ 88.990833333333313, 24.160833333333343 ] ] } },
{ "type": "Feature", "properties": { "COMID": 45059543, "id": "9405", "lengthkm": 22.919025509622344, "order": 8, "uparea": 941232.2068096787 }, "geometry": { "type": "LineString", "coordinates": [ [ 89.165833333333325, 23.938333333333347 ], [ 89.144166666666649, 23.944166666666678 ], [ 89.13, 23.951666666666679 ], [ 89.123333333333321, 23.951666666666679 ], [ 89.119166666666644, 23.953333333333347 ], [ 89.115, 23.9575 ], [ 89.099166666666648, 23.966666666666679 ], [ 89.090833333333308, 23.965833333333347 ], [ 89.083333333333314, 23.971666666666678 ], [ 89.074166666666656, 23.973333333333347 ], [ 89.0725, 23.975 ], [ 89.074166666666656, 23.9825 ], [ 89.068333333333314, 23.985833333333346 ], [ 89.0575, 23.985833333333346 ], [ 89.054166666666646, 23.991666666666678 ], [ 89.046666666666653, 23.999166666666678 ], [ 89.04583333333332, 24.003333333333345 ], [ 89.04, 24.013333333333346 ], [ 89.035, 24.025833333333345 ], [ 89.03083333333332, 24.05 ], [ 89.029166666666654, 24.051666666666677 ] ] } },
{ "type": "Feature", "properties": { "COMID": 45059542, "id": "9405", "lengthkm": 15.197449232252884, "order": 8, "uparea": 941358.96584197984 }, "geometry": { "type": "LineString", "coordinates": [ [ 89.3025, 23.921666666666678 ], [ 89.279166666666654, 23.9225 ], [ 89.270833333333314, 23.923333333333346 ], [ 89.268333333333317, 23.925 ], [ 89.260833333333323, 23.924166666666679 ], [ 89.255, 23.9275 ], [ 89.230833333333322, 23.931666666666679 ], [ 89.203333333333319, 23.931666666666679 ], [ 89.199166666666656, 23.93 ], [ 89.1875, 23.93 ], [ 89.165833333333325, 23.938333333333347 ] ] } },
{ "type": "Feature", "properties": { "COMID": 45059541, "id": "9405", "lengthkm": 6.1512703978047636, "order": 8, "uparea": 941533.36392942001 }, "geometry": { "type": "LineString", "coordinates": [ [ 89.348333333333315, 23.893333333333345 ], [ 89.336666666666645, 23.901666666666678 ], [ 89.3275, 23.904166666666679 ], [ 89.320833333333312, 23.91166666666668 ], [ 89.315, 23.914166666666677 ], [ 89.310833333333321, 23.914166666666677 ], [ 89.3025, 23.921666666666678 ] ] } },
{ "type": "Feature", "properties": { "COMID": 45059540, "id": "9405", "lengthkm": 9.8895827490848394, "order": 8, "uparea": 941605.2616197234 }, "geometry": { "type": "LineString", "coordinates": [ [ 89.4275, 23.875 ], [ 89.40583333333332, 23.875 ], [ 89.3975, 23.880833333333346 ], [ 89.389166666666654, 23.883333333333347 ], [ 89.3825, 23.8925 ], [ 89.373333333333321, 23.895 ], [ 89.366666666666646, 23.89916666666668 ], [ 89.36, 23.89916666666668 ], [ 89.355833333333322, 23.894166666666678 ], [ 89.348333333333315, 23.893333333333345 ] ] } },
{ "type": "Feature", "properties": { "COMID": 45059539, "id": "9405", "lengthkm": 14.848932183059439, "order": 8, "uparea": 941696.71093742794 }, "geometry": { "type": "LineString", "coordinates": [ [ 89.538333333333313, 23.813333333333347 ], [ 89.52583333333331, 23.82 ], [ 89.508333333333312, 23.8325 ], [ 89.485833333333318, 23.841666666666679 ], [ 89.4775, 23.850833333333345 ], [ 89.466666666666654, 23.851666666666677 ], [ 89.464166666666642, 23.8575 ], [ 89.459166666666647, 23.8625 ], [ 89.439166666666651, 23.875 ], [ 89.4275, 23.875 ] ] } },
{ "type": "Feature", "properties": { "COMID": 45059538, "id": "9405", "lengthkm": 23.557629231964349, "order": 8, "uparea": 942043.13008880126 }, "geometry": { "type": "LineString", "coordinates": [ [ 89.7425, 23.810833333333346 ], [ 89.731666666666655, 23.803333333333345 ], [ 89.706666666666649, 23.798333333333346 ], [ 89.696666666666644, 23.8025 ], [ 89.695, 23.805 ], [ 89.690833333333316, 23.805 ], [ 89.685833333333321, 23.8 ], [ 89.676666666666648, 23.7975 ], [ 89.661666666666648, 23.796666666666678 ], [ 89.65583333333332, 23.798333333333346 ], [ 89.644166666666649, 23.796666666666678 ], [ 89.623333333333321, 23.796666666666678 ], [ 89.619166666666644, 23.798333333333346 ], [ 89.615, 23.8025 ], [ 89.604166666666657, 23.805 ], [ 89.571666666666644, 23.806666666666679 ], [ 89.565833333333316, 23.81 ], [ 89.551666666666648, 23.814166666666679 ], [ 89.538333333333313, 23.813333333333347 ] ] } },
{ "type": "Feature", "properties": { "COMID": 45059537, "id": "9405", "lengthkm": 2.364264633039713, "order": 8, "uparea": 1480070.8617546074 }, "geometry": { "type": "LineString", "coordinates": [ [ 89.763333333333321, 23.8125 ], [ 89.7425, 23.810833333333346 ] ] } },
{ "type": "Feature", "properties": { "COMID": 45059536, "id": "9405", "lengthkm": 3.3533933894008552, "order": 8, "uparea": 1480461.6324491578 }, "geometry": { "type": "LineString", "coordinates": [ [ 89.786666666666648, 23.7925 ], [ 89.765, 23.8125 ], [ 89.763333333333321, 23.8125 ] ] } },
{ "type": "Feature", "properties": { "COMID": 45059535, "id": "9405", "lengthkm": 2.028552639801394, "order": 8, "uparea": 1480549.6332875148 }, "geometry": { "type": "LineString", "coordinates": [ [ 89.79916666666665, 23.779166666666679 ], [ 89.786666666666648, 23.7925 ] ] } },
{ "type": "Feature", "properties": { "COMID": 45059534, "id": "9405", "lengthkm": 24.147820154197287, "order": 8, "uparea": 1480725.0136060892 }, "geometry": { "type": "LineString", "coordinates": [ [ 89.995, 23.705833333333345 ], [ 89.9925, 23.708333333333346 ], [ 89.9825, 23.7125 ], [ 89.960833333333312, 23.715833333333347 ], [ 89.94, 23.723333333333347 ], [ 89.919166666666655, 23.725833333333345 ], [ 89.910833333333315, 23.725 ], [ 89.9025, 23.729166666666679 ], [ 89.886666666666656, 23.729166666666679 ], [ 89.871666666666641, 23.733333333333345 ], [ 89.855, 23.73 ], [ 89.83833333333331, 23.743333333333347 ], [ 89.813333333333318, 23.768333333333345 ], [ 89.79916666666665, 23.779166666666679 ] ] } },
{ "type": "Feature", "properties": { "COMID": 45063347, "id": "9405", "lengthkm": 5.2676845882940846, "order": 8, "uparea": 1480789.2229896402 }, "geometry": { "type": "LineString", "coordinates": [ [ 89.991666666666646, 23.660833333333347 ], [ 89.996666666666641, 23.67666666666668 ], [ 89.995, 23.705833333333345 ] ] } },
{ "type": "Feature", "properties": { "COMID": 45063346, "id": "9405", "lengthkm": 7.283326201289265, "order": 8, "uparea": 1480948.0639584674 }, "geometry": { "type": "LineString", "coordinates": [ [ 90.009166666666644, 23.605 ], [ 90.008333333333312, 23.620833333333344 ], [ 90.0125, 23.628333333333345 ], [ 90.0125, 23.633333333333347 ], [ 90.003333333333316, 23.65 ], [ 89.991666666666646, 23.660833333333347 ] ] } },
{ "type": "Feature", "properties": { "COMID": 45063345, "id": "9405", "lengthkm": 7.3301595308811152, "order": 8, "uparea": 1481136.7888560903 }, "geometry": { "type": "LineString", "coordinates": [ [ 90.059166666666641, 23.5625 ], [ 90.03, 23.5925 ], [ 90.0125, 23.601666666666681 ], [ 90.009166666666644, 23.605 ] ] } },
{ "type": "Feature", "properties": { "COMID": 45063344, "id": "9405", "lengthkm": 12.769887712414294, "order": 8, "uparea": 1481312.4314660509 }, "geometry": { "type": "LineString", "coordinates": [ [ 90.115833333333313, 23.475 ], [ 90.109166666666653, 23.4875 ], [ 90.0975, 23.503333333333345 ], [ 90.0925, 23.514166666666679 ], [ 90.090833333333308, 23.520833333333346 ], [ 90.09166666666664, 23.541666666666679 ], [ 90.084166666666647, 23.5475 ], [ 90.065, 23.5575 ], [ 90.059166666666641, 23.5625 ] ] } },
{ "type": "Feature", "properties": { "COMID": 45063343, "id": "9405", "lengthkm": 7.5193073133645347, "order": 8, "uparea": 1481911.4042069917 }, "geometry": { "type": "LineString", "coordinates": [ [ 90.179166666666646, 23.466666666666679 ], [ 90.176666666666648, 23.4675 ], [ 90.17083333333332, 23.465 ], [ 90.146666666666647, 23.460833333333348 ], [ 90.1275, 23.465833333333347 ], [ 90.115833333333313, 23.475 ] ] } },
{ "type": "Feature", "properties": { "COMID": 45063342, "id": "9405", "lengthkm": 0.084998536493851001, "order": 8, "uparea": 1482022.2761364332 }, "geometry": { "type": "LineString", "coordinates": [ [ 90.18, 23.466666666666679 ], [ 90.179166666666646, 23.466666666666679 ] ] } },
{ "type": "Feature", "properties": { "COMID": 45063341, "id": "9405", "lengthkm": 22.24883309536888, "order": 8, "uparea": 1482212.7252700049 }, "geometry": { "type": "LineString", "coordinates": [ [ 90.373333333333306, 23.42 ], [ 90.355, 23.423333333333346 ], [ 90.3325, 23.433333333333344 ], [ 90.315833333333316, 23.4325 ], [ 90.313333333333318, 23.43416666666668 ], [ 90.301666666666648, 23.435 ], [ 90.28083333333332, 23.44666666666668 ], [ 90.25, 23.45 ], [ 90.241666666666646, 23.4525 ], [ 90.24, 23.451666666666679 ], [ 90.215833333333308, 23.460833333333348 ], [ 90.203333333333319, 23.460833333333348 ], [ 90.193333333333314, 23.465 ], [ 90.18, 23.466666666666679 ] ] } },
{ "type": "Feature", "properties": { "COMID": 45063340, "id": "9405", "lengthkm": 11.879566167536154, "order": 8, "uparea": 1482501.2272524796 }, "geometry": { "type": "LineString", "coordinates": [ [ 90.436666666666653, 23.34 ], [ 90.434166666666641, 23.343333333333344 ], [ 90.430833333333311, 23.360833333333346 ], [ 90.419166666666655, 23.375833333333347 ], [ 90.40916666666665, 23.385833333333345 ], [ 90.399166666666645, 23.401666666666678 ], [ 90.373333333333306, 23.42 ] ] } },
{ "type": "Feature", "properties": { "COMID": 45063339, "id": "9405", "lengthkm": 0.714071485172183, "order": 8, "uparea": 1482555.5706116247 }, "geometry": { "type": "LineString", "coordinates": [ [ 90.441666666666649, 23.335833333333348 ], [ 90.436666666666653, 23.34 ] ] } },
{ "type": "Feature", "properties": { "COMID": 45063338, "id": "9405", "lengthkm": 3.684757535951662, "order": 8, "uparea": 1482765.1194097816 }, "geometry": { "type": "LineString", "coordinates": [ [ 90.474166666666648, 23.331666666666678 ], [ 90.454166666666652, 23.330833333333345 ], [ 90.449166666666656, 23.331666666666678 ], [ 90.441666666666649, 23.335833333333348 ] ] } },
{ "type": "Feature", "properties": { "COMID": 45063337, "id": "9405", "lengthkm": 1.9350875813103481, "order": 8, "uparea": 1482797.5267805532 }, "geometry": { "type": "LineString", "coordinates": [ [ 90.488333333333316, 23.32166666666668 ], [ 90.481666666666655, 23.324166666666681 ], [ 90.474166666666648, 23.331666666666678 ] ] } },
{ "type": "Feature", "properties": { "COMID": 45063336, "id": "9405", "lengthkm": 5.8385379776508346, "order": 8, "uparea": 1482976.942876504 }, "geometry": { "type": "LineString", "coordinates": [ [ 90.538333333333313, 23.306666666666679 ], [ 90.52916666666664, 23.3075 ], [ 90.5225, 23.310833333333346 ], [ 90.5125, 23.32 ], [ 90.488333333333316, 23.32166666666668 ] ] } },
{ "type": "Feature", "properties": { "COMID": 45063335, "id": "9405", "lengthkm": 6.305659495608567, "order": 8, "uparea": 1483033.5524042775 }, "geometry": { "type": "LineString", "coordinates": [ [ 90.5875, 23.295833333333345 ], [ 90.575833333333321, 23.293333333333347 ], [ 90.5625, 23.30166666666668 ], [ 90.554166666666646, 23.305 ], [ 90.550833333333316, 23.31 ], [ 90.543333333333322, 23.306666666666679 ], [ 90.538333333333313, 23.306666666666679 ] ] } },
{ "type": "Feature", "properties": { "COMID": 45063334, "id": "9405", "lengthkm": 7.8191387100587306, "order": 8, "uparea": 1483124.8605031187 }, "geometry": { "type": "LineString", "coordinates": [ [ 90.626666666666651, 23.24 ], [ 90.610833333333318, 23.25916666666668 ], [ 90.60833333333332, 23.268333333333345 ], [ 90.6, 23.276666666666678 ], [ 90.599166666666648, 23.28166666666668 ], [ 90.595833333333317, 23.2875 ], [ 90.5875, 23.295833333333345 ] ] } },
{ "type": "Feature", "properties": { "COMID": 45063333, "id": "9405", "lengthkm": 8.8182140991362683, "order": 8, "uparea": 1572400.525695469 }, "geometry": { "type": "LineString", "coordinates": [ [ 90.61166666666665, 23.166666666666679 ], [ 90.615, 23.186666666666678 ], [ 90.620833333333309, 23.1975 ], [ 90.626666666666651, 23.218333333333344 ], [ 90.626666666666651, 23.24 ] ] } },
{ "type": "Feature", "properties": { "COMID": 45063332, "id": "9405", "lengthkm": 7.6543775006214121, "order": 8, "uparea": 1572504.0563616927 }, "geometry": { "type": "LineString", "coordinates": [ [ 90.59333333333332, 23.105 ], [ 90.5975, 23.113333333333347 ], [ 90.601666666666645, 23.133333333333347 ], [ 90.60833333333332, 23.14916666666668 ], [ 90.6075, 23.1525 ], [ 90.61166666666665, 23.16166666666668 ], [ 90.61166666666665, 23.166666666666679 ] ] } },
{ "type": "Feature", "properties": { "COMID": 45066867, "id": "9405", "lengthkm": 8.8264913247611076, "order": 8, "uparea": 1572667.3889131162 }, "geometry": { "type": "LineString", "coordinates": [ [ 90.584166666666647, 23.0325 ], [ 90.584166666666647, 23.035 ], [ 90.590833333333308, 23.043333333333347 ], [ 90.598333333333315, 23.07166666666668 ], [ 90.598333333333315, 23.085833333333348 ], [ 90.59333333333332, 23.105 ] ] } },
{ "type": "Feature", "properties": { "COMID": 45066866, "id": "9405", "lengthkm": 11.626908692823784, "order": 8, "uparea": 1573607.9737473868 }, "geometry": { "type": "LineString", "coordinates": [ [ 90.631666666666646, 22.945 ], [ 90.628333333333316, 22.953333333333347 ], [ 90.615, 22.975 ], [ 90.61, 22.98 ], [ 90.605, 22.991666666666681 ], [ 90.600833333333313, 22.995833333333348 ], [ 90.594166666666652, 23.0125 ], [ 90.5875, 23.02 ], [ 90.584166666666647, 23.0325 ] ] } },
{ "type": "Feature", "properties": { "COMID": 45066865, "id": "9405", "lengthkm": 2.2123776367557291, "order": 8, "uparea": 1573652.1037601084 }, "geometry": { "type": "LineString", "coordinates": [ [ 90.638333333333321, 22.9275 ], [ 90.631666666666646, 22.945 ] ] } },
{ "type": "Feature", "properties": { "COMID": 45066864, "id": "9405", "lengthkm": 2.286353277797005, "order": 8, "uparea": 1573882.3011841814 }, "geometry": { "type": "LineString", "coordinates": [ [ 90.649166666666645, 22.910833333333347 ], [ 90.638333333333321, 22.9275 ] ] } },
{ "type": "Feature", "properties": { "COMID": 45066863, "id": "9405", "lengthkm": 10.136653461461982, "order": 8, "uparea": 1574012.6907671301 }, "geometry": { "type": "LineString", "coordinates": [ [ 90.7125, 22.846666666666678 ], [ 90.694166666666646, 22.861666666666679 ], [ 90.6875, 22.8725 ], [ 90.673333333333318, 22.8875 ], [ 90.663333333333313, 22.900833333333345 ], [ 90.649166666666645, 22.910833333333347 ] ] } },
{ "type": "Feature", "properties": { "COMID": 45066862, "id": "9405", "lengthkm": 6.9867986145700964, "order": 8, "uparea": 1574545.5744448761 }, "geometry": { "type": "LineString", "coordinates": [ [ 90.723333333333315, 22.788333333333345 ], [ 90.719166666666652, 22.7975 ], [ 90.7125, 22.846666666666678 ] ] } },
{ "type": "Feature", "properties": { "COMID": 45066861, "id": "9405", "lengthkm": 1.3973938849260481, "order": 8, "uparea": 1574591.2623521597 }, "geometry": { "type": "LineString", "coordinates": [ [ 90.720833333333317, 22.776666666666681 ], [ 90.723333333333315, 22.788333333333345 ] ] } },
{ "type": "Feature", "properties": { "COMID": 45066860, "id": "9405", "lengthkm": 3.3249251226456198, "order": 8, "uparea": 1574680.9067696885 }, "geometry": { "type": "LineString", "coordinates": [ [ 90.7275, 22.749166666666678 ], [ 90.7225, 22.764166666666679 ], [ 90.720833333333317, 22.776666666666681 ] ] } },
{ "type": "Feature", "properties": { "COMID": 45066859, "id": "9405", "lengthkm": 0.31137575033335202, "order": 8, "uparea": 1574708.4456096634 }, "geometry": { "type": "LineString", "coordinates": [ [ 90.72833333333331, 22.74666666666668 ], [ 90.7275, 22.749166666666678 ] ] } },
{ "type": "Feature", "properties": { "COMID": 45066858, "id": "9405", "lengthkm": 7.2847450964907097, "order": 8, "uparea": 1574834.2982043759 }, "geometry": { "type": "LineString", "coordinates": [ [ 90.7575, 22.691666666666681 ], [ 90.744166666666644, 22.713333333333345 ], [ 90.740833333333313, 22.725 ], [ 90.72833333333331, 22.74666666666668 ] ] } },
{ "type": "Feature", "properties": { "COMID": 45066857, "id": "9405", "lengthkm": 2.3985656537863922, "order": 8, "uparea": 1574898.6207858638 }, "geometry": { "type": "LineString", "coordinates": [ [ 90.764166666666654, 22.6725 ], [ 90.7575, 22.691666666666681 ] ] } },
{ "type": "Feature", "properties": { "COMID": 45066856, "id": "9405", "lengthkm": 7.0912977241002322, "order": 8, "uparea": 1575032.5004286871 }, "geometry": { "type": "LineString", "coordinates": [ [ 90.81, 22.626666666666679 ], [ 90.795, 22.644166666666681 ], [ 90.764166666666654, 22.6725 ] ] } },
{ "type": "Feature", "properties": { "COMID": 45066855, "id": "9405", "lengthkm": 7.5775848669324732, "order": 8, "uparea": 1575385.9506649468 }, "geometry": { "type": "LineString", "coordinates": [ [ 90.803333333333313, 22.563333333333347 ], [ 90.8, 22.573333333333348 ], [ 90.8, 22.589166666666681 ], [ 90.8075, 22.6125 ], [ 90.81, 22.626666666666679 ] ] } },
{ "type": "Feature", "properties": { "COMID": 45070323, "id": "9405", "lengthkm": 16.643676992320035, "order": 8, "uparea": 1575630.991704083 }, "geometry": { "type": "LineString", "coordinates": [ [ 90.9, 22.4575 ], [ 90.888333333333321, 22.4625 ], [ 90.88, 22.46916666666668 ], [ 90.868333333333311, 22.475 ], [ 90.850833333333313, 22.490833333333345 ], [ 90.839166666666642, 22.508333333333347 ], [ 90.83833333333331, 22.5175 ], [ 90.814166666666651, 22.54416666666668 ], [ 90.803333333333313, 22.563333333333347 ] ] } },
{ "type": "Feature", "properties": { "COMID": 45070322, "id": "9405", "lengthkm": 0.12617354695302499, "order": 8, "uparea": 1575661.803881095 }, "geometry": { "type": "LineString", "coordinates": [ [ 90.90083333333331, 22.456666666666681 ], [ 90.9, 22.4575 ] ] } }
]
}
