{"type":"FeatureCollection","features":[{"type":"Feature","geometry":{"type":"MultiPolygon","coordinates":[[[[76.59078030056415,22.835931803385705],[76.59241956922719,22.835492757161788],[76.5955547417532,22.835679660373728],[76.59703179253447,22.834647894965684],[76.59973008897552,22.833618977865],[76.60082546657978,22.832769911024613],[76.60253377278647,22.83237250434061],[76.60250868055553,22.831103515625344],[76.6005145941842,22.83027031792571],[76.60060682508666,22.828724229601136],[76.60012722439231,22.827387695312922],[76.6003394911024,22.823826361762542],[76.60300998263872,22.822600775825094],[76.60372653537306,22.821798638238164],[76.60358167860252,22.81936713324704],[76.6049998643663,22.818100043403234],[76.60526991102441,22.81684638129373],[76.60464124891493,22.816396755642714],[76.60345214843764,22.81772759331629],[76.60222032335074,22.817058105469172],[76.60011800130187,22.814804687500413],[76.5986032443574,22.814452311198238],[76.59802001953122,22.81212673611151],[76.59746215820317,22.811674533420486],[76.59671318901914,22.813306613498582],[76.59564331054705,22.814396023220937],[76.59667453341999,22.814714355469135],[76.59704277886263,22.816687554253775],[76.59630791558149,22.817769911024556],[76.59389675564225,22.815196804470858],[76.59502305772557,22.81312391493094],[76.59633110894092,22.812719997830285],[76.59695556640631,22.810831705729555],[76.59611233181428,22.80927978515662],[76.59597222222206,22.807638888889215],[76.595069173177,22.808305664062956],[76.59473008897552,22.81084120008721],[76.59403293185758,22.811161024305875],[76.59278293185756,22.81108656141518],[76.59250786675344,22.81144029405418],[76.59340657552067,22.812243245443113],[76.59329874674452,22.814053005642677],[76.59244859483508,22.814714355469135],[76.59191040039067,22.814112006293797],[76.5902202690971,22.813618977864962],[76.5903603786891,22.815969645182648],[76.58962660047737,22.81801459418452],[76.59227186414924,22.820693901909976],[76.59210571289051,22.82348171658029],[76.59129326714393,22.824207628038607],[76.5916745334201,22.825269911024634],[76.5919365776908,22.82730319552992],[76.59134670681411,22.828388807509086],[76.59005560980901,22.82831176757847],[76.5877856445313,22.826658799913503],[76.5862242296005,22.826009521484877],[76.58534532335054,22.82502590603339],[76.58500786675327,22.826118977864937],[76.58461168077238,22.82638102213575],[76.58250691731772,22.825625813802546],[76.57866604275151,22.825265435113337],[76.57748752170133,22.82341254340315],[76.57625854492179,22.82427096896747],[76.57721435546861,22.826201714410104],[76.57540201822914,22.826093614366613],[76.57609944661439,22.824810248481228],[76.57277031792532,22.82500868055591],[76.57167453342012,22.826038004557674],[76.57309176974806,22.826475558811296],[76.57304497612833,22.827261284722653],[76.5709144422743,22.828483886719184],[76.56880927191813,22.829293212891045],[76.56899943033832,22.829714355469108],[76.57103135850687,22.828985324436132],[76.57138102213517,22.82967814127639],[76.56834825303824,22.83107014974],[76.56806342230882,22.831486952040322],[76.56869208441813,22.831936577691337],[76.57060424804692,22.83110636393262],[76.57112589518206,22.830522460937956],[76.57167371961796,22.831135525174048],[76.57280002170145,22.831068386502082],[76.57283894856764,22.829390190972617],[76.57556152343736,22.82943576388925],[76.57979587131078,22.831356201172227],[76.5802745225694,22.830820312500393],[76.5808254665798,22.831078830295652],[76.5795137532551,22.834059380425728],[76.57745836045981,22.834442952474348],[76.57993299696179,22.835124647352842],[76.5810297309026,22.833897162543764],[76.58230319552942,22.833618977865],[76.58332194010424,22.834759114583633],[76.59078030056415,22.835931803385705]]]]},"properties":{"id":"9735"}}]}