{"type":"FeatureCollection","features":[{"type":"Feature","geometry":{"type":"MultiPolygon","coordinates":[[[[83.22480859375017,24.194817382812488],[83.22475000000017,24.19425000000011],[83.22430859375018,24.19430761718766],[83.22419140625024,24.19456738281268],[83.22405859375002,24.19480761718755],[83.22394140625008,24.195317382812462],[83.22344140625009,24.1959560546875],[83.22355859375014,24.19619238281257],[83.22405859375002,24.196831054687593],[83.22394140625008,24.199567382812575],[83.22369140625008,24.20001562500012],[83.22380859375014,24.200192382812688],[83.22524218750007,24.200324218749955],[83.22555078125006,24.20087500000008],[83.22519140625022,24.201515625000155],[83.2253398437501,24.20205761718755],[83.22544140625027,24.201942382812618],[83.22555859374998,24.2016826171877],[83.22594140625009,24.20119238281265],[83.2261484375002,24.20072949218762],[83.22693359375015,24.20005761718771],[83.22730859375011,24.19989062500008],[83.22719140625006,24.199057617187478],[83.22705859375017,24.198817382812607],[83.22694140625006,24.198307617187595],[83.22680859375012,24.198067382812624],[83.22669140625007,24.197807617187706],[83.22655859374996,24.197567382812466],[83.22644140625025,24.197057617187653],[83.22630859375002,24.196817382812682],[83.22609765625012,24.196344726562543],[83.22569140625009,24.19605761718759],[83.22521093750024,24.19584375000008],[83.22505859374999,24.19556738281264],[83.22494140625005,24.19505761718763],[83.22480859375017,24.194817382812488]]]]},"properties":{"id":"19391"}}]}