{"type":"FeatureCollection","features":[{"type":"Feature","geometry":{"type":"MultiPolygon","coordinates":[[[[75.10991383870461,25.71437554253488],[75.1084225887723,25.712572699652796],[75.10582136366108,25.71223225911463],[75.10576791551401,25.710991482204975],[75.10455563015418,25.71056586371536],[75.10381985134543,25.71287272135423],[75.10238637288424,25.71275743272581],[75.10130772908528,25.711505533854307],[75.10193411085359,25.70993353949669],[75.10125000000019,25.709305555555574],[75.09956410725934,25.709420572916812],[75.0991770002577,25.710288085937606],[75.09840048895958,25.711100260416828],[75.10240754021552,25.714158257378614],[75.10379262288436,25.71447292751745],[75.10430624220132,25.715624186198013],[75.10411526150179,25.718000759548673],[75.10278557671441,25.718401150173676],[75.10076637268085,25.720555555555777],[75.1016246710885,25.721295030382038],[75.10244507683652,25.72260498046883],[75.10408025105826,25.722473415798746],[75.10721573723706,25.719788411458453],[75.10772377861892,25.71810085720496],[75.10862144470232,25.716954752604224],[75.10887855529788,25.715267469618283],[75.10991383870461,25.71437554253488]]]]},"properties":{"id":"18918"}}]}