{"type":"FeatureCollection","features":[{"type":"Feature","geometry":{"type":"MultiPolygon","coordinates":[[[[108.43071499294595,12.788665907118244],[108.430171101887,12.787777777778132],[108.42908711751195,12.788157687717373],[108.42559455023772,12.78849243164089],[108.42337097167885,12.789541829427506],[108.42590813530737,12.791144341363193],[108.42579420301567,12.794019504123696],[108.42667039659185,12.79405422634585],[108.4288367377379,12.790043538411908],[108.43071499294595,12.788665907118244]]]]},"properties":{"id":"22795"}}]}