{"type":"FeatureCollection","features":[{"type":"Feature","geometry":{"type":"MultiPolygon","coordinates":[[[[77.20944921875017,26.572950195312544],[77.20950000000008,26.572749999999942],[77.2080507812502,26.572799804687705],[77.20707421875025,26.573700195312696],[77.20605078125007,26.573799804687567],[77.20582421875011,26.573950195312506],[77.20480078125021,26.57404980468756],[77.20469921875011,26.574325195312625],[77.2045507812501,26.57454980468745],[77.20443359375017,26.57516894531271],[77.20407421874998,26.575450195312627],[77.20345703125005,26.57556738281251],[77.2030507812502,26.57604980468757],[77.20293359375003,26.576660156250114],[77.20255078125021,26.576799804687454],[77.20232421875008,26.576950195312662],[77.20146093749995,26.577061523437592],[77.20094921875014,26.57766796875005],[77.20132031250003,26.577786132812676],[77.20167578125009,26.577549804687607],[77.20194921875012,26.57745019531255],[77.20217578125008,26.577299804687712],[77.20244921874999,26.577200195312642],[77.20267578125006,26.577049804687533],[77.20294921875009,26.576950195312662],[77.2034257812501,26.576549804687644],[77.20404296875009,26.576432617187592],[77.20469921875011,26.57570019531262],[77.20481250000009,26.574836914062573],[77.20542578124994,26.57429980468764],[77.20694921875011,26.574200195312585],[77.20742578125012,26.573799804687567],[77.20769921875015,26.573700195312696],[77.20792578125011,26.573549804687488],[77.20819921875008,26.573450195312617],[77.20867578125021,26.5730498046876],[77.20944921875017,26.572950195312544]]]]},"properties":{"id":"31201"}}]}