{"type":"FeatureCollection","features":[{"type":"Feature","geometry":{"type":"MultiPolygon","coordinates":[[[[108.12114983452588,12.386817220052464],[108.12206970214751,12.38647949218776],[108.1243250189876,12.38666069878505],[108.12602667914413,12.385711263021179],[108.12802347818908,12.38644449869841],[108.1296746826163,12.38657714843778],[108.13029968261608,12.386038682725939],[108.12948696560247,12.385406358507268],[108.12608527289407,12.384305013021176],[108.12557881673084,12.383717176649597],[108.12452494303275,12.383801812066224],[108.12365363226903,12.383184136284939],[108.12239332410942,12.382777777778102],[108.12144415961282,12.383324924045596],[108.12147833930024,12.385158148871852],[108.12004252115784,12.385798882378893],[108.1205845133455,12.386771918403184],[108.12114983452588,12.386817220052464]]]]},"properties":{"id":"22943"}}]}