{"type":"FeatureCollection","features":[{"type":"Feature","geometry":{"type":"MultiPolygon","coordinates":[[[[74.54224419487937,25.395281032986603],[74.53964002821263,25.392240125868412],[74.53776746961879,25.391954752604548],[74.53387858072992,25.390843641493518],[74.53291666666755,25.39013888888941],[74.53110080295212,25.390267469618507],[74.52834364149388,25.39105143229203],[74.5308436414937,25.391378580729622],[74.53110080295212,25.391671549479682],[74.52533447265714,25.3925206163199],[74.52259033203214,25.392095269097567],[74.52161159939314,25.392787543403173],[74.52168674045222,25.393721245660203],[74.52501030816072,25.39415635850746],[74.52663384331672,25.395499131944874],[74.52888888888972,25.394240993924],[74.53137858073009,25.395565863715746],[74.53360080295224,25.39639919704902],[74.5386604817717,25.39714463975737],[74.54084364149398,25.39639919704902],[74.54224419487937,25.395281032986603]]]]},"properties":{"id":"6529"}}]}