{"type":"FeatureCollection","features":[{"type":"Feature","geometry":{"type":"MultiPolygon","coordinates":[[[[78.54693901909727,24.692721862793462],[78.5462394205729,24.69139946831652],[78.54569444444459,24.689305555556004],[78.54471679687501,24.68943915473146],[78.54403293185774,24.68980112711641],[78.5435980902777,24.69117414686461],[78.54241644965285,24.692323506673716],[78.53913357204854,24.69222903781521],[78.53782280815992,24.69153547498972],[78.53834065755208,24.69055681016765],[78.53816080729163,24.69000528971408],[78.53637722439257,24.69123260498101],[78.53634223090293,24.692982686361262],[78.53669406467023,24.693647359212775],[78.53800618489603,24.69426669650659],[78.53840196397593,24.69551659478124],[78.54120062934035,24.696124098036506],[78.54218804253483,24.696084933811306],[78.5463783094618,24.693433363173227],[78.54693901909727,24.692721862793462]]]]},"properties":{"id":"19251"}}]}