{"type":"FeatureCollection","features":[{"type":"Feature","geometry":{"type":"MultiPolygon","coordinates":[[[[83.3387515414619,24.87045632086911],[83.3393415255579,24.868349234812],[83.34136432817255,24.8691920692348],[83.3440613983258,24.869107785792707],[83.34422996521036,24.868433518254093],[83.34336158528279,24.86503894217431],[83.34347215234052,24.86464693564868],[83.34743273601649,24.860848008449196],[83.35286682576626,24.858817086017623],[83.35627305772593,24.85811943901932],[83.35725558810779,24.8576132202153],[83.35725117378749,24.85739659724969],[83.35838958351283,24.857139536988868],[83.35931670137788,24.855706718470202],[83.35855815039739,24.854948167489596],[83.35704104843651,24.854442466835877],[83.3555239464753,24.855116734374135],[83.35354394054721,24.854959085183978],[83.3546811120527,24.85300964831721],[83.35425969484132,24.85157682979853],[83.35501824582175,24.849301176856883],[83.3565353477828,24.846435539819353],[83.35543966303348,24.846435539819353],[83.35156262468846,24.848795476203094],[83.35122549091918,24.849301176856883],[83.35217992997266,24.8500044477386],[83.35153301754954,24.850677647186956],[83.34886555453565,24.85039686160657],[83.34962410551603,24.849301176856883],[83.34852842076637,24.848289775549645],[83.34768558634349,24.84710980735761],[83.34751701945893,24.851155412587175],[83.34702989366335,24.85111389160177],[83.34689538344136,24.851528394197672],[83.3458313506134,24.852166813894243],[83.34473566586385,24.852251097336605],[83.3425442963646,24.84989116095305],[83.34195431226871,24.848374058991922],[83.34178574538387,24.846098406050274],[83.34052149375012,24.845002721300773],[83.34043721030784,24.840788549186655],[83.3384986911349,24.839777147879502],[83.33731872294325,24.836152959861366],[83.33622303819365,24.836068676419274],[83.33597018786665,24.834045873804442],[83.33462165279033,24.834467291015613],[83.33394738525217,24.835984392976926],[83.33487450311694,24.836490093630545],[83.33445308590572,24.839018596898896],[83.33217743296407,24.838512896245376],[83.3322617164064,24.840198565090674],[83.33192458263741,24.841041399513557],[83.33310455082912,24.840872832628833],[83.33420023557872,24.841041399513557],[83.33462165279033,24.843148485570566],[83.33411595213661,24.844075603435797],[83.33416937934052,24.846151902940747],[83.3345779166929,24.84734557276481],[83.33403166869445,24.848711192761],[83.33209314952163,24.849301176856883],[83.33032319723375,24.84938546029916],[83.32821611117711,24.848879759645357],[83.32661472577362,24.84753122456904],[83.32560332446613,24.84635125637726],[83.32610902512019,24.84399131999335],[83.32417050594765,24.84592983916592],[83.32273768742928,24.84592983916592],[83.32197913644845,24.84432845376226],[83.3202091841604,24.84424417032008],[83.3206105678253,24.845608874781064],[83.31936634973763,24.84719409079979],[83.31818638154564,24.8473626576846],[83.31776496433466,24.84601412260801],[83.31725926368054,24.84592983916592],[83.316163578931,24.845087004742865],[83.31599501204667,24.843232769012744],[83.31557359483512,24.842474218032322],[83.31439362664324,24.841715667051716],[83.31363507566257,24.8406199823022],[83.31329794189386,24.840535698860023],[83.31245510747058,24.840535698860023],[83.31237082402842,24.841715667051716],[83.3118651233747,24.842221367705335],[83.3121179737017,24.84399131999335],[83.31180853949652,24.844336361355587],[83.3120336902596,24.845339855069668],[83.30942090354895,24.845339855069668],[83.30798808502996,24.845087004742865],[83.30613384929964,24.84415988687789],[83.3059652824152,24.842979918686027],[83.30503816455021,24.842895635243664],[83.3036896294739,24.841715667051716],[83.3036896294739,24.84045141541766],[83.30394247980044,24.839692864437055],[83.30183539374374,24.840114281648496],[83.30190797115242,24.840486845679507],[83.30168330711965,24.840951151347454],[83.30128689236133,24.840836113824125],[83.30082573784742,24.842256656223313],[83.29964709903501,24.843389070897516],[83.29837977261022,24.843401335897553],[83.29745265474506,24.842642784917032],[83.29475558459197,24.84179995049398],[83.29526128524597,24.840114281648496],[83.29719980441845,24.83792291214931],[83.29778978851434,24.836152959861366],[83.29719980441845,24.83505727511168],[83.29475558459197,24.836742943957262],[83.29096282968956,24.83809147903375],[83.28910859395936,24.838007195591572],[83.28750720855615,24.837417211495506],[83.28750720855615,24.83556297576557],[83.28851860986359,24.83413015724672],[83.28978286149768,24.83286590561231],[83.2905414124784,24.83160165397844],[83.29087854624723,24.830337402344043],[83.29416560049637,24.826966064653064],[83.29382846672709,24.826966064653064],[83.28944572772863,24.830084552017226],[83.28767577544087,24.830674536113392],[83.28565297282623,24.831938787747703],[83.28464157151862,24.833287322823836],[83.2837144536534,24.832950189054586],[83.28270305234625,24.83084310299766],[83.28202878480826,24.83244448840088],[83.28017454907788,24.83286590561231],[83.27562324319493,24.83539440888076],[83.27393757434939,24.835984392976926],[83.27191477173457,24.82823031628712],[83.27360044058028,24.828820300383],[83.27486469221455,24.82898886726754],[83.27722462859808,24.82806174940258],[83.278741730559,24.826966064653064],[83.28042739940489,24.824606128269338],[83.28118595038538,24.82233047532752],[83.28245020201942,24.821656207789175],[83.28261876890386,24.82072908992457],[83.2815230841542,24.8196334051747],[83.28455728807629,24.81558779994539],[83.2808488166161,24.81938055484781],[83.28017454907788,24.82249904221223],[83.27545467631032,24.823004742865677],[83.274948975657,24.824184711057896],[83.27427470811855,24.824774695153693],[83.2727576061574,24.82469041171143],[83.2704819532157,24.8229204594235],[83.26963911879298,24.8229204594235],[83.26904913469721,24.823426160077375],[83.26795344994761,24.823257593192665],[83.26702633208234,24.82216190844315],[83.26416069504492,24.81980197205924],[83.26340214406443,24.81828487009821],[83.26306501029515,24.816936335021808],[83.26137934144973,24.81592493371447],[83.26045222358462,24.815840650272023],[83.25944082227718,24.81626206748355],[83.25918797195018,24.81777916944459],[83.25590091770161,24.81668348469482],[83.25590091770161,24.813902131099738],[83.25345669787541,24.815672083387668],[83.25261386345252,24.8137335642151],[83.25143389526082,24.81331214700367],[83.24730400658908,24.81095221061993],[83.2457869046282,24.80926654177445],[83.24384838545566,24.808339423909118],[83.24528120397432,24.81086792717757],[83.24949537608828,24.8128907297924],[83.25092819460693,24.814576398637897],[83.24983250985744,24.815672083387668],[83.25143389526082,24.815840650272023],[83.25252958001025,24.81651491781018],[83.25413096541374,24.816936335021808],[83.2577551534317,24.81895913763637],[83.25834513752758,24.821150507135556],[83.25691231900899,24.821740491231623],[83.2564066183551,24.8235947269621],[83.25826085408531,24.823004742865677],[83.25935653883502,24.823510443519737],[83.25952510571952,24.82519611236505],[83.26373927783337,24.827893182517954],[83.26584636389023,24.830000268575134],[83.26609921421746,24.830758819555484],[83.26601493077501,24.83151737053609],[83.26508781291008,24.832275921516512],[83.26441354537175,24.833287322823836],[83.26365499439137,24.835141558554042],[83.26289644341088,24.836237243303813],[83.26011508981551,24.837248644610966],[83.25927225539263,24.83708007772661],[83.25901940506574,24.836321526746175],[83.25783943687415,24.83573154264984],[83.25674375212444,24.835647259207846],[83.25590091770161,24.835984392976926],[83.25556378393222,24.836658660515084],[83.25564806737461,24.839692864437055],[83.25716516933616,24.84045141541766],[83.25783943687415,24.84163138360954],[83.25927225539263,24.841547100167176],[83.26180075866128,24.840957116071465],[83.26272787652644,24.840367131975214],[83.2653406632368,24.841041399513557],[83.26820630027433,24.842137084263243],[83.26997625256232,24.842305651147697],[83.2715776379653,24.842979918686027],[83.2719990551769,24.843401335897553],[83.27208333861935,24.84424417032008],[83.2718304882923,24.845002721300773],[83.26972340223526,24.846266972935084],[83.27098765386964,24.84635125637726],[83.27098765386964,24.84668839014617],[83.2700605360047,24.848036925222658],[83.26947055190843,24.848458342434284],[83.26871200092776,24.851408262913807],[83.26803773338978,24.852082530451966],[83.26904913469721,24.852672514548303],[83.26997625256232,24.852166813894243],[83.27242047238818,24.851829680125334],[83.27250475583051,24.850481145048846],[83.27360044058028,24.85031257816412],[83.27486469221455,24.85056542849121],[83.27486469221455,24.848711192761],[83.27545467631043,24.848458342434284],[83.27612894384848,24.847699791453763],[83.27638179417548,24.846266972935084],[83.27992169875117,24.845508421954392],[83.27966884842417,24.843738469666548],[83.28042739940489,24.842642784917032],[83.2811016669431,24.842137084263243],[83.28320875299997,24.842221367705335],[83.28408089541355,24.843630213142617],[83.28389160156289,24.844313151042016],[83.28736897315665,24.845384290633078],[83.2881254331966,24.845958298806337],[83.28835004297892,24.846519823261715],[83.28776005888332,24.8495540271837],[83.28573725626839,24.85258823110604],[83.28531583905695,24.854105333066897],[83.28725435822926,24.854189616509245],[83.28742292511382,24.854948167489596],[83.28691722446044,24.85680240321979],[83.28287161923086,24.857729521084934],[83.2827873357887,24.85831950518083],[83.28287161923086,24.859330906488154],[83.28455728807629,24.85975232369968],[83.2860743900375,24.86261796073721],[83.28725435822926,24.86236511041014],[83.28784434232549,24.860426591237925],[83.28902431051719,24.85941518993033],[83.29231136476622,24.857982371411666],[83.29433416738092,24.857476670757947],[83.2976212216295,24.857476670757947],[83.29770550507195,24.858150938296106],[83.29660982032229,24.85924662304579],[83.299138323591,24.85924662304579],[83.30689240028036,24.858572355507462],[83.31019813257117,24.85777897975801],[83.31611382378472,24.857225002712966],[83.319277886285,24.856391669379875],[83.3211618381076,24.85782123141867],[83.32393771701382,24.859468960232775],[83.32546242140987,24.85938432063068],[83.32678329265818,24.860173740910767],[83.32863752838821,24.86236511041014],[83.33066033100309,24.86236511041014],[83.33411595213661,24.861437992544992],[83.33563305409777,24.861690842871795],[83.33546448721322,24.86565216465901],[83.33647588852037,24.86952920300378],[83.3387515414619,24.87045632086911]]]]},"properties":{"id":"1777"}}]}