{"type":"FeatureCollection","features":[{"type":"Feature","geometry":{"type":"MultiPolygon","coordinates":[[[[83.16561328125007,23.246380859375094],[83.16580859375009,23.245931640625074],[83.16794140624998,23.243693359375044],[83.16805859375009,23.243254882812693],[83.16780859375004,23.242818359375207],[83.16769140625004,23.242306640625074],[83.16755859375016,23.242068359375054],[83.16744140625016,23.23980664062499],[83.16725000000011,23.239500000000106],[83.16705859375006,23.23955664062518],[83.16694140625,23.24031835937504],[83.16680859375006,23.240556640625144],[83.16669140625018,23.241318359375],[83.16622656249993,23.24190625000007],[83.16557421875027,23.242056640624995],[83.1648945312501,23.241516601562466],[83.16469140625,23.241056640625033],[83.16437109375002,23.240609375000233],[83.16381249999998,23.240443359375163],[83.16369140625014,23.243568359375004],[83.16355859375003,23.243806640625024],[83.16344140624997,23.244818359375046],[83.16330859375003,23.24505664062515],[83.16319140625004,23.24531835937502],[83.16303125000022,23.245600585937495],[83.16255859375016,23.24580664062512],[83.16231640624997,23.245943359375048],[83.16205859375017,23.246056640625028],[83.16181640625015,23.246193359375212],[83.16037890625014,23.246306640625193],[83.15994140625017,23.246056640625028],[83.1595859375,23.245943359375048],[83.15944140625018,23.246495117187635],[83.15969140625,23.24693164062512],[83.15990625000009,23.247426757812647],[83.16106640625017,23.247556640625234],[83.16130859375008,23.247693359375063],[83.16407031250006,23.247806640625043],[83.16561328125007,23.246380859375094]]]]},"properties":{"id":"19830"}}]}