{"type":"FeatureCollection","features":[{"type":"Feature","geometry":{"type":"MultiPolygon","coordinates":[[[[102.19778754339976,15.672845865885577],[102.19705403645523,15.671496039496688],[102.19361111110791,15.67083333333359],[102.19167751735816,15.67159206814253],[102.19043524847771,15.671146375868247],[102.1894957139726,15.67219780815988],[102.18987779405066,15.674347330729319],[102.19110595702827,15.674911024305757],[102.1958816189206,15.674626464844081],[102.1971849229569,15.674158799913386],[102.19778754339976,15.672845865885577]]]]},"properties":{"id":"22216"}}]}