{"type":"FeatureCollection","features":[{"type":"Feature","geometry":{"type":"MultiPolygon","coordinates":[[[[104.47603808593757,15.400820312500215],[104.47760937500018,15.400691406250004],[104.47805761718755,15.400941406250169],[104.47856738281266,15.401058593750136],[104.47880761718753,15.401191406249978],[104.47906738281259,15.40130859375013],[104.47980761718756,15.401941406250046],[104.48006738281256,15.402058593750198],[104.48030761718755,15.40219140624994],[104.48056738281244,15.402308593750007],[104.48080761718754,15.40244140625012],[104.48348437500019,15.402558593750172],[104.48393261718772,15.402308593750007],[104.48444238281255,15.40219140624994],[104.4849326171877,15.401808593750019],[104.48519238281258,15.401691406249967],[104.48618261718772,15.400808593750057],[104.48794238281258,15.400691406250004],[104.48885156250023,15.399894531250055],[104.48905761718757,15.399433593749976],[104.4899423828127,15.39844140625],[104.49005761718772,15.398015625000099],[104.48980761718755,15.397566406250164],[104.48969238281259,15.396808593750038],[104.4885576171877,15.395566406250069],[104.48844238281245,15.395308593750187],[104.48815527343763,15.394902343750147],[104.4876826171874,15.394691406250047],[104.48719238281242,15.394308593750125],[104.48668261718754,15.394191406250158],[104.48644238281267,15.394058593750145],[104.48593261718756,15.393941406250079],[104.48569238281257,15.393808593749966],[104.48543261718757,15.393691406250085],[104.48519238281258,15.393558593750072],[104.48451562500017,15.393441406250005],[104.48406738281258,15.393691406250085],[104.4838076171877,15.393808593749966],[104.48219238281254,15.39230859375003],[104.48193261718754,15.392191406249964],[104.48140039062505,15.391777343750121],[104.48119238281268,15.391308593750068],[104.48086523437527,15.390847656249989],[104.48003222656266,15.39065625000002],[104.47925000000001,15.389750000000092],[104.47905761718769,15.389808593750118],[104.47881738281254,15.38994140624996],[104.47855761718753,15.390058593750027],[104.47831738281255,15.39019140625004],[104.47805761718755,15.390308593750106],[104.47794238281259,15.39156640624995],[104.47780761718755,15.391808593750142],[104.47769238281242,15.392066406250109],[104.47753808593771,15.392343750000023],[104.47705761718768,15.39255859375011],[104.47656738281242,15.392941406250117],[104.47630761718753,15.393058593750183],[104.47606738281254,15.39319140625011],[104.47580761718754,15.393308593749992],[104.47537500000013,15.393550781250084],[104.47485937500002,15.39326171875011],[104.47359179687507,15.394406249999975],[104.47344238281258,15.39506640625008],[104.47328808593758,15.395343750000094],[104.47280761718756,15.39555859374991],[104.47256738281251,15.395691406250009],[104.4720927734376,15.39590234375001],[104.47194238281273,15.396566406249931],[104.47155761718753,15.397058593750117],[104.47144238281251,15.397316406249999],[104.47130761718753,15.39755859375019],[104.47119238281257,15.399316406250094],[104.47100683593769,15.399648437500147],[104.47010449218757,15.399855468749976],[104.46994238281255,15.400566406249965],[104.46976269531265,15.400890625000116],[104.47044238281254,15.40168359374998],[104.47055761718755,15.401941406250046],[104.47156738281254,15.402058593750198],[104.47180761718752,15.40219140624994],[104.47206738281241,15.402308593750007],[104.47230761718768,15.40244140625012],[104.47381738281254,15.402558593750172],[104.47459082031256,15.403218750000107],[104.47515625000014,15.403175781250042],[104.47530761718755,15.402183593750138],[104.47544238281242,15.401941406250046],[104.47555761718772,15.40143359375017],[104.47603808593757,15.400820312500215]]]]},"properties":{"id":"22244"}}]}