{"type":"FeatureCollection","features":[{"type":"Feature","geometry":{"type":"MultiPolygon","coordinates":[[[[104.37899495442403,15.739825032552332],[104.37838487412913,15.735909288194591],[104.37698784721951,15.734206542968977],[104.37527777777481,15.733055555555865],[104.37351562499705,15.7348621961807],[104.37187771267057,15.735167914496785],[104.36945149739282,15.735023328993307],[104.36678466796596,15.736352810330061],[104.36569281683731,15.73596110026061],[104.36468560112567,15.736508517795286],[104.36403564452834,15.737924533420397],[104.36300998263604,15.739247775607865],[104.36253933376432,15.740772569444658],[104.36124213324373,15.742353244357929],[104.36066813150748,15.743498535156576],[104.36140706379919,15.74345458984395],[104.36318657768814,15.74207546658009],[104.36483262803543,15.741567382812676],[104.36717475043102,15.739524468316077],[104.3689303927923,15.73898220486123],[104.37067762586511,15.739609103732803],[104.37365912543109,15.739602864583603],[104.37408203124713,15.741867947048846],[104.37401231553528,15.74303602430571],[104.37701768662905,15.74572129991337],[104.3789157443546,15.746592339409986],[104.38047281900757,15.746499565972428],[104.38192491319157,15.74421657986143],[104.38364420572614,15.743366699219038],[104.3831553819414,15.74200412326421],[104.38256103515349,15.741472981771025],[104.38096435546575,15.740980088975817],[104.37899495442403,15.739825032552332]]]]},"properties":{"id":"10284"}}]}