{"type":"FeatureCollection","features":[{"type":"Feature","geometry":{"type":"MultiPolygon","coordinates":[[[[81.03860304090713,25.135491536458844],[81.03998521592851,25.134211154514375],[81.04055026584197,25.133114149305925],[81.0391613769531,25.132783203125427],[81.0386164008248,25.13216634114623],[81.03921434190542,25.13103624131989],[81.0410114881727,25.128927951389343],[81.04167195637993,25.12861653645888],[81.04249471028643,25.12721679687536],[81.04361640082439,25.126394314236563],[81.04388359917525,25.125806206597616],[81.04250881618904,25.125860460069816],[81.04160312228728,25.12445800781292],[81.04055026584197,25.125550130208723],[81.03997138129333,25.127036675347526],[81.03688618977841,25.126914605034997],[81.03613979763443,25.1261089409726],[81.03416137695294,25.125838758680956],[81.03387349446618,25.125527886285212],[81.03389546712216,25.124973415798976],[81.03513359917545,25.124389105903134],[81.03725267198328,25.12447319878521],[81.03777248806401,25.123853624132295],[81.03718465169246,25.123308919271167],[81.03722791883652,25.12221788194482],[81.0367718505859,25.12083875868106],[81.03524041069855,25.121892361111506],[81.03472751193581,25.120272352430888],[81.03315273708759,25.11934678819496],[81.03278306749135,25.118716362847664],[81.03364562988261,25.117462565104617],[81.03502644856755,25.11749348958368],[81.03581746419272,25.11581759982684],[81.03418145073769,25.115882161458885],[81.0337499999998,25.115416666667016],[81.03224975585917,25.11688856336842],[81.03146213107632,25.118108181424134],[81.0299629041883,25.11804850260455],[81.02944973415774,25.117494574653136],[81.02842258029503,25.117169596354557],[81.02661444769964,25.117803276910053],[81.02471862792967,25.11777235243089],[81.0217371283637,25.118366427951756],[81.02139417860232,25.119449869792092],[81.01968037923169,25.12142578125045],[81.01803724500863,25.121360677083686],[81.01750528971334,25.12196506076421],[81.01896518283414,25.12305013020881],[81.02109205457893,25.122304687500545],[81.02305026584193,25.121105685764334],[81.02661444769964,25.120858832465643],[81.02749999999995,25.120548502604464],[81.02841871473518,25.12087022569476],[81.02980726453964,25.122324761285228],[81.02936211480036,25.12488172743089],[81.02806084526881,25.12388346354217],[81.02544433593752,25.12306098090312],[81.0250052897135,25.123743489583802],[81.02724087185325,25.125501302083805],[81.02721171061174,25.126238064236503],[81.02340298122826,25.126994357639262],[81.02306084526904,25.12801052517399],[81.0246164957683,25.129921875000406],[81.02499471028639,25.131116536458606],[81.02663248697925,25.132496202257286],[81.02795383029499,25.132914496528244],[81.0283280436195,25.133389214410045],[81.02696763780384,25.13464952256983],[81.02667195637994,25.13534722222255],[81.02971964518227,25.134994574653177],[81.03212999131918,25.135056966146223],[81.03318481445288,25.134498697917067],[81.03485683865003,25.136870117187968],[81.03681342230894,25.13724392361148],[81.03809265136701,25.137193467882284],[81.03862575954852,25.136063368055943],[81.03860304090713,25.135491536458844]]]]},"properties":{"id":"9497"}}]}