{"type":"FeatureCollection","features":[{"type":"Feature","geometry":{"type":"MultiPolygon","coordinates":[[[[108.24748046875007,12.708597656250006],[108.24650000000005,12.707500000000024],[108.24589257812502,12.707582031250084],[108.24555859375013,12.708058593750124],[108.24544140625025,12.709066406250159],[108.24530859375002,12.70930859375008],[108.24508593750008,12.709792968750008],[108.24481640625012,12.709941406249996],[108.24366015625023,12.710078125000095],[108.24294140625008,12.710953125000017],[108.24308593750007,12.711859375000031],[108.24355859375012,12.71219140625],[108.24381640625026,12.712308593750052],[108.24405859375,12.712441406250164],[108.24454492187508,12.712664062499954],[108.2446914062501,12.71293359375008],[108.2449199218751,12.713433593750054],[108.2464218750001,12.7135234375001],[108.24660546875006,12.712738281250125],[108.24693359375013,12.712558593750046],[108.24760156250002,12.712402343750085],[108.24855859375,12.711304687500018],[108.24844140625001,12.710058593750048],[108.24830859375018,12.709816406250226],[108.24816796875021,12.708914062500014],[108.24748046875007,12.708597656250006]]]]},"properties":{"id":"22820"}}]}