{"type":"FeatureCollection","features":[{"type":"Feature","geometry":{"type":"MultiPolygon","coordinates":[[[[76.82119140625005,22.961689453124976],[76.82166406250005,22.961439453125166],[76.82248437500007,22.961591796874956],[76.82294140625012,22.962185546875062],[76.82305859375018,22.96243945312513],[76.82319140625,22.962685546875136],[76.82341796875014,22.963166992187453],[76.82405859375021,22.96368945312517],[76.82431640625,22.963810546875138],[76.82496484375017,22.964308593750076],[76.82543359375003,22.964060546874947],[76.82608984375017,22.963904296874986],[76.82630859375021,22.963435546875104],[76.82655859375004,22.962962890625136],[76.82644140625015,22.962310546875102],[76.82555859375006,22.961314453125127],[76.82544140625001,22.96106054687506],[76.82519140625013,22.960587890625092],[76.82530859375018,22.960185546874953],[76.82555859375006,22.959712890625],[76.82538671875014,22.959133789062562],[76.82419140625015,22.95806054687509],[76.82292578125012,22.95793847656256],[76.82275000000024,22.95775000000002],[76.81755859375002,22.957810546875095],[76.81731640625011,22.95793945312512],[76.81705859375003,22.95806054687509],[76.81681640625013,22.9581894531252],[76.81631640625014,22.9584257812501],[76.81630078125019,22.958798828125083],[76.81680859375021,22.959189453125163],[76.81730078125011,22.959420898437585],[76.81744140625014,22.959685546875065],[76.81755859375002,22.960189453125125],[76.81778515625015,22.960616210937587],[76.81731640625011,22.960939453125093],[76.81682812500017,22.96116894531248],[76.81651171875015,22.96163183593751],[76.81719140625003,22.962435546874957],[76.81730859375003,22.962689453125208],[76.81744140625014,22.962935546874945],[76.81756640625,22.964810546875],[76.81844140625012,22.964689453125217],[76.81868359375002,22.964560546875106],[76.81894140625005,22.964439453125138],[76.81905859375021,22.963435546875104],[76.81944140625004,22.962939453125117],[76.81966796875,22.962457031249954],[76.82018359375022,22.962060546875108],[76.82044140625001,22.961939453125055],[76.8206835937502,22.961810546874943],[76.82119140625005,22.961689453124976]]]]},"properties":{"id":"19973"}}]}