{"type":"FeatureCollection","features":[{"type":"Feature","geometry":{"type":"MultiPolygon","coordinates":[[[[78.13832058376781,26.45415391710094],[78.13901014539957,26.4535810004342],[78.13975477430606,26.453656955295443],[78.14068712022615,26.452692057291912],[78.14218967013917,26.452845323350857],[78.14255425347275,26.452406412760496],[78.14470214843774,26.452625325520955],[78.14498725043435,26.451653917100856],[78.14582058376757,26.45054280598991],[78.14695963541695,26.44973334418424],[78.14691514756996,26.449294704861245],[78.1447094726565,26.44890163845497],[78.1441910807296,26.448277994791766],[78.14374131944467,26.445753580729445],[78.14393202039977,26.443882649739848],[78.14232503255235,26.44352647569457],[78.14167941623285,26.443927408854307],[78.14248725043424,26.44890163845497],[78.14349121093798,26.450170355902955],[78.14295437283013,26.450616048177253],[78.14150499132003,26.450586208767547],[78.14198540581648,26.451425238715473],[78.14122694227464,26.452055392795316],[78.13999403211827,26.45192979600715],[78.13870958116362,26.452288682725808],[78.13596462673658,26.451909450955014],[78.13516465928862,26.450946451823114],[78.13334689670185,26.450413140191102],[78.13123291015668,26.450883789062715],[78.12983696831643,26.45049343532999],[78.129457194011,26.44989013671902],[78.13082058376764,26.447765028211975],[78.13147732204911,26.44747992621548],[78.13102105034758,26.445848253038378],[78.12991997612878,26.443576931423678],[78.12934678819468,26.443635253906436],[78.12808051215316,26.442313368055608],[78.1290410698787,26.441896972656465],[78.1280417209206,26.4399256727432],[78.12634901258704,26.4403024631078],[78.12642252604198,26.441023491753654],[78.12723497178851,26.441376139323026],[78.12748725043426,26.44179280598989],[78.12585747612891,26.44162651909737],[78.12390163845512,26.4430683051218],[78.12259521484421,26.443634982639153],[78.12207709418433,26.443582085503678],[78.11970323350741,26.439358181423756],[78.11829806857688,26.437984754774547],[78.1183487955731,26.43748779296888],[78.1174872504345,26.437234971788456],[78.11711859809074,26.435979546441132],[78.11513888888933,26.435416666666782],[78.11229275173653,26.437351345486334],[78.11486355251762,26.440311686198186],[78.11537082248302,26.442039930555765],[78.11790039062524,26.44348849826403],[78.11832058376766,26.44445719401058],[78.12042995876757,26.445916883680795],[78.12331244574702,26.445764702691207],[78.12577365451418,26.44445719401058],[78.128048773872,26.44577501085095],[78.12838704427125,26.446555447048752],[78.12830349392388,26.447374945746716],[78.1250849066844,26.447046712239768],[78.1247349717884,26.447628309461976],[78.1256231011287,26.448365885416862],[78.12558105468779,26.449556749132057],[78.12670925564274,26.449133029514087],[78.12742485894117,26.449994574652962],[78.12834608289975,26.45026502821206],[78.12877468533023,26.450780707465498],[78.12798583984406,26.451122775607757],[78.12807888454884,26.45203450520846],[78.1291018337678,26.452884114583483],[78.12943359375024,26.452484809027936],[78.13231228298636,26.452523328993195],[78.1327650282121,26.45306830512169],[78.13393310546925,26.45357503255228],[78.13585910373317,26.45400200737862],[78.13667182074684,26.45531982421899],[78.13805555555578,26.455348578559224],[78.13832058376781,26.45415391710094]]]]},"properties":{"id":"4887"}}]}