{"type":"FeatureCollection","features":[{"type":"Feature","geometry":{"type":"MultiPolygon","coordinates":[[[[78.29416124131998,26.009666341145973],[78.29360541449674,26.00861572265643],[78.29360324435791,26.006330566406334],[78.29020751953155,26.00242865668416],[78.2885042317711,26.001328667534892],[78.28791666666703,26.000694444444576],[78.28418131510458,26.001084255642567],[78.2838907877609,26.00139784071203],[78.28284342447964,26.000843641493333],[78.28150580512178,26.00263888888888],[78.28194986979216,26.00305013020845],[78.28221679687553,26.00417209201396],[78.28587592230949,26.004490831163253],[78.28693901909767,26.005490180121598],[78.28470920138912,26.006196289062686],[78.28473361545193,26.006815049913342],[78.28378173828159,26.00819824218766],[78.2824945746531,26.00860568576404],[78.28194986979216,26.009051920572972],[78.28370795355923,26.009439019097314],[78.28505832248331,26.00798177083348],[78.2855501302088,26.006939019097416],[78.28711697048666,26.006672092013957],[78.28832872178847,26.007505696614672],[78.28887396918432,26.00748399522581],[78.29056179470516,26.008312988281347],[78.2907280815975,26.009716796875068],[78.2923792860245,26.008616536458433],[78.29293945312529,26.009803602430708],[78.29416124131998,26.009666341145973]]]]},"properties":{"id":"18858"}}]}