{"type":"FeatureCollection","features":[{"type":"Feature","geometry":{"type":"MultiPolygon","coordinates":[[[[105.06701663970657,15.647372775607309],[105.06496631622005,15.64608859591992],[105.06443261887958,15.644315863714894],[105.0637396706446,15.645128580728837],[105.06299597421955,15.646795247395474],[105.06043421427071,15.64437825520801],[105.05961232079088,15.642536349826017],[105.05753553178263,15.641159125433802],[105.05331553564818,15.639201931423301],[105.05188744862559,15.640214572482392],[105.05085113101225,15.639479709201055],[105.04973434024058,15.640102810329523],[105.0490381071269,15.638854980468494],[105.04936980776998,15.636555989583002],[105.05001645405778,15.636504177516983],[105.05153950161073,15.637584092881767],[105.05345204670894,15.637737630207994],[105.05567620171112,15.63689371744752],[105.05572832319146,15.636245117187087],[105.05437762366071,15.635938042534363],[105.05044765472101,15.632052408853767],[105.04876032934934,15.631239691839909],[105.04123967064439,15.628482530381646],[105.04111111110777,15.628055555555221],[105.04068411508862,15.628184136284403],[105.03831540637216,15.630212673610785],[105.03623967064422,15.630684136284387],[105.03348255157132,15.632685818141994],[105.03529606924806,15.63484646267328],[105.03754862679037,15.635358072916347],[105.03846189286654,15.636145019530886],[105.0373434575366,15.63819444444421],[105.0385477807753,15.639892849391998],[105.03839869181004,15.641748318142021],[105.04087144003663,15.642797309027387],[105.04059955172758,15.646181098089926],[105.04124227099643,15.646539442273948],[105.04202112621417,15.646477050781002],[105.04290803273207,15.646971842447655],[105.04426059298734,15.64540201822895],[105.04644369760817,15.645323079426703],[105.04717427147463,15.646353352864281],[105.04811180538289,15.648454318576],[105.04900079938787,15.64852593315942],[105.04975606282235,15.647649197048239],[105.05153810712702,15.647906358506773],[105.05291340297808,15.649502766926716],[105.05358198801352,15.648304307725411],[105.05209366268267,15.646504991319063],[105.05258775498825,15.645461154513526],[105.05353385077254,15.64493353949625],[105.05633615705395,15.646183810763574],[105.06059360503835,15.649835611978773],[105.0614396497904,15.652065158419745],[105.06206589168633,15.652115342881672],[105.06318411508883,15.651239691839947],[105.06675279828906,15.650482313367661],[105.06733995225372,15.64943006727411],[105.06740232255427,15.648653700086413],[105.06701663970657,15.647372775607309]]]]},"properties":{"id":"10288"}}]}