{"type":"FeatureCollection","features":[{"type":"Feature","geometry":{"type":"MultiPolygon","coordinates":[[[[71.84557128906258,33.565813598633],[71.84554985894098,33.56527323404961],[71.8471991644964,33.562095201280584],[71.8468055555555,33.560972222222574],[71.84594455295152,33.56113661024328],[71.84554375542527,33.56198601616772],[71.84407769097211,33.563385213216336],[71.84333007812504,33.56530517578145],[71.84244181315111,33.56526997884143],[71.84046752929672,33.56313917371992],[71.83944973415808,33.56354573567735],[71.84144165039064,33.56614332411041],[71.84415337456593,33.56678927951407],[71.84557128906258,33.565813598633]]]]},"properties":{"id":"16705"}}]}