{"type":"FeatureCollection","features":[{"type":"Feature","geometry":{"type":"MultiPolygon","coordinates":[[[[107.94546364400017,13.070916078000195],[107.94725000000008,13.070845273000018],[107.94863094500013,13.070900008000024],[107.94857311200016,13.069440908999994],[107.94909425000012,13.068878461000182],[107.94989971200013,13.068623451000036],[107.94981361,13.066451165000075],[107.95024046900019,13.06599046900024],[107.95098832900007,13.065297540000103],[107.94964868700023,13.063109634000085],[107.95014194500018,13.061551662000142],[107.95062976600005,13.060629766000062],[107.95128096600021,13.057629766000176],[107.9526957530002,13.057881998000184],[107.95362023500022,13.058879766000217],[107.95458356500015,13.059772341000183],[107.95508375200026,13.060832191000031],[107.95587976500039,13.06187023400021],[107.95635170700027,13.062870234000172],[107.95639484000017,13.06250057000014],[107.95635162000033,13.06141014300006],[107.95662023500009,13.061120234000242],[107.95758564400003,13.060664618000104],[107.95637023500021,13.05987976600018],[107.95563253800017,13.058737381000071],[107.95446161700019,13.057140987000153],[107.95313127700027,13.055908360000217],[107.95308261500023,13.05468065500024],[107.95337023500034,13.054370234000231],[107.9545816730002,13.05408167300024],[107.95501783800003,13.052250565000165],[107.95566999400026,13.051546711000114],[107.95684293000014,13.051957819000194],[107.95746969200033,13.050629766000185],[107.95818520400039,13.050890430000166],[107.95909304000017,13.051870234000049],[107.9593797650002,13.051129766000074],[107.95962023500019,13.050370234000113],[107.96013011200014,13.049128926999984],[107.96011183200025,13.048667767000197],[107.96060218400012,13.047628754000115],[107.9611950300002,13.047348965000154],[107.96232467700011,13.04612976500026],[107.96364880800016,13.046525265000213],[107.9653988270002,13.047351173000251],[107.9663492090003,13.048376892000206],[107.96851043300026,13.048672258000224],[107.96887976500014,13.04937023400015],[107.96912846000023,13.05067285700001],[107.97019667800012,13.05269159900007],[107.97010046400018,13.055119072000196],[107.97085918000008,13.055149145000016],[107.9708799550003,13.054625000000073],[107.97087004500017,13.054375000000263],[107.9708799550003,13.054125000000184],[107.97086916700019,13.053852859000315],[107.97161858000018,13.053158493000154],[107.97228372600014,13.051450390000127],[107.97274611700024,13.051021961000117],[107.97137976500025,13.04924016800031],[107.97244694900027,13.04843524900015],[107.97562976500015,13.048870234000262],[107.97802763400026,13.049415562000164],[107.97887023500024,13.049120234000071],[107.98037023500021,13.048762938000166],[107.98011769100017,13.04835051700006],[107.97796711300012,13.048435759000185],[107.97751764700033,13.047016102000057],[107.97550150300023,13.047544388000247],[107.97512976500022,13.046370235000168],[107.97466789200027,13.045942284000205],[107.97334738200007,13.04344675400013],[107.97341164000014,13.041825546000112],[107.9731297650001,13.04212976500014],[107.97284530300018,13.042393333000106],[107.97191232300028,13.044370235000073],[107.97092132600025,13.043930630000204],[107.97037023500022,13.043129765000103],[107.96987976500023,13.042370235000234],[107.96825056500015,13.041982162000096],[107.9674631730002,13.041252602000128],[107.9683852200001,13.039007854000204],[107.96833293200021,13.03768866700004],[107.96962976500024,13.037379765000054],[107.97037023500022,13.037120235000074],[107.9713702350002,13.036803635000268],[107.97112976500014,13.036620235000186],[107.96938464400026,13.035493320000029],[107.96935211200017,13.034672588000248],[107.97034839200026,13.033129765000226],[107.97137976500025,13.03337023500022],[107.97245990800016,13.034113503000256],[107.97360878800012,13.03415903900003],[107.97363013800029,13.033620354000135],[107.97241904400019,13.033236919000203],[107.9721122630003,13.030992165000185],[107.9709935760001,13.031584118000325],[107.96934411400028,13.030614410000112],[107.96961583600032,13.029917634000284],[107.97011797000019,13.02985047500023],[107.96964736900028,13.028888065000174],[107.96926639800009,13.029542430000049],[107.96900000000025,13.030000000000172],[107.96861117200032,13.02988882800011],[107.96812500000013,13.029603043000279],[107.96762915400015,13.029894516000056],[107.96713882800029,13.02973941800019],[107.96789195600016,13.029136322000198],[107.96784741200028,13.02877820200024],[107.9673611720003,13.02838882800026],[107.96713882800029,13.02811117200011],[107.96600581400006,13.027787224000221],[107.96563882800015,13.025507793000088],[107.9666388280003,13.024138828000247],[107.96692625000017,13.022164043000188],[107.9679279290003,13.02187764700011],[107.96693004600033,13.021457161000143],[107.96663294600015,13.020083981000212],[107.96628414500017,13.020519554000103],[107.96645274000005,13.021875000000165],[107.96630622100011,13.023052948000199],[107.96532798800021,13.025597900000179],[107.96405093000013,13.025874207000214],[107.9637500000002,13.026250000000218],[107.96476593800023,13.026443962000016],[107.96537023500022,13.027379765000177],[107.96587023500021,13.027843040000135],[107.96530122800019,13.029113060000057],[107.9648750000002,13.029129955000116],[107.96413092800034,13.029100464000251],[107.96410065800026,13.029864143000111],[107.9654912070001,13.03015507500021],[107.96700000000013,13.030095272000139],[107.96737023500012,13.030879765000222],[107.9683702350001,13.032183819000196],[107.96787976500022,13.032629765000152],[107.96612905500004,13.032908653000135],[107.96537530900028,13.034333099000222],[107.96506378200016,13.03661256400008],[107.96434400600023,13.036641090000131],[107.96362976500009,13.035870235000033],[107.96324046700013,13.035509533000038],[107.96244503000023,13.034651035000053],[107.96161472700018,13.034259182000056],[107.96164791100014,13.033422001000147],[107.96130757900008,13.032451004000194],[107.96141839200007,13.029655247000235],[107.96069978000023,13.029274994000133],[107.96012023500018,13.030370235000063],[107.9598339460002,13.031869762000056],[107.95882204800003,13.032961876000272],[107.95740613600023,13.033458149000126],[107.95662662900028,13.03261685200006],[107.95607683600034,13.032907772000243],[107.95452106900015,13.032846107000196],[107.95287976600005,13.033237064000218],[107.95337023500034,13.034129765000088],[107.95362976500022,13.034370235000182],[107.95388563500003,13.034912395000191],[107.95487023500019,13.035824677000264],[107.95446857100026,13.03675185800006],[107.95335339700014,13.036360992000056],[107.95275000000024,13.03638491100017],[107.95213984100039,13.036360725000208],[107.9518702340001,13.03687023500018],[107.95147448000014,13.037708801000193],[107.95085024600027,13.038675480000236],[107.95037023400025,13.039120235000183],[107.94952125500006,13.04003651400005],[107.94807310900026,13.04038145800017],[107.94724527200034,13.04127492100011],[107.94474910500023,13.04259576800007],[107.9441297660002,13.041425323000212],[107.94507824100018,13.039753620000184],[107.94662023400011,13.039120235000183],[107.9477785190002,13.038753521000032],[107.94859381500018,13.037568703000062],[107.94659985400014,13.035883694000177],[107.94606489000026,13.037017235000079],[107.94492532200033,13.037620235000333],[107.94485611500002,13.037004063000055],[107.94563012300009,13.035879246000249],[107.94562004500025,13.03562500000018],[107.94562995500027,13.035375000000272],[107.94560678100012,13.034790359000041],[107.94663013500022,13.034129528000165],[107.94662004500012,13.033875000000066],[107.94662995500025,13.033625000000157],[107.94661132200028,13.033154911000082],[107.94766642200025,13.031716423000162],[107.94887023400011,13.031148293000143],[107.94837976600004,13.030870235000222],[107.9466563610001,13.030541203000183],[107.94660890800006,13.029344006000244],[107.94737976600007,13.028629765000218],[107.94774046900025,13.02824046700006],[107.94879398300012,13.02726433200003],[107.9491297660002,13.026629765000195],[107.94966017200014,13.025505882000019],[107.95086599300006,13.024727222000081],[107.95087995500032,13.024375000000063],[107.95085162000012,13.023660141000164],[107.95114714100006,13.023341194000153],[107.95261907200026,13.023399536000184],[107.95262995500016,13.023125000000206],[107.95261035500008,13.022630535000062],[107.95379092400023,13.022583740000272],[107.95570566200021,13.023370235000158],[107.9566297650002,13.02287976500017],[107.95711070300021,13.022360703000118],[107.95862023500021,13.020962048000214],[107.95801481200013,13.020848717000064],[107.95616700000036,13.022120235000116],[107.9554987070002,13.021578716000164],[107.95487976500019,13.020620235000166],[107.95438127500015,13.020158360000053],[107.95435961200022,13.019611717000217],[107.95614320000024,13.017959133000076],[107.95610368300018,13.016962154000197],[107.95654930500027,13.015554626000167],[107.95742316400018,13.015092224000199],[107.95862023500021,13.015139671000213],[107.95785887900027,13.014286591000143],[107.95687403100013,13.014631775000112],[107.95592532300017,13.014129768000046],[107.95559789700027,13.014387840000182],[107.95489829300007,13.015870232000168],[107.95337023500034,13.015629768000267],[107.95214205700015,13.015199295000258],[107.95125714900027,13.016569649000047],[107.95062023400024,13.016870235000226],[107.94884520700029,13.018370235000162],[107.94837023400007,13.01762976500001],[107.94812406200012,13.016596287000112],[107.94717532200033,13.01762023500011],[107.9463194560004,13.017364597000181],[107.94542186200019,13.016395847000055],[107.94437023400022,13.01737023500003],[107.94404802300014,13.019057919000048],[107.94244368400015,13.019620235000033],[107.94193721600007,13.019243702000225],[107.94098839600028,13.01762976500001],[107.94001238100034,13.017900108000077],[107.93920964100008,13.01914321900017],[107.9378617150002,13.019089790000194],[107.93679500200014,13.020241066000153],[107.93505837000018,13.019786018000246],[107.93383655500023,13.02195652800016],[107.93287976600018,13.02284303999997],[107.9331202340002,13.024129765000211],[107.93412023400018,13.025433819000185],[107.93360848100028,13.025899117000137],[107.93188171100022,13.025830677000258],[107.93179658900019,13.027978287000039],[107.93252299300016,13.035767872000179],[107.93315191900015,13.041677486000111],[107.93387023400024,13.042343040000205],[107.93362739600016,13.043894913000003],[107.93257273800012,13.044392651000152],[107.9312923050002,13.045965992000205],[107.9329496670002,13.047106453000154],[107.93579940900028,13.047495918000138],[107.93637153900019,13.04857714300016],[107.93662023400023,13.049879766000032],[107.93688010500009,13.050621202000087],[107.93686013600009,13.051125000000027],[107.93739781600007,13.05137875400007],[107.93795039000017,13.052549610000128],[107.93872765900025,13.0529164350002],[107.94030351600017,13.054617212000139],[107.94075000000018,13.0546349090001],[107.94185285900019,13.054591196000118],[107.94212023400021,13.054879766000198],[107.94258777200017,13.055312963000063],[107.94287028500017,13.057380142000127],[107.94411828800034,13.057330675000216],[107.94414977300008,13.058125000000118],[107.94410103000016,13.059354723000268],[107.94511204500012,13.060673138000098],[107.94518328100017,13.062470419000036],[107.94437976600031,13.064379766000187],[107.94362976600021,13.06579713400005],[107.94399781600012,13.066688885000204],[107.9463063160002,13.065879766000222],[107.94736806300025,13.066324996000205],[107.94740777200016,13.067326838000227],[107.94711685000036,13.067876630000157],[107.94787023400025,13.068574678000175],[107.94756233800021,13.069925617000223],[107.94546364400017,13.070916078000195]],[[107.95889288700019,13.039635306999983],[107.96000000000006,13.039500000000075],[107.96010890600027,13.039641094000203],[107.96109905200032,13.040046337000064],[107.96048015600016,13.041072350000235],[107.95956103100016,13.041781796000222],[107.95828625500039,13.04159341400009],[107.95889288700019,13.039635306999983]]]]},"properties":{"id":"7095"}}]}