{"type":"FeatureCollection","features":[{"type":"Feature","geometry":{"type":"MultiPolygon","coordinates":[[[[76.12970682779977,27.09890435112861],[76.12958333333339,27.098472222222355],[76.12839158799935,27.09862114800366],[76.12942145453584,27.1022740342884],[76.1281323920359,27.104466959635573],[76.12757310655402,27.106928982205034],[76.12903021918416,27.106658528646207],[76.13102674696191,27.105817328559283],[76.13119425455747,27.10447048611131],[76.13084872775633,27.10248453776066],[76.12988735622864,27.10035563151061],[76.12970682779977,27.09890435112861]]]]},"properties":{"id":"18661"}}]}