{"type":"FeatureCollection","features":[{"type":"Feature","geometry":{"type":"MultiPolygon","coordinates":[[[[84.28855061848995,23.92503234863311],[84.29132134331607,23.92389417860261],[84.29219401041664,23.924265272352656],[84.29423204210084,23.925828043619987],[84.29499457465303,23.924989217122558],[84.29442816840279,23.923822767469872],[84.29194986979175,23.921526421441172],[84.29388481987863,23.91949930826847],[84.29424479166701,23.91761379665833],[84.29573377821183,23.91682590060789],[84.29667154947916,23.917838134765802],[84.30025309244812,23.917696194119102],[84.30186821831617,23.919439154731123],[84.30250840928832,23.9189630805124],[84.3024734157988,23.918081122504617],[84.30332790798613,23.916839260525506],[84.30167209201389,23.9156660970054],[84.30244032118057,23.914534369574866],[84.30397026909745,23.91501885308179],[84.30601725260433,23.916101888021032],[84.30694552951397,23.916138644748557],[84.307444118924,23.913527628580923],[84.30833902994792,23.912226969401274],[84.30831841362854,23.91170579698378],[84.30999376085074,23.91168294270861],[84.31003309461826,23.910694444444644],[84.30861653645852,23.91002590603327],[84.30888346354172,23.909716932508815],[84.31081976996538,23.908871799045514],[84.31221733940995,23.908927205403856],[84.31277506510438,23.908325263129612],[84.31436821831599,23.90888359917571],[84.31447808159717,23.908149549696475],[84.31282172309031,23.90707994249162],[84.31263888888904,23.905694444444833],[84.31071940104195,23.90643493652378],[84.3056079101564,23.91192749023466],[84.30345106336827,23.91327914767814],[84.30141791449651,23.913359714084393],[84.29985812717021,23.912404649522827],[84.29890082465275,23.913291761610523],[84.29861653645847,23.913894178602632],[84.29416124131947,23.914716932509066],[84.29333794487852,23.91528347439261],[84.29094835069466,23.915823296441175],[84.28720730251737,23.9157171630861],[84.28424045138902,23.91700202094212],[84.2827487521703,23.919522230360514],[84.28139431423617,23.920777452257155],[84.28193901909745,23.922227511935986],[84.28275336371544,23.9234107123483],[84.28279378255232,23.92443400065119],[84.28196885850699,23.925632934570444],[84.28188774956627,23.9276789008249],[84.28328721788208,23.92812194824259],[84.28427842881948,23.931252170139118],[84.28572726779547,23.932363281250232],[84.28692518446215,23.9306223551435],[84.28696994357662,23.929496663411754],[84.28639431423633,23.927854071723317],[84.28684054904514,23.9267899576826],[84.28855061848995,23.92503234863311]],[[84.28337999131972,23.92027065700988],[84.28486111111116,23.920138888889113],[84.28562879774327,23.92130052354638],[84.28524603949668,23.922212049696398],[84.28362087673631,23.92247456868526],[84.28280327691007,23.92115634494381],[84.28337999131972,23.92027065700988]]]]},"properties":{"id":"9610"}}]}