{"type":"FeatureCollection","features":[{"type":"Feature","geometry":{"type":"MultiPolygon","coordinates":[[[[86.64319965701961,24.884299370904714],[86.64347974056992,24.883821796238323],[86.64456847212372,24.883864953180066],[86.6454816936949,24.88338174971598],[86.64622347429386,24.884953583008752],[86.6470775595802,24.884987432089005],[86.64818907759249,24.884399282064678],[86.65040601010097,24.883976020210312],[86.65043924035288,24.883138363553385],[86.65011643219313,24.881782993137932],[86.64653828006644,24.8792551034623],[86.64303920237526,24.877885584758346],[86.64181076813074,24.876283674697035],[86.6428235448233,24.875879079428103],[86.6462552125752,24.87773261539806],[86.64867247603004,24.879396009902322],[86.65156350793083,24.87896923852631],[86.65374571821727,24.879688029216297],[86.65482481977975,24.879645253744428],[86.65596685537022,24.880520989557084],[86.65771625858187,24.881202192763382],[86.65913295237524,24.88217705984235],[86.6594811240333,24.881110122925847],[86.658493303938,24.87924324399245],[86.65845654721048,24.87831642514473],[86.66041129981468,24.87666457645757],[86.66240633562185,24.878288170953482],[86.66318907759248,24.877408773031533],[86.66263677724501,24.87635567075006],[86.66079582129888,24.875599462118345],[86.6569595582782,24.874593280613297],[86.65569965701943,24.872950341363676],[86.65608038076076,24.872640104750744],[86.65680086687186,24.873021379504024],[86.65812153201952,24.8729690333805],[86.65924959734056,24.87356594873134],[86.65969027116867,24.872857542494913],[86.6581996570196,24.871026013089434],[86.6584909981652,24.8707666899694],[86.66369946713215,24.870830005466857],[86.66444056956269,24.870143393867636],[86.66319965701959,24.86834013560751],[86.6642947633562,24.865092861844374],[86.6643911989033,24.862658305095195],[86.66378613705407,24.861376304023764],[86.66286342112525,24.86088802277375],[86.66130336253181,24.86143478757137],[86.66052862294819,24.85941452389946],[86.65984570736671,24.859387456503143],[86.65931076813061,24.860520989557045],[86.65816629113388,24.861927324328178],[86.65738368479717,24.86439928206481],[86.65438889313057,24.8627180941172],[86.65349981435449,24.862753333442697],[86.65278421105589,24.862090339057886],[86.65430018870339,24.86137490530139],[86.65369865333034,24.860054002794897],[86.65236523861685,24.860521362549704],[86.6515453330176,24.86048886132906],[86.65155496300892,24.86217577132244],[86.65018533410264,24.861627150038927],[86.64791482629019,24.86131684560904],[86.64478982629018,24.858029381890987],[86.64295850033531,24.858052566773267],[86.64114982520547,24.85596727522868],[86.64154356977988,24.855223112563323],[86.64150111643792,24.85414933462272],[86.64248337555259,24.852868410143515],[86.64191601986678,24.851076536635546],[86.64117993588232,24.85136945452291],[86.63873079851263,24.85383620731703],[86.63985574425888,24.855303263591352],[86.63886141374692,24.85590213715365],[86.63277837880767,24.8545236496726],[86.63139247385962,24.853239537801983],[86.63048006609054,24.84964688982572],[86.63172599708034,24.84830211579137],[86.63368102095163,24.848329276435862],[86.63512484148114,24.847396930515742],[86.63515508779196,24.84663295685577],[86.6345980402659,24.846610882474238],[86.63352802616012,24.847177068319567],[86.63158860016196,24.846356942315836],[86.62867613813918,24.846412501262165],[86.62694436730587,24.844543469144284],[86.62602314334751,24.84483514937422],[86.62561949751412,24.845986798001604],[86.62570006392039,24.84802040463687],[86.62486632368629,24.84923202030521],[86.6254117067156,24.849688054647586],[86.62679801856464,24.849633106052835],[86.6268644790679,24.851309707886557],[86.62575526682858,24.851896611776667],[86.62441276465844,24.85221643599543],[86.62352924686323,24.85408851987117],[86.62208854590827,24.854803156779923],[86.62235574425901,24.855798767334818],[86.62602382151587,24.856499077935965],[86.62727951813045,24.857163530382806],[86.62925163184602,24.857787886122807],[86.63124463314804,24.85940987844593],[86.63318541548315,24.85987216041481],[86.63321010081293,24.86049593123461],[86.632366323686,24.861076545112823],[86.63097743479713,24.861516269505017],[86.63202208540511,24.862721459527734],[86.634019291351,24.8634991915292],[86.63405428484052,24.86438238719424],[86.63297748905083,24.86495221819476],[86.631137211273,24.86502515520648],[86.62956372494475,24.864473651707073],[86.62874463314793,24.865232615398085],[86.62798739030947,24.86717705984239],[86.62508035363393,24.86551663232504],[86.62303106435459,24.86479839264682],[86.62069965701929,24.865898678494844],[86.62165099165483,24.866746745036735],[86.62371045346063,24.866207109484307],[86.62509120432858,24.866858753025568],[86.62684087880766,24.868200475302146],[86.62885436079537,24.868584878106844],[86.6303810535039,24.870232615398166],[86.63095817481448,24.869748665948663],[86.63132845476255,24.868578944133347],[86.63262294260963,24.869976021905842],[86.63469908735792,24.871316709975375],[86.63413851335613,24.87291629730997],[86.63624463314775,24.873417980862982],[86.63586282433712,24.875232615397977],[86.63408860016185,24.87441249787146],[86.63313712989262,24.87437479170829],[86.63181293826929,24.876299179322174],[86.63178567589964,24.876985909601032],[86.63313699425916,24.87907833886814],[86.6340270224708,24.879690818183846],[86.6350829306738,24.87913210066813],[86.63514505089958,24.87968579973783],[86.63458854590843,24.88073755415934],[86.63555656348635,24.882326460341616],[86.63818907759222,24.884687656223804],[86.64164366743594,24.885437540935285],[86.64369648319129,24.88615700979355],[86.6440361099275,24.885514996243856],[86.64319965701961,24.884299370904714]]]]},"properties":{"id":"4950"}}]}