{"type":"FeatureCollection","features":[{"type":"Feature","geometry":{"type":"MultiPolygon","coordinates":[[[[76.85891587999109,24.907087343004605],[76.85819444444459,24.90625000000051],[76.85757622612832,24.906436123318684],[76.8572105577255,24.907772140503482],[76.85719523111962,24.910196465386818],[76.85783637152767,24.916389880710696],[76.85854451497389,24.917211888631726],[76.8598209635417,24.916338763767484],[76.86087700737843,24.914849294027235],[76.86086832682295,24.913036617703526],[76.86056586371504,24.91137855529837],[76.85955702039931,24.910509363810704],[76.86137858072917,24.907664294773184],[76.85891587999109,24.907087343004605]]]]},"properties":{"id":"19188"}}]}