{"type":"FeatureCollection","features":[{"type":"Feature","geometry":{"type":"MultiPolygon","coordinates":[[[[77.77368381076414,25.985853949652935],[77.7748223198789,25.985785861545338],[77.77611897786474,25.98638102213566],[77.77797471788242,25.98832546658005],[77.7782893880213,25.986411132812634],[77.77695231119836,25.986413302951462],[77.77723632812538,25.985776367187597],[77.77823242187523,25.98488633897584],[77.77837402343792,25.9825105794272],[77.77799235026063,25.98248806423625],[77.77706163194469,25.98352973090286],[77.77443820529535,25.98361979166677],[77.77195231119819,25.982432996961947],[77.77304768880245,25.98074354383691],[77.7719561089414,25.979499240451418],[77.77196804470512,25.97752115885433],[77.77159830729201,25.97684082031273],[77.77171793619814,25.974835340711863],[77.76795572916686,25.965868869357664],[77.76580349392404,25.965909559461835],[77.76277208116366,25.965286458333452],[77.75125000000017,25.962361111111207],[77.74806559244823,25.96250379774314],[77.7475198025177,25.96350802951413],[77.75398518880237,25.96513047960086],[77.7552699110245,25.966278483072955],[77.7532207573789,25.967367078993206],[77.75223008897612,25.96825249565987],[77.7525802951391,25.96948486328141],[77.75304768880252,25.97000786675359],[77.75361897786499,25.970269911024587],[77.75424289279536,25.971251085069525],[77.75563639322942,25.971681315104234],[77.75675699869836,25.973285590277925],[77.75638400607662,25.974493001302235],[77.7533642578127,25.97823215060788],[77.7533091905386,25.97915690104172],[77.75365749783023,25.979177788628576],[77.75519694010453,25.97834120008693],[77.75556342230945,25.978603244357743],[77.75621419270888,25.9802964952258],[77.75801323784745,25.98034966362863],[77.76000786675391,25.978063422309177],[77.7605164930558,25.97695502387178],[77.76110134548648,25.976920301649443],[77.76108615451406,25.978057996961894],[77.76240939670171,25.978466796875097],[77.76312310112891,25.979780002170358],[77.76274468315998,25.98298339843754],[77.76468288845533,25.985648057725783],[77.76554768880229,25.988896755642514],[77.76608208550388,25.98937418619805],[77.76616265190992,25.990725911458398],[77.76284803602479,25.994615071614717],[77.7619967990453,25.996181369357686],[77.76304768880223,25.99933403862876],[77.76270128038252,26.000591362847544],[77.76184271918439,26.0015524631078],[77.76000786675391,26.002884114583566],[77.76111138237869,26.00381835937513],[77.76246799045182,26.002870551215537],[77.76446560329899,26.002526041666826],[77.76584174262175,26.00079996744806],[77.76776991102483,26.000204535590555],[77.76743462456639,25.999222005208523],[77.76614881727474,25.99882486979179],[77.76601481119818,25.996579318576508],[77.76693657769115,25.995547688802375],[77.77026204427105,25.993179524739745],[77.77025417751761,25.99196560329868],[77.77110324435799,25.990403103298817],[77.77056342230944,25.988881022135487],[77.76978135850717,25.98776150173626],[77.77044840494838,25.987014702691155],[77.77368381076414,25.985853949652935]]]]},"properties":{"id":"9455"}}]}