{"type":"FeatureCollection","features":[{"type":"Feature","geometry":{"type":"MultiPolygon","coordinates":[[[[78.3316587999137,25.46054768880211],[78.332769911025,25.459554850260503],[78.33144097222251,25.458063422309138],[78.33029351128525,25.458552246093788],[78.32976860894135,25.45969563802089],[78.32894015842035,25.46054768880211],[78.32783013237898,25.460074327256947],[78.32723171658037,25.458972710503573],[78.32779730902806,25.456541341145993],[78.32860324435794,25.45610324435772],[78.3302856445317,25.45584120008708],[78.33063286675386,25.45545247395846],[78.33361382378504,25.455630154079927],[78.33524549696224,25.45512641059034],[78.3353634982644,25.453145616319688],[78.33360161675373,25.450119357638968],[78.33221435546923,25.450547688802217],[78.32983262803847,25.45304768880213],[78.32737413194482,25.45268663194456],[78.32646972656269,25.451674533420373],[78.32559163411517,25.452031792534754],[78.32561306423665,25.454436577691],[78.32256673177127,25.45375786675359],[78.32246148003523,25.451993001302213],[78.32304768880269,25.450914171006985],[78.32167453342069,25.450269911024378],[78.31943657769139,25.45000786675365],[78.31843587239624,25.448434244791756],[78.31526991102479,25.44806342230916],[78.31513888888915,25.447361111111164],[78.31445231119815,25.4475732421877],[78.31471435546919,25.448618977864598],[78.31636637369812,25.44892713758695],[78.31636393229198,25.45000000000026],[78.31741075303867,25.45048041449654],[78.31653130425369,25.450884060329912],[78.31721435546925,25.45223008897571],[78.3177699110245,25.452726508246556],[78.31750786675369,25.45334120008691],[78.3164670138892,25.454003092448104],[78.3182001410593,25.45603624131958],[78.32084716796922,25.45840142144121],[78.32345648871555,25.461821289062556],[78.3266558159726,25.464396158854342],[78.32705023871554,25.46525526258685],[78.32889675564283,25.465825466579943],[78.32945231119814,25.46638102213555],[78.33026991102483,25.468618977864722],[78.33433729383725,25.472707519531454],[78.3350211588544,25.473079155816137],[78.33716335720513,25.47309353298617],[78.33804768880256,25.472303059895893],[78.33778130425375,25.470236545138988],[78.3363967556426,25.468603244357695],[78.33456868489603,25.46826199001744],[78.33389675564271,25.46638102213555],[78.3327861870662,25.46494818793404],[78.3338717990454,25.463978135850752],[78.33171034071202,25.46314724392367],[78.33111897786497,25.46149929470498],[78.3316587999137,25.46054768880211]]]]},"properties":{"id":"9475"}}]}