{"type":"FeatureCollection","features":[{"type":"Feature","geometry":{"type":"MultiPolygon","coordinates":[[[[83.61627414279522,24.408842298719847],[83.61906656901064,24.406796264648705],[83.62185194227467,24.40840108235703],[83.62266167534736,24.40794928656709],[83.62332302517362,24.406322292751952],[83.62182942708338,24.405035603841426],[83.62082302517356,24.40473253038229],[83.61983859592013,24.404034559462033],[83.61726725260436,24.404241197374503],[83.6167895507813,24.403686862522164],[83.6178626844617,24.40276231553848],[83.61588840060787,24.401234944661866],[83.61541666666679,24.400416666667],[83.61329969618052,24.401385633680817],[83.61337185329856,24.4022842068145],[83.61490342881947,24.402967597114042],[83.61535617404505,24.40447163899762],[83.61609483506939,24.404412299262532],[83.61721191406272,24.405327216254577],[83.61603841145828,24.40585089789529],[83.6153228081599,24.406681450738063],[83.61444986979163,24.40661132812518],[83.6141769748265,24.407384982639243],[83.6150453016493,24.408941040039323],[83.61627414279522,24.408842298719847]]]]},"properties":{"id":"19322"}}]}