{"type":"FeatureCollection","features":[{"type":"Feature","geometry":{"type":"MultiPolygon","coordinates":[[[[79.63200900607646,24.852628055149125],[79.63290852864586,24.852138977051283],[79.63527018229163,24.852141282823823],[79.63410915798633,24.851104092068596],[79.6341872829864,24.84979137844563],[79.63608289930576,24.849206119114058],[79.63646484375002,24.845943823920877],[79.63799967447918,24.845007815891293],[79.64054850260439,24.84723090277832],[79.64088487413224,24.84721086290216],[79.64176703559045,24.849132063124443],[79.64071614583352,24.849614342584104],[79.64133626302086,24.850269961887577],[79.6428005642363,24.84913501315694],[79.64275227864604,24.848323533800425],[79.64328667534724,24.848355390761228],[79.64360351562507,24.84665885077628],[79.64425401475697,24.845461307102283],[79.64317545572945,24.84205695258302],[79.64128146701418,24.841318579780378],[79.64051540798616,24.84053448147303],[79.64058159722245,24.839423370362],[79.63908040364615,24.83808203803227],[79.63749240451412,24.837785593669167],[79.63528537326411,24.836658850776402],[79.63214301215297,24.835794270833915],[79.63180555555553,24.835416666667314],[79.6305327690973,24.835586920844648],[79.63056586371525,24.83614622328075],[79.62972981770847,24.837230038113645],[79.62844563802113,24.837492184109664],[79.62784722222247,24.836188100179584],[79.62695203993061,24.83667448255804],[79.62560004340278,24.836989067925842],[79.62480414496551,24.83968288845533],[79.62383463541667,24.840299394396112],[79.62332682291688,24.840269097222816],[79.62222981770864,24.841118927002512],[79.62014485677085,24.84144388834693],[79.62058051215305,24.842245585124246],[79.62211859809034,24.842153896756145],[79.62289713541682,24.842576938205838],[79.62602810329886,24.841445244683655],[79.62898654513899,24.84197101169225],[79.62971462673633,24.842785593669234],[79.63056315104197,24.843047739665266],[79.63240668402798,24.84558795505157],[79.63165907118079,24.84665885077628],[79.63137858072938,24.847863193088656],[79.63059950086804,24.849296739366864],[79.63210937500017,24.849762946235444],[79.63137749565996,24.85111007690486],[79.63200900607646,24.852628055149125]]]]},"properties":{"id":"9530"}}]}