{"type":"FeatureCollection","features":[{"type":"Feature","geometry":{"type":"MultiPolygon","coordinates":[[[[80.69671875000009,23.29562988281245],[80.69732421875008,23.295438476562666],[80.6978125000002,23.295688476562475],[80.69806250000019,23.29581152343765],[80.69832421875006,23.295946289062528],[80.69889843750022,23.29593457031247],[80.69906250000005,23.294936523437727],[80.69919140625026,23.29468359374995],[80.69918359375018,23.29437109375013],[80.69843750000004,23.294188476562525],[80.69808593750005,23.29400781249997],[80.69791015625023,23.29258300781258],[80.69643750000003,23.292438476562594],[80.69593750000021,23.292082031250132],[80.6966875000002,23.291188476562738],[80.69681250000005,23.290436523437634],[80.69693750000019,23.29018847656259],[80.69706250000021,23.289936523437646],[80.69743750000006,23.289438476562623],[80.69756250000003,23.28904882812502],[80.69731250000004,23.288563476562516],[80.69718750000007,23.288311523437486],[80.6970000000002,23.28800000000014],[80.69606250000007,23.28806152343759],[80.69581250000019,23.28818847656258],[80.69517578125001,23.288311523437486],[80.69450000000003,23.28796386718757],[80.69406250000006,23.28818847656258],[80.69356250000018,23.288311523437486],[80.69242578124991,23.289325195312458],[80.69218750000019,23.289813476562657],[80.69156250000006,23.29056152343749],[80.69143750000003,23.29231347656274],[80.69125390625007,23.292670898437592],[80.69131640625008,23.295611328124963],[80.69194921875018,23.29581152343765],[80.69243750000018,23.295561523437755],[80.69282421875019,23.295438476562666],[80.69331250000019,23.295688476562475],[80.69356250000018,23.29581152343765],[80.69381250000006,23.29593847656264],[80.69431250000022,23.29606152343773],[80.69506250000003,23.296688476562707],[80.69531250000003,23.296811523437526],[80.6963242187501,23.29770019531246],[80.69656250000006,23.298191406249984],[80.69687890625025,23.298184570312472],[80.69706250000021,23.29743652343754],[80.69730859375014,23.296955078125123],[80.69651953125017,23.29601562500015],[80.69671875000009,23.29562988281245]]]]},"properties":{"id":"19804"}}]}