{"type":"FeatureCollection","features":[{"type":"Feature","geometry":{"type":"MultiPolygon","coordinates":[[[[103.03493028428525,15.870404459635594],[103.03600640190658,15.86983506944469],[103.03681070963236,15.869866807725927],[103.03791124131672,15.868138563368348],[103.03695231119482,15.866325954861324],[103.03814860025759,15.865553385416916],[103.04051513671564,15.864800889757348],[103.04180013020525,15.862077907986446],[103.04280219183741,15.860771484375192],[103.0437554253443,15.856810980902992],[103.04413845485797,15.854007161458469],[103.04678439669837,15.850756022135641],[103.04765597872992,15.84904134114609],[103.0476318359346,15.848435058593921],[103.04654079860805,15.847424045139107],[103.04569986978876,15.84485568576406],[103.04318901909429,15.83958875868079],[103.04292209201103,15.83826850043424],[103.04397379557,15.834675292968981],[103.04261528862557,15.831153157552322],[103.0426264105873,15.8288490125871],[103.04148003471911,15.82557888454879],[103.04036621093442,15.824546712239737],[103.0358292643198,15.824462076823195],[103.0355555555524,15.82416666666687],[103.03402398003166,15.82448703342044],[103.0232636176186,15.82428087022592],[103.02171874999712,15.824685601128664],[103.01910508897262,15.82695231119817],[103.01735568576098,15.827633463541943],[103.01542209201082,15.829381781684205],[103.01629855685454,15.831883138020928],[103.01894476996219,15.833131781684159],[103.0221538628443,15.83377115885439],[103.02294325086498,15.834622938368241],[103.02355902777484,15.837848849826557],[103.02417724609066,15.839017198350888],[103.02457790798323,15.84153320312518],[103.02549452039639,15.844147677951597],[103.02537434895541,15.847180989583606],[103.02571587456313,15.851446126302335],[103.0266745334171,15.852839355468959],[103.02740532768789,15.854715983073106],[103.02738579643804,15.856736382378841],[103.02704020181986,15.858055555555751],[103.02746554904203,15.859678819444653],[103.0270016818545,15.860555555555749],[103.02761773003189,15.861719563802339],[103.03035400390328,15.863646375868242],[103.03124457464972,15.865770670573184],[103.0297260199624,15.86717773437519],[103.03045871310465,15.868242730035021],[103.03292209201075,15.869022352430903],[103.03493028428525,15.870404459635594]],[[103.03714952256652,15.852224121093954],[103.03805555555275,15.85194444444464],[103.03873643662897,15.853841688368206],[103.03816975911164,15.854884440104371],[103.03758409287903,15.854849446614836],[103.03702989366028,15.854229329427284],[103.03714952256652,15.852224121093954]]]]},"properties":{"id":"10275"}}]}