{"type":"FeatureCollection","features":[{"type":"Feature","geometry":{"type":"MultiPolygon","coordinates":[[[[75.93966406249993,23.422420898437466],[75.93980859375009,23.42125488281262],[75.93955859374992,23.420818359375133],[75.93944140625015,23.420056640625106],[75.93930859375016,23.419818359374986],[75.93919140625016,23.41855664062507],[75.93905859375005,23.41831835937505],[75.93894140625017,23.417556640625108],[75.93880859375017,23.417318359375088],[75.93869140625,23.41680664062514],[75.93855859375006,23.41656835937512],[75.93844140625018,23.416056640624987],[75.93825000000024,23.415750000000088],[75.93780859375002,23.415806640625178],[75.93737500000012,23.41605371093756],[75.9367500000001,23.415696289062524],[75.93631640624997,23.415943359375007],[75.93530859375008,23.416056640624987],[75.93506640625017,23.416193359375086],[75.93480859375015,23.416306640625066],[75.93456640625013,23.41644335937498],[75.9333085937499,23.41655664062496],[75.93306640624999,23.41669335937516],[75.93205859375016,23.41680664062514],[75.93181640624996,23.41694335937514],[75.93130859375006,23.41705664062512],[75.93106640625015,23.417193359375048],[75.92955859375004,23.41730664062503],[75.92931640625002,23.417443359375213],[75.92805859375014,23.417556640625108],[75.9270117187501,23.418495117187618],[75.92707031250004,23.41909179687505],[75.92765625000007,23.41934472656264],[75.92780859375003,23.41969335937513],[75.92806640625011,23.41980664062511],[75.92830859375002,23.419943359375125],[75.92856640624998,23.420056640625106],[75.92885156250017,23.420218750000004],[75.92905859375006,23.420693359375093],[75.92919140625011,23.420931640625113],[75.92940625000026,23.421420898437503],[75.93031640625011,23.421556640625127],[75.93055859375002,23.421693359375055],[75.93124609375005,23.421806640625036],[75.93168359375002,23.421556640625127],[75.93219140625015,23.421443359375147],[75.93243359375006,23.421306640625147],[75.93287109375004,23.421193359375167],[75.9333085937499,23.421443359375147],[75.93456640625013,23.421556640625127],[75.93480859375015,23.421693359375055],[75.93531640625,23.421806640625036],[75.93555859375002,23.421943359375135],[75.93599609375016,23.422056640625115],[75.93643359375008,23.421806640625036],[75.93712109375016,23.421693359375055],[75.93755859375008,23.421943359375135],[75.93806640625016,23.422056640625115],[75.93830859375018,23.42219335937513],[75.93856640624998,23.422306640625195],[75.93890234375019,23.422498046874978],[75.93966406249993,23.422420898437466]]]]},"properties":{"id":"19724"}}]}