{"type":"FeatureCollection","features":[{"type":"Feature","geometry":{"type":"MultiPolygon","coordinates":[[[[78.29306586371573,30.09139919704856],[78.29332383897614,30.090264214409743],[78.29554009331648,30.090608181423647],[78.29561035156317,30.0897341579861],[78.29474962022638,30.08819118923627],[78.29422363281313,30.08644422743056],[78.29340874566017,30.08529513888901],[78.29306586371573,30.083045247395887],[78.29249918619846,30.081501736111235],[78.29223253038245,30.078600802951414],[78.29137858072968,30.076399197048673],[78.29112141927132,30.074989691840486],[78.29069444444517,30.07430555555561],[78.28908881293447,30.07443956163199],[78.28723253038245,30.075602213541757],[78.28750678168458,30.07645236545133],[78.28829535590344,30.077132161458465],[78.28887858072969,30.079454752604192],[78.28958496093813,30.080450846354154],[78.28998969184099,30.082232530381944],[78.291100802952,30.08487087673622],[78.29083984375049,30.089241536458275],[78.28883951822988,30.093686523437555],[78.28850938585137,30.097794053819513],[78.28895372178894,30.098790147569574],[78.29131781684092,30.10074544270836],[78.2929505750873,30.101656358507142],[78.29311523437562,30.100893012152838],[78.29137858072968,30.099732530381985],[78.29062879774378,30.09827365451396],[78.29046359592067,30.096215820312523],[78.29306586371573,30.09139919704856]]]]},"properties":{"id":"38974"}}]}