{"type":"FeatureCollection","features":[{"type":"Feature","geometry":{"type":"MultiPolygon","coordinates":[[[[75.17831249999998,25.351436523437584],[75.17905859375006,25.35054492187514],[75.17881250000013,25.350063476562553],[75.17868750000017,25.349811523437694],[75.17846484375005,25.349375000000123],[75.17868750000017,25.34893847656255],[75.17881250000013,25.348686523437692],[75.1789375000001,25.348438476562478],[75.17906250000013,25.348186523437718],[75.17918750000015,25.34793847656249],[75.17931250000018,25.347513671875063],[75.17900000000012,25.34700000000008],[75.17856250000014,25.347061523437716],[75.1784375,25.347563476562556],[75.17830468750006,25.34782128906261],[75.1778125000001,25.34806152343758],[75.17756250000016,25.34818847656267],[75.17729687500005,25.348318359374986],[75.17692187500003,25.348310546875013],[75.17635937500003,25.348019531250074],[75.17531250000016,25.34893847656255],[75.17367578125024,25.34906152343754],[75.17296484375007,25.348695312500155],[75.1723125,25.34918847656253],[75.17206250000024,25.34931152343772],[75.17131250000014,25.3499384765626],[75.17081250000015,25.350061523437503],[75.1705625000001,25.350188476562593],[75.16956250000013,25.350311523437583],[75.16917578125023,25.350571289062685],[75.1689375,25.3510634765626],[75.16881249999997,25.351311523437545],[75.1686367187501,25.351670898437533],[75.16806250000016,25.351811523437533],[75.16793750000014,25.35190039062509],[75.16844921875,25.352061523437698],[75.1689375,25.351811523437533],[75.16993749999997,25.351688476562714],[75.17043750000013,25.351311523437545],[75.17082421875003,25.351188476562555],[75.17131250000014,25.351438476562535],[75.17156250000014,25.351561523437624],[75.17181250000013,25.351688476562714],[75.1728125000001,25.351811523437533],[75.17306250000016,25.351938476562523],[75.17406250000013,25.352061523437698],[75.17456250000001,25.352438476562597],[75.17481250000017,25.352561523437586],[75.17506250000011,25.352688476562676],[75.17531250000016,25.352811523437495],[75.17596484375005,25.35330468749997],[75.17643750000016,25.35306152343766],[75.1766875000001,25.352938476562485],[75.17693750000015,25.352811523437495],[75.17718749999997,25.352688476562676],[75.17807421875003,25.351924804687513],[75.17831249999998,25.351436523437584]]]]},"properties":{"id":"19015"}}]}