{"type":"FeatureCollection","features":[{"type":"Feature","geometry":{"type":"MultiPolygon","coordinates":[[[[102.49181098089977,15.087926974826601],[102.49361897786164,15.086701388889054],[102.4949020724795,15.087674696180713],[102.49764404296562,15.087618815104321],[102.49819173176766,15.086559244791772],[102.49486382378163,15.082458224826453],[102.49683159721914,15.08011393229188],[102.49798638237561,15.079553493923711],[102.49962700737532,15.079587131076508],[102.5013121202226,15.08016384548634],[102.50364095051779,15.082553710937745],[102.50560763888595,15.084180772569567],[102.50742485893787,15.0822889539932],[102.50735324435468,15.078787977430764],[102.50567220051798,15.076784939236347],[102.50248345268804,15.07552734375028],[102.502075466577,15.07427029079878],[102.50209499782679,15.073313802083518],[102.5076258680526,15.068000217013974],[102.51101969400733,15.067054578993208],[102.5109686957434,15.064551866319562],[102.51036349826077,15.063377278645959],[102.5080636935734,15.064302842882228],[102.50736382378167,15.063857421875127],[102.5106751844589,15.059249131944583],[102.50844699435473,15.057107747395975],[102.50913574218461,15.055770941840393],[102.50777777777463,15.054444444444556],[102.506284450952,15.055964626736241],[102.50427218966738,15.056835394965404],[102.50318088107329,15.058499891493213],[102.50322943793086,15.060881076389236],[102.50290825737537,15.061819118923722],[102.50124728732348,15.062358398437752],[102.50026991102138,15.063020833333582],[102.49899956596929,15.062056749132125],[102.49618733723642,15.061530490451489],[102.4925811089378,15.065204535590368],[102.49302707247969,15.066944444444616],[102.49190646701103,15.072173394097348],[102.49144721136852,15.073064778646014],[102.48827501084762,15.076183268229286],[102.48780300563928,15.078119032118295],[102.4864751519066,15.078763020833534],[102.48566324869492,15.078746744791857],[102.48458333333033,15.078190104166808],[102.48390462239294,15.078540039062702],[102.48340711805272,15.080072699652888],[102.48603841145527,15.082983940972369],[102.49181098089977,15.087926974826601]]]]},"properties":{"id":"5116"}}]}