{"type":"FeatureCollection","features":[{"type":"Feature","geometry":{"type":"MultiPolygon","coordinates":[[[[72.3211097547742,33.69398810492655],[72.32223117404524,33.69387383355054],[72.32320502387168,33.69443162706192],[72.32329589843746,33.69338236490911],[72.3244113498263,33.69257954915382],[72.32531426323797,33.693096652561024],[72.32643324110236,33.69174947102883],[72.32776489257807,33.69117194281699],[72.327246907552,33.69044969346814],[72.32484456380203,33.69143452962281],[72.32301581488721,33.69275058322516],[72.3231667751738,33.69127000596819],[72.32229153103319,33.68974195692303],[72.32361029730899,33.68764919704884],[72.3238947211374,33.68480014377198],[72.32575046115463,33.68301120334215],[72.32610609266519,33.68219122992649],[72.3274871148005,33.681098293728496],[72.3285982259114,33.680772230360375],[72.3282303873701,33.680032009548796],[72.32650254991344,33.680246921115824],[72.32541029188374,33.68072062174495],[72.32496242947062,33.682740207248486],[72.32338351779518,33.683090345594806],[72.32248494466151,33.68499104817724],[72.32264553493937,33.68656643337695],[72.32206705729178,33.68790032280849],[72.3208668348523,33.68842081705752],[72.32071601019973,33.689900987413495],[72.32165378146706,33.69153842502185],[72.32140177408851,33.6927905951608],[72.32026489257797,33.69304273817296],[72.31807061089401,33.694104885525434],[72.31763888888892,33.69486111111131],[72.3201455349392,33.6945404052736],[72.3211097547742,33.69398810492655]]]]},"properties":{"id":"16704"}}]}