{"type":"FeatureCollection","features":[{"type":"Feature","geometry":{"type":"MultiPolygon","coordinates":[[[[79.27193332248319,29.15291666666711],[79.2719761827262,29.1518385823571],[79.2727948676218,29.150291476779856],[79.2730441623269,29.14846204969652],[79.27421006944493,29.147911783854482],[79.2767830403649,29.148359781901576],[79.27836914062536,29.150071546766895],[79.27835883246561,29.151892225477894],[79.27787082248315,29.153284166124465],[79.27893039279562,29.153605821397903],[79.28066107855958,29.15059326171921],[79.28186523437543,29.150283067491742],[79.28235894097273,29.151842719184344],[79.28283365885451,29.15221693250912],[79.28459852430606,29.151283026801593],[79.28703559027812,29.15257256401958],[79.28834554036493,29.152113444010894],[79.28830593533021,29.151115112305064],[79.29031656901091,29.150269029405763],[79.29107964409761,29.149445393880654],[79.29222764756977,29.149171956380627],[79.29309624566005,29.148574218750397],[79.29603597005277,29.148575575087207],[79.29638346354201,29.14755140516536],[79.29405978732692,29.146050821940577],[79.29249457465315,29.144449734158314],[79.29222764756977,29.143814425998627],[79.29307183159764,29.143060845269517],[79.29304985894132,29.14361640082504],[79.29974880642399,29.14388441297777],[79.30167209201451,29.14547627766966],[79.3042198350698,29.146572129991796],[79.305780978733,29.146024983724473],[79.30638346354218,29.145191243490018],[79.30555013020873,29.14361640082504],[79.30528320312536,29.14242370605507],[79.30694308810817,29.14088568793447],[79.30926242404578,29.14149346245692],[79.30767252604201,29.138338623047204],[79.30914415147598,29.13935126410648],[79.30965684678878,29.140550265842506],[79.311360134549,29.13924411349862],[79.31204128689288,29.138060845269536],[79.31382134331628,29.139982096354515],[79.31460150824691,29.140272488064653],[79.31557535807363,29.13859537760446],[79.31663709852486,29.138637491862326],[79.31721679687533,29.138286675347544],[79.31583875868111,29.136190388997804],[79.31737169053858,29.13570502387202],[79.31823676215325,29.134771457248632],[79.31694986979207,29.132216932509067],[79.31528320312552,29.130979817708777],[79.31588921441013,29.13000528971395],[79.31814317491362,29.130942043728837],[79.31892306857688,29.130529378255673],[79.32035725911501,29.130586208767696],[79.32131266276079,29.13161743164102],[79.3230444335941,29.13101047092057],[79.32684597439291,29.12908989800387],[79.32808078342075,29.129939575195678],[79.32802164713578,29.128447401258995],[79.32994656033023,29.127697753906716],[79.32942816840333,29.12721727159331],[79.32945556640695,29.12652832031293],[79.33495225694477,29.125053304036882],[79.3352723524309,29.124763183594098],[79.33275227864615,29.121335991753824],[79.33278483072948,29.12051845974426],[79.33336100260468,29.1199846055777],[79.33420735677143,29.120018107096683],[79.33499457465334,29.12250528971397],[79.33593017578178,29.124439154731334],[79.33966661241354,29.123460083008254],[79.33915066189266,29.122485215929103],[79.33918375651072,29.12165188259584],[79.3380609809033,29.12055026584237],[79.33747477213572,29.12027364095094],[79.33688286675377,29.11901984320788],[79.33581190321209,29.118328111436995],[79.33646945529566,29.117085435655696],[79.33413113064265,29.116116400825106],[79.33347222222281,29.116827596028983],[79.3328746202263,29.116182590061143],[79.3318695746531,29.116714341905748],[79.33101508246583,29.117636650933477],[79.32905192057322,29.116597832574143],[79.3284722222227,29.115972222222794],[79.32458984375043,29.116220974392775],[79.32417209201427,29.116671956380614],[79.32201605902853,29.11768934461854],[79.3206016710075,29.11905259874173],[79.3202832031254,29.11972751193612],[79.31712863498305,29.123296034071686],[79.31553683810822,29.123675198025524],[79.3125054253475,29.12639417860275],[79.30888970269135,29.128485107422165],[79.30694091796923,29.128949313693994],[79.3042190212677,29.128914320204373],[79.30268337673661,29.1283761257599],[79.30092258029552,29.126137017144487],[79.30056098090321,29.124994710286757],[79.29860568576444,29.122227511936117],[79.29800781250029,29.120480821397862],[79.29722764756988,29.119716932509107],[79.29572645399341,29.119132351345797],[79.29444064670199,29.119161037869276],[79.28855848524339,29.120063747830187],[79.26568793402808,29.129965074327544],[79.2600192599833,29.131584065755575],[79.25972764756986,29.132505289713947],[79.25777235243109,29.133328043620097],[79.25658013237907,29.134242418077676],[79.25408989800374,29.13847832573822],[79.25417588975725,29.140649481879663],[79.25509006076416,29.142377048068965],[79.25611653645885,29.143328043620073],[79.25802246093795,29.146646321614952],[79.2593481445318,29.148315565321667],[79.26105495876797,29.149972466363195],[79.26350206163224,29.151618381076787],[79.26694742838598,29.151104600694808],[79.26833875868104,29.151661376953513],[79.26861626519124,29.152249552409316],[79.2697119140631,29.152206149631496],[79.2713742404517,29.15362820095531],[79.27196072048682,29.153604939778944],[79.27193332248319,29.15291666666711]]]]},"properties":{"id":"1712"}}]}