{"type":"FeatureCollection","features":[{"type":"Feature","geometry":{"type":"MultiPolygon","coordinates":[[[[76.47284478081608,24.31944668240058],[76.4733254665799,24.31884799533462],[76.47204060872386,24.31892456054736],[76.47063598632812,24.318548380534452],[76.46826307508658,24.31858208550402],[76.46690429687479,24.317201131185385],[76.4669768608941,24.315985039605508],[76.46776991102402,24.314436645508295],[76.46887505425323,24.31326612684515],[76.46997653537332,24.309698757595896],[76.47287150065077,24.307597791884277],[76.47467759874124,24.307177598741774],[76.47514417860222,24.305172254774888],[76.47646823459203,24.30318847656305],[76.47739257812478,24.302362535265303],[76.47804768880204,24.300752360026465],[76.47694118923593,24.299763658312187],[76.47655829535566,24.29690077039986],[76.47749213324633,24.29424106174085],[76.47652777777776,24.292916666667153],[76.47576497395832,24.295103556315553],[76.47586900499115,24.296848280165392],[76.47547743055534,24.298310275608145],[76.47471435546876,24.29971442328609],[76.47445312500005,24.30111768934509],[76.4721134440102,24.304414740668875],[76.47082546657978,24.304714423286086],[76.46945231119795,24.305841132270416],[76.46722222222198,24.307139485677595],[76.46548624674458,24.309082438151535],[76.4646643066404,24.309459635417127],[76.46388102213521,24.31026997884176],[76.46337985568576,24.311362169054348],[76.46171671549476,24.313640340169826],[76.46052042643217,24.314778103299048],[76.4593584526908,24.31470879448827],[76.45702840169261,24.312266574436308],[76.45611897786435,24.312132500543072],[76.45707845052081,24.31350619845982],[76.45665879991313,24.3138810899527],[76.45589084201387,24.315554538303516],[76.45436347113716,24.315825534397177],[76.45314358181403,24.315162624783483],[76.45236707899286,24.316031765408468],[76.45138102213545,24.31665886773054],[76.45073310004321,24.31767761230519],[76.44932115342854,24.318765597873934],[76.44721435546856,24.319158867730536],[76.4462989637585,24.32003601074271],[76.44546929253451,24.319986572266103],[76.44379475911464,24.320896538628986],[76.44306342230888,24.322084689670632],[76.44799669053825,24.321889987522184],[76.44918931749126,24.322723049588177],[76.45138332790773,24.321935831706284],[76.45343098958344,24.321640082465805],[76.45554768880189,24.319158867730536],[76.45712470160586,24.31861891004823],[76.46185736762132,24.319940592448376],[76.46556342230897,24.32165886773052],[76.46653849283828,24.322340020074293],[76.4686189778644,24.32443664550827],[76.47111979166667,24.329160427517834],[76.47108818901896,24.32969068739206],[76.47195231119795,24.331936645508264],[76.4723022460935,24.33418260362454],[76.47192233615462,24.335601128472703],[76.47185153537308,24.34197482638936],[76.47284803602432,24.34191541883733],[76.47392713758686,24.34044745551283],[76.47489420572921,24.339583333333863],[76.47425876193554,24.339015570746966],[76.47389675564241,24.337578464084842],[76.47454291449631,24.33394192165845],[76.47347832573783,24.32996676974868],[76.47199096679694,24.32697116428011],[76.47139363606769,24.326437581380645],[76.4705634223088,24.32443664550827],[76.46970065646693,24.323279283312147],[76.46973090277763,24.322771945529965],[76.46886976453973,24.320460408529314],[76.46890814887158,24.319816148546437],[76.47284478081608,24.31944668240058]]]]},"properties":{"id":"4976"}}]}