{"type":"FeatureCollection","features":[{"type":"Feature","geometry":{"type":"MultiPolygon","coordinates":[[[[76.09443169487818,24.824344957140255],[76.09638108995225,24.821658850776515],[76.09723002115882,24.82084114922472],[76.0974922010632,24.819992184109623],[76.09786505805104,24.819659016927602],[76.0974915907116,24.815002577040417],[76.09778801812044,24.81277436998208],[76.09745781792506,24.81216678195588],[76.09532694498708,24.812293802897642],[76.09430555555556,24.81152777777831],[76.09376363118494,24.811695115831682],[76.09334113226996,24.813063371446972],[76.09174146864146,24.814888763428286],[76.0879587809242,24.814385782878176],[76.08740342881944,24.813764224582854],[76.08584113226979,24.81473003811361],[76.08439697265592,24.815175984701085],[76.08445448133679,24.816140797933514],[76.08856696234798,24.816908382840168],[76.09054626464828,24.817889607747887],[76.08819322374123,24.820269961887462],[76.08695149739552,24.818880191379634],[76.08646864149276,24.81890896267423],[76.08428900824643,24.820697326660635],[76.08080485026025,24.821445142958495],[76.07971598307287,24.821380242242228],[76.07788099500871,24.821975436740985],[76.07699964735232,24.821922895643908],[76.0746136474609,24.81989317152305],[76.07239644368471,24.818820563422847],[76.0694826931423,24.818816663954536],[76.06917446560308,24.819247606066227],[76.0702914767792,24.820245666504434],[76.07223002115862,24.82054773966523],[76.07351087782095,24.82100731743769],[76.07592583550311,24.823152482775043],[76.07860629611545,24.82365278456011],[76.0797204589841,24.82358637491913],[76.08281175401473,24.822477196587997],[76.0845928955076,24.822583346897247],[76.08591505262561,24.824063127306303],[76.08646009657096,24.822875552707814],[76.0871523030597,24.822507815891356],[76.08749220106333,24.823654429118378],[76.08581922743033,24.824718424479713],[76.08620164659263,24.82542217678548],[76.08750779893651,24.825825517443064],[76.0877699788409,24.826221635607197],[76.08579901801218,24.827982686361224],[76.08600301106745,24.828603295220816],[76.08804775661892,24.827492184109786],[76.08956251356332,24.827139756945],[76.09020833333327,24.826416982015488],[76.09208747016035,24.82532290988553],[76.09443169487818,24.824344957140255]]]]},"properties":{"id":"9534"}}]}