{"type":"FeatureCollection","features":[{"type":"Feature","geometry":{"type":"MultiPolygon","coordinates":[[[[108.22142968750009,12.60683593749998],[108.22155859375013,12.605433593750064],[108.22244140625006,12.604441406250075],[108.22255859375016,12.604183593750108],[108.22273632812514,12.603863281250113],[108.22267968750018,12.603164062500014],[108.22215429687512,12.602929687500165],[108.22200000000018,12.602750000000086],[108.22105859375009,12.602808593750211],[108.22033007812516,12.603410156250021],[108.22019140625005,12.604316406250035],[108.21955859375001,12.605058593749945],[108.21944140625007,12.605316406249997],[108.21930859375013,12.605558593750104],[108.21919140625008,12.60606640625015],[108.2187167968751,12.606671874999961],[108.21764062500009,12.60680859375006],[108.21719140625007,12.606558593750066],[108.21534375000002,12.60644140625],[108.21519140625023,12.606925781250112],[108.21606640625006,12.60705859375004],[108.21630859375014,12.607191406250152],[108.21706640625021,12.607308593749948],[108.21730859375,12.607441406250231],[108.21948437500006,12.607558593750113],[108.21993359375008,12.607308593749948],[108.22069140625021,12.607191406250152],[108.22093359375023,12.60705859375004],[108.22142968750009,12.60683593749998]]]]},"properties":{"id":"22866"}}]}