{"type":"FeatureCollection","features":[{"type":"Feature","geometry":{"type":"MultiPolygon","coordinates":[[[[73.70655862626543,32.89022448769029],[73.70170995507564,32.88107665709815],[73.69562932763418,32.876609646600116],[73.68899938378647,32.86872848204919],[73.66144201073942,32.84759887389484],[73.65373459193611,32.839779914366645],[73.62157079491934,32.819480740350016],[73.62098333154032,32.814803921502545],[73.61555883202871,32.8082311981137],[73.61542526974225,32.801232646072336],[73.60971456332825,32.795997831859296],[73.60876277892632,32.77862776651695],[73.59945334636271,32.75576102423335],[73.59329628238814,32.72889703149494],[73.57749396253647,32.71623448911666],[73.56952124525142,32.70700292173386],[73.56196233544668,32.70590575866066],[73.55208226952882,32.70119460753759],[73.54262182030973,32.69484695128736],[73.53671666894317,32.68209441832849],[73.53212377343473,32.678912960809015],[73.52792760644277,32.677318417352],[73.52112218652118,32.6804617278987],[73.51294380899307,32.67871527409383],[73.50976049328531,32.684307585472794],[73.51635381493887,32.68877013854333],[73.52399083886431,32.68925460509598],[73.53134557519277,32.69296630553552],[73.53722020898161,32.69860061339668],[73.54720708642364,32.71823486022292],[73.5538675478488,32.72681029967613],[73.56905767236063,32.740176998894896],[73.57275792870817,32.745704495232786],[73.57854362415199,32.75721261746456],[73.586395845471,32.76339921607948],[73.58925119867811,32.77029965299654],[73.58872625146248,32.77877410582829],[73.58290502343496,32.77727111510583],[73.58097478661844,32.78036864928556],[73.58260747704813,32.78372176818206],[73.59270116601331,32.79094680480296],[73.59403631005594,32.79408630065264],[73.59192296777084,32.80155547789886],[73.59904119286844,32.80895599059396],[73.60067261150627,32.81384378940302],[73.61351415429411,32.81983169249861],[73.62101384911833,32.83524688414887],[73.62888738427509,32.83846267394378],[73.63951845226168,32.84582717608967],[73.6496895082262,32.848108027887136],[73.66153356347402,32.85539992980311],[73.67022337410688,32.86452419574928],[73.6627765437585,32.86642987763199],[73.67683049950935,32.87954696349445],[73.67937108788809,32.88399108580896],[73.69454595361086,32.894607388299136],[73.70084791985155,32.90521509202706],[73.71574041161844,32.90942748717603],[73.72868761362005,32.92139542686695],[73.73701572714046,32.92948559428649],[73.74635717187269,32.94736846618001],[73.7532349034631,32.95084391565426],[73.7703281812222,32.952804312143584],[73.77647802148189,32.962589108269995],[73.77689763818134,32.96761687926606],[73.77575496901031,32.97221054114735],[73.77878868578924,32.97968670247177],[73.78246343235165,32.98326141301844],[73.78722235436331,32.98730649672821],[73.79837510442545,32.99787543592119],[73.796726434568,32.98987563781084],[73.79432004825142,32.98082947929977],[73.78643438134512,32.974174343865656],[73.7857946777597,32.95875296465816],[73.77186223779043,32.949539028924136],[73.7563821962867,32.94677718810374],[73.75203344140348,32.94358810118972],[73.74662420068094,32.93081268004724],[73.74819919386746,32.91877801976025],[73.73178091292735,32.909022229636236],[73.72606298241922,32.90261825255695],[73.72271367822012,32.902492367547154],[73.71655236249003,32.89807670900957],[73.71179344047837,32.893793679199035],[73.70655862626543,32.89022448769029]],[[73.68449041161838,32.87680038146331],[73.68548986230226,32.87237914733251],[73.69582769189222,32.88233932189283],[73.69981786523206,32.88784774474463],[73.69861242089573,32.889758908074626],[73.6952173403296,32.88811858825029],[73.68449041161838,32.87680038146331]],[[73.59409734521213,32.78810867003753],[73.5952875307593,32.77587112120919],[73.59448601289134,32.759592078470305],[73.60376612046767,32.7957859393522],[73.59656926904026,32.788425289910606],[73.59409734521213,32.78810867003753]],[[73.55527135644266,32.71387084655133],[73.54808652327736,32.704626529235526],[73.55793401513452,32.70981200866058],[73.58295842919662,32.73409255675607],[73.5841409853488,32.73862060241058],[73.5831567934546,32.743270718377445],[73.57115575585689,32.73592361144375],[73.57385656152078,32.73232253722503],[73.57291814599344,32.73076995543789],[73.5666086367161,32.729984127800975],[73.55974588220582,32.72794524709262],[73.55439397607157,32.719890438836146],[73.55332586083742,32.716735684197474],[73.55527135644266,32.71387084655133]]]]},"properties":{"id":"1635"}}]}