{"type":"FeatureCollection","features":[{"type":"Feature","geometry":{"type":"MultiPolygon","coordinates":[[[[77.24794140625019,26.618941406249945],[77.24850390625019,26.618505859375105],[77.2493085937501,26.619191406250025],[77.24968359375006,26.619308593750077],[77.24980859375009,26.617683593750186],[77.24994140625009,26.617441406250094],[77.25005859375008,26.616433593750145],[77.25050390625009,26.615860351562475],[77.2510976562501,26.61569140624998],[77.2515585937501,26.61594140625006],[77.25266796875016,26.61605859375011],[77.25280859375007,26.615336914062638],[77.25218359375023,26.61519140625009],[77.25166015625021,26.614784179687476],[77.25144140625005,26.61430859375018],[77.25130859375,26.61406640625009],[77.25119140625011,26.612308593749987],[77.25105859375023,26.612066406250065],[77.25086328124999,26.611637695312567],[77.2504335937501,26.61144140625005],[77.24884375000002,26.609969726562596],[77.24869140624995,26.6093085937501],[77.24850000000018,26.60900000000018],[77.24748828124999,26.609063476562582],[77.24769140625008,26.60943359374997],[77.24780859375008,26.60969140625012],[77.24819140625002,26.610183593750023],[77.24830859375024,26.61059863281261],[77.24804296875007,26.611085937499965],[77.24755859375009,26.611308593750024],[77.24712500000001,26.611544921875193],[77.24669140625011,26.611308593750024],[77.24618359375026,26.611191406249972],[77.24594140625007,26.611058593749945],[77.24518359375006,26.610941406250063],[77.24494140625009,26.610808593750136],[77.24452734374998,26.610691406250083],[77.2440664062502,26.610941406250063],[77.24380859375023,26.611058593749945],[77.24356640624993,26.611191406249972],[77.24305859375008,26.611308593750024],[77.24281640625017,26.61144140625005],[77.24255859375009,26.61155859375002],[77.2421914062501,26.61185644531254],[77.24247265625004,26.612058593750177],[77.24293359374994,26.611808593750098],[77.24391406250024,26.611691406250046],[77.2445585937501,26.61219140625029],[77.24481640625007,26.612308593749987],[77.24533984375026,26.6127158203126],[77.24555859375008,26.613191406250067],[77.24579296875007,26.613625000000226],[77.24550000000002,26.614169921875046],[77.2443085937501,26.61430859375018],[77.24381640625009,26.614691406250017],[77.24330859375007,26.61480859375007],[77.24306640625005,26.614941406250097],[77.24280859375025,26.61505859374998],[77.24244140624992,26.615419921875088],[77.2432226562502,26.615558593750052],[77.24387500000003,26.615205078125],[77.2443085937501,26.61544140625007],[77.24506640625017,26.615558593750052],[77.24541796875016,26.615750976562666],[77.24555859375008,26.61694140625002],[77.24575000000013,26.617293945312582],[77.24639843750006,26.61694238281258],[77.24703906250008,26.61738867187509],[77.2468085937501,26.617808593749956],[77.24669140625011,26.618316406250102],[77.24655859375011,26.61855859375011],[77.24644140625006,26.61906640625007],[77.24630859375006,26.619308593750077],[77.24619140625018,26.62114843749997],[77.24663671875001,26.6213085937501],[77.2468085937501,26.620933593750152],[77.24694140625004,26.62069140624996],[77.2470585937501,26.619683593750196],[77.24746484375012,26.619159179687443],[77.24794140625019,26.618941406249945]]]]},"properties":{"id":"18755"}}]}