{"type":"FeatureCollection","features":[{"type":"Feature","geometry":{"type":"MultiPolygon","coordinates":[[[[80.21964267288584,23.957528204720887],[80.22018223862219,23.95752813963783],[80.22045423292226,23.958067700702813],[80.22072171582911,23.95833969387995],[80.22099379351098,23.958339761936628],[80.22126127472038,23.957260627823175],[80.222068393971,23.956721101478067],[80.22314749125346,23.95672103726659],[80.22341947607632,23.956453543076762],[80.22422657484552,23.95618155042925],[80.22503366596098,23.956453547253872],[80.22557328260481,23.956453554197736],[80.22691988394067,23.956453496714644],[80.22691988394067,23.955641945715357],[80.22665233542071,23.95564200006335],[80.22665233542071,23.954834849075084],[80.22691988394067,23.95456733019958],[80.22745948861868,23.954567327262026],[80.22773145964348,23.95483483835814],[80.22773145964348,23.955374437296214],[80.22799900476784,23.955913979289775],[80.22853851749434,23.95591396806978],[80.22853851749434,23.95490396995352],[80.22934565278004,23.95348821023464],[80.22961761777722,23.95321620544209],[80.22988524206104,23.953216238967357],[80.23042474282207,23.9537557309159],[80.23069227946624,23.954027804860786],[80.23069227946624,23.954834874317825],[80.2315038191559,23.955102451646738],[80.23177143750175,23.955102392618315],[80.23177143750175,23.954295321732985],[80.2315038191559,23.954295291405785],[80.2315038191559,23.953755776765973],[80.23177143750175,23.953488249553942],[80.23257854208296,23.952948641821678],[80.23311802574906,23.95267664914715],[80.23419715298135,23.952676675979916],[80.23473671145919,23.952409081690874],[80.23527626651438,23.95186952337481],[80.23527626651438,23.951062441251537],[80.23473671145919,23.951062480103573],[80.23473671145919,23.950522958267925],[80.23704680292158,23.95025534932553],[80.23743002790249,23.94836471018145],[80.23850910036444,23.947018068646102],[80.2387766115593,23.946750510397564],[80.23904863146154,23.9464784786106],[80.2393162260382,23.946478489210662],[80.23985575199666,23.9467504828461],[80.24012776844071,23.947018070415794],[80.24012776844071,23.948097133445657],[80.24066728925195,23.948904255193582],[80.24147439440819,23.948904287110807],[80.24255350056583,23.948904242545296],[80.24255350056583,23.94863667656206],[80.24255350056583,23.94836470938209],[80.24336058780065,23.947829595265162],[80.2452468243574,23.947829635150498],[80.2457863977202,23.94836469153246],[80.24632588256301,23.94836469434425],[80.24605388598107,23.947759387608315],[80.24605388598107,23.947154091050194],[80.24605388598107,23.946750560011296],[80.24632588256301,23.946210939612797],[80.24659345420562,23.945943455448116],[80.24659345420562,23.9454039144605],[80.24659345420562,23.944324740928977],[80.24632588256301,23.943245660885438],[80.24605388598107,23.941898995050508],[80.2457863977202,23.94081991679424],[80.2452468243574,23.9386661331731],[80.2449792484746,23.938126592149516],[80.24336058780065,23.93542885153053],[80.24308858171466,23.93516135919114],[80.24228149189256,23.934893787737252],[80.24201399174714,23.934893795193332],[80.24120238228531,23.93624043587542],[80.24120238228531,23.936779980411302],[80.24120238228531,23.93731952437237],[80.240934878726,23.93758709930276],[80.23985575199666,23.937587066981322],[80.2393162260382,23.937587050245824],[80.2387766115593,23.937587025874294],[80.23824158833415,23.937587112813205],[80.23824158833415,23.938126652498397],[80.23824158833415,23.93866619160859],[80.23824158833415,23.938933760403444],[80.2366228843072,23.939740777578564],[80.23581581813804,23.940012795055196],[80.23419715298135,23.94028033602929],[80.23257854208296,23.94028038577811],[80.23231092628814,23.940012800427255],[80.23231092628814,23.939740834567743],[80.2315038191559,23.93974076803856],[80.23069227946624,23.940012828041432],[80.2301572053336,23.941359497370726],[80.2301572053336,23.941631461101295],[80.2301572053336,23.942166586150535],[80.22988524206104,23.94243860475028],[80.22934565278004,23.94297815583488],[80.22719194179646,23.9429780886409],[80.22719194179646,23.942706127362598],[80.22638036094631,23.942438541041767],[80.2261128107285,23.94243860185766],[80.2261128107285,23.942706071891863],[80.2261128107285,23.94351764229465],[80.2261128107285,23.943785201576404],[80.2261128107285,23.944052760714456],[80.2261128107285,23.94432481045861],[80.22638036094631,23.944592309724015],[80.22691988394067,23.944864341951074],[80.22719194179646,23.944864299595523],[80.22745948861868,23.945131887138317],[80.22745948861868,23.94567140632364],[80.22745948861868,23.94594345598715],[80.22719194179646,23.947018061684204],[80.22691988394067,23.94809713531403],[80.22665233542071,23.949176313391064],[80.22584525967525,23.950255406550156],[80.22503366596098,23.95025535884956],[80.22395459260972,23.951329981479915],[80.22368703476516,23.951601986892328],[80.22368703476516,23.952141584617408],[80.22341947607632,23.952409097779608],[80.2223403822434,23.95240908437691],[80.2223403822434,23.952141531832424],[80.222068393971,23.952141565411438],[80.22180083018864,23.953216220866196],[80.22045423292226,23.95429533516287],[80.21914415321547,23.95429535425498],[80.21883553062017,23.95483485816621],[80.21856804178438,23.955641949263537],[80.21829604145651,23.955914011988426],[80.21802846580741,23.95618150699572],[80.21722139335006,23.95672110078644],[80.21587021282514,23.956988591436783],[80.21506311990404,23.957528167305924],[80.21506311990404,23.957800203341932],[80.21748888641676,23.95860727082278],[80.21856804178438,23.958339701228297],[80.21910752922358,23.95780014003772],[80.21964267288584,23.957528204720887]]]]},"properties":{"id":"38921"}}]}