{"type":"FeatureCollection","features":[{"type":"Feature","geometry":{"type":"MultiPolygon","coordinates":[[[[77.88020996093795,25.788524305555583],[77.88110649956636,25.78804985894105],[77.88416124131962,25.788111436632008],[77.88360541449688,25.789162055121636],[77.88359917534743,25.78988226996539],[77.88203776041703,25.79061930338564],[77.88163167317757,25.791479492187605],[77.88168077256975,25.792714572482893],[77.88311170789953,25.793638509114714],[77.88412950303845,25.794737141927257],[77.88471679687521,25.794605034722267],[77.88333875868071,25.791610785590336],[77.8839111328131,25.790528971354277],[77.88492567274344,25.790569118923727],[77.88555013020849,25.78832790798627],[77.88694308810793,25.786996527777873],[77.88917209201415,25.783060980902903],[77.88961290147617,25.782126736111252],[77.88909803602465,25.780658094618204],[77.89094807942737,25.77993109809043],[77.89317572699682,25.777593044704957],[77.89695258246556,25.774705946180703],[77.89983995225717,25.77477647569458],[77.90157226562539,25.775968424479316],[77.90246771918422,25.775001627604226],[77.90277235243084,25.772772352430692],[77.90348605685782,25.770884602864783],[77.9050238715279,25.769974772135456],[77.90813612196203,25.769131401909974],[77.90963731553862,25.769190809461833],[77.91124755859394,25.768853895399488],[77.90998074001763,25.766459418402903],[77.91001329210113,25.76563666449657],[77.91107394748306,25.765283203125193],[77.91139051649336,25.767271321614672],[77.91248399522598,25.770016004774362],[77.91332790798637,25.77083875868061],[77.9150208875873,25.771833767361215],[77.91497775607675,25.77292182074673],[77.91583875868074,25.773327907986385],[77.91813178168431,25.775272352430775],[77.91960205078189,25.7736857096355],[77.91771050347259,25.771838650173677],[77.9177856445315,25.7699392361112],[77.91885443793424,25.767264539930665],[77.9191612413197,25.764827473958434],[77.91722764756989,25.76225531684038],[77.91956732855928,25.759486490885465],[77.92095214843798,25.759048122829924],[77.92139919704906,25.754846733941037],[77.92130669487906,25.752510308160012],[77.92167209201418,25.751116536458497],[77.92249457465303,25.743017306857737],[77.91783718533023,25.742964409722347],[77.91552137586834,25.741940646701508],[77.91497395833366,25.741349826388912],[77.91503743489633,25.7397471788196],[77.91436279296906,25.738472222222327],[77.91480387369822,25.737638888888966],[77.91389431423627,25.735499674479257],[77.91502604166695,25.73440538194471],[77.91498643663235,25.73341010199657],[77.9138831922746,25.733060709635566],[77.91389539930609,25.73275119357656],[77.91507785373281,25.732193196614602],[77.91637695312536,25.730874837239682],[77.91692843967033,25.729706217448083],[77.91750542534746,25.729172092013982],[77.91777235243072,25.728534884982835],[77.9173611111116,25.72736111111122],[77.9158938259553,25.727517361111097],[77.91221679687513,25.72888346354175],[77.91041666666715,25.729803873698103],[77.90931966145868,25.729223361545266],[77.90824625651081,25.73068684895847],[77.90466634114634,25.731105685764064],[77.90353814019127,25.73050889756948],[77.90198513454905,25.730570475260592],[77.90167209201431,25.736116536458354],[77.90082655164954,25.736899685329973],[77.90022460937521,25.738800726996644],[77.90028917100719,25.740426161024374],[77.8993313259551,25.741818033854244],[77.89463975694483,25.74221679687507],[77.89472846137184,25.73998101128481],[77.89176920572945,25.739000651041778],[77.89055040147608,25.735517306857744],[77.88936496310802,25.735564236111117],[77.88827826605942,25.736737196180727],[77.88778320312528,25.738985731336925],[77.88835801866341,25.74118028428829],[77.88831353081653,25.742305501302255],[77.88764539930574,25.74356825086815],[77.88610568576408,25.74499457465292],[77.885798339844,25.74564615885427],[77.88584716796916,25.74687554253481],[77.88677300347248,25.74912950303829],[77.89020697699684,25.749458550347512],[77.88938856336833,25.75055013020851],[77.88805040147591,25.749842122395947],[77.88669596354222,25.751939561632113],[77.88916286892405,25.75496582031265],[77.88950846354183,25.75605740017373],[77.88894097222268,25.759316406250207],[77.88803710937535,25.7618950737849],[77.88807698567754,25.762899848090527],[77.8888834635421,25.765450303819634],[77.88745469835115,25.7661246744793],[77.88667209201427,25.76778320312509],[77.88471679687521,25.768050130208465],[77.88389160156285,25.769453938802187],[77.88302463107661,25.76899522569451],[77.88222764756986,25.76952067057306],[77.88410888671913,25.771381835937632],[77.8863834635421,25.772061631944595],[77.88556939019114,25.775953233507096],[77.8835720486114,25.777803819444657],[77.88277343750028,25.77777208116332],[77.88126112196207,25.778393283420243],[77.88025200737869,25.781155598958506],[77.88028510199675,25.7819886610245],[77.87904079861138,25.78314154730907],[77.88024766710097,25.7855411783855],[77.87978759765664,25.786105685764028],[77.87752468533048,25.784160156250095],[77.87493082682332,25.785302463107726],[77.87230902777807,25.785290798611257],[77.87309271918443,25.786429850260603],[77.87417236328147,25.78693929036467],[77.87413682725739,25.787836100260606],[77.87251193576421,25.789680718316063],[77.8716932508685,25.79141547309038],[77.8699669053822,25.793075900607732],[77.8694495985246,25.794172363281362],[77.86694986979185,25.794778103298626],[77.8678675672746,25.79651258680576],[77.8674894205731,25.797226833767326],[77.86947998046927,25.797494574652788],[77.87083875868083,25.7961165364584],[77.87310438368073,25.792175835503514],[77.87523166232685,25.791171875000245],[77.87619249131976,25.79013481987856],[77.87774739583378,25.78899441189246],[77.88020996093795,25.788524305555583]],[[77.90078206380267,25.75116644965287],[77.9016769748267,25.74973253038209],[77.90280517578154,25.746531032986184],[77.90352783203141,25.745235731336876],[77.90691948784772,25.74421440972239],[77.90875000000025,25.74402777777783],[77.9091571723092,25.7447341579862],[77.90945366753496,25.744710286458414],[77.91134765625051,25.74700819227445],[77.91165635850726,25.748228895399436],[77.91082139756972,25.74860161675356],[77.91033935546906,25.750272623698024],[77.90943413628511,25.750545247395948],[77.90845703125026,25.751502549913383],[77.90745225694482,25.751950683593776],[77.9067255316842,25.753579644097243],[77.9054728190109,25.75492974175357],[77.90406168619816,25.75554524739603],[77.90334364149342,25.754711914062582],[77.90193413628495,25.754454752604403],[77.90079291449703,25.75286539713548],[77.90078206380267,25.75116644965287]]]]},"properties":{"id":"1756"}}]}