{"type":"FeatureCollection","features":[{"type":"Feature","geometry":{"type":"MultiPolygon","coordinates":[[[[79.31482720269119,23.331378580729535],[79.31589626736135,23.330137803819966],[79.31827121310769,23.330328640408453],[79.31913058810758,23.329849039714006],[79.31860080295158,23.328899197048955],[79.31834364149304,23.327672797309503],[79.31890489366336,23.32666666666705],[79.318538953993,23.326010606554334],[79.3159722222222,23.32541666666701],[79.31436631944442,23.32555094401083],[79.31282009548616,23.32641357421916],[79.31148328993064,23.326047770182683],[79.31030490451414,23.3261424424917],[79.30902316623283,23.325565863715767],[79.30641031901061,23.328180338542097],[79.30700168185766,23.32924018012193],[79.30957248263886,23.32923272026946],[79.3135126410593,23.33034152560802],[79.3144791666667,23.330263807509226],[79.31443250868077,23.330841606988244],[79.31482720269119,23.331378580729535]]]]},"properties":{"id":"19783"}}]}