{"type":"FeatureCollection","features":[{"type":"Feature","geometry":{"type":"MultiPolygon","coordinates":[[[[75.71232421875007,22.484992187500083],[75.71217578125018,22.483381835937593],[75.7115742187502,22.483192382812675],[75.71144140624997,22.484067382812597],[75.71098828125017,22.48464550781246],[75.71039062500026,22.484807617187457],[75.70994140625012,22.484557617187548],[75.70918359375011,22.484442382812716],[75.70834375000007,22.483723632812485],[75.70819140625011,22.48305761718761],[75.70680859375003,22.4815673828126],[75.70675000000008,22.480749999999958],[75.70655859375015,22.480807617187608],[75.70615234375,22.48109472656263],[75.7059414062501,22.4815673828126],[75.7058085937501,22.48180761718757],[75.70569140625022,22.482067382812673],[75.70555859375,22.482307617187544],[75.70544140625023,22.484067382812597],[75.7052460937501,22.484419921874974],[75.70414062500024,22.484557617187548],[75.7036914062501,22.484307617187568],[75.70218359375,22.484192382812537],[75.70190625000018,22.484038085937527],[75.70167578125015,22.48352539062502],[75.70131640624996,22.483192382812675],[75.70119140625022,22.48481738281265],[75.70105859374999,22.48505761718762],[75.70094140625011,22.486067382812607],[75.70076171875004,22.486389648437452],[75.7014414062501,22.4871826171875],[75.7015585937501,22.487442382812603],[75.7016914062502,22.487682617187573],[75.70180859375009,22.48819238281257],[75.70213281249997,22.48865234375009],[75.70281640625021,22.488807617187575],[75.7031718750001,22.48900585937504],[75.70333203125014,22.490408203125142],[75.70431640625011,22.490557617187505],[75.70455859375002,22.49069238281257],[75.70506640625021,22.490807617187585],[75.70530859375012,22.49094238281255],[75.70656640625012,22.49105761718758],[75.70680859375003,22.491192382812628],[75.70731640625021,22.49130761718756],[75.70755859375012,22.491442382812536],[75.71006640625015,22.491557617187468],[75.71030859375011,22.4916923828127],[75.71327734374998,22.491807617187547],[75.71390234375016,22.491365234375124],[75.71405859375002,22.490682617187545],[75.71469140624995,22.489942382812586],[75.71480859375012,22.489359375000078],[75.71443359375016,22.489192382812533],[75.71419140625008,22.489057617187555],[75.71393359375,22.488942382812724],[75.71344140625015,22.48859472656271],[75.71381640625012,22.488066406250056],[75.71547265625,22.48793945312515],[75.71542578125016,22.487361328125104],[75.71468359375004,22.48719238281261],[75.71444140625013,22.48705761718746],[75.71268359375014,22.48694238281253],[75.71231640625015,22.486689453125024],[75.7131914062501,22.485692382812488],[75.71330859375016,22.485333984374975],[75.71268359375014,22.4851923828126],[75.71232421875007,22.484992187500083]]]]},"properties":{"id":"20196"}}]}