{"type":"FeatureCollection","features":[{"type":"Feature","geometry":{"type":"MultiPolygon","coordinates":[[[[75.86333726321348,32.53647130770865],[75.86036378564435,32.53448898932916],[75.8582398730949,32.531515511759935],[75.85781509058498,32.52939159921071],[75.85781509058498,32.527692469170944],[75.85583277220562,32.52613493330132],[75.85130175876648,32.525426962451476],[75.84832828119718,32.525426962451476],[75.845637991968,32.52259507905205],[75.84280610856868,32.52117913735252],[75.84011581933922,32.51693131225373],[75.84167335520894,32.51480739970408],[75.8420981377188,32.511975516304744],[75.8398326309995,32.51225870464472],[75.83416886420068,32.511267545455155],[75.83416886420068,32.51027638626523],[75.83572640007029,32.50886044456561],[75.83855828346961,32.50546218448632],[75.83855828346961,32.503338271936926],[75.83799190678977,32.49994001185755],[75.83445205254057,32.49866566432783],[75.83317770501108,32.499515229347665],[75.83077060412145,32.498948852667894],[75.83016657340838,32.50209099029736],[75.82829250759599,32.503330620660066],[75.82635993109838,32.502668999566154],[75.82637919108114,32.49994032118079],[75.82388610839897,32.49416937934083],[75.82357367621577,32.49225016276068],[75.82363254123302,32.489365234375256],[75.82168945312569,32.48680419921912],[75.8208143446183,32.486391601563],[75.82028055826859,32.48694715711834],[75.81886990017401,32.48749728732675],[75.81771681043867,32.486296929253896],[75.81595540364631,32.48701144748293],[75.81294053819491,32.485670572916874],[75.8083732096359,32.48235649956638],[75.80750278049081,32.47999728732685],[75.80544297960105,32.47736219618095],[75.80416388617644,32.476947157118275],[75.80327365451424,32.47634385850729],[75.80193576388925,32.47500813802107],[75.80194885253937,32.47436740451403],[75.79999721950989,32.473891601562755],[75.79915303548208,32.4733194986983],[75.79356838650224,32.47332383897586],[75.79235276964036,32.472697753906644],[75.79166524251335,32.47026014539952],[75.79110833062103,32.46972493489605],[75.79028055826885,32.468052842882216],[75.78731811523485,32.46473578559045],[75.78549913194482,32.46329345703164],[75.78305277506556,32.462224934896156],[75.77871941460538,32.45863416883691],[75.77693644205763,32.45804714626759],[75.77592664930594,32.45806776258709],[75.77272684733114,32.46023681640658],[75.77074422200573,32.460623914930835],[75.76887240939718,32.45998318142405],[75.76833611382418,32.45833062065991],[75.76776936848992,32.457494574653],[75.76739535861591,32.455438639323376],[75.76651999824483,32.454597717392886],[75.77526568949506,32.45094842904955],[75.77271699443534,32.449957269859894],[75.77101786439627,32.449957269859894],[75.76974351686616,32.45123161738961],[75.76903554601634,32.45052364653985],[75.77016829937614,32.44868292232999],[75.77016829937614,32.44755016897044],[75.77101786439627,32.44500147391108],[75.77186742941566,32.44471828557093],[75.77370815362545,32.44330234387148],[75.77526568949506,32.44301915553142],[75.78149583297349,32.44316074970122],[75.78645162892232,32.44245277885146],[75.78758438228184,32.44160321383188],[75.78914191815139,32.43976248962238],[75.79126583070112,32.439196112942426],[75.7918322073809,32.439196112942426],[75.79310655491079,32.44047046047197],[75.79792075668954,32.43650582371299],[75.79990307506912,32.435514664523424],[75.80287655263842,32.43324915780377],[75.80514205935779,32.43296596946398],[75.80698278356729,32.433957128653546],[75.803018146808,32.440753648812034],[75.803018146808,32.44174480800169],[75.80415090016791,32.44273596719161],[75.80627481271765,32.44344393804138],[75.80783234858691,32.44358553221119],[75.80938988445658,32.44344393804138],[75.81193857951595,32.442594373021535],[75.81307133287558,32.442594373021535],[75.81576162210504,32.44316074970122],[75.81731915797465,32.444435097231036],[75.81816872299456,32.44613422727082],[75.81915988218432,32.44740857480045],[75.82043422971415,32.44769176314024],[75.82793872072224,32.44769176314024],[75.82609799651274,32.445284662250884],[75.82312451894367,32.44471828557093],[75.82043422971415,32.44018727213208],[75.81873509967434,32.43877133043246],[75.8177439404848,32.438063359582515],[75.81576162210504,32.43778017124254],[75.81689437546484,32.43523147618335],[75.81675278129504,32.433957128653546],[75.81901828801469,32.43296596946398],[75.81859350550454,32.430275680234544],[75.81788553465489,32.429001332704814],[75.8170359696351,32.4258862609656],[75.81802712882453,32.42404553675618],[75.8177439404848,32.42248800088639],[75.81689437546484,32.42262959505629],[75.81547843376521,32.42503669594575],[75.81491205708565,32.42999249189482],[75.8136377095557,32.432116404444045],[75.81208017368593,32.43126683942447],[75.81179698534615,32.4295677093846],[75.81179698534615,32.42716060849514],[75.8091066961168,32.43055886857452],[75.80740756607739,32.42843495602486],[75.80585003020761,32.427585391005366],[75.80514205935779,32.42687742015552],[75.80259336429836,32.42673582598543],[75.79976148089915,32.42871814436502],[75.80032785757882,32.42645263764555],[75.7987703217091,32.425461478455716],[75.7974959741795,32.427585391005366],[75.79692959749954,32.430134086064555],[75.79579684414014,32.432116404444045],[75.7938145257605,32.43466509950339],[75.79126583070112,32.435373070353435],[75.78758438228184,32.43707220039285],[75.78432771637281,32.435514664523424],[75.78347815135331,32.43707220039285],[75.7841861222029,32.43862973626264],[75.7816374271433,32.439196112942426],[75.77597366034482,32.43962089545248],[75.77243380609562,32.44061205464196],[75.76974351686616,32.441886402171676],[75.766911633467,32.442594373021535],[75.76492931508764,32.44344393804138],[75.76280540253813,32.44358553221119],[75.76379656172779,32.44500147391108],[75.7666485140343,32.44508236721735],[75.76664706760019,32.44720865885452],[75.76700411462284,32.447901807629776],[75.76733641597693,32.449674081519916],[75.76365496755764,32.45080683487956],[75.76082308415837,32.45024045819979],[75.758557577439,32.45123161738961],[75.75515931735973,32.45024045819979],[75.75246902813026,32.44882451650007],[75.75161946311087,32.44811654565039],[75.75062830392076,32.45052364653985],[75.75091627171597,32.451905891954866],[75.74858696831657,32.45277452256968],[75.7477805582686,32.45361382378488],[75.74555806477909,32.45444742838569],[75.74322184244855,32.454399685330216],[75.74222500271301,32.453886176215434],[75.73325805664129,32.45286946614614],[75.7309272596577,32.45186089409769],[75.73055833604647,32.45007080078145],[75.73221944173227,32.447120225694704],[75.73023471408456,32.44647596571218],[75.72928331163254,32.44502495659745],[75.72694274902383,32.44444064670169],[75.72580844455322,32.445587022569796],[75.72584357367649,32.44730658637181],[75.7274483235681,32.44849609375045],[75.72786953396317,32.45151312934061],[75.72722547743072,32.453075086805754],[75.72889166937958,32.454997287326734],[75.72998881022184,32.457453884548826],[75.7286027018234,32.45917100694474],[75.72861687554283,32.45986653645855],[75.73126749674535,32.458996582031475],[75.73167121039526,32.457752278645984],[75.73308614095097,32.45778130425394],[75.73409003363739,32.458826226128934],[75.73444166395436,32.462780490451664],[75.73472751193626,32.463055284288416],[75.73383721245708,32.464163953993435],[75.73162807888505,32.46359781901063],[75.73050835503508,32.46362060546922],[75.72943623860706,32.464736328125255],[75.7290678575308,32.466760796441534],[75.72961147732255,32.467816026476086],[75.72844441731817,32.46953776041728],[75.72559441460541,32.47110378689254],[75.72299363878076,32.47198052300362],[75.72053283691449,32.47447374131987],[75.72000278049089,32.47726291232665],[75.72111579047365,32.478332519531506],[75.72059387207068,32.47934543185805],[75.71944166395431,32.479719509548744],[75.71859747992644,32.48029161241347],[75.71719821506113,32.48028103298627],[75.71636942545618,32.479418402778194],[75.71583611382411,32.47777506510444],[75.71469699435787,32.476363932291974],[75.71328979492225,32.476392686632394],[75.7113472493493,32.47705756293449],[75.71000461154571,32.477967664930745],[75.705803426107,32.479719509548744],[75.70450608995301,32.478369140625475],[75.70360819498731,32.477780490451636],[75.70302747938425,32.47539469401096],[75.70129848904136,32.47452826605944],[75.69931593153242,32.475036349826766],[75.69972500271311,32.47583062065996],[75.69999721950992,32.47778618706619],[75.69890252007397,32.47776394314259],[75.69804165310362,32.478347439236444],[75.69785446942868,32.47967207088054],[75.69780064989371,32.47945679273883],[75.69606833372043,32.47933732265798],[75.69612806876066,32.47820235688933],[75.69517230811348,32.477067391120755],[75.69146873560553,32.477067391120755],[75.68860145366332,32.47772447656584],[75.68770542805666,32.47814262184886],[75.68722754773299,32.47915811753657],[75.68686913749062,32.48196566443802],[75.69087138520084,32.484235595975164],[75.69105059032213,32.48543029678446],[75.6903337698366,32.48632632239115],[75.6867496674096,32.48716261295746],[75.68370318034616,32.48853651888791],[75.68262794961814,32.489790954737686],[75.68244874449684,32.49134406578945],[75.68400185554859,32.49247903155802],[75.68322530002266,32.493136117003175],[75.68065669328294,32.4933750571648],[75.67982040271679,32.49367373236706],[75.67898411215029,32.49540604854032],[75.67886464206939,32.49749677495605],[75.6785659668673,32.498273330482064],[75.67737126605815,32.500125116736086],[75.6765947105325,32.500364056898135],[75.67551947980397,32.50167822778785],[75.67486239435905,32.503709219163554],[75.67330928330719,32.505441535336644],[75.66715657414059,32.50562074045796],[75.66506584772449,32.50663623614568],[75.66799286470709,32.50639729598406],[75.66990438600138,32.506815441266994],[75.67062120648703,32.507950407035565],[75.67008359112256,32.510399543694106],[75.67109908681064,32.512370800029345],[75.67056147144629,32.515715962294664],[75.67283140298346,32.51529781701137],[75.6740261037925,32.51392391108138],[75.67426504395442,32.511355304341535],[75.6759973601277,32.51087742401805],[75.67701285581532,32.508906167682895],[75.67832702670538,32.507890671995185],[75.67892437711012,32.5060986207819],[75.68149298384938,32.505142860134384],[75.68280715473955,32.50502339005327],[75.683762915387,32.501080877383416],[75.68340450514407,32.49970697145298],[75.6813137787282,32.49672021943039],[75.68322530002266,32.49528657845947],[75.6852562913979,32.49451002293327],[75.68716781269288,32.494629493014386],[75.68878065878508,32.49403214260987],[75.68860145366332,32.493136117003175],[75.68770542805666,32.4918816811535],[75.68561470164073,32.490089629940115],[75.68794436821852,32.488775459049876],[75.68907933398717,32.489731219697035],[75.6897364194322,32.49134406578945],[75.69069218007931,32.492419296517454],[75.69164794072665,32.49289717684121],[75.69338025689981,32.492837441800916],[75.69511257307309,32.492419296517454],[75.69744223965083,32.49122459570842],[75.6980993250958,32.48967148465657],[75.6982187951767,32.48871572400931],[75.69732276957004,32.48710287791725],[75.6953515132349,32.485908177108215],[75.69439575258755,32.48447453613713],[75.69445548762823,32.483578510530165],[75.69326078681891,32.48172672427633],[75.69039350487722,32.48124884395257],[75.69248423129315,32.480233348264846],[75.6946944277901,32.48083069866928],[75.695769658518,32.483160365247244],[75.69835937500054,32.483608398437966],[75.69888610839885,32.48247016059061],[75.69809013494805,32.48061473295739],[75.69961500379796,32.47961507161479],[75.70042480468786,32.4783797200525],[75.7012596299916,32.47805826822956],[75.70228752984016,32.48049018012179],[75.70333611382424,32.48083062066003],[75.70361823188009,32.481411946614784],[75.7052889675571,32.48301730685793],[75.70495381673211,32.48465359158004],[75.70583611382429,32.48610839843778],[75.70621073405002,32.48726264105953],[75.7085979546446,32.48721408420188],[75.70966729058202,32.48758002387174],[75.70612915039098,32.49130072699698],[75.70583611382429,32.49250271267401],[75.70528951601304,32.493283539065644],[75.70389337819645,32.494214297609844],[75.70277832410821,32.494214297609844],[75.70206150362256,32.494931118095124],[75.70285797082883,32.496046172183654],[75.70214115034324,32.497240872992606],[75.70118538969601,32.498515220522506],[75.70038892249002,32.49907274756677],[75.69847740119545,32.499709921331544],[75.69760128726872,32.502816143435155],[75.69672517334223,32.50353296392079],[75.69624729301867,32.504409077847185],[75.69720305366602,32.504807311450165],[75.69959245528415,32.505125898332636],[75.69624729301867,32.508072826995246],[75.69592870613602,32.50982505484828],[75.69640658645974,32.510462228613406],[75.6976809339894,32.50871000076002],[75.70054821593143,32.506400245862366],[75.70142432985782,32.50600201225956],[75.70222079706392,32.50504625161196],[75.70245973722584,32.50377190408241],[75.70333585115256,32.50361261064121],[75.70357479131437,32.50671883274484],[75.70222079706392,32.50863035403924],[75.70118538969601,32.50942682124547],[75.70174291674047,32.50982505484828],[75.70437125852024,32.50871000076002],[75.70445090524063,32.511816222863644],[75.70397302491713,32.51452421136419],[75.70397302491713,32.516515379379285],[75.70325620443188,32.51778972690883],[75.70429161179962,32.519462308041625],[75.70214115034324,32.521294182615605],[75.70142432985782,32.523126057189685],[75.70214115034324,32.52392252439556],[75.70357479131437,32.52264817686593],[75.70492878556448,32.5208959490128],[75.70516772572617,32.52288711702762],[75.70588454621182,32.52304641046909],[75.70668101341798,32.520179128527076],[75.70771642078572,32.51922336787983],[75.70771642078572,32.51866584083584],[75.70699960030046,32.51715255314414],[75.70819430110922,32.51699325970286],[75.70843324127102,32.51627643921758],[75.70739783390323,32.514364917922904],[75.70819430110922,32.51348880399634],[75.70819430110922,32.51237374990791],[75.70739783390323,32.50950646796608],[75.70771642078572,32.50799318027438],[75.70763677406504,32.50584271881836],[75.70899076831543,32.50432943112649],[75.70930935519792,32.50424978440607],[75.71201734369848,32.50576307209768],[75.71281381090446,32.50687812618621],[75.71273416418401,32.51133834253989],[75.7132120445078,32.51237374990791],[75.71384921827237,32.511975516304744],[75.71384921827237,32.508152473715924],[75.71448639203723,32.50791353355379],[75.71647756005225,32.50894894092181],[75.71854837478818,32.51141798926048],[75.71966342887654,32.51221445646671],[75.72404399850981,32.511816222863644],[75.7248404657162,32.51094010893672],[75.72356611818614,32.50934717452496],[75.72022095592101,32.50703741962731],[75.71783155430253,32.50576307209768],[75.71353063138989,32.50249755655268],[75.7108226428891,32.49835592708122],[75.71114122977181,32.49716122627218],[75.71289345762514,32.49548864513956],[75.71353063138989,32.49445323777164],[75.7142474518752,32.49445323777164],[75.71743332069948,32.49588687874237],[75.71815014118513,32.49676299266929],[75.718389081347,32.49803734019875],[75.71950413543564,32.498435573801814],[75.71974307559705,32.49628511234545],[75.71926519527372,32.494931118095124],[75.71878731494999,32.49389571072719],[75.71671650021395,32.49198418943287],[75.71647756005225,32.490869135344425],[75.71679614693491,32.488639027167366],[75.7182297879057,32.487523973078936],[75.72245106409795,32.48768326651995],[75.72300859114185,32.48879832060848],[75.72292894442117,32.490630195182376],[75.7237254116275,32.490869135344425],[75.72436258539236,32.49015231485879],[75.72452187883349,32.48728503291723],[75.72595551980422,32.488081500123016],[75.72778739437845,32.487205386196194],[75.72874315502563,32.488639027167366],[75.72842456814331,32.48935584765256],[75.72898209518732,32.49039125502058],[75.72858386158461,32.49166560255013],[75.72762810093727,32.493099243521314],[75.72930068206963,32.4935771238448],[75.72993785583466,32.49190454271219],[75.73009714927585,32.49023196157957],[75.73519453939448,32.490869135344425],[75.7347166590711,32.48887796732899],[75.73216796401144,32.48561245178426],[75.73184937712941,32.482187642798166],[75.73248655089404,32.48194870263637],[75.73551312627714,32.48234693623944],[75.73583171315951,32.48433810425462],[75.73654853364516,32.48457704441624],[75.73670782708618,32.48027612150358],[75.73758394101318,32.479161067415404],[75.73861934838058,32.47876283381207],[75.73866853534938,32.478443118518086],[75.73968709484487,32.479947269056794],[75.7393007703237,32.48535581235117],[75.74055956859118,32.48640481090773],[75.74121148003505,32.48767035590302],[75.74269903040263,32.48818769575068],[75.74269903040263,32.49087798497986],[75.74057511785318,32.491727549999794],[75.73986714700348,32.49385146254909],[75.74000874117368,32.49470102756885],[75.74170787121298,32.49342668003921],[75.74241584206268,32.494276245059055],[75.74425656627241,32.49540899841888],[75.74453975461259,32.49951522934785],[75.74213265372313,32.50362146027682],[75.74411497210261,32.505320590316245],[75.74411497210261,32.513108269664656],[75.7449645371224,32.513816240514245],[75.74567250797239,32.50574537282638],[75.74595569631211,32.50489580780663],[75.7469468555017,32.50432943112649],[75.7472300438416,32.50390464861688],[75.74822120303148,32.50659493784596],[75.74935395639133,32.504612619466656],[75.75232743396074,32.505320590316245],[75.75246902813026,32.50291348942696],[75.75204424562074,32.50163914189724],[75.7502035214109,32.5005063885375],[75.7490707680511,32.49838247598829],[75.74878757971126,32.49597537509884],[75.74765482635163,32.49470102756885],[75.74708844967179,32.493001897529595],[75.74567250797239,32.49087798497986],[75.74595569631211,32.488470884090404],[75.74680526133224,32.486630159881074],[75.75048670975124,32.490170014129916],[75.74921236222124,32.48705494239087],[75.75232743396074,32.48861247826039],[75.7550177231901,32.49059479664014],[75.75671685322939,32.49286030335935],[75.75784960658925,32.49824088181812],[75.75799120075922,32.50263030108725],[75.75969033079875,32.50701972035611],[75.76039830164851,32.4985240701582],[75.75983192496884,32.491585955829706],[75.75912395411908,32.48946204328033],[75.75671685322939,32.48804610158052],[75.75544250569968,32.485780594861225],[75.75360178149012,32.484506247331424],[75.75005880812378,32.483416101680334],[75.74986524793863,32.483120930989784],[75.74737163801174,32.481957552272064],[75.74708844967179,32.47955045138261],[75.7502035214109,32.47969204555277],[75.75147786894073,32.48011682806229],[75.75076989809102,32.47898407470301],[75.7469468555017,32.47841769802305],[75.74581410214185,32.475444220453724],[75.74567250797239,32.474311467094],[75.7465220729919,32.47048842450474],[75.74737163801174,32.46978045365496],[75.74793801469141,32.46793972944546],[75.75048670975124,32.46510784604614],[75.75544250569968,32.467373352765506],[75.75658169107615,32.46836064675874],[75.7575460476352,32.470381130642494],[75.75749131944494,32.47389702691004],[75.75888610839903,32.47555826822939],[75.7634265814892,32.47822211371572],[75.76363268121767,32.47864696628423],[75.76250451492686,32.48062125729312],[75.76401780261827,32.484046066278864],[75.76449568294177,32.48739122854445],[75.76664614439849,32.49105497769234],[75.76744261160431,32.490975330971565],[75.76712402472228,32.48970098344202],[75.76584967719228,32.488108049030004],[75.76577003047149,32.48611688101474],[75.76513285670663,32.48340889251436],[75.76521250342742,32.48062125729312],[75.76648685095714,32.481417724499096],[75.76927448617838,32.48229383842583],[75.77078777387007,32.48388677283785],[75.77198247467877,32.486276174455924],[75.77238070828193,32.4902585104862],[75.7739736426943,32.49248861866326],[75.77421258285582,32.494240846516476],[75.77405328941498,32.49814353582623],[75.77421258285582,32.50045329072371],[75.77508869678255,32.50180728497395],[75.77548693038554,32.50698432181335],[75.77684092463588,32.50921442999058],[75.78002679346017,32.51136489144686],[75.78010644018084,32.51048877751995],[75.77891173937164,32.50754184885761],[75.77859315248926,32.505471034122095],[75.77899138609231,32.503479866106744],[75.77787633200361,32.498462122708716],[75.7780356254448,32.49726742189968],[75.77787633200361,32.49639130797303],[75.77827456560661,32.4952762538845],[75.777796685283,32.494320493237154],[75.77763739184192,32.49328508586913],[75.777796685283,32.49256826538368],[75.77723915823881,32.49129391785404],[75.77532763694424,32.48858592935349],[75.77660198447396,32.48826734247129],[75.777796685283,32.489143456398025],[75.78002679346017,32.49001957032459],[75.78130114098971,32.4915328580161],[75.7830533688431,32.49280720554573],[75.78321266228446,32.493603672751604],[75.784885243417,32.494798373560826],[75.78584100406422,32.49487802028125],[75.78552241718214,32.49408155307546],[75.78400912949033,32.493046145707524],[75.78233654835773,32.49113462441302],[75.78114184754841,32.48882486951537],[75.78034538034237,32.48818769575068],[75.7779559787243,32.48715228838293],[75.77628339759187,32.48683370150046],[75.77660198447396,32.48611688101474],[75.7757258705474,32.48372747939666],[75.77357540909114,32.48038231713116],[75.76712402472228,32.47528492701262],[75.7636195690155,32.47345305243837],[75.76099122723534,32.46811672215796],[75.76226557476483,32.46684237462806],[75.76230805238643,32.466279546145216],[75.76339714898032,32.46785536024326],[75.76543986002659,32.469817979601046],[75.76831848144596,32.47038004557312],[75.7691638861767,32.47166937934061],[75.77138882107263,32.473433430989814],[75.77617092556468,32.47421196831651],[75.77775458441877,32.47582628038222],[75.78330423990931,32.47927842881964],[75.7836316596142,32.480955674913474],[75.78583611382422,32.481386176215466],[75.78786770290864,32.48284722222249],[75.78988098144586,32.48724446614614],[75.79144944932764,32.488272840712085],[75.79255479600735,32.489769422743265],[75.79759134928437,32.49245062934064],[75.8007986111115,32.49351535373293],[75.80455478244394,32.49160563151062],[75.80627990722692,32.49219618055602],[75.81028055826854,32.49249728732664],[75.81144544813392,32.49289605034747],[75.8127440049918,32.492227105035],[75.81395562066038,32.49193169487883],[75.81549648708815,32.49196316189281],[75.81682590060794,32.49162245008702],[75.8194264051655,32.49248318142371],[75.82164632161519,32.494162597656725],[75.82305833604644,32.49471950954914],[75.82334676106817,32.495313856337205],[75.82330281575574,32.49746826171912],[75.82474188910615,32.49925103081627],[75.82532368977897,32.504012315538304],[75.82707283414882,32.504579976359054],[75.82751393821232,32.50546218448632],[75.83091219829166,32.506736532016134],[75.83034582161147,32.50857725622545],[75.83034582161147,32.510559574605125],[75.82892987991195,32.511975516304744],[75.82850509740197,32.51353305217462],[75.8299210391016,32.51494899387407],[75.83643437092022,32.51452421136419],[75.83742553010987,32.51494899387407],[75.83445205254057,32.51622334140362],[75.83162016914159,32.51622334140362],[75.83246973416126,32.51948000731301],[75.83416886420068,32.52174551403229],[75.83218654582137,32.52287826739203],[75.8319033574812,32.52514377411167],[75.83289451667102,32.528825222530855],[75.83473524088063,32.52981638172051],[75.83629277675007,32.5300995700604],[75.83785031261968,32.52981638172051],[75.8402574135093,32.52726768666098],[75.84153176103874,32.52429420909182],[75.84337248524824,32.523727832411865],[75.84464683277807,32.52514377411167],[75.84521320945831,32.527409280830966],[75.84677074532763,32.528825222530855],[75.8510185704267,32.53038275840038],[75.85172654127635,32.53236507677995],[75.85031059957683,32.53477217766941],[75.8477619045174,32.53632971353902],[75.84762031034731,32.53887840859811],[75.85031059957683,32.53647130770865],[75.85300088880606,32.53661290187891],[75.85342567131633,32.54029435029808],[75.85809827892481,32.54185188616752],[75.86347885738374,32.545816522926685],[75.86786827665262,32.54779884130599],[75.870983348392,32.548790000496],[75.87225769592166,32.55077231887523],[75.87225769592166,32.55218826057502],[75.87027537754173,32.55459536146448],[75.86800987082259,32.55870159239336],[75.87381523179093,32.555728114824134],[75.87763827438042,32.55232985474511],[75.87721349187021,32.549639565515406],[75.8736736376209,32.54425898705689],[75.86914262418199,32.54156869782781],[75.86418682823344,32.53760406106856],[75.86333726321348,32.53647130770865]]]]},"properties":{"id":"1643"}}]}