{"type":"FeatureCollection","features":[{"type":"Feature","geometry":{"type":"MultiPolygon","coordinates":[[[[78.4266769748269,26.431399197048734],[78.42779242621575,26.428899197048835],[78.42995090060796,26.42986599392374],[78.43082302517385,26.42816053602448],[78.43018880208362,26.42769449869806],[78.4284768337678,26.428323025173725],[78.42752631293448,26.427463650173763],[78.4266769748269,26.42806586371556],[78.42366346571228,26.42837320963565],[78.42415635850719,26.43001030815995],[78.42498969184086,26.430382215711987],[78.42389431423666,26.43137858072933],[78.42253065321202,26.43096571180574],[78.4216563585073,26.429732530382097],[78.42041666666702,26.426805555555774],[78.41989556206627,26.42725450303834],[78.4205894639762,26.42914360894116],[78.41989556206627,26.430122341580088],[78.42090603298655,26.4305731879342],[78.42195475260465,26.431656358507084],[78.4229831271704,26.433316243489614],[78.42370741102465,26.433374565972372],[78.42473253038239,26.433065863715456],[78.42520507812529,26.43251763237859],[78.42633409288246,26.432013617621735],[78.4266769748269,26.431399197048734]]]]},"properties":{"id":"18783"}}]}