{"type":"FeatureCollection","features":[{"type":"Feature","geometry":{"type":"MultiPolygon","coordinates":[[[[74.35776746961895,25.048600802951768],[74.36038275824754,25.048343641493418],[74.36136203342099,25.049480251736412],[74.36204969618151,25.04942491319484],[74.36248969184115,25.048159722222678],[74.361611599393,25.047768012153227],[74.36180555555646,25.043472222222604],[74.3607454427092,25.043953993056064],[74.35863715277864,25.043377278646147],[74.35773573133761,25.044816080729575],[74.35704779730989,25.0454090711809],[74.35431396484458,25.045299479167028],[74.35353759765692,25.047878689236455],[74.35177354600776,25.047135416667103],[74.35024712456672,25.047258029514353],[74.3502924262161,25.047822808160078],[74.35252414279589,25.048494466146195],[74.35387858073008,25.049454752604547],[74.35634874132037,25.049711914062897],[74.35776746961895,25.048600802951768]]]]},"properties":{"id":"19135"}}]}