{"type":"FeatureCollection","features":[{"type":"Feature","geometry":{"type":"MultiPolygon","coordinates":[[[[104.6879920966646,16.928232495756436],[104.68887939787115,16.92821908186059],[104.68887049991945,16.92766172109033],[104.68847365179754,16.927603755650154],[104.68802323931969,16.927844513572953],[104.6879920966646,16.928232495756436]]],[[[104.69674529979356,16.931536680614105],[104.69676754581381,16.931822048981623],[104.69703067198569,16.931987066105293],[104.69792692386062,16.932076218444553],[104.69820784899954,16.931804261571564],[104.69803397256226,16.931344941527758],[104.69765934692487,16.931175516298925],[104.69709749916427,16.93119778043995],[104.69674529979356,16.931536680614105]]],[[[104.7020471513286,16.931987054953087],[104.7020471513286,16.932432995054153],[104.70231019754468,16.932807541505262],[104.70268928388379,16.932972500076794],[104.70342948379823,16.932803077738587],[104.70359891693143,16.932432920348077],[104.70342503440125,16.931612508058727],[104.70304594624979,16.931447462984256],[104.70221658293993,16.931616899040495],[104.7020471513286,16.931987054953087]]],[[[104.6879920966646,16.928232495756436],[104.6876665228286,16.928384046862515],[104.68749265831893,16.9292001289871],[104.68793853131262,16.929842215229787],[104.68826401674622,16.92998486893033],[104.68872332787298,16.92982881723388],[104.6893163769139,16.92931162725642],[104.6893163769139,16.929021731099994],[104.68887049991945,16.928379652711033],[104.6879920966646,16.928232495756436]]],[[[104.71713672832591,16.92632402622556],[104.7173150761291,16.927148960516558],[104.71777883478023,16.92731392205908],[104.71852355702052,16.926961664560583],[104.71915223069674,16.926332864906612],[104.71932168111798,16.925878077622613],[104.71914333099488,16.9255926603236],[104.71850121886087,16.92551688216674],[104.71809993350796,16.925784471344254],[104.7173106263311,16.9259583037308],[104.71713672832591,16.92632402622556]]],[[[104.6899184152369,16.92713556424547],[104.68994066026893,16.927688434161336],[104.6903642952736,16.92822806416199],[104.69118923459104,16.928392988727733],[104.69157274256673,16.92821911118658],[104.69174216263629,16.927853439751175],[104.69174216263629,16.927135517006967],[104.6915682935128,16.92676093240325],[104.69101082807478,16.926595970050226],[104.69009228249298,16.926885843013935],[104.6899184152369,16.92713556424547]]],[[[104.68826401674622,16.92998486893033],[104.68750600512692,16.93009642622447],[104.68710471160693,16.930368380062355],[104.68631992331999,16.930390642140363],[104.6861459713574,16.93063589643688],[104.68625746075115,16.931460839216538],[104.68659192941823,16.932178780828693],[104.6870601333893,16.932343772167503],[104.68727857567728,16.93216543605054],[104.6877958091039,16.932143120156056],[104.68862527257328,16.931625868725874],[104.68995409626983,16.93133604985163],[104.69078348241541,16.93081871459271],[104.69172881546017,16.930818780068556],[104.69213012106232,16.93054673058441],[104.69318686783483,16.9305289030793],[104.69347677151205,16.93027921752309],[104.69534069259197,16.92998936218765],[104.69563496051984,16.929739620852228],[104.69615222208009,16.92971737240827],[104.69644204236631,16.929472083503832],[104.69837282713151,16.929400730373338],[104.69882763022294,16.929739668097742],[104.70054443280253,16.929739692004866],[104.70098144500855,16.930011687921326],[104.70216310161808,16.93001164147851],[104.70260002943398,16.930279247253328],[104.7034561801829,16.93027918694061],[104.70339379963798,16.930818728233415],[104.70356768213287,16.9311888989677],[104.7039466825811,16.93135834007852],[104.70485641204849,16.931358304624133],[104.70583288887526,16.93189784743978],[104.70657310390546,16.93178637564088],[104.70683179735006,16.931358321986345],[104.70854851122908,16.93133605046343],[104.70936011037254,16.930916825646232],[104.70952955003149,16.930546762040215],[104.70952955003149,16.929628217927494],[104.71006910623744,16.928932520670685],[104.71070228403983,16.92891027449799],[104.71104561611322,16.92858923126668],[104.71178131756176,16.928642731307367],[104.71234321891683,16.928121029985153],[104.71331084383752,16.928013987091802],[104.71447915690364,16.926872406856212],[104.71464860219075,16.926502353929187],[104.71501864144308,16.926332943220107],[104.7153084972449,16.92516018154373],[104.71636086438461,16.925137820760487],[104.71692269343517,16.924620612556538],[104.71771199862688,16.92459834686803],[104.71852355702052,16.92417912976664],[104.71905860585893,16.923639646804247],[104.71950003144724,16.92273444153923],[104.71956695737248,16.922177052433355],[104.71896498107796,16.92101319458422],[104.71842539373749,16.92047365528559],[104.71733296431835,16.919858289149268],[104.71649907431922,16.92002771883194],[104.71542445751717,16.92110680474433],[104.71525056163885,16.92185598194523],[104.71488488256324,16.922185932942032],[104.71400641977625,16.92370203717921],[104.7135337730923,16.924072129645054],[104.71309681425754,16.92508880466756],[104.71272669062493,16.925418824451324],[104.71243683967748,16.926056464343812],[104.71122395687004,16.92605647330848],[104.71082269045746,16.92632396554461],[104.70933777354064,16.9263240102833],[104.70895431026632,16.926497906940767],[104.7084147579649,16.9270374575836],[104.70797772465592,16.927942637770037],[104.70797772465592,16.929133230465364],[104.70785732046187,16.929289300637453],[104.70725983940135,16.92928925731557],[104.70682280936964,16.929021761966712],[104.7059087078035,16.929021768188544],[104.70547177059566,16.92874969509182],[104.7040225005804,16.928749737683688],[104.70358556872614,16.92848222428782],[104.7024083505612,16.92848221266087],[104.70197133430244,16.928210221375757],[104.7005220972497,16.928210143382252],[104.7000851753345,16.92794261752244],[104.6975568366957,16.927942597778944],[104.69711983421979,16.92767506791761],[104.69656243762896,16.92769295845532],[104.69626816792577,16.927942608354417],[104.69548333282656,16.927964905488423],[104.69497497182172,16.928210172443666],[104.69497497182172,16.927675094367828],[104.69480109904052,16.927300516688117],[104.69397614033173,16.927135521723716],[104.69359271533963,16.927305003540468],[104.69342320424751,16.927675070688355],[104.69344998787744,16.928482190912145],[104.69305757702189,16.92850444337975],[104.69276331402874,16.92874970098354],[104.6919784968269,16.928772072189172],[104.6916886849576,16.929021746729116],[104.69089942421061,16.92903960860974],[104.69060952539643,16.929289289304027],[104.6893163769139,16.92931162725642],[104.68905335293061,16.92990017819533],[104.68826401674622,16.92998486893033]]]]},"properties":{"id":"39276"}}]}