{"type":"FeatureCollection","features":[{"type":"Feature","geometry":{"type":"MultiPolygon","coordinates":[[[[77.4630672200527,30.588862847222288],[77.46567952474001,30.58723253038201],[77.46739501953195,30.588045247395954],[77.46866753472293,30.586503906250044],[77.46847222222263,30.58597222222231],[77.46498969184066,30.586100802951563],[77.46298285590328,30.587239854600924],[77.46054524739631,30.589156358506983],[77.4596004231777,30.59025309244798],[77.45806586371569,30.590937771267576],[77.45889892578188,30.59165635850698],[77.46047119140687,30.591365288628566],[77.46193603515681,30.589664984809218],[77.4630672200527,30.588862847222288]]]]},"properties":{"id":"17598"}}]}