{"type":"FeatureCollection","features":[{"type":"Feature","geometry":{"type":"MultiPolygon","coordinates":[[[[83.20428548177082,24.784365013970685],[83.20606201171884,24.78352659437435],[83.20877549913203,24.78363413492886],[83.21088189019085,24.7841860792376],[83.21323296440963,24.786613498264188],[83.21421332465266,24.787216932508983],[83.21582790798627,24.786105821397868],[83.21845404730894,24.784866451687634],[83.22074652777772,24.77993220011443],[83.22110568576383,24.778050265842367],[83.22166748046871,24.7769885762535],[83.22193901909716,24.77456895616362],[83.22027235243061,24.774171956380528],[83.2199026150175,24.77223488701739],[83.21757893880223,24.773049316406556],[83.21692789713538,24.77137301974855],[83.21472900390617,24.77146018134266],[83.2144498697916,24.76992368910078],[83.21527235243056,24.767210676405483],[83.21404947916656,24.766394178602695],[83.21147759331618,24.76729566786051],[83.21085449218756,24.76861563788553],[83.20398328993045,24.768876105414947],[83.2012939453127,24.767174835205523],[83.1996530490454,24.76540367974198],[83.19860568576385,24.764727511936243],[83.1981944444444,24.763194444444707],[83.19617974175341,24.764423963758972],[83.19702826605905,24.7669532775882],[83.19778320312506,24.76805026584239],[83.19809787326383,24.769372355143545],[83.20042290581611,24.770469529893973],[83.20183566623271,24.773359815809812],[83.2057191297744,24.77491097344327],[83.20638346354158,24.77644480387403],[83.20576443142372,24.77761478000245],[83.20419759114591,24.779166191949088],[83.20297932942728,24.77943915473115],[83.20126383463528,24.778837873671108],[83.19637858072909,24.776095004611847],[83.19577256944436,24.776119028727436],[83.19446994357648,24.776808319092126],[83.1938943142363,24.777570868598417],[83.19712999131937,24.77883087158233],[83.19875732421863,24.78135103013804],[83.19925211588546,24.785484975179344],[83.19982014973974,24.786558549669365],[83.19969509548613,24.78971267700227],[83.20011040581588,24.789994710286734],[83.20310302734399,24.785460628933706],[83.20428548177082,24.784365013970685]]]]},"properties":{"id":"4955"}}]}