{"type":"FeatureCollection","features":[{"type":"Feature","geometry":{"type":"MultiPolygon","coordinates":[[[[75.11644140625023,25.421939453125006],[75.11693359375002,25.421560546875085],[75.1171914062501,25.421439453125032],[75.11768359375012,25.42106054687501],[75.11885937499997,25.420919921875097],[75.11919140625022,25.42043945312507],[75.1193085937501,25.420185546875175],[75.1195585937501,25.41971289062522],[75.1194414062501,25.41931054687508],[75.1193085937501,25.41906445312499],[75.11919140625022,25.41806054687494],[75.11830859375013,25.417064453125064],[75.11819140625008,25.41681054687517],[75.11805859375002,25.416564453125176],[75.11794140625014,25.414810546875074],[75.11780859375025,25.414564453125067],[75.11769140624997,25.41306054687496],[75.11755859375009,25.412814453125137],[75.11744140625021,25.41256054687497],[75.1173085937501,25.41231445312515],[75.11714062500025,25.41160839843755],[75.11642187500016,25.411437500000105],[75.11625000000006,25.411250000000138],[75.11580859375002,25.411310546874844],[75.11556640625011,25.411439453125055],[75.11505859375026,25.41156054687501],[75.11481640625007,25.411689453125135],[75.11455859374999,25.41181054687509],[75.11431640624997,25.41193945312513],[75.11405859375,25.412060546875082],[75.11381640624998,25.412189453125208],[75.11333593750018,25.41241601562517],[75.1125585937501,25.413310546875124],[75.11233203125013,25.413790039062505],[75.11156640625009,25.414439453125212],[75.11089453125001,25.414599609374974],[75.1100585937501,25.415560546875128],[75.1099414062501,25.415814453125023],[75.1098085937501,25.416060546875016],[75.10969140625022,25.416564453125176],[75.10955859375,25.41681054687517],[75.10944140625011,25.417314453125144],[75.10930859375011,25.417560546874967],[75.10919140624995,25.417814453125217],[75.10880859375013,25.41831054687512],[75.10869140625007,25.418564453125],[75.10855859374996,25.418810546875008],[75.1084414062502,25.41906445312499],[75.10805859375009,25.41956054687506],[75.1079414062502,25.419814453125227],[75.1076914062501,25.42028710937501],[75.10784375000017,25.421118164062563],[75.10830859375025,25.421439453125032],[75.1088164062501,25.421560546875085],[75.10905859375,25.42168945312511],[75.10931640625009,25.421810546875165],[75.10955859375,25.421939453125006],[75.11006640625013,25.422060546874974],[75.11053515625005,25.422308593750103],[75.11133593749994,25.421694335937488],[75.11194140625022,25.422435546875178],[75.11211718750005,25.422810546875127],[75.1149414062501,25.42268945312516],[75.11518359375,25.422560546874948],[75.11569140625014,25.422439453124994],[75.11618359375026,25.422060546874974],[75.11644140625023,25.421939453125006]]]]},"properties":{"id":"27043"}}]}