{"type":"FeatureCollection","features":[{"type":"Feature","geometry":{"type":"MultiPolygon","coordinates":[[[[104.3495049370662,14.548367614746184],[104.35107937283018,14.545689154731065],[104.35373182508712,14.542631123860858],[104.35413492838543,14.541023627387318],[104.3522664388021,14.537971835666383],[104.35176866319452,14.53751057942732],[104.35065538194485,14.534170871311034],[104.34939425998269,14.532621392144193],[104.34844590928836,14.529444444444707],[104.34799099392367,14.529588487413278],[104.34809326171907,14.532168443468123],[104.34525553385421,14.532055969238456],[104.34497911241343,14.532711859809197],[104.34775200737855,14.533241271972727],[104.34913492838567,14.53448387993717],[104.34857042100717,14.53881432427309],[104.34730441623279,14.53998725043418],[104.34552381727431,14.540411376953415],[104.3430574544274,14.542641432020602],[104.34077880859385,14.542914123535397],[104.33953206380207,14.544259507921154],[104.33799207899327,14.54517340766077],[104.3380547417535,14.546753336588722],[104.33771592881968,14.547720065646956],[104.33317816840284,14.547671508789307],[104.33247911241332,14.548958943685065],[104.33542100694476,14.55104682074662],[104.33715196397569,14.551594848632973],[104.34059516059031,14.553208346896952],[104.3414949544273,14.553172675238969],[104.34326551649329,14.551261800130419],[104.34398003472248,14.55092458089203],[104.34826524522609,14.549705403646115],[104.3495049370662,14.548367614746184]]]]},"properties":{"id":"10337"}}]}