{"type":"FeatureCollection","features":[{"type":"Feature","geometry":{"type":"MultiPolygon","coordinates":[[[[77.68138102213541,24.536381089952798],[77.68360324435767,24.535978156196222],[77.68184950086791,24.534957105849188],[77.6823358832464,24.533601548937142],[77.68375759548636,24.532697380914286],[77.68425862630218,24.53001366509386],[77.68361897786443,24.518325534397235],[77.68228678385427,24.516702067057835],[77.67763020833357,24.51610090467716],[77.67652777777775,24.514027777778296],[77.67546657986108,24.514225870768755],[77.6761032443575,24.51639668782606],[77.67721435546864,24.518106926812663],[77.67660780164928,24.518648986816842],[77.67497884114564,24.518551907010064],[77.67370062934017,24.519982571072575],[77.67276991102423,24.52026997884171],[77.67241753472231,24.522158711751786],[77.67476318359363,24.523060540093837],[77.67462131076408,24.525441080729735],[77.67820909288204,24.525295206706218],[77.67750786675347,24.527109714084702],[77.67842258029512,24.527529602051317],[77.67830566406244,24.529491305881535],[77.67675862630202,24.530201382107805],[77.67500949435751,24.530608350966233],[77.67579752604175,24.53131256103569],[77.67641059027787,24.53227630615291],[77.67637722439233,24.532832472059937],[77.67440836588551,24.53508999294749],[77.67447808159713,24.536257392036177],[77.67348253038179,24.536714240180743],[77.67387722439227,24.537492201063827],[77.67750217013904,24.53637800428659],[77.67817518446188,24.53674370659769],[77.67802571614592,24.539249030219665],[77.67984103732644,24.54026997884158],[77.68107828776024,24.538324822320476],[77.68138102213541,24.536381089952798]]]]},"properties":{"id":"9571"}}]}