{"type":"FeatureCollection","features":[{"type":"Feature","geometry":{"type":"MultiPolygon","coordinates":[[[[107.9052267634294,13.76093303872048],[107.90831336058343,13.760125939477305],[107.90859563388719,13.759853921758022],[107.90805609055414,13.759586332445181],[107.90805609055414,13.759314343064474],[107.90724894714853,13.75931431561159],[107.90670940628709,13.75931437512159],[107.90563032753604,13.759586311986624],[107.90536281859599,13.759853870806424],[107.90401614667198,13.76012588319034],[107.90260149802307,13.76012592704761],[107.90212994847346,13.760125941666757],[107.90105079614543,13.759586381031653],[107.89997173818935,13.758507231036603],[107.89970414400207,13.757967728558796],[107.89970414400207,13.756888590966085],[107.90024376239555,13.75608149993981],[107.90077886159477,13.75554198175972],[107.90105079614543,13.755274362520694],[107.90159041701534,13.755002418417988],[107.90352881738843,13.755002425309357],[107.90482319079265,13.755002429911102],[107.90509078964638,13.75473488042924],[107.90563032753604,13.754195294173215],[107.90590235698485,13.753927756760191],[107.90847181307711,13.753927735717554],[107.90940269058316,13.75392772809414],[107.91021201003085,13.754195327738003],[107.9104817831799,13.754462812008825],[107.91317962239273,13.754462839640766],[107.91425420844368,13.754462874544146],[107.91479376314047,13.754462806089478],[107.91533331882587,13.75419527244837],[107.91533331882587,13.753927724276664],[107.91371465473529,13.753927755782655],[107.91070426094254,13.753927758438493],[107.90994223638674,13.753927759110667],[107.90994223638674,13.753655784170945],[107.90940269058316,13.753388198475918],[107.90859563388719,13.75311617325525],[107.90563032753604,13.753116216997952],[107.90482319079265,13.753388222560744],[107.90455568258764,13.753655760811668],[107.90320458454514,13.753927793957729],[107.90105079614543,13.753927774325518],[107.90105079614543,13.753655788718504],[107.90024376239555,13.753655705909281],[107.89943221069981,13.75392777446531],[107.89781797352114,13.755002392888542],[107.89673883705765,13.75500236039889],[107.8959318151748,13.755002434909144],[107.89539220471798,13.755274370423606],[107.89539220471798,13.756081517134504],[107.8959318151748,13.757428130857605],[107.89619931551695,13.757967737495377],[107.89647133622319,13.758239683133837],[107.89835749804124,13.758507271432194],[107.89943221069981,13.759314336806469],[107.90131839156075,13.76066095469966],[107.90239745446846,13.760933026218837],[107.9052267634294,13.76093303872048]]]]},"properties":{"id":"40290"}}]}