{"type":"FeatureCollection","features":[{"type":"Feature","geometry":{"type":"MultiPolygon","coordinates":[[[[78.83255479600737,25.054710286458345],[78.83247612847256,25.053731011284853],[78.83166314019141,25.054184570312614],[78.83118842230945,25.05363389756947],[78.83097222222264,25.052232530382113],[78.83332492404563,25.054178602430596],[78.83384765625053,25.054136284722333],[78.83193413628501,25.051954752604175],[78.83167697482682,25.051356336805583],[78.8335199652781,25.051362847222222],[78.83511827256976,25.05077582465283],[78.83498453776096,25.049111870659743],[78.83378038194482,25.049208984375042],[78.83024115668442,25.047718098958313],[78.82838975694503,25.046187065972234],[78.82778808593807,25.044616970486075],[78.82834825303874,25.043613281250174],[78.82819444444473,25.043194444444495],[78.82713080512204,25.043359375000023],[78.82425482855936,25.04312825520836],[78.82139919704909,25.044176974826442],[78.81748969184062,25.044434136284877],[78.81507514105945,25.045024956597373],[78.81473253038237,25.045997721354382],[78.81639919704892,25.048600802951412],[78.81705078125029,25.05006076388898],[78.81948649088596,25.053427191840314],[78.82150254991384,25.055431857638922],[78.82197048611161,25.05648057725692],[78.82191270616372,25.057202148437582],[78.82296251085117,25.059058702256976],[78.82526014539965,25.061038411458355],[78.82564534505244,25.061901041666687],[78.82861111111148,25.062794053819616],[78.83089409722274,25.06145128038193],[78.83082139756979,25.060547417534792],[78.83169270833386,25.059074978298653],[78.83173990885442,25.056170789930547],[78.83255479600737,25.054710286458345]]]]},"properties":{"id":"9507"}}]}