{"type":"FeatureCollection","features":[{"type":"Feature","geometry":{"type":"MultiPolygon","coordinates":[[[[74.9960926649313,25.316992187500347],[74.99615776909818,25.31535047743094],[74.99525227864657,25.313003472222633],[74.99528428819528,25.31219780816015],[74.99342990451495,25.31028320312545],[74.9927832031257,25.31073838975739],[74.99332790798704,25.311672092014334],[74.99414550781344,25.31242947048662],[74.99462782118164,25.31473524305595],[74.9938991970495,25.31470594618098],[74.99280164930647,25.31546169704899],[74.99139431423683,25.31471679687536],[74.98861979166756,25.31418728298671],[74.98761393229236,25.31310167100729],[74.98591471354243,25.31224121093787],[74.98221679687586,25.311116536458727],[74.97916124132033,25.30944986979209],[74.97585449218823,25.30671657986143],[74.97466471354241,25.30469346788233],[74.97301269531343,25.302910156250377],[74.97138346354248,25.30222764756995],[74.97002224392432,25.30123263888926],[74.96968804253564,25.299829644097812],[74.9662071397577,25.29808213975737],[74.96024848090363,25.296946072049025],[74.95986111111185,25.296527777778337],[74.95845486111207,25.296796332465618],[74.95556098090347,25.298060980903145],[74.95412434895903,25.298402777778136],[74.95302137586876,25.299424913194798],[74.95210991753552,25.30164442274348],[74.95511881510512,25.299740668403174],[74.95937934027856,25.29868109809071],[74.96389431423708,25.29916124131988],[74.9662988281257,25.299950629340785],[74.96819064670237,25.301171875000406],[74.97326443142438,25.306551649306],[74.97393337673705,25.308218858507274],[74.9774945746536,25.311116536458727],[74.98095757378567,25.313032769097603],[74.98250542534791,25.31332790798649],[74.98356608073007,25.313889431424016],[74.98591959635488,25.31417100694486],[74.98828450520907,25.31692491319484],[74.99018391927163,25.317422417535056],[74.99284939236205,25.31686523437544],[74.99463541666753,25.31749131944501],[74.99551649305656,25.317526041666994],[74.9960926649313,25.316992187500347]]]]},"properties":{"id":"9484"}}]}