{"type":"FeatureCollection","features":[{"type":"Feature","geometry":{"type":"MultiPolygon","coordinates":[[[[107.71903473772512,14.215208379971488],[107.71903473772512,14.215930793681421],[107.71921317182561,14.2163097686756],[107.71959217526774,14.216479220306352],[107.72111713853106,14.216479264613104],[107.72146054778128,14.216323174635953],[107.72157203616841,14.217027711875264],[107.7220178998142,14.217286342727736],[107.72542916420056,14.217286286958986],[107.72643239482086,14.216751228107961],[107.72675792152326,14.217121297669257],[107.72750709515539,14.217286295813395],[107.72927288328947,14.218352048227812],[107.72927288328947,14.218891626575802],[107.72945123356946,14.219275113856865],[107.72983025087883,14.219440096414035],[107.73066409076401,14.21942221506808],[107.73094056222385,14.219266165769078],[107.73110554172817,14.218896079973383],[107.73110554172817,14.217906165150513],[107.73083801477148,14.217509236201185],[107.73081569828238,14.216448022439138],[107.73040550888074,14.215939678525462],[107.7309316175547,14.215917394921016],[107.73122597863464,14.215667688394513],[107.73255033626717,14.215649791377935],[107.7333841842429,14.214860534078534],[107.73405305336212,14.21486059327081],[107.73443650410726,14.214691114737736],[107.73472635129544,14.214053508647849],[107.73577867619397,14.214031205109247],[107.73659473441684,14.2136120026567],[107.7368800662286,14.212974408154286],[107.73740185013664,14.212800462912506],[107.73796366114978,14.212167270482519],[107.7392880505814,14.212144993875588],[107.73983206581461,14.211721321018732],[107.74011740091548,14.21108818181111],[107.74144180050008,14.211065897023301],[107.74225335748405,14.210646703152126],[107.74242719831837,14.210276579199787],[107.742815178198,14.210009085613008],[107.7435108146323,14.209897548440846],[107.74389427828882,14.209469545936836],[107.74644933057785,14.20946955883154],[107.74685954341156,14.209201994242488],[107.74763994335382,14.209179700533662],[107.74793423158624,14.20892992927226],[107.74898660593055,14.20891210423361],[107.74955286754033,14.208399321909267],[107.75004341166776,14.208662396995312],[107.7508772211811,14.208640123100809],[107.75114919469215,14.208488526142158],[107.75159067783407,14.20731574222619],[107.75249144654508,14.207293489322918],[107.75310235170959,14.206704832587201],[107.75399408949012,14.206776234898381],[107.7542884747165,14.206664765641099],[107.75466743515642,14.20569714129312],[107.75574658065757,14.205162040012365],[107.75624156311986,14.205429536361711],[107.75749899235187,14.205429528914701],[107.75790479368268,14.205157525507781],[107.75842200824846,14.20513971927325],[107.7592558425308,14.20435046021628],[107.76021907418784,14.203971450009966],[107.76037955287694,14.203739568773251],[107.76092360884087,14.2038108884428],[107.76134269800578,14.204203323975598],[107.76134269800578,14.205153140422437],[107.76161477196415,14.205545510369317],[107.76161477196415,14.206156416151982],[107.76134269800578,14.206588975813073],[107.76134269800578,14.208042583748734],[107.76080767721312,14.209010241122423],[107.76080767721312,14.21046831800295],[107.76053560403197,14.210896457602878],[107.76055792287822,14.211721343379025],[107.76134269800578,14.212550772020899],[107.76151664097453,14.213344468471286],[107.7622256065147,14.21394199170862],[107.76259572229297,14.214691107451362],[107.76296141089266,14.214980987360263],[107.76298363957002,14.216033336303012],[107.7634117678513,14.21684488138866],[107.7641564306803,14.217018771335526],[107.7649367881045,14.2177500860411],[107.76558332254808,14.217825843141641],[107.76596681621326,14.217647522817723],[107.76614076202681,14.217281823748273],[107.76614076202681,14.216555025774985],[107.7659266957395,14.21618042332186],[107.76631461758579,14.216207180792766],[107.76674717863186,14.216479228215455],[107.76720196934806,14.216479197458343],[107.76814281826773,14.215939660498048],[107.76900794660925,14.215939655620305],[107.77023859487409,14.218209335290485],[107.77023859487409,14.218891563579161],[107.77041254331263,14.219270586978414],[107.77095652820987,14.219814660177164],[107.77167446336513,14.220175814716937],[107.77331989266149,14.220519187727561],[107.77364981101482,14.221156853802142],[107.77402888776719,14.221326241897312],[107.77476906030766,14.221219280201868],[107.77542456327701,14.220519198405691],[107.77593738199951,14.220349682899254],[107.77611124357067,14.219975194773802],[107.77647694962455,14.21980572713229],[107.77778787460586,14.218476882783778],[107.77789495739239,14.218913921880642],[107.77823382723625,14.219275041656667],[107.77940207282866,14.21955601685146],[107.77966964584434,14.220099979645752],[107.77969196619848,14.221696364171134],[107.78020922056481,14.222521265309688],[107.7802314505954,14.223047517566787],[107.780476703975,14.22333732655221],[107.78049902439257,14.223854610087088],[107.78086021779049,14.224572509047613],[107.78128828271494,14.224951485665246],[107.78146666588212,14.225468803650433],[107.78194380073994,14.225638191402133],[107.78254573280876,14.226280325022623],[107.78291587512538,14.226449772971929],[107.78498934972578,14.226449794106287],[107.78539510006566,14.226177778101295],[107.78617542556482,14.226159895760476],[107.78698702057574,14.225736318635525],[107.78728134972489,14.225370627577574],[107.78779861790194,14.225201246190602],[107.78834254574313,14.224657178971679],[107.78897133087628,14.223399758998216],[107.7890471502755,14.222556993680177],[107.78970711426597,14.221865777648446],[107.79137921665179,14.22186579733203],[107.79181172551995,14.222137851900188],[107.79218630801019,14.222137822771206],[107.7928908316831,14.222677374581995],[107.79353300164847,14.222677378101839],[107.79396994193287,14.222944903854916],[107.7950669496648,14.222922598053156],[107.79644474457923,14.221598313021776],[107.79696202939442,14.221424402636963],[107.79752386827964,14.22079114613376],[107.79927626686494,14.220791202224166],[107.79965528739564,14.220612836198862],[107.80002093333445,14.220149094561222],[107.8002795788661,14.219881507660114],[107.80025734727032,14.219328596834114],[107.79983368206852,14.218427873825389],[107.79953943032737,14.218253945625566],[107.7992450885175,14.218338675310505],[107.79895526560739,14.218704333511148],[107.7968237613488,14.218726575940062],[107.79571798088055,14.219783403084225],[107.79520512648791,14.219952869236865],[107.79464329217069,14.220590473097634],[107.79391201454744,14.22073770638238],[107.7937202487783,14.220487980358518],[107.79297117062714,14.220322931183832],[107.7919946337721,14.21978342356801],[107.78846743512008,14.219805696756096],[107.78766035430343,14.220224880229452],[107.78684432933547,14.221036424960174],[107.7866748892286,14.221410997571661],[107.7866748892286,14.222592612877241],[107.78640730961737,14.22328381947859],[107.78577410213103,14.223457695853451],[107.78520785841148,14.224095405804592],[107.78434719903485,14.224362898392547],[107.7836604988243,14.223167893227874],[107.78336626378976,14.221839098933643],[107.78258142766448,14.220474620697058],[107.78255910708329,14.219685277974836],[107.78219791152534,14.218962966599577],[107.7815959801934,14.218066699718522],[107.78096278342503,14.217504822719487],[107.7804232072728,14.216697699285888],[107.78031178596427,14.216269626014835],[107.77988363214573,14.215890660757816],[107.77970976826356,14.215373363652558],[107.7788981940349,14.214557378584335],[107.77851920114124,14.214392347906458],[107.77697187799008,14.214503869815763],[107.77633426366309,14.215105813794327],[107.77616473946016,14.215587434909466],[107.77562969065475,14.216283064676778],[107.7752640760576,14.216452429027694],[107.77496975936026,14.216818085245059],[107.77443019460249,14.21708123217245],[107.7742294959318,14.21696968643698],[107.77449706406958,14.216474769192176],[107.77447474412408,14.215912935223189],[107.77357408608904,14.214111441692442],[107.77297208268509,14.21321514072806],[107.77249044473714,14.213045717201037],[107.77200447016638,14.212608731047187],[107.77233890516182,14.212162771089009],[107.77233890516182,14.21150730373586],[107.7728784659392,14.210267652170762],[107.7728784659392,14.209549791646179],[107.77261089932917,14.209157361354373],[107.77261089932917,14.20820312410821],[107.77243252172948,14.207819686243655],[107.77160316676552,14.207654663892498],[107.7709476726334,14.208100586251387],[107.77077815165171,14.208849727447458],[107.77023859487409,14.209545311164224],[107.77023859487409,14.210196335748075],[107.76931563076468,14.211966617336978],[107.76879387815326,14.21198891058272],[107.76849956817641,14.212238615210808],[107.76737139782675,14.21223860245073],[107.76612287045249,14.211699076226061],[107.76440609783408,14.211699107564968],[107.76452654898637,14.211239755740499],[107.76489666777682,14.210909831369392],[107.76506166717886,14.21043265902558],[107.76560121408829,14.20973262815954],[107.76560121408829,14.206049359200167],[107.7653336543551,14.205652558751138],[107.76531133513178,14.205130782995795],[107.76506166717887,14.204840951363822],[107.76506166717887,14.203886713397365],[107.764798535648,14.203498797345505],[107.76506166717887,14.202994885201122],[107.7650437756728,14.20243752516001],[107.76414305727403,14.200636048243618],[107.76371501824607,14.200257028483312],[107.76353664625219,14.199472197395515],[107.76271165465427,14.199302767992865],[107.76226129881107,14.199628256752431],[107.76192244807791,14.19919574211721],[107.76154338753922,14.199030751682056],[107.76070954650383,14.199053034159423],[107.75987570792955,14.199837890479909],[107.75914885715359,14.199989461099179],[107.75858257627546,14.199570329440094],[107.75801620617418,14.199592634743993],[107.75773979845977,14.199744212022583],[107.75745435514469,14.200377438905214],[107.75678109318562,14.20037740752694],[107.75637529347043,14.200649391791016],[107.75585808265528,14.200671706540534],[107.75505091400258,14.201090870821702],[107.75448906887735,14.201728511349636],[107.75397186152048,14.201746384599572],[107.75367756698213,14.201996050600897],[107.75316469826582,14.202018372854003],[107.75287040456992,14.20226360007872],[107.75208565300179,14.202285878576156],[107.7507166575405,14.203614692334163],[107.75019945710528,14.203632560267057],[107.7499051665058,14.203882230532466],[107.7494279953275,14.203882279719343],[107.74925415016821,14.203507667022247],[107.74887953409308,14.20334273422486],[107.74831327383713,14.203365015053901],[107.74803678527957,14.20352103992139],[107.74775586956892,14.204421775576304],[107.74527209534953,14.204421846395734],[107.74483513984765,14.204149808034572],[107.74338594510017,14.204149812704257],[107.7428776128304,14.203690508432247],[107.7421151161489,14.2036325152406],[107.74157109649593,14.204056145730755],[107.74113405639145,14.205077298324172],[107.74074165151796,14.205500922719308],[107.73953326841195,14.205500936552967],[107.7391274935548,14.20576848471784],[107.73737953312539,14.205768483004286],[107.73699156075189,14.20594238106857],[107.73682215053341,14.206847570956318],[107.73618444621172,14.2070169957538],[107.73510094851022,14.20810053105121],[107.73494039387816,14.20846178678494],[107.73429826661989,14.208484096146679],[107.73295167442429,14.209175185513521],[107.73239421027749,14.210080398080947],[107.7318725260328,14.210254317015377],[107.73131072721651,14.210887494801502],[107.73110554172817,14.2108874824067],[107.73108331556803,14.210521851049432],[107.73065966360886,14.209977829331622],[107.72983025087883,14.209812872575935],[107.72836767153689,14.210793872180277],[107.72819826652835,14.211168452664957],[107.72822049245963,14.211699055955844],[107.72675349442983,14.21171690931724],[107.72647702710238,14.21187293764568],[107.72631647741038,14.212238652612145],[107.72513932662888,14.21225647718757],[107.72432772881626,14.212675647826579],[107.72425635385684,14.212845022151875],[107.72325313103757,14.212795984501895],[107.7229766671682,14.212952098122287],[107.7228071750749,14.213585254858138],[107.72244153869677,14.213607602344485],[107.72210707262867,14.21391081500597],[107.72176375293162,14.213482742574499],[107.72139360056207,14.21331330533747],[107.7204795603077,14.213313231634434],[107.72004255308954,14.2130457246764],[107.71974820377098,14.21306802471883],[107.71930234374538,14.21404011543206],[107.71903473772512,14.215208379971488]]]]},"properties":{"id":"39196"}}]}