{"type":"FeatureCollection","features":[{"type":"Feature","geometry":{"type":"MultiPolygon","coordinates":[[[[83.18481119791679,24.928163553874043],[83.18582194010403,24.927628690931925],[83.1899981011284,24.92779421488487],[83.19129964192703,24.926174375746314],[83.19080729166674,24.925243623521865],[83.19084852430555,24.924202440050166],[83.199072265625,24.923901663886454],[83.20027235243052,24.92472752041317],[83.20111653645844,24.924994701809652],[83.20233479817725,24.925928912692882],[83.20324435763902,24.92544755723773],[83.20649115668394,24.92467926025428],[83.20693901909723,24.92411075168215],[83.2060373263889,24.923275087145115],[83.20247341579861,24.921922251383833],[83.2025070529514,24.9210740492084],[83.2030718315971,24.920550638834968],[83.20304117838535,24.91977842542886],[83.20166124131939,24.919449742635422],[83.19970350477442,24.918595335218967],[83.19487358940987,24.918446460300345],[83.19368760850685,24.917630377875696],[83.19333875868071,24.915912568834457],[83.19477077908002,24.913831448025533],[83.19639431423613,24.91278307596872],[83.19669921875013,24.91118498908189],[83.20139431423613,24.910838631524243],[83.20166124131939,24.91004571702777],[83.19882622612877,24.90950444539439],[83.19351426866334,24.909171964857606],[83.19198594835078,24.910821516249257],[83.19075846354181,24.91143654717368],[83.19028320312489,24.911949742635358],[83.18967475043408,24.912236853705835],[83.18787217881962,24.91223499721984],[83.18634358723975,24.913286870321002],[83.18494411892348,24.913605812920792],[83.18383544921866,24.91301913791267],[83.18248643663205,24.913072611491117],[83.18139431423597,24.912494701809678],[83.1781065538195,24.91217968410949],[83.17690348307312,24.911351826986092],[83.17639431423626,24.910272479587434],[83.17532443576411,24.90887759738534],[83.176322157118,24.906448745727758],[83.1726416015625,24.90512552049465],[83.17013319227445,24.905650329590117],[83.16862169053817,24.904850523207216],[83.16686604817707,24.904432347615995],[83.16517442491337,24.902281205919394],[83.16335367838533,24.901421881781957],[83.16191134982662,24.89997962951705],[83.1610633680555,24.8982585737444],[83.16052870008687,24.89776301913824],[83.16057156032983,24.896681467692417],[83.15916124131965,24.894449742635302],[83.15869384765622,24.892972869873446],[83.15708333333347,24.8923611111114],[83.15582790798621,24.89249470180964],[83.15556098090283,24.89337999979682],[83.15685058593769,24.8952541097008],[83.15587456597214,24.897098634508183],[83.15671440972241,24.89868587070079],[83.15777235243061,24.899922968546903],[83.15545871310755,24.900272479587457],[83.15230333116327,24.89944564819362],[83.14911078559024,24.89917196485763],[83.14814480251741,24.900214513143197],[83.14869004991326,24.901244956122852],[83.15129964192718,24.901931465996952],[83.15362575954893,24.90371512519019],[83.1588085937502,24.903635457357055],[83.15922932942718,24.907588704427383],[83.1599644639758,24.908269856771156],[83.16255588107643,24.90750529819097],[83.16442409939228,24.90849377102353],[83.16346462673604,24.91123101128501],[83.16570366753481,24.912102974785967],[83.16751573350703,24.91363406711187],[83.16753445095472,24.916005249023755],[83.16904351128468,24.91867730034751],[83.1681331380208,24.920000000000428],[83.1688943142361,24.92110581292077],[83.16944986979169,24.922772479587493],[83.16978705512159,24.924890382555077],[83.16966715494803,24.92791866726394],[83.17003716362862,24.928974236382714],[83.17171006944463,24.93052435980931],[83.17361653645824,24.93082803514308],[83.17563123914923,24.932467710707385],[83.17736897786452,24.93279948764406],[83.1791913519966,24.932806277805213],[83.18190077039938,24.929881880018797],[83.18229275173601,24.92864439222585],[83.18481119791679,24.928163553874043]]]]},"properties":{"id":"4947"}}]}