{"type":"FeatureCollection","features":[{"type":"Feature","geometry":{"type":"MultiPolygon","coordinates":[[[[79.40316053602444,23.75693413628521],[79.40422878689239,23.756338026259158],[79.40636773003482,23.75644300672792],[79.40982259114597,23.751886800130677],[79.41171088324668,23.74820068359432],[79.41152777777788,23.747361111111672],[79.40841525607644,23.74772854275224],[79.40526746961817,23.749156358507477],[79.4050081380208,23.74945732964447],[79.40257378472225,23.74912733289969],[79.40114447699673,23.749242078993476],[79.4007478841149,23.750987006293812],[79.40151828342024,23.752974039713934],[79.40126437717035,23.756132269965732],[79.40167480468747,23.756099310981483],[79.40316053602444,23.75693413628521]]]]},"properties":{"id":"19549"}}]}