{"type":"FeatureCollection","features":[{"type":"Feature","geometry":{"type":"MultiPolygon","coordinates":[[[[103.36815077039617,15.660845269097464],[103.36923366970197,15.659317762587023],[103.37040635850391,15.660149197048753],[103.37184950086501,15.660477159288419],[103.37413574218445,15.657823621962024],[103.37789957682006,15.655492078993376],[103.37957302517063,15.654834255642555],[103.37535942925038,15.645898708767604],[103.37367757161152,15.645955132378717],[103.37333333333052,15.645555555555802],[103.37272867838229,15.646076388889156],[103.3719184027747,15.649304470486385],[103.36964057074343,15.651267089843998],[103.36636501735816,15.650944824219053],[103.36402153862562,15.65126247829889],[103.36344509548306,15.650941026475863],[103.36280788845201,15.650992024739793],[103.36326117621232,15.652226291232793],[103.36316433376444,15.653429090712109],[103.36382649739275,15.655437554253623],[103.36378011067401,15.657873535156483],[103.36308078341702,15.659777289496702],[103.36071994357351,15.661811252170281],[103.35955105251455,15.662163357205102],[103.35782362195877,15.664568684896082],[103.35940266926778,15.665209147135585],[103.36310329860837,15.665112847222389],[103.36577256944159,15.664211968316252],[103.36825629339981,15.662157389323085],[103.36815077039617,15.660845269097464]]]]},"properties":{"id":"10286"}}]}