{"type":"FeatureCollection","features":[{"type":"Feature","geometry":{"type":"MultiPolygon","coordinates":[[[[81.11144140625012,25.073189453124982],[81.11157421875023,25.07125195312517],[81.11193359375002,25.071060546875202],[81.11242187500014,25.070831054687545],[81.11280859375003,25.07026562500012],[81.11264062500001,25.069619140625107],[81.11219140624988,25.069310546875087],[81.11193359375002,25.06918945312505],[81.11094140625013,25.068310546875125],[81.11068359375,25.068189453125086],[81.11019140625004,25.067810546874966],[81.10993359375001,25.067689453125013],[81.1096914062501,25.067560546875157],[81.10943359375003,25.067439453125203],[81.10919140625012,25.067310546875078],[81.10868359375016,25.067189453125025],[81.10844140625002,25.067060546875084],[81.10818359375006,25.066939453125045],[81.10794140625003,25.066810546875004],[81.10743359375002,25.066689453125136],[81.10719140625,25.066560546875195],[81.10693359375003,25.06643945312497],[81.10669140625001,25.06631054687503],[81.10618359374999,25.066189453125062],[81.10594140625014,25.06606054687512],[81.10543359375018,25.065939453125083],[81.1051914062501,25.065810546875042],[81.10493359375002,25.06568945312509],[81.10469140625011,25.065560546875233],[81.10441796875008,25.065432617187497],[81.1042499999999,25.065249999999992],[81.10355859375002,25.065310546875153],[81.10331640625,25.065439453125094],[81.10283593750009,25.06566503906258],[81.10144140625013,25.067191406249975],[81.10155859375001,25.067939453125092],[81.10180859375018,25.068410156250096],[81.10130859375002,25.069060546875008],[81.10119140625002,25.069314453125088],[81.10069140625009,25.069966796875036],[81.10100781250006,25.07056054687513],[81.10169140625013,25.07043945312509],[81.10216406250018,25.070189453125096],[81.10262890625026,25.070558593750008],[81.10289062500013,25.07110937500012],[81.1035507812501,25.071420898437665],[81.10369140625014,25.07168554687513],[81.1039179687501,25.07217089843745],[81.10448437499988,25.072560546875152],[81.10494140624999,25.0724394531251],[81.10536718749998,25.072214843750174],[81.10569140625003,25.072685546875192],[81.10592578125019,25.07318457031269],[81.10664453125005,25.073212890625186],[81.10716406250017,25.072939453125073],[81.10801171875008,25.073095703125134],[81.10822265625015,25.073499999999953],[81.10796093750011,25.07400000000011],[81.10819140625014,25.074435546875037],[81.10833984375014,25.075365234375084],[81.10898437499989,25.07581054687502],[81.1096914062501,25.075689453125065],[81.10983203125008,25.074497070312574],[81.11018359375018,25.074310546875083],[81.11044140625015,25.074189453124944],[81.11068359375,25.07406054687509],[81.11110937500015,25.073859375000197],[81.11130859375018,25.073435546874975],[81.11144140625012,25.073189453124982]]]]},"properties":{"id":"19129"}}]}