{"type":"FeatureCollection","features":[{"type":"Feature","geometry":{"type":"MultiPolygon","coordinates":[[[[107.94495110405725,14.571088765462633],[107.94598517523795,14.569888407389868],[107.94691019693923,14.570961880154584],[107.94736701117532,14.570272793240477],[107.94559807671342,14.567188381619346],[107.94606058756418,14.564982740614582],[107.95041822645285,14.56334099663674],[107.94989332410947,14.562500000000597],[107.94651740180015,14.562844373915581],[107.94370869954312,14.563689982096832],[107.94254252115783,14.565179104275643],[107.94358364528986,14.56890577528263],[107.94495110405725,14.571088765462633]]]]},"properties":{"id":"22329"}}]}