{"type":"FeatureCollection","features":[{"type":"Feature","geometry":{"type":"MultiPolygon","coordinates":[[[[103.04525580512168,14.9134779018828],[103.04613715277796,14.913168996175472],[103.04755316840291,14.913185797797524],[103.04904541015654,14.911575164795096],[103.05071370442724,14.910594363742632],[103.05195529513892,14.9092545403376],[103.05267171223969,14.906991560194413],[103.05190999348955,14.90513754950642],[103.05267496744804,14.904026048448657],[103.05206081814251,14.902274000379975],[103.04924262152772,14.900564761691797],[103.04803466796872,14.898375498453987],[103.04874538845499,14.895663079155938],[103.05080159505215,14.894208831787267],[103.05021782769106,14.891980845133617],[103.04908989800336,14.890935685899791],[103.04798692491315,14.890979410807489],[103.04645562065971,14.894223751492206],[103.04477186414951,14.894624871148196],[103.03988688151028,14.894574398464826],[103.03698649088537,14.893602701823099],[103.03606363932292,14.892033233642707],[103.03312337239603,14.888867713080757],[103.03107937282996,14.888477511936031],[103.02929144965273,14.887022281223125],[103.0276125759548,14.886388888889158],[103.02455647786454,14.886836039225471],[103.02414577907982,14.888322414822127],[103.02580159505206,14.890750359429532],[103.02494601779526,14.891543189154874],[103.02312147352441,14.891470879448917],[103.02102783203142,14.892399393717668],[103.01980116102433,14.894855821397783],[103.01819932725695,14.893753560384383],[103.01775309244803,14.89234452989379],[103.01641493055561,14.892335662842072],[103.01552815755221,14.89264641655835],[103.01435818142355,14.89202729966921],[103.0114561631946,14.892687259250508],[103.00964843750015,14.89407360500772],[103.00798095703132,14.8948947143557],[103.00797254774304,14.898095533583145],[103.00914577907983,14.898466932508896],[103.0113951280384,14.900455407036958],[103.0124791124131,14.900966932508794],[103.01353624131966,14.902603980170667],[103.01427517361137,14.903288845486415],[103.01608127170144,14.902911020914885],[103.01762234157982,14.902883249918801],[103.0194200303819,14.903259362115037],[103.02292344835078,14.905291476779666],[103.02417941623278,14.906553751627769],[103.0257823350698,14.90649022420277],[103.02632107204855,14.90707151624909],[103.02722764756956,14.907499389648635],[103.02860975477441,14.906768018934699],[103.029910481771,14.90681955973335],[103.03135389539952,14.908711429172229],[103.03330268012147,14.907910987006531],[103.03658040364579,14.908899909125651],[103.0380349392361,14.912952524821208],[103.03876057942725,14.913624894884123],[103.04525580512168,14.9134779018828]]]]},"properties":{"id":"10308"}}]}