{"type":"FeatureCollection","features":[{"type":"Feature","geometry":{"type":"MultiPolygon","coordinates":[[[[102.09596950954543,16.119253743489793],[102.09282999674164,16.11623752170155],[102.0914930555526,16.11626491970506],[102.08811659070878,16.112750651041964],[102.08374728732346,16.11208604600722],[102.08124728732335,16.1104193793406],[102.07922973632517,16.10867947048635],[102.077951253252,16.1056678602433],[102.07623182508391,16.10401584201415],[102.07535156249699,16.10220160590312],[102.07580281575193,16.101325683593956],[102.07929321288762,16.100946451823162],[102.08471679687219,16.101000434028094],[102.08532891167229,16.0997387695314],[102.08417331271389,16.098628200955176],[102.0813708496062,16.098172200521148],[102.07974161783537,16.098189290364814],[102.07902398003151,16.09513861762177],[102.07998521592569,16.09291666666681],[102.0790140787731,16.0906719292538],[102.07903089734944,16.089847276475908],[102.08024522569147,16.089258083767604],[102.08218315971905,16.089754774305817],[102.08588935004016,16.087699652778014],[102.08623616536144,16.084046495225905],[102.0865527343719,16.08343180338572],[102.08807807074353,16.08188693576416],[102.09015733506655,16.080345594618336],[102.09013400607321,16.07920844184052],[102.08818617078694,16.079875217014262],[102.08614718966717,16.07985622829878],[102.08474717881646,16.076625434028173],[102.08252807616876,16.074493272569754],[102.08152777777488,16.075008409288458],[102.08049804687184,16.074477810330094],[102.08323174370358,16.071775173611314],[102.0879427083303,16.071831597222612],[102.08790866427628,16.070161675347336],[102.0884071180524,16.067728135850842],[102.08909505208035,16.066713324653023],[102.08888888888575,16.06611111111131],[102.08703681097782,16.067116156684307],[102.0843591308562,16.066773817274594],[102.08315592447596,16.06737575954884],[102.0797494845888,16.069833984375293],[102.07713826497096,16.0689404296879],[102.07482028537007,16.067363823784916],[102.07263888888573,16.06811062283009],[102.07028279622088,16.06732123480927],[102.06812662760095,16.06736545138918],[102.06643568250573,16.070213758680893],[102.06562350802656,16.072273220486252],[102.063886718747,16.07311577691],[102.06316107855585,16.074955512153082],[102.06249932182865,16.0776700846357],[102.06332451714101,16.079272189670377],[102.06529703775746,16.078597005208707],[102.0669444444413,16.080311686198172],[102.06881401909428,16.079553493923868],[102.07046020507514,16.079587131076664],[102.07282253688939,16.08039550781288],[102.07470526800913,16.079119466146068],[102.0763777669242,16.078752712673946],[102.07906467013575,16.081008300781434],[102.07985839843448,16.082691514757187],[102.07858506944135,16.08346950954889],[102.07483127169846,16.08208604600712],[102.073736029728,16.08265028211828],[102.07373643662893,16.085385742187768],[102.07206380208046,16.087378200955158],[102.07208048502295,16.09069688585103],[102.07237521701066,16.091269259983036],[102.07397026909413,16.092043185764183],[102.07274997287007,16.09384331597255],[102.07127739800055,16.0945575629343],[102.07012695312207,16.095430501302374],[102.06925726996226,16.095412868923887],[102.0676306152312,16.094574924045332],[102.06695570203695,16.095277506510698],[102.06903049044828,16.097636176215488],[102.07013617621229,16.099901801215452],[102.0693090820283,16.10231825086845],[102.07103366427648,16.104372558593894],[102.07234293619493,16.10707139756967],[102.07371324326968,16.1083878580733],[102.07405829535296,16.1090993923614],[102.07489922417213,16.113406575521054],[102.07436360676766,16.114446072048835],[102.07403049044834,16.116702202691144],[102.07497056748812,16.117358398437773],[102.07705742729726,16.116092936198157],[102.07737386067399,16.114794379340466],[102.07734727647275,16.113485785590484],[102.07793457030934,16.112619357639147],[102.0794276258649,16.112650010851027],[102.08148356119497,16.11421006944471],[102.0833062065943,16.11282687717039],[102.08514160155951,16.11346950954882],[102.08541395398984,16.113774685330085],[102.08430230034426,16.115414496528118],[102.08468343098642,16.11914388020874],[102.0858854166635,16.119580620660102],[102.08624728732329,16.117358398437773],[102.08800659179391,16.114848904080134],[102.08877224392043,16.114864366319708],[102.09042616102121,16.117925075955128],[102.09260294596041,16.117880588107866],[102.0951934136256,16.120114746094032],[102.09596950954543,16.119253743489793]]]]},"properties":{"id":"10265"}}]}