{"type":"FeatureCollection","features":[{"type":"Feature","geometry":{"type":"MultiPolygon","coordinates":[[[[79.08527398003505,25.216700846354087],[79.0855501302087,25.21582790798618],[79.08629557291695,25.21474500868075],[79.08805013020887,25.213883463541706],[79.08917209201431,25.213616536458417],[79.09029730902816,25.212753363715365],[79.09261664496572,25.212201063368212],[79.09517659505255,25.210846354166776],[79.09667209201447,25.210560980902827],[79.10001600477463,25.208904622395934],[79.10138346354202,25.207772352430595],[79.10283094618111,25.207496202257104],[79.10707817925399,25.205444335937585],[79.10878797743092,25.20281141493078],[79.10744411892395,25.20250542534724],[79.10564860026093,25.203412543402834],[79.10389160156276,25.203969184027898],[79.10245144314271,25.20359157986121],[79.1018549262158,25.202948133680692],[79.10103624131986,25.20338107638895],[79.10017822265681,25.204307183159784],[79.09793918185798,25.205216471354206],[79.09750542534775,25.204666341145895],[79.09837076822967,25.203030598958406],[79.09831542968803,25.20163248697925],[79.10001464843819,25.199951171875043],[79.09999430338607,25.19944010416671],[79.10033474392421,25.198796657986193],[79.10026068793442,25.196928710937513],[79.0988387044275,25.19692599826405],[79.09892740885468,25.199166666666684],[79.09721679687541,25.199439019097255],[79.09638373480973,25.19988009982653],[79.09545193142392,25.198436957465262],[79.094077148438,25.19739257812502],[79.09314507378522,25.197885199652944],[79.09253797743091,25.197230360243125],[79.09111653645877,25.19755588107644],[79.0920526801219,25.198423394097233],[79.09361653645894,25.199161241319587],[79.09416124131982,25.199778103298584],[79.09360161675383,25.200836046006955],[79.09474826388922,25.20170572916676],[79.09471435546905,25.202560221354346],[79.09139838324708,25.202428927951445],[79.08848171658022,25.20054416232645],[79.08799723307342,25.200563151041663],[79.08675645616373,25.201902669270893],[79.08433892144157,25.202216796875092],[79.07861653645878,25.197494574652865],[79.07738064236142,25.196911349826465],[79.0770833333336,25.195972222222252],[79.07638346354216,25.196105685763982],[79.07607449001765,25.196439344618128],[79.07612386067748,25.197683376736066],[79.077483995226,25.200015733507072],[79.07832790798668,25.200838758680604],[79.07996582031305,25.201228841145948],[79.08150363498297,25.203325737847294],[79.07916124131984,25.20360568576396],[79.07889431423646,25.20409776475698],[79.08056504991359,25.20517686631949],[79.08054090711849,25.205789388020847],[79.07888346354227,25.20610568576396],[79.07861653645878,25.206499565972322],[79.0799945746534,25.207505425347307],[79.08113850911494,25.207777777777792],[79.08110215928852,25.20870117187515],[79.07847303602486,25.210993381076534],[79.07716634114635,25.211383463541708],[79.07639431423647,25.210550130208432],[79.07547146267402,25.21028320312506],[79.07417209201444,25.21122178819455],[79.07638346354216,25.21198296440977],[79.07430908203182,25.211955295138893],[79.07250542534754,25.213338758680663],[79.07138319227491,25.213605685763937],[79.0714051649309,25.214161783854365],[79.07063205295188,25.21495062934028],[79.07227810329894,25.21610568576402],[79.07508951822976,25.213225911458522],[79.07725396050378,25.21430501302102],[79.07888346354227,25.213666992187697],[79.07794297960098,25.215532769097294],[79.0783843315975,25.216791992187538],[79.0793703884552,25.217494574652818],[79.08279025607689,25.21649359809038],[79.08274685329891,25.21758355034727],[79.08153591579921,25.219343532986272],[79.08183919270883,25.22027235243057],[79.08355360243084,25.21909288194449],[79.08391113281286,25.217963867187507],[79.08527398003505,25.216700846354087]]]]},"properties":{"id":"4930"}}]}