{"type":"FeatureCollection","features":[{"type":"Feature","geometry":{"type":"MultiPolygon","coordinates":[[[[103.06649603949646,14.879705946180778],[103.06690700954877,14.879313371446543],[103.06724039713546,14.883925001356587],[103.06755452473956,14.88485329522041],[103.06857693142362,14.884297739664973],[103.07075005425347,14.883959096272989],[103.07361056857636,14.884467400445246],[103.07593424479163,14.885433926052798],[103.07773084852445,14.885326843261979],[103.07930745442727,14.885749138726354],[103.08024359809022,14.886257815891014],[103.08288384331595,14.886610938178336],[103.08452039930549,14.886513417562043],[103.08996582031241,14.871139475504847],[103.08922688802082,14.869079810248806],[103.08988715277789,14.867864634196138],[103.08940782335091,14.866528913710013],[103.08975151909735,14.865246005588318],[103.08894883897571,14.86331646389452],[103.08996582031241,14.858828497992846],[103.08927842881948,14.854959784613953],[103.08791829427074,14.852457038031886],[103.08520453559046,14.851413726806825],[103.0829397243925,14.848293270535322],[103.08018147786456,14.847610236274164],[103.07983479817725,14.847222222222442],[103.07921386718763,14.847413940429874],[103.07747639973977,14.849808163113195],[103.07686686197931,14.851918674045336],[103.07681152343784,14.856512976752498],[103.0750333658855,14.860083635118457],[103.0733468967014,14.862139044867888],[103.07414822048602,14.86513107299821],[103.07441026475684,14.867890641954489],[103.06968804253464,14.8681866285538],[103.06837456597216,14.86865798950221],[103.06776855468749,14.86933603922543],[103.06748155381959,14.872091149224417],[103.06726915147581,14.87235329522052],[103.06682969835063,14.870930124918829],[103.06705105251737,14.867216457790974],[103.06536810980893,14.864807484944876],[103.06497395833352,14.860604875352905],[103.06357693142368,14.859591149224357],[103.06259792751732,14.858495449490292],[103.06109266493067,14.85903559366875],[103.05884195963554,14.85933659871435],[103.05636176215265,14.860428229438114],[103.05470377604169,14.862826961941408],[103.05579915364595,14.864501715766195],[103.05274359809019,14.867075517442686],[103.05198920355909,14.869038340250881],[103.05012044270828,14.870857611762375],[103.05028238932309,14.873573777940834],[103.05125135633673,14.87443966335745],[103.054240451389,14.87617980957053],[103.0573795572918,14.879693315294219],[103.05777126736106,14.881376478407375],[103.05918158637152,14.882273508707812],[103.06045437282987,14.885584055583024],[103.06308376736123,14.887328711616007],[103.06496880425343,14.88768056233745],[103.06597710503488,14.887620476617045],[103.06645643446168,14.886576046414106],[103.06627143012165,14.883472222222395],[103.06649603949646,14.879705946180778]],[[103.06664822048597,14.873946838379112],[103.06733479817731,14.873333333333491],[103.06744547526054,14.878252326117789],[103.06692545572909,14.878742184109385],[103.06664822048597,14.873946838379112]]]]},"properties":{"id":"7662"}}]}