{"type":"FeatureCollection","features":[{"type":"Feature","geometry":{"type":"MultiPolygon","coordinates":[[[[78.3190516493058,25.14078179253498],[78.31723768446224,25.138334418402835],[78.31638590494836,25.138058268229173],[78.31640190972266,25.137273763021],[78.3159776475699,25.13596679687511],[78.31528021918436,25.135296223958363],[78.31374755859397,25.131955837673715],[78.31454155816002,25.131939561632052],[78.31625000000028,25.134039171007032],[78.3166639539933,25.133608398437588],[78.31751980251752,25.13333062065992],[78.31748019748326,25.130558810763915],[78.31999728732669,25.130575086805592],[78.31943820529577,25.129999457465303],[78.3208306206603,25.129086371527862],[78.3203803168407,25.12875488281273],[78.31892659505255,25.129252387152846],[78.31861382378506,25.128608398437606],[78.31750379774351,25.127541775173853],[78.31778049045161,25.126374782986247],[78.31915825737875,25.12640299479176],[78.31971950954906,25.12476291232646],[78.3185970052086,25.122219509548657],[78.3186252170141,25.12084147135417],[78.31791151258707,25.120155707465287],[78.31851888020859,25.119523654513984],[78.31889160156291,25.120291883680565],[78.32027452256969,25.12026367187505],[78.32023518880251,25.123052842882018],[78.32183810763937,25.12210123697922],[78.32305826822946,25.12249728732641],[78.3235921223961,25.123052842882018],[78.32500840928847,25.12277940538199],[78.32501410590314,25.121116536458374],[78.32388400607661,25.120278862847186],[78.32485161675399,25.11833604600706],[78.32710964626793,25.119407552083374],[78.32778618706627,25.11804741753474],[78.32775797526065,25.116669379340337],[78.32852159288214,25.117029079861183],[78.32942057291726,25.118882378472193],[78.33167507595519,25.121392686631935],[78.33164279513929,25.12297092013894],[78.33206108941002,25.12425998263906],[78.3327804904516,25.125008680555695],[78.33333604600736,25.12499728732641],[78.33416937934064,25.12584201388897],[78.33472493489606,25.12583062065967],[78.3359543185766,25.12666395399313],[78.33570502387201,25.124906141493128],[78.33469536675383,25.123855251736217],[78.3327804904516,25.12292643229175],[78.33354465060799,25.121722005208525],[78.33471950954905,25.120830620659774],[78.33554687500023,25.120847439236087],[78.335563964844,25.12000271267378],[78.33500271267408,25.11946343315985],[78.33658284505256,25.11889160156258],[78.33694715711849,25.119163953993052],[78.33749457465322,25.120291883680565],[78.33999728732661,25.120297309027947],[78.33861382378504,25.11890787760416],[78.33913981119818,25.117255859375106],[78.33961669921902,25.11675944010416],[78.34055284288249,25.11833604600706],[78.34249240451416,25.119487304687624],[78.34250840928846,25.120275065104167],[78.34194715711837,25.12081434461811],[78.34343885633703,25.121570638020856],[78.34285942925388,25.12212727864582],[78.34355224609399,25.123472222222333],[78.34295518663217,25.124631076388923],[78.343607855903,25.125258246527764],[78.3436298285595,25.126329752604164],[78.34313937717039,25.128243272569577],[78.34389160156277,25.128608398437606],[78.344981011285,25.129719509548636],[78.34583062066005,25.12931911892362],[78.34555826822955,25.128608398437606],[78.34488986545185,25.12796603732646],[78.34539822048643,25.12588053385423],[78.34713840060815,25.125173611111137],[78.34830349392408,25.126386176215277],[78.34897542317756,25.126075303819448],[78.34851779513909,25.12473849826395],[78.34944715711853,25.12471950954874],[78.35040581597244,25.125717230902893],[78.35134711371555,25.124778645833402],[78.35268066406277,25.121754557291695],[78.35486653645884,25.11819986979178],[78.35538085937529,25.116615668402773],[78.35740098741346,25.114067382812507],[78.3585232204866,25.1135232204861],[78.35890597873296,25.1127343750001],[78.36301974826429,25.108395182291673],[78.36444173177122,25.10638617621524],[78.36531005859419,25.105817057291873],[78.37022026909747,25.10065972222229],[78.37332790798663,25.095966796875118],[78.37416937934083,25.095558268229183],[78.37498833550396,25.092844509548655],[78.37565158420162,25.086510959201448],[78.37762234158006,25.08211208767362],[78.37933973524352,25.080324435764],[78.38005913628521,25.07997558593756],[78.38000759548638,25.076433919270954],[78.37958875868102,25.074716796875123],[78.37861490885464,25.072826063368026],[78.37862494574702,25.070569118923714],[78.37805257161503,25.06972493489579],[78.37811143663245,25.066850043402752],[78.37777316623308,25.065807834201493],[78.37598632812549,25.06584418402784],[78.37555257161503,25.065002712673646],[78.37557481553856,25.06391493055567],[78.37470811632002,25.063330620659727],[78.37473632812552,25.061947157118055],[78.3737169053824,25.062273763020997],[78.37333604600715,25.06305826822917],[78.37222493489631,25.063597547743186],[78.37278076171904,25.064163953993088],[78.37276367187562,25.06499186197935],[78.37333062066008,25.065536566840393],[78.37305826822953,25.06611382378476],[78.37194715711829,25.066474609374964],[78.37354410807345,25.067454969618083],[78.37305826822953,25.06944715711812],[78.37276936848983,25.06972493489579],[78.37279188368106,25.070830620659805],[78.37194824218776,25.070050998263923],[78.37229790581623,25.06840060763895],[78.37140787760447,25.067502712673644],[78.36971950954907,25.0677750651042],[78.36918592664958,25.06833007812517],[78.36793592664989,25.06772406684037],[78.36888617621551,25.065879448784827],[78.36783393012198,25.065785590277812],[78.36666937934055,25.066669379340453],[78.36528049045168,25.06712022569448],[78.36610839843777,25.07078179253479],[78.36561306423638,25.071386176215412],[78.36473714192735,25.070005425347276],[78.36312011718778,25.068945312500077],[78.3638861762158,25.06670735677082],[78.36324679904536,25.06504231770836],[78.36027506510439,25.06444715711814],[78.35919650607693,25.06389160156253],[78.35780788845514,25.064222005208393],[78.35779079861138,25.067726236979198],[78.35723415798665,25.069441731770922],[78.35615180121553,25.06892523871531],[78.35568386501765,25.065572374132003],[78.3530588107644,25.06558105468757],[78.35305257161494,25.062219509548797],[78.35416395399349,25.061858723958323],[78.3527804904518,25.06029676649318],[78.3533002387156,25.059724934895897],[78.35555826822949,25.059997287326382],[78.35609212239612,25.060552842881975],[78.35666937934079,25.060280490451504],[78.35704372829909,25.05950954861109],[78.35820882161502,25.059110243055542],[78.35996880425395,25.05999674479183],[78.36108534071226,25.060019531250063],[78.36166395399331,25.05946343315972],[78.36128743489613,25.05866536458352],[78.35944878472267,25.057301974826515],[78.35943603515668,25.056669379340306],[78.35999728732682,25.05613009982646],[78.35894992404556,25.055559895833284],[78.35672960069488,25.055568576388936],[78.35638509114617,25.05388726128473],[78.35694173177106,25.05333062065975],[78.35916395399366,25.05278862847227],[78.35867051866373,25.052260199652807],[78.35555826822949,25.05219672309032],[78.35638617621564,25.053036566840234],[78.35554307725741,25.05334147135423],[78.35444173177117,25.053336046006947],[78.35376790364629,25.05194715711808],[78.35332139756994,25.052224934895918],[78.35268907335117,25.054173177083413],[78.35142578125036,25.054147677951534],[78.34980224609419,25.056106770833495],[78.34834147135442,25.056097005208386],[78.34779676649359,25.056663953993024],[78.34610270182324,25.056390516493096],[78.34610270182324,25.055286458333356],[78.34832492404556,25.054458007812542],[78.34888617621576,25.052818467882148],[78.34855197482668,25.052083333333528],[78.34722710503493,25.051214735243192],[78.34720811631965,25.050280490451442],[78.34900987413229,25.05138617621536],[78.3499972873266,25.05024305555554],[78.34972493489605,25.049441731770884],[78.34778049045164,25.04896755642372],[78.34811116536505,25.047180989583566],[78.3495722113718,25.045694444444493],[78.35055474175394,25.046638997395902],[78.3508306206601,25.04861382378472],[78.35269856770864,25.048978407118113],[78.3545016818579,25.049907226562482],[78.3550070529516,25.048865559895873],[78.35662624783023,25.047247178819518],[78.3582872178824,25.04659505208336],[78.3573011610246,25.04564778645839],[78.35833062065993,25.04514865451391],[78.35721950954925,25.04472493489594],[78.35668050130235,25.043613823784725],[78.35555636935808,25.044148763020843],[78.35474202474003,25.044996202256954],[78.35474202474003,25.042506510416715],[78.3508306206601,25.043052842881934],[78.349890679254,25.04337456597233],[78.34916937934062,25.04197428385433],[78.3499972873266,25.039163953993153],[78.3527804904518,25.033613823784748],[78.35325466579903,25.031669379340357],[78.35583062066004,25.032146267361085],[78.35549316406289,25.03396538628475],[78.35499565972273,25.034442816840382],[78.35527479383725,25.03555826822914],[78.35638617621564,25.037731662326465],[78.35611382378508,25.039447157118104],[78.35555826822949,25.039981011284752],[78.35612277560799,25.040858832465304],[78.35777777777813,25.040824652777957],[78.35817220052107,25.04163791232645],[78.3597355143232,25.04110297309026],[78.36110839843812,25.04113064236114],[78.35983805338586,25.04017632378479],[78.35944715711835,25.03777506510427],[78.35833604600722,25.035206705729323],[78.35875895182338,25.034449869791757],[78.3621733940976,25.034880642361188],[78.36125542534782,25.03305013020841],[78.35972493489626,25.032046440972323],[78.36007622612883,25.030836046006996],[78.36111382378513,25.031108398437567],[78.3643915473094,25.033311631944485],[78.36667480468773,25.034174804687552],[78.36722493489609,25.034163953993158],[78.36760389539958,25.036104600694543],[78.36860839843777,25.03612521701386],[78.36791693793433,25.03514973958339],[78.36889160156298,25.034447157118024],[78.36971950954907,25.03335232204867],[78.36944715711823,25.033052842882043],[78.36803927951419,25.032777777777753],[78.36721950954907,25.031924913194445],[78.36583984375048,25.03195258246531],[78.36548828125032,25.0309255642361],[78.36638617621568,25.029601236979175],[78.36611029730946,25.02915798611116],[78.36503607855926,25.029180230034754],[78.3639059787329,25.028333875868185],[78.36206081814302,25.02788411458343],[78.36099148220526,25.02685655381967],[78.36204833984428,25.025113932291788],[78.36130099826417,25.024335937500084],[78.35970784505261,25.0252821180556],[78.35915961371555,25.02641221788211],[78.35805826822954,25.027502712673552],[78.35694742838572,25.028041449652846],[78.35661621093791,25.030830620659813],[78.35424723307321,25.03034993489591],[78.35361382378497,25.02974121093756],[78.35441758897608,25.02475585937505],[78.3547463650178,25.02441351996525],[78.35748291015673,25.024469401041728],[78.35805284288236,25.023363172743075],[78.35694173177106,25.021113823784788],[78.35666937934079,25.01944173177087],[78.35611382378508,25.018363172743094],[78.35668619791696,25.017486436631998],[78.35662977430596,25.014724934895924],[78.35832600911485,25.01525390625001],[78.35886935763929,25.016374240451512],[78.35997504340307,25.016397026909658],[78.3607226562506,25.016034071180542],[78.35929199218785,25.014262152777775],[78.36029269748306,25.013605685763963],[78.3608715820317,25.01241265190977],[78.36333062066021,25.011813151041707],[78.36285074869821,25.010571289062497],[78.35972547743083,25.010581054687705],[78.36011393229208,25.00873535156252],[78.35919650607693,25.007780490451452],[78.35833333333377,25.00833875868061],[78.35725830078152,25.00728407118052],[78.3566701931426,25.006142578125065],[78.35664713541709,25.005017903645907],[78.35787651909769,25.004184570312546],[78.35915581597263,25.004158528645945],[78.3613916015627,25.004997287326418],[78.36207790798633,25.0057112630209],[78.36249728732693,25.005275065104257],[78.36418375651087,25.00486382378486],[78.3641582573787,25.003613823784818],[78.3647195095489,25.003074544270802],[78.36341037326409,25.002969835069493],[78.36279676649352,25.003608398437535],[78.36194173177134,25.00333604600698],[78.36166937934073,25.002775065104174],[78.35972493489626,25.00239529079866],[78.35999728732682,25.001386176215306],[78.3610845269101,25.000673285590366],[78.36027506510439,25.000280490451374],[78.35893391927138,24.99864095052081],[78.35861382378525,25.000280490451374],[78.35795138888912,25.000916883680688],[78.35841444227466,25.001816406250185],[78.35570909288234,25.000796440972266],[78.35456976996554,24.99905924479185],[78.35307454427132,24.997502712673622],[78.35447998046905,25.001449652777794],[78.35444742838561,25.00389105902785],[78.35399007161513,25.00612358940984],[78.35463948567738,25.014388020833493],[78.35390082465304,25.01666341145838],[78.35288628472247,25.0166840277778],[78.35223307291713,25.01333821614604],[78.35036865234397,25.011455078125053],[78.34904568142409,25.01055826822912],[78.34879692925401,25.010982530381995],[78.34996148003498,25.012700195312547],[78.35002549913222,25.01583062065967],[78.34896755642401,25.01533745659728],[78.34861382378497,25.013886176215365],[78.34639160156277,25.010275065104253],[78.34584825303844,25.00975260416689],[78.34583034939268,25.008880208333366],[78.34749728732695,25.008914388020983],[78.34720648871573,25.008291015625048],[78.34583007812532,25.00696831597223],[78.34473063151066,25.004714084201467],[78.3418910047748,25.001032443576477],[78.34027506510446,24.999447157118112],[78.33944715711831,24.998052842882032],[78.33624647352465,24.99552029079861],[78.33361382378504,24.99416395399308],[78.32758436414983,24.99195475260423],[78.32612440321245,24.991952582465316],[78.32448811848988,24.991392686631983],[78.32252414279546,24.99141981336804],[78.3220117187503,24.990886501736114],[78.31999728732669,24.990558268229336],[78.31805826822946,24.98888617621533],[78.31595269097264,24.98763617621529],[78.31306667751758,24.98419813368062],[78.3111990017367,24.98111599392361],[78.31057508680587,24.979192708333358],[78.30810058593804,24.976448567708402],[78.30712320963593,24.975006510416776],[78.30654432508734,24.973223198784723],[78.30110839843772,24.968058268229214],[78.29759087456645,24.963677300347328],[78.29577175564268,24.962617187499944],[78.29437798394125,24.960736762152962],[78.29085503472268,24.960245225694493],[78.2847249348961,24.956663953993072],[78.28347222222268,24.95625000000004],[78.2822249348961,24.956493598090276],[78.28265190972272,24.95720486111111],[78.28444715711859,24.957497287326433],[78.28910373263918,24.960777994791684],[78.2905324978303,24.96221516927102],[78.29553439670175,24.96552788628479],[78.29803059895866,24.96801540798613],[78.29918375651093,24.97032118055563],[78.300002712674,24.971108398437522],[78.30080376519138,24.972759331597302],[78.30223849826424,24.973896484375203],[78.30303738064279,24.975543619791708],[78.30565266927132,24.978421223958307],[78.30638617621557,24.98028049045142],[78.3077804904519,24.982497287326552],[78.30999728732687,24.986947157118053],[78.31180013020858,24.98903320312509],[78.31389160156286,24.990275065104214],[78.31462836371574,24.99104166666679],[78.3174726019968,24.992474500868127],[78.3186740451392,24.99338595920146],[78.32190592447958,24.993319769965325],[78.32631130642383,24.994250217013985],[78.32943684895864,24.995264214409715],[78.33166937934052,24.99721950954877],[78.33194173177131,24.99778049045156],[78.33360731336828,24.998872612847194],[78.33388617621566,24.999447157118112],[78.33593885633721,25.00090332031249],[78.33888183593777,25.003865559895885],[78.34052490234413,25.006629231770887],[78.3416642252607,25.007759331597228],[78.34361409505263,25.011663953993036],[78.34555853949703,25.01694173177087],[78.34584147135436,25.018351236979157],[78.34648328993083,25.029856228298698],[78.34604166666693,25.033020290798703],[78.34530273437551,25.03605088975698],[78.34333062065994,25.039441731770907],[78.34305826822967,25.040280490451465],[78.34221327039975,25.041092664930602],[78.34223388671913,25.042102864583327],[78.34070855034756,25.044160698784864],[78.34000271267391,25.04417534722225],[78.33888102213595,25.042758789062503],[78.33697943793445,25.041512044270917],[78.33664279513928,25.040198025173652],[78.33666965060817,25.035553385416762],[78.33639214409752,25.034142795138933],[78.335486382379,25.03327202690977],[78.3363859049484,25.029719509548784],[78.33721598307332,25.028495008680608],[78.33723632812544,25.027502712673552],[78.33516737196217,25.028394639756954],[78.33345757378507,25.02780924479164],[78.33299207899327,25.029719509548784],[78.3324929470489,25.029093424479214],[78.33253119574707,25.027225477430534],[78.33168077256974,25.02723036024308],[78.33055826822962,25.026151801215477],[78.3319411892364,25.0247417534722],[78.33166937934052,25.023608398437673],[78.33110839843775,25.023336046006932],[78.33082275390669,25.02099880642372],[78.32871229383724,25.021854926215312],[78.32755886501766,25.019583333333514],[78.32827609592042,25.01819118923619],[78.3275249565975,25.01587619357639],[78.32576063368086,25.017215169270898],[78.32458333333378,25.01686848958353],[78.32389133029554,25.017224934896007],[78.32223632812546,25.017230360243104],[78.32139160156302,25.016418728298603],[78.322219509549,25.01583062065967],[78.32332655164973,25.01547146267373],[78.32335856119843,25.01390136718757],[78.32230224609415,25.013539496527827],[78.32166748046919,25.01414984809027],[78.32139160156302,25.015280490451516],[78.32058675130244,25.015264214409854],[78.31903320312549,25.01682237413199],[78.31835232204915,25.016113823784792],[78.31758951822965,25.016473524305624],[78.31709282769125,25.017497287326393],[78.31638617621573,25.017224934896007],[78.31582519531295,25.013593207465306],[78.31585883246575,25.011947157118172],[78.3144414605039,25.01221950954873],[78.31445285373317,25.01277506510425],[78.31333062065997,25.012502712673594],[78.3122694227433,25.01139811197922],[78.31166422526067,25.011386176215282],[78.31098470052129,25.01173611111119],[78.30750271267388,25.00971950954873],[78.30528049045185,25.009069010416667],[78.30566189236154,25.009988064236197],[78.30709445529541,25.010927191840324],[78.30889160156275,25.01279730902783],[78.31055257161503,25.012763671875135],[78.3122249348963,25.013608398437512],[78.31258680555604,25.01583062065967],[78.31333604600721,25.015558268229185],[78.31367296006974,25.01452039930558],[78.31417670355935,25.015004340277855],[78.31471950954884,25.01889160156263],[78.31703043619817,25.020037434895826],[78.31665690104202,25.021129014756994],[78.31818983289955,25.022601453993047],[78.31877360026076,25.02440104166668],[78.32053846571225,25.025257161458455],[78.32180691189265,25.02734863281269],[78.32026963975758,25.028619791666685],[78.318929307726,25.02724717881948],[78.31793267144113,25.026733940972235],[78.31742838541689,25.028287217881996],[78.31641194661498,25.02722927517371],[78.31489176432333,25.0263107638889],[78.3136298285593,25.027220052083422],[78.31277506510443,25.027497287326625],[78.31250271267405,25.03028049045149],[78.31210747612877,25.031047634548628],[78.31285698784771,25.031433919270967],[78.31416937934048,25.031113823784764],[78.31489637586847,25.030004882812463],[78.3163788519968,25.02997450086812],[78.31667046441007,25.031112196180658],[78.31588514539979,25.032636176215277],[78.31749972873294,25.033615451388854],[78.31807427300376,25.03331976996533],[78.3194436306429,25.033347439236195],[78.31989800347245,25.031947157118125],[78.32073703342044,25.032293294270843],[78.32124728732671,25.03334472656273],[78.322219509549,25.033324652777793],[78.3230249023442,25.03416341145835],[78.32445258246585,25.03414659288204],[78.3258083767366,25.03551540798624],[78.32622585720529,25.036325412326548],[78.32488199869832,25.037017686631984],[78.32416395399346,25.036669379340353],[78.32336317274351,25.035836046007077],[78.32249728732674,25.036108398437463],[78.32169650607662,25.03694173177091],[78.3205718315975,25.035833333333528],[78.31799886067742,25.035159505208412],[78.31670057508731,25.03582845052088],[78.31522623697944,25.036188151041713],[78.31389160156286,25.03747016059029],[78.31440049913218,25.038050130208305],[78.31604139539982,25.038370768229242],[78.32019124348997,25.03987087673616],[78.31889160156291,25.041787651909857],[78.31932481553864,25.04292534722221],[78.3199810112852,25.043608398437627],[78.3222485351566,25.042539062500055],[78.32221354166708,25.040825195312593],[78.3235921223961,25.039447157118104],[78.32416937934076,25.03971950954876],[78.32666314019119,25.042202690972346],[78.32419243706661,25.042202690972346],[78.3236699761288,25.042705078125024],[78.3244181315109,25.044890407986273],[78.32256049262176,25.045791558159777],[78.32085232204886,25.047497287326408],[78.32027506510471,25.047224934895937],[78.31987494574676,25.046400282118128],[78.31833062066019,25.046391601562476],[78.31710123697965,25.045558268229215],[78.3158775499135,25.04649956597234],[78.31648274739612,25.047674153646042],[78.31500271267404,25.048597547743043],[78.31527506510443,25.04944715711808],[78.31563123914961,25.049789496527794],[78.3150862630213,25.05138237847227],[78.31694118923642,25.051363389756958],[78.31696289062549,25.052431098090352],[78.31392957899325,25.05333062065975],[78.31247558593802,25.051051974826493],[78.30919162326418,25.051119249132],[78.30805853949701,25.050569661458397],[78.30860839843788,25.049196506076385],[78.30761230468775,25.04806043836811],[78.30718750000042,25.04805175781256],[78.30560139973986,25.04970269097224],[78.30469346788234,25.050013563368154],[78.30361382378501,25.049991319444572],[78.30228054470527,25.0513791232639],[78.30083713107663,25.051408420138955],[78.29984456380268,25.04889160156256],[78.2986368815107,25.0497075737848],[78.29860812717058,25.05111382378489],[78.29916395399326,25.052737087673705],[78.29836534288214,25.05360677083341],[78.2968424479171,25.053977864583374],[78.29639160156276,25.054447157118062],[78.29500271267389,25.05441894531255],[78.29529242621575,25.05592719184031],[78.29672336154565,25.05543728298612],[78.29802571614644,25.056108398437686],[78.29941379123287,25.054725477430637],[78.3018269856776,25.0547564019098],[78.30414062500054,25.053981662326464],[78.30556396484397,25.05444335937497],[78.30555853949679,25.055280490451423],[78.30478624131999,25.05565538194466],[78.306805555556,25.057661675347262],[78.30774712456619,25.056681315104328],[78.30888047960102,25.05665852864591],[78.30919135199682,25.05726182725708],[78.30914143880264,25.05970486111123],[78.3097211371531,25.06000379774312],[78.31259114583375,25.059358181423605],[78.31334174262187,25.059722222222263],[78.31277506510443,25.059997287326382],[78.31142903645858,25.061398111979273],[78.30976481119811,25.061364474826476],[78.30817979600747,25.06329644097221],[78.30694715711834,25.063696831597312],[78.30739257812539,25.064924587673673],[78.30888075086844,25.06415798611117],[78.30972222222258,25.064592013888984],[78.3110234917539,25.063921440972322],[78.312036946615,25.066985677083395],[78.31552435980942,25.06833007812517],[78.31775173611138,25.067797309027796],[78.31858615451429,25.066953667534776],[78.31931070963569,25.06693847656257],[78.32056098090325,25.06778591579868],[78.32136393229192,25.067769639756918],[78.32194715711833,25.06805284288197],[78.32248101128536,25.068608398437476],[78.32361789279545,25.068246527777816],[78.32358561197955,25.066669921875004],[78.32414171006971,25.06665852864589],[78.32476453993095,25.06696072048615],[78.32470811631984,25.06971950954869],[78.32555284288233,25.070129123263982],[78.32500217013936,25.07167100694454],[78.3240017361114,25.071328667534743],[78.322219509549,25.072497287326442],[78.32141954210115,25.073330078125068],[78.32055881076437,25.0733474392361],[78.32054334852452,25.07259060329872],[78.322219509549,25.072046440972414],[78.32178846571227,25.070560980902798],[78.31946316189263,25.070569118923714],[78.3178238932297,25.06972493489579],[78.31694715711845,25.070455186631932],[78.31721950954889,25.071669379340264],[78.31805284288217,25.072898763020817],[78.31777696397594,25.073060438368145],[78.31724121093796,25.072502712673725],[78.31590196397619,25.073167317708368],[78.31473795572967,25.07139160156251],[78.312338867188,25.07177897135422],[78.31147379557339,25.073055555555683],[78.31270562066018,25.074873046875084],[78.31071723090307,25.075897352430573],[78.30999728732687,25.0744471571182],[78.30972493489631,25.072497287326442],[78.30919542100739,25.071988389756925],[78.31039577908032,25.070406358507014],[78.3097412109378,25.06972493489579],[78.30910427517384,25.07002549913213],[78.30780273437531,25.071379665798673],[78.30694715711834,25.071397569444613],[78.30641384548662,25.070842556423642],[78.30528917100722,25.070819227430604],[78.30499701605933,25.071386176215412],[78.30503065321224,25.073035481771],[78.30334011501762,25.073695203993097],[78.3033249240456,25.07443901909727],[78.3045874023442,25.07476236979167],[78.30718153211839,25.073891601562593],[78.30730577256966,25.074669053819477],[78.30612006293447,25.07580837673629],[78.30610270182333,25.07666015624997],[78.306988932292,25.076963433159776],[78.30859971788223,25.0769303385417],[78.30900851779543,25.07772406684043],[78.30831027560791,25.078062608507054],[78.30754041883725,25.078863932291625],[78.30585367838572,25.07969997829862],[78.30581624348994,25.081527777777765],[78.30683403862875,25.082021484374977],[78.30619737413215,25.083882378472282],[78.30747829861153,25.083908420138968],[78.30873209635442,25.08305826822921],[78.31067654079882,25.08416395399304],[78.31214355468776,25.082224934895933],[78.31249728732686,25.085280490451353],[78.31332248263922,25.086882595486216],[78.31191894531284,25.087224934895843],[78.31194742838582,25.088613823784712],[78.31013156467034,25.08905653211808],[78.30916937934077,25.08998101128482],[78.3094417317711,25.091113823784795],[78.31027506510443,25.09191460503473],[78.30968180338593,25.092591145833396],[78.30883382161491,25.09129774305572],[78.3076869032121,25.090195855034807],[78.30861409505255,25.08890245225703],[78.30860270182345,25.08833333333341],[78.30999728732687,25.08765679253473],[78.30971544053844,25.087491861979203],[78.30777506510444,25.087224934895843],[78.3072412109378,25.086669379340236],[78.30723253038221,25.088704427083357],[78.30486002604212,25.09038899739585],[78.30528347439267,25.08832248263893],[78.30375271267386,25.08677463107645],[78.30325330946218,25.08831325954864],[78.3015402560766,25.087430555555542],[78.2997420247398,25.088302951388982],[78.2992572699657,25.089244249132022],[78.30028076171922,25.090275065104237],[78.30028591579887,25.092209201388968],[78.29972493489615,25.093848198784727],[78.30040852864627,25.09465494791685],[78.30194173177145,25.095398763020853],[78.30112521701423,25.09554741753489],[78.300002712674,25.096625976562578],[78.30103922526067,25.096707899305656],[78.30202175564281,25.096201714409872],[78.30305284288224,25.09750271267366],[78.30365478515657,25.097794596354262],[78.30520507812568,25.09940809461824],[78.30728868272601,25.100121527777816],[78.30867892795166,25.099405381944422],[78.31165608723992,25.099702690972222],[78.31222520616339,25.101947157118133],[78.31151936848985,25.102988281250106],[78.3122249348963,25.103330620659733],[78.3127172851566,25.104345160590285],[78.31467610677137,25.103336046007016],[78.31500298394147,25.103886176215426],[78.31497477213608,25.105269639757097],[78.31583062066014,25.1056846788196],[78.31546549479211,25.10663302951393],[78.31337944878513,25.10555826822916],[78.31115722656281,25.106663953993078],[78.31082492404548,25.106104600694465],[78.31084716796923,25.10502007378477],[78.30863009982684,25.10278049045141],[78.30371609158024,25.10321506076403],[78.30300509982666,25.10638617621524],[78.30194715711846,25.1058306206599],[78.29920735677135,25.105002712673638],[78.29809543185812,25.106056315104183],[78.29978895399356,25.106469184027773],[78.30028049045174,25.10694173177093],[78.30064860026087,25.109201931423783],[78.30327067057331,25.110552842881958],[78.30411919487906,25.109879557291734],[78.3044417317711,25.108886176215236],[78.30527560763917,25.108330078124993],[78.30832682291705,25.108602973090285],[78.30861545138944,25.109446072048655],[78.3075789388026,25.111018880208377],[78.30845567491369,25.11144422743061],[78.30918050130245,25.112513563368097],[78.30915744357665,25.11364257812498],[78.31136881510443,25.11359754774307],[78.31224500868106,25.114439019097276],[78.31146782769136,25.115185546875082],[78.3124031575525,25.115639105902844],[78.31194715711834,25.116113823784914],[78.30888617621557,25.116386176215386],[78.30856146918435,25.118049587673653],[78.30615180121563,25.11722493489586],[78.3069417317711,25.118314344618028],[78.30385036892389,25.11766601562495],[78.30304714626757,25.11805555555557],[78.30263129340327,25.120699327257043],[78.30439100477454,25.121270616319507],[78.30527506510455,25.122481011284833],[78.3044417317711,25.123052842882018],[78.30390543619816,25.124157986111214],[78.29795654296922,25.124278971354187],[78.29691216362889,25.123594835069497],[78.29586317274325,25.122502712673693],[78.29554714626775,25.122779947916726],[78.29556911892391,25.123857964409765],[78.29474121093776,25.12471950954874],[78.29388590494821,25.12444715711817],[78.29390299479192,25.123613823784808],[78.29194742838567,25.123930121528005],[78.29250434027821,25.125557183159827],[78.29096435546901,25.12742675781253],[78.28833062065999,25.129163953993114],[78.28792616102461,25.129997287326475],[78.28555284288214,25.129447157118065],[78.28514838324693,25.128613823784704],[78.28361382378515,25.1289447699653],[78.28485188802128,25.129966362847327],[78.28759223090302,25.130527343750032],[78.29028049045186,25.130002712673672],[78.29327907986155,25.12861816406253],[78.30005398220518,25.128123914930597],[78.3011075846359,25.12913628472215],[78.30112467447961,25.129963650173778],[78.300002712674,25.131359049479116],[78.30056260850742,25.132522786458352],[78.30138183593775,25.133310004340245],[78.30262939453169,25.13527506510414],[78.30282443576422,25.13492404513896],[78.30276882595516,25.132203776041692],[78.30361382378501,25.131391601562555],[78.30395128038234,25.130007052951584],[78.30586100260464,25.129967990451505],[78.3088414171012,25.13038411458338],[78.30917046441024,25.131668294270938],[78.3086197916671,25.13219780815976],[78.31067654079882,25.135830620659746],[78.31164713541702,25.13500325520839],[78.31250325520861,25.134985894097355],[78.31304606119838,25.136346028645903],[78.31304172092044,25.13775770399309],[78.31334662543443,25.13807508680557],[78.31497992621573,25.138041992187496],[78.31528049045173,25.138330620659914],[78.3155786132817,25.13985785590289],[78.3169146050353,25.139169379340288],[78.31722520616367,25.13944173177086],[78.31720811631968,25.140280490451403],[78.31829725477459,25.14132703993066],[78.31901828342055,25.142775065104203],[78.31944173177104,25.141663953993174],[78.31992106119841,25.141203342014038],[78.3190516493058,25.14078179253498]],[[78.32124538845531,25.090480143229215],[78.32061848958367,25.08969726562505],[78.31975992838571,25.089804144965356],[78.31934353298632,25.089283854166737],[78.3194137912329,25.08767035590276],[78.31813666449673,25.086386176215285],[78.31779324001783,25.08546006944455],[78.31881510416693,25.084641927083396],[78.31815185546921,25.082916666666733],[78.31871039496562,25.081463216145906],[78.32041666666689,25.081250000000097],[78.32123833550375,25.082953016493178],[78.3226589626739,25.08335883246538],[78.3236447482644,25.084590386284745],[78.32353488498305,25.0854741753473],[78.3248673502608,25.08585503472227],[78.32299587673631,25.08837782118067],[78.32239257812554,25.088302408854332],[78.321798231337,25.087560763888987],[78.32112657335117,25.088484157986173],[78.32177273220535,25.08958333333335],[78.32124538845531,25.090480143229215]],[[78.35353488498302,25.083256293402798],[78.35208333333364,25.082930772569497],[78.35130588107691,25.08310546875012],[78.35078125000021,25.080462239583383],[78.35144259982687,25.080005967881988],[78.35236111111149,25.079861111111228],[78.3530908203131,25.08053710937517],[78.35301947699693,25.082243923611244],[78.35370442708361,25.082499999999968],[78.35353488498302,25.083256293402798]],[[78.32862141927123,25.0475103081598],[78.32943793402805,25.04721028645845],[78.33045220269119,25.047292209201345],[78.33104627821209,25.046780056423742],[78.33107937283015,25.045297851562495],[78.33263888888919,25.04513888888897],[78.33317843967049,25.045642361111106],[78.33394666883706,25.047018771701502],[78.33104356553864,25.04834472656252],[78.33043267144146,25.049053819444538],[78.32873399522592,25.049189995659816],[78.32612141927117,25.048403862847366],[78.32648247612892,25.047900390624974],[78.32862141927123,25.0475103081598]],[[78.35011962890647,25.017614474826445],[78.35077718099004,25.015824110243102],[78.35125000000048,25.01541666666671],[78.35193413628505,25.017232530381932],[78.35276557074687,25.01840494791672],[78.35219672309066,25.02260091145841],[78.35203857421916,25.02603624131943],[78.35142768012193,25.02665635850707],[78.35112141927138,25.02332302517354],[78.35025417751766,25.020987955729254],[78.35011962890647,25.017614474826445]]]]},"properties":{"id":"1771"}}]}