{"type":"FeatureCollection","features":[{"type":"Feature","geometry":{"type":"MultiPolygon","coordinates":[[[[77.20956250000009,26.609563476562656],[77.20943750000006,26.608561523437643],[77.20851562500016,26.608411132812634],[77.20806250000007,26.60781347656254],[77.20785546875024,26.607392578125015],[77.20743750000005,26.607188476562513],[77.20718750000006,26.607061523437523],[77.20641796875,26.606935546875107],[77.2060000000001,26.606499999999997],[77.20306250000007,26.606561523437634],[77.20281250000025,26.60668847656254],[77.20106250000006,26.606811523437628],[77.20081250000007,26.60693847656262],[77.20006250000009,26.607061523437523],[77.19906250000005,26.60793847656258],[77.19843750000021,26.608090820312455],[77.19860546875006,26.608561523437643],[77.19943750000024,26.608438476562654],[77.19968750000007,26.608311523437564],[77.19993750000006,26.608188476562574],[77.20042578125006,26.60793847656258],[77.20126562500005,26.60809960937509],[77.20153515625012,26.608625000000146],[77.20131250000006,26.60906152343763],[77.20118750000009,26.610313476562624],[77.20106250000006,26.610561523437568],[77.20093750000021,26.610813476562697],[77.20081250000007,26.61106152343764],[77.20068750000021,26.611313476562586],[77.20043750000022,26.611798828125174],[77.20091015624999,26.6115908203126],[77.20168750000025,26.610688476562657],[77.20182812500016,26.609245117187527],[77.20218750000006,26.60906152343763],[77.20268750000022,26.608938476562543],[77.20358203125019,26.608188476562574],[77.20415625000012,26.608493164062693],[77.20433984375015,26.609620117187546],[77.20499218750015,26.61006152343768],[77.20537500000009,26.60982421875005],[77.20567968750018,26.609194335937474],[77.20612500000007,26.60896386718761],[77.20656250000022,26.609188476562622],[77.2072734375001,26.609362304687494],[77.20756250000008,26.609923828125105],[77.20743750000005,26.610313476562624],[77.20731250000009,26.610561523437568],[77.20718750000006,26.611813476562745],[77.20693750000007,26.612298828125063],[77.2071679687501,26.612561523437492],[77.20743750000005,26.612438476562588],[77.20768750000022,26.612311523437683],[77.2081875000001,26.61218847656251],[77.20843750000009,26.612061523437518],[77.20868750000008,26.6119384765627],[77.20893750000025,26.61181152343761],[77.21006250000025,26.611673828125035],[77.20993750000022,26.61106152343764],[77.20981250000008,26.610813476562697],[77.20968750000006,26.609811523437514],[77.20956250000009,26.609563476562656]]]]},"properties":{"id":"18756"}}]}