{"type":"FeatureCollection","features":[{"type":"Feature","geometry":{"type":"MultiPolygon","coordinates":[[[[75.83606567382779,23.217486300998743],[75.83905049641905,23.21661254882848],[75.84075032552053,23.216679823134072],[75.84249471028639,23.216264377170575],[75.84128458658827,23.215295410156656],[75.83916137695283,23.21500528971397],[75.83750528971333,23.214365098741737],[75.83806260850676,23.213872612847624],[75.83880805121501,23.21390218098996],[75.83989902072452,23.21221272786491],[75.84054938422307,23.212238498264327],[75.84057013617618,23.21171549479206],[75.83877393934429,23.209924180772987],[75.83971693250848,23.208142089844117],[75.83750698513447,23.207245279948353],[75.83624999999992,23.20541666666712],[75.83579915364564,23.205559353298952],[75.83442735460042,23.20692966037379],[75.83445909288164,23.207730305989998],[75.83277248806425,23.210550265842386],[75.83235846625419,23.2122884114588],[75.83157050238688,23.21377753363761],[75.83306437174465,23.214250488281678],[75.83510498046857,23.21545057508716],[75.83606567382779,23.217486300998743]]]]},"properties":{"id":"19849"}}]}