{"type":"FeatureCollection","features":[{"type":"Feature","geometry":{"type":"MultiPolygon","coordinates":[[[[83.04416937934039,24.986391667260378],[83.04556722005222,24.98403724882381],[83.04557020399304,24.981647222307288],[83.04706136067696,24.980923686557574],[83.04749728732648,24.979950048658836],[83.04690375434026,24.97944722281609],[83.04441731770854,24.98029828813368],[83.04311306423622,24.982287616730034],[83.04278049045152,24.981941666073553],[83.04183512369778,24.98166944503815],[83.04000000000016,24.98278221130394],[83.03972493489593,24.982621040344526],[83.04085015190961,24.980961214701637],[83.0408265516493,24.979811626010914],[83.03976589626748,24.97944722281609],[83.03707383897583,24.9816638882958],[83.03650282118045,24.980487204657976],[83.03834174262161,24.97806388855011],[83.03947455512142,24.974667097727803],[83.03942518446186,24.97225141101447],[83.04012152777764,24.970899713304703],[83.03964653862832,24.969511786567168],[83.04027913411463,24.968903829786868],[83.04055664062511,24.966349622938623],[83.04248779296867,24.964428749084774],[83.04263888888906,24.961805555555813],[83.04194173177078,24.961941668192793],[83.04110839843761,24.9624972237484],[83.04080891927097,24.963114174737186],[83.04082845052076,24.965380554199598],[83.03942572699648,24.96583568996884],[83.03775851779514,24.96752577463812],[83.03780870225697,24.969981074863483],[83.03694173177078,24.971663888295822],[83.03658230251725,24.973871209886653],[83.03479763454871,24.97326030731236],[83.03441487630201,24.97091023127271],[83.0327804904513,24.970334451463813],[83.03416937934017,24.96861388736329],[83.03428765190975,24.967780554030014],[83.03279106987858,24.96879510243771],[83.03222493489577,24.97004079606826],[83.03285346137162,24.971877104441617],[83.03220811631937,24.972497329712226],[83.03222574869804,24.97336388905873],[83.03387858072912,24.97495201746662],[83.03416395399299,24.975941166348363],[83.03346272786453,24.976386110518135],[83.03291124131957,24.97524954477973],[83.0312860785589,24.97528270933394],[83.03082546657996,24.976701986525086],[83.03085205078119,24.978003071679368],[83.03023790147566,24.980125677321197],[83.03028076171867,24.982230663299873],[83.03325113932291,24.982268731859293],[83.03430555555562,24.98172558890495],[83.03537055121521,24.982274161445048],[83.03583062065988,24.98418078316618],[83.03415256076383,24.98416978836103],[83.03415988498276,24.986302687327537],[83.03166395399299,24.985558333927102],[83.03055826822933,24.98471944385139],[83.02942464192708,24.984447222815902],[83.02889160156244,24.985571174621924],[83.03077772352438,24.986807757483902],[83.0313861762153,24.988204042646856],[83.03026068793415,24.988750000000323],[83.03028130425358,24.98975347201069],[83.0315782335069,24.992360122469023],[83.03305826822921,24.993330556022272],[83.03333062065977,24.99570203145376],[83.03091362847235,24.996291261249468],[83.03204345703128,24.998871935738777],[83.03355034722242,24.999859924316667],[83.03694715711819,25.000274999936764],[83.03740532769095,25.000751689275432],[83.03833062065988,25.000274999936764],[83.03985758463548,24.99997688717349],[83.03916937934017,24.99802565362755],[83.04013346354171,24.996105555428713],[83.04391384548623,24.9933017826084],[83.04388509114582,24.99190088695984],[83.04278238932298,24.98867897351616],[83.04416937934039,24.986391667260378]]]]},"properties":{"id":"4943"}}]}