{"type":"FeatureCollection","features":[{"type":"Feature","geometry":{"type":"MultiPolygon","coordinates":[[[[102.78404866536451,14.668026224772277],[102.78444417317709,14.664740431044066],[102.78612223307309,14.66544715033649],[102.78676486545149,14.665395507812804],[102.78782063802069,14.664806382921185],[102.78850640190959,14.66326965332054],[102.78965386284742,14.664601609971925],[102.79162055121523,14.667741495768524],[102.79190782335061,14.669315897623818],[102.79301893446191,14.670495978461659],[102.79135226779502,14.671239657931935],[102.79109510633694,14.672256673177287],[102.79372829861128,14.672628546820903],[102.79688829210065,14.671698811849225],[102.79720974392367,14.668199801975021],[102.79684136284746,14.666511196560506],[102.79675726996547,14.662998182508844],[102.79520209418413,14.662093675401593],[102.79444905598953,14.663780992296154],[102.79348795572909,14.664609035915959],[102.79293863932301,14.664564887152906],[102.79248399522581,14.662713419596486],[102.79332383897557,14.661528998481074],[102.79249430338555,14.659807061089651],[102.79373914930548,14.65925160725925],[102.79585530598953,14.656434190538434],[102.79578911675364,14.655611809624759],[102.7922230360243,14.654020521376125],[102.79066813151033,14.653611111111417],[102.79013726128468,14.653770955403886],[102.78896511501742,14.655131462944993],[102.78942843967022,14.655961880154308],[102.79002875434017,14.65830563015433],[102.78913004557305,14.659572991265321],[102.78808946397581,14.662089131673355],[102.7874083116321,14.662676018609119],[102.78425808376753,14.662296854655196],[102.7827170138888,14.662945793999768],[102.78136257595506,14.662190043131744],[102.780313313802,14.662775505913814],[102.77970621744791,14.663877054850332],[102.7812972005211,14.664873521592966],[102.77964111328131,14.667133822971024],[102.77746337890633,14.667628546820907],[102.7772062174478,14.668577270507996],[102.77799777560764,14.669995829264494],[102.77831705729167,14.673127305772908],[102.78012586805542,14.673671841091789],[102.78197564019106,14.673165588379149],[102.78412190755196,14.673117811415167],[102.78468560112859,14.67225606282588],[102.78410915798631,14.671222771538936],[102.78404866536451,14.668026224772277]]]]},"properties":{"id":"10330"}}]}