{"type":"FeatureCollection","features":[{"type":"Feature","geometry":{"type":"MultiPolygon","coordinates":[[[[78.72393750000018,25.20793847656246],[78.72482812500007,25.20719042968763],[78.72550000000004,25.207536132812507],[78.72593750000019,25.207311523437582],[78.7264375,25.207188476562678],[78.72668750000005,25.207061523437588],[78.72710546875001,25.206857421875185],[78.72731250000018,25.20643652343766],[78.72744531250001,25.206178710937607],[78.72793750000002,25.205938476562636],[78.7286875,25.205311523437658],[78.7291875,25.205188476562483],[78.72943750000016,25.20506152343758],[78.72968750000015,25.204938476562674],[78.73012109375,25.20464648437499],[78.7303125,25.204071289062554],[78.7286875,25.203938476562612],[78.72843750000001,25.20381152343745],[78.72818750000019,25.203688476562633],[78.72793750000002,25.203561523437543],[78.72755078125002,25.203438476562454],[78.72706250000019,25.203688476562633],[78.72617578125013,25.20381152343745],[78.72568750000002,25.203561523437543],[78.72543750000003,25.203438476562454],[78.72517968750006,25.20330566406261],[78.72493750000015,25.202811523437575],[78.72456250000002,25.202313476562452],[78.72443750000005,25.201423828125044],[78.72469531250002,25.200928710937617],[78.72518750000003,25.200688476562476],[78.7253125,25.20021777343746],[78.72475000000017,25.199499999999972],[78.72431250000002,25.19956152343761],[78.72400000000002,25.199721679687656],[78.72368750000018,25.19956152343761],[78.72320312499997,25.199438476562605],[78.72217578125012,25.200325195312686],[78.7219375,25.200813476562516],[78.72131250000015,25.201561523437448],[78.72118750000001,25.201813476562478],[78.72031250000018,25.202811523437575],[78.72018750000015,25.20431347656256],[78.72000390625007,25.204674804687485],[78.71817578125004,25.204811523437584],[78.71758593750016,25.20450781250004],[78.71743749999999,25.203311523437463],[78.71731250000002,25.20306347656252],[78.71718750000005,25.202423828125106],[78.71745703125012,25.201905273437646],[78.71743359375014,25.20086425781257],[78.71662109374998,25.200688476562476],[78.71643750000001,25.201063476562595],[78.71625390625022,25.201419921875143],[78.71481250000002,25.201561523437448],[78.71456250000014,25.20168847656261],[78.71406249999998,25.201811523437613],[78.71381250000005,25.201938476562518],[78.7131757812501,25.202061523437607],[78.71268359374997,25.201808593750187],[78.7123515625,25.2018154296876],[78.71218750000017,25.202787109375066],[78.7128828125,25.203644531250077],[78.7135625,25.20381152343745],[78.71382031250025,25.203944335937564],[78.71406249999998,25.2044384765626],[78.71443750000017,25.204936523437453],[78.71456250000014,25.205688476562457],[78.71468750000017,25.205936523437586],[78.71481250000002,25.206188476562616],[78.71493750000005,25.20643652343766],[78.71506250000002,25.20818847656264],[78.71557421875005,25.208823242187492],[78.71606250000005,25.209061523437512],[78.71631249999999,25.209188476562503],[78.71656250000015,25.20931152343759],[78.71681250000015,25.20943847656268],[78.71731250000002,25.209561523437586],[78.71756250000001,25.20968847656249],[78.71781250000018,25.209811523437665],[78.71806250000017,25.20993847656257],[78.71831250000005,25.210061523437474],[78.71856249999999,25.210188476562465],[78.72006250000001,25.210311523437554],[78.72031250000018,25.210438476562544],[78.7208125,25.210561523437462],[78.72106250000004,25.210688476562623],[78.72131250000015,25.210811523437627],[78.7218203125,25.211196289062585],[78.7223203125001,25.211186523437576],[78.72256250000018,25.210686523437587],[78.72272656249996,25.21036230468752],[78.72343750000002,25.210188476562465],[78.72369921875017,25.210054687500246],[78.72368359375017,25.209340820312562],[78.72243750000015,25.209188476562503],[78.72196484375016,25.20887011718756],[78.72219531250013,25.20842871093761],[78.72268750000015,25.20818847656264],[78.72293750000003,25.20806152343755],[78.72393750000018,25.20793847656246]]]]},"properties":{"id":"19068"}}]}