{"type":"FeatureCollection","features":[{"type":"Feature","geometry":{"type":"MultiPolygon","coordinates":[[[[81.15808159722272,31.362521158854037],[81.15798149956626,31.360840928819286],[81.1593218315974,31.360528971354],[81.15949435763932,31.357633734808914],[81.15892564561673,31.3563943142359],[81.15832546658024,31.356118977864497],[81.1580269368491,31.354519314235915],[81.15445231119813,31.35221435546869],[81.15305772569488,31.351889919704576],[81.15043796115506,31.349605034722018],[81.14695149739603,31.349812825520715],[81.14625000000015,31.349027777777636],[81.14252468533024,31.3491680230033],[81.14246297200557,31.350204264322798],[81.14305419921916,31.353111979166457],[81.14823703342054,31.36075276692692],[81.14924750434054,31.36145860460047],[81.15080037434919,31.361366102430367],[81.15218831380233,31.363057725694233],[81.15249606662351,31.365032280815782],[81.15453965928859,31.365970323350453],[81.15587280273482,31.366901584201187],[81.1586032443578,31.366058485242817],[81.15806437174498,31.364437391492913],[81.15723564995707,31.363697102864464],[81.15721191406274,31.363298339843638],[81.15808159722272,31.362521158854037]]]]},"properties":{"id":"9229"}}]}