{"type":"FeatureCollection","features":[{"type":"Feature","geometry":{"type":"MultiPolygon","coordinates":[[[[75.9197049967448,23.450309922960486],[75.92003289116732,23.446741265191378],[75.92092312282969,23.44514567057334],[75.92081956651467,23.443856472439762],[75.9202700466578,23.4439006890195],[75.918472222222,23.442916666667003],[75.91772345648846,23.4431420898442],[75.91822272406674,23.44543077256985],[75.91751756456168,23.446038275825103],[75.91723253038165,23.44667697482697],[75.91680094401042,23.446934136285137],[75.9152053493921,23.446348198785103],[75.91473253038177,23.447023790147966],[75.91684773763015,23.4479676649311],[75.91785380045573,23.45032741970526],[75.9197049967448,23.450309922960486]]]]},"properties":{"id":"19710"}}]}