{"type":"FeatureCollection","features":[{"type":"Feature","geometry":{"type":"MultiPolygon","coordinates":[[[[108.03937981499476,12.49147542317742],[108.0408574083107,12.490396050347542],[108.04266187879662,12.490805935330215],[108.04352884928298,12.490296223958694],[108.04390563964759,12.489077962239904],[108.04128221299803,12.488611111111396],[108.04004767523767,12.488765462239982],[108.03851148817185,12.489994303385714],[108.03745842827615,12.489224989149662],[108.03661560058495,12.49027750651075],[108.03577304416117,12.489782172309361],[108.03504767523779,12.490011664496834],[108.0357874213316,12.49127061631981],[108.03667934841471,12.49198459201429],[108.03937981499476,12.49147542317742]]]]},"properties":{"id":"22905"}}]}