{"type":"FeatureCollection","features":[{"type":"Feature","geometry":{"type":"MultiPolygon","coordinates":[[[[99.82487630208331,19.352345716688802],[99.8244444444446,19.351388888889318],[99.8235997178821,19.351630452474282],[99.82286783854178,19.352875162760768],[99.82329101562513,19.35359456380243],[99.82115234374996,19.356631198459496],[99.81938151041683,19.358671535916173],[99.82095540364574,19.359931708442147],[99.81990614149302,19.362769775391072],[99.81892632378461,19.364436848958704],[99.81935221354175,19.36592637803861],[99.82107801649298,19.3669410536028],[99.82258789062493,19.367128770616816],[99.82324707031248,19.36600755479637],[99.82212076822915,19.36446567111598],[99.82201443142364,19.363611111111453],[99.82200249565992,19.361572129991686],[99.82270453559025,19.359745008680903],[99.82229546440979,19.358310546875387],[99.82322048611124,19.355395846897125],[99.82512369791655,19.353202921549936],[99.82487630208331,19.352345716688802]]]]},"properties":{"id":"21319"}}]}