{"type":"FeatureCollection","features":[{"type":"Feature","geometry":{"type":"MultiPolygon","coordinates":[[[[81.17198689778647,24.875454949273276],[81.1736098904079,24.873096330431096],[81.1738835991753,24.8716107516821],[81.17328409830733,24.870477744208742],[81.17102308485235,24.86941071404381],[81.16806084526903,24.867494701809605],[81.16721693250864,24.867227520413223],[81.16589016384538,24.86621005588148],[81.16429497612828,24.86570503234897],[81.16402777777776,24.86541666666706],[81.1622861056857,24.865568432278437],[81.1612228732636,24.867215059068812],[81.1588330078122,24.867494701809605],[81.15761054144943,24.866175333659143],[81.15508368598066,24.867421561347385],[81.15396470811615,24.866829511854746],[81.15287434895825,24.868006312052657],[81.15442477756065,24.871028137207475],[81.15270141601545,24.872216924031918],[81.15068427191844,24.8702830759689],[81.14833862304667,24.87227813720743],[81.14889417860226,24.873328035143047],[81.14927164713535,24.874912889268927],[81.14752522786452,24.876531024509305],[81.14722751193582,24.877800369263056],[81.14945488823761,24.878505554199464],[81.15110582139746,24.877494701809752],[81.15321560329838,24.87682673984135],[81.15430514865429,24.875838631524317],[81.15744506835935,24.87703678554992],[81.15829182942727,24.87612292819577],[81.16002563476539,24.874970957438578],[81.16191799587651,24.874371829563003],[81.16514092339409,24.874499571058877],[81.16648084852423,24.87402990553143],[81.16844021267357,24.875338083903372],[81.16935845269089,24.87632916768436],[81.17010240342873,24.878678622775993],[81.17209350585924,24.87859970092819],[81.17165079752593,24.877762976752635],[81.1716510687933,24.876412887573608],[81.17198689778647,24.875454949273276]]]]},"properties":{"id":"9525"}}]}