{"type":"FeatureCollection","features":[{"type":"Feature","geometry":{"type":"MultiPolygon","coordinates":[[[[79.08639431423629,24.836231909858398],[79.08747992621554,24.835719451904723],[79.08789740668422,24.833098907471282],[79.08763888888885,24.832361111111624],[79.08693223741321,24.832793799506874],[79.0847059461806,24.83278393215656],[79.08472900390646,24.833366360135116],[79.08415825737856,24.83444483439186],[79.08524875217009,24.836225568983735],[79.08107449001753,24.836060112847733],[79.08109971788193,24.834017622206503],[79.07936821831598,24.83473936292924],[79.07889431423612,24.83532443576439],[79.08151746961809,24.839253760444336],[79.08221679687526,24.838883599175944],[79.08735894097234,24.837685614692504],[79.08639431423629,24.836231909858398]]]]},"properties":{"id":"19209"}}]}