{"type":"FeatureCollection","features":[{"type":"Feature","geometry":{"type":"MultiPolygon","coordinates":[[[[77.76157823350692,24.039588216146313],[77.76219021267346,24.036958346897094],[77.76359592013884,24.035702243381593],[77.76200493706588,24.030611843533364],[77.76082546657997,24.029174465603717],[77.76056342230899,24.028047756619372],[77.75914605034714,24.026018744575126],[77.75796956380233,24.024887288411975],[77.75664605034731,24.022152370877123],[77.75673855251742,24.020600992839093],[77.75471435546868,24.020285576714855],[77.7540011935765,24.019898071289504],[77.75361897786459,24.019363471137623],[77.75420518663182,24.01828470865925],[77.7541533745659,24.01741726345533],[77.75291666666672,24.015416666667093],[77.75223008897567,24.01611891004822],[77.7506168619793,24.016859334310396],[77.75004584418414,24.017498304579448],[77.74895589192695,24.017769978841642],[77.74691541883672,24.016921318902348],[77.74633165147563,24.016956108941457],[77.74643527560764,24.01869703504829],[77.74723253038204,24.019409315321724],[77.74720648871536,24.01984544542148],[77.74484293619778,24.019704589844324],[77.74305908203112,24.01832227918888],[77.74250786675353,24.018477783203522],[77.74451958550341,24.02107354058208],[77.74584120008686,24.02138108995267],[77.74622667100701,24.0222208658859],[77.74304768880191,24.02249220106387],[77.74250786675353,24.02293775770461],[77.74417453341997,24.023325534397145],[77.74444932725683,24.02421535915849],[77.74605848524314,24.025547756619474],[77.74749213324648,24.02443664550836],[77.74844373914945,24.024174465603807],[77.75005181206595,24.024751383463965],[77.75054768880224,24.026440226237497],[77.74834120008697,24.02869208441902],[77.74984320746543,24.030034179688172],[77.75059054904509,24.029989624023855],[77.75116373697907,24.030631103516043],[77.75054551866324,24.033524441189854],[77.74793646918394,24.037160712348523],[77.74692708333347,24.037624104818164],[77.7469561089409,24.038112792969343],[77.75062147352443,24.037894354926763],[77.75165879991326,24.038618910048257],[77.75436170789922,24.039864434136746],[77.75560384114598,24.038474324544694],[77.75924750434044,24.040547756619347],[77.76157823350692,24.039588216146313]]]]},"properties":{"id":"9606"}}]}