{"type":"FeatureCollection","features":[{"type":"Feature","geometry":{"type":"MultiPolygon","coordinates":[[[[81.57358625620597,24.229448642078992],[81.57304673744241,24.229181035554944],[81.57250713112947,24.22918108813323],[81.5719676045957,24.228909067781927],[81.5717000154003,24.228641504915927],[81.5717000154003,24.228101943680414],[81.5719676045957,24.22783444487314],[81.57250713112947,24.227834388503737],[81.57250713112947,24.227562402028],[81.5719676045957,24.2272948823979],[81.57062094681888,24.227294820719507],[81.56954186270579,24.227294827043778],[81.56873471502323,24.2270228942959],[81.56846719796246,24.22675533095385],[81.56846719796246,24.226215770634482],[81.56900231481913,24.2256761893844],[81.56927426484137,24.225408665999453],[81.56954186270579,24.22540865669285],[81.57062094681888,24.225676223367714],[81.57142807417236,24.22567624735288],[81.5717000154003,24.22567620508704],[81.5719676045957,24.225408703629796],[81.57304673744241,24.225136690294207],[81.57358625620597,24.22513662687338],[81.57385383866412,24.225676175730086],[81.5741257710703,24.225948206951188],[81.57547244950868,24.22594823444848],[81.5760120344597,24.225948256627902],[81.5768191037192,24.22621573778308],[81.57735867896841,24.226215754770195],[81.57762616427405,24.225948235104312],[81.5778981666592,24.225676194603793],[81.5778981666592,24.22513662362141],[81.57762616427405,24.22513667419659],[81.57735867896841,24.224869124149407],[81.57735867896841,24.224057561669525],[81.57762616427405,24.22379003964997],[81.5787052992587,24.223250486005085],[81.57951242314473,24.22325046198422],[81.58005197898157,24.22298288227462],[81.58032397255411,24.222710922308167],[81.58059153092839,24.2224433960305],[81.58059153092839,24.221903818454464],[81.58032397255411,24.221636267922335],[81.5789772977183,24.22109671862536],[81.5778981666592,24.22109670573451],[81.5770911090327,24.221096727797317],[81.57574002522054,24.22109675299484],[81.57493294433695,24.221096671966862],[81.57304673744241,24.220285155543735],[81.57142807417236,24.21975009157096],[81.57088853986826,24.21921049037816],[81.57088853986826,24.21867091852448],[81.57116048305429,24.21839897245472],[81.57142807417236,24.218398955898905],[81.57250713112947,24.218131424581628],[81.57439335160623,24.217324305357906],[81.57466536573239,24.217052263509927],[81.57520043831099,24.216245226571843],[81.5760120344597,24.21516611736861],[81.57735867896841,24.215166099069904],[81.57735867896841,24.2143590192194],[81.5770911090327,24.214086962683794],[81.57735867896841,24.2138194350767],[81.57843773412881,24.214087020804854],[81.5792448609075,24.21516606553584],[81.58025486342333,24.215705683648437],[81.58113107899479,24.215973183897148],[81.58140306864178,24.216245209584628],[81.58140306864178,24.217324289376904],[81.58140306864178,24.217591876281816],[81.58140306864178,24.21813136987427],[81.58193817673109,24.21839897146654],[81.58274969982861,24.218398986091202],[81.58382432693261,24.218670976600507],[81.58355678011034,24.21893851509533],[81.58355678011034,24.220017592641767],[81.58382432693261,24.22028513843972],[81.58544297317954,24.220824668962024],[81.58598256991652,24.221903818059218],[81.58598256991652,24.22217131445892],[81.5857105132554,24.22244337478527],[81.58544297317954,24.222710913881926],[81.58490345620399,24.22298292878959],[81.58436393534757,24.223250440559312],[81.58382432693261,24.223250450288063],[81.58382432693261,24.222982865583973],[81.58355678011034,24.222982904813392],[81.583289232336,24.223250437927376],[81.583289232336,24.223522432434194],[81.58355678011034,24.22405756233441],[81.58463591324463,24.224869113162995],[81.58544297317954,24.22459706080467],[81.58706166806141,24.224597094752],[81.58786878547963,24.224869112650964],[81.58894785641448,24.225136642863262],[81.58948742787291,24.225136614234074],[81.58948742787291,24.22486911789707],[81.58921538395876,24.224597101013217],[81.58840828106642,24.22459708725107],[81.58813631688659,24.22432957357684],[81.5873292023521,24.223250479088136],[81.5873292023521,24.22217131188968],[81.5876011694692,24.22190383280956],[81.58867589419302,24.221903802590447],[81.58894785641448,24.22055714547831],[81.58820996803573,24.220285119508375],[81.5876011694692,24.220017576993214],[81.5873292023521,24.219750061594226],[81.5865220791039,24.2183989604264],[81.58598256991652,24.218131399671336],[81.5857105132554,24.21785937663408],[81.58544297317954,24.217591833441148],[81.58517543214268,24.21678479149942],[81.58517543214268,24.216245202532846],[81.58544297317954,24.215973246734436],[81.58544297317954,24.21570565687412],[81.58355678011034,24.215705677104168],[81.583289232336,24.215438130407804],[81.583289232336,24.214626541921618],[81.58113107899479,24.212740338845308],[81.58059153092839,24.21220085122664],[81.58059153092839,24.211933261492092],[81.58113107899479,24.21139374820835],[81.58247771507743,24.211393673423558],[81.58301724954325,24.21112615136802],[81.58355678011034,24.209775026385998],[81.58463591324463,24.208967965193366],[81.58463591324463,24.208428367324572],[81.58436393534757,24.208428440025173],[81.58409639045695,24.208160893777972],[81.58409639045695,24.20734929088313],[81.58436393534757,24.207081738410423],[81.58463591324463,24.206814250275315],[81.58544297317954,24.20681416590547],[81.58706166806141,24.207349338763137],[81.58840828106642,24.208428403760138],[81.58867589419302,24.20870044849177],[81.58921538395876,24.20923550169387],[81.5900224781465,24.20950749419741],[81.59137363871073,24.209775090274363],[81.59218070959625,24.210047071243395],[81.59272025772535,24.21031461138206],[81.59298777177716,24.210586644759033],[81.59298777177716,24.211126158285154],[81.59460647065643,24.21112615969541],[81.59460647065643,24.210854151983412],[81.59595311509347,24.210854133442155],[81.59649263600355,24.211126160935223],[81.59676022019559,24.21139369266558],[81.59783933009945,24.21247285136576],[81.59837883738217,24.21327988857358],[81.59918591628954,24.21516606411663],[81.60026507481015,24.21597320351647],[81.60107213333484,24.215973227232084],[81.60188369972238,24.215973225471174],[81.60215126460949,24.215973240598814],[81.6026908243987,24.216245252631794],[81.60295838640238,24.216512774391035],[81.60349794036168,24.217052291833753],[81.60619565170461,24.217324274734395],[81.6072702763473,24.217591874215643],[81.60808185901212,24.21759184169659],[81.60942851146191,24.217052285356885],[81.60969604931884,24.216512762946593],[81.60969604931884,24.2151661131018],[81.60969604931884,24.214358985352888],[81.60969604931884,24.213819459196344],[81.60916097264388,24.213547447513832],[81.60834940170204,24.21327989006457],[81.60754233817377,24.213012397518852],[81.60700272979457,24.212472796964036],[81.60700272979457,24.211661257786403],[81.6072702763473,24.21139374736397],[81.60754233817377,24.211393728598082],[81.60754233817377,24.211661241877167],[81.60834940170204,24.211661219724846],[81.60862137596072,24.21139368045739],[81.60942851146191,24.210047081385497],[81.60969604931884,24.2097750625432],[81.61023563823167,24.20977503386011],[81.61050760561832,24.209775093625012],[81.61131472071881,24.21004707202499],[81.61158225182041,24.210047065287625],[81.61158225182041,24.209507532070404],[81.61131472071881,24.209235522031832],[81.61023563823167,24.208967985585318],[81.60969604931884,24.208700409118734],[81.60916097264388,24.208428399340562],[81.60834940170204,24.207888830074054],[81.60808185901212,24.207621315573377],[81.60780988278603,24.207349325504154],[81.60780988278603,24.20708171950102],[81.60834940170204,24.206814174771978],[81.60862137596072,24.206542219593246],[81.60916097264388,24.206002657010274],[81.60942851146191,24.205735135035567],[81.60996810230611,24.204923547645564],[81.61023563823167,24.20465602248177],[81.61104718866503,24.204388433465667],[81.61239378761135,24.204388426575704],[81.61293335702166,24.205195532153994],[81.61320088232011,24.205463129560357],[81.61481956133784,24.206274633595612],[81.61697331337419,24.207081767767377],[81.61778044216501,24.207349301788625],[81.619399021838,24.20734928374138],[81.62101773361721,24.20734934524897],[81.62101773361721,24.20762127823933],[81.62209239567457,24.207621333270154],[81.62263189494425,24.206814181769758],[81.6231714739217,24.206542167796457],[81.62344347777102,24.20654220414231],[81.6237110489914,24.206814200778282],[81.62451810486587,24.207349311211843],[81.62559723162215,24.207888865656173],[81.62667634274752,24.207888862763554],[81.6282949801462,24.208160868328733],[81.62964160215213,24.20896797317951],[81.63018113039286,24.208700431531653],[81.63018113039286,24.208428404622566],[81.63044867742147,24.20816083738194],[81.6317953441098,24.207621291238],[81.63314198646262,24.20762128559646],[81.6336815729588,24.20788887736147],[81.6336815729588,24.20816081631638],[81.63422107194108,24.2084284017661],[81.63583979624278,24.208428394759252],[81.63691884263565,24.2081608749764],[81.63718644907019,24.207888884395132],[81.63718644907019,24.207621354353464],[81.63597860717542,24.207621337547167],[81.63502818120256,24.20762132432273],[81.63502818120256,24.207888853304368],[81.63422107194108,24.20788884425845],[81.63395353845002,24.207621274439518],[81.6336815729588,24.207081791078778],[81.6336815729588,24.206274703340895],[81.63395353845002,24.20573506824597],[81.63422107194108,24.20546307782628],[81.63502818120256,24.20519555286924],[81.63530022538626,24.205195568940127],[81.63556775403558,24.205463136971403],[81.63556775403558,24.20573507834287],[81.63664688796925,24.206002620538655],[81.63799352620785,24.206002656489176],[81.63826547595161,24.205735130615906],[81.63853307755298,24.205463133997966],[81.63853307755298,24.205195601854328],[81.6369177290841,24.205195583023524],[81.63637927959459,24.205195576746505],[81.63476065061317,24.20465604253222],[81.63422107194108,24.203848893493415],[81.6336815729588,24.20384893057566],[81.6317953441098,24.20411641543197],[81.6317953441098,24.20519553411242],[81.63044867742147,24.207081728502075],[81.63018113039286,24.20734929691973],[81.62910207000417,24.207349329267984],[81.6277554382514,24.207349299336187],[81.62748345013156,24.20708174577662],[81.62721589245777,24.206814255647288],[81.62694381875545,24.206542195814933],[81.62694381875545,24.20627466997753],[81.62721589245777,24.205463122661257],[81.62721589245777,24.204923568486137],[81.62721589245777,24.204656041552994],[81.62613678913871,24.204655965178176],[81.62586922662311,24.20492352545709],[81.62559723162215,24.205195521625697],[81.62479010381057,24.205195554018985],[81.62263189494425,24.20465598575852],[81.62128522991796,24.20492351569237],[81.62101773361721,24.205195568904145],[81.62101773361721,24.20546309248691],[81.62074572091043,24.205735075737763],[81.61967103944946,24.206002626171028],[81.61913151876391,24.206002696814608],[81.61859199417941,24.205735153181493],[81.61670580160441,24.20519554777563],[81.61643377317708,24.20492356615982],[81.61643377317708,24.204656044499444],[81.61643377317708,24.204116499990548],[81.61643377317708,24.202769796228793],[81.61670580160441,24.202769844459198],[81.61697331337419,24.202502300125573],[81.61724533983406,24.20223023287302],[81.61724533983406,24.20196270920954],[81.61697331337419,24.201690728069707],[81.61616617584284,24.201423194533575],[81.61508707987176,24.201151110437976],[81.61481956133784,24.201151128574836],[81.61481956133784,24.20169067505114],[81.61508707987176,24.20196268067005],[81.61535911321269,24.201962731254397],[81.61535911321269,24.202769799705223],[81.61481956133784,24.203309400610422],[81.61454752603842,24.203576869791092],[81.61400796829727,24.203576922073267],[81.61320088232011,24.20330937497262],[81.61239378761135,24.203309344250172],[81.61158225182041,24.20357694437827],[81.61077513961251,24.203848923649645],[81.61023563823167,24.20411648409926],[81.60969604931884,24.204388447694996],[81.60942851146191,24.20465597179893],[81.60754233817377,24.206002653857155],[81.60619565170461,24.20734927651],[81.6056561172388,24.20788882580716],[81.6056561172388,24.20842844512768],[81.60511657886533,24.208967989340096],[81.60403749043124,24.209507540290147],[81.60295838640238,24.209507464993223],[81.6026908243987,24.20923553194025],[81.60242326144291,24.20870040659453],[81.60242326144291,24.207621264351317],[81.6026908243987,24.206814233306133],[81.60026507481015,24.206542220401843],[81.59999750315873,24.20627469347731],[81.59972549749457,24.206002690777936],[81.59757174977025,24.204655987986428],[81.59729973526689,24.20465599436443],[81.59649263600355,24.20492356642015],[81.59568552800877,24.205735065847264],[81.59487397796156,24.20573513969771],[81.5937993423058,24.2057350718391],[81.59325980196493,24.20519552687209],[81.59137363871073,24.2027698243011],[81.59083408086187,24.201423148117826],[81.58867589419302,24.2008835790039],[81.58813631688659,24.200611617680835],[81.5876011694692,24.200611640282403],[81.58706166806141,24.201151119852213],[81.58678961532578,24.201962724633646],[81.58678961532578,24.202502242408897],[81.58678961532578,24.203037349060594],[81.5865220791039,24.203309322466083],[81.58625010806995,24.2033094015717],[81.58598256991652,24.203037357181486],[81.5857105132554,24.202230226584902],[81.58544297317954,24.20088364691651],[81.58517543214268,24.200611601025983],[81.58490345620399,24.200344079958725],[81.58409639045695,24.200076482112266],[81.58247771507743,24.199536973248286],[81.58193817673109,24.19926499505489],[81.58167062316252,24.19926495214237],[81.5797844186757,24.199264980547213],[81.5797844186757,24.199536987890966],[81.57655153185195,24.199536961085215],[81.57547244950868,24.19926497076446],[81.5746631260819,24.19899738122531],[81.57439335160623,24.19926497743006],[81.57493294433695,24.199536982420142],[81.5760120344597,24.200611580867886],[81.57627952458026,24.20088363594803],[81.57627952458026,24.20115114015411],[81.5760120344597,24.20142318388858],[81.57547244950868,24.201962693237604],[81.5741257710703,24.201962725154743],[81.57385383866412,24.2022302866104],[81.57304673744241,24.203037317457884],[81.5722396275253,24.203037336915287],[81.57088853986826,24.20303736238256],[81.57062094681888,24.202769795114847],[81.57008140670266,24.202230277842744],[81.56981389444778,24.201962713907918],[81.56981389444778,24.20088362009281],[81.57008140670266,24.199804496049524],[81.57035343648639,24.199804538234446],[81.57035343648639,24.19791833911063],[81.56900231481913,24.196571663061903],[81.56873471502323,24.196299681886018],[81.56846719796246,24.19603211530095],[81.56819516132461,24.195764567895125],[81.56792764233225,24.19576459373063],[81.56765568742313,24.196032146265864],[81.5673880828214,24.196299668959384],[81.566576560595,24.196299692953247],[81.56630903582666,24.196032123098448],[81.5660414264187,24.19576454815909],[81.56522988961277,24.195492562410763],[81.56388327811734,24.195492520684056],[81.5630761531801,24.19576459170044],[81.5630761531801,24.196032092438884],[81.5636157437369,24.196032130536494],[81.56388327811734,24.196299614476388],[81.5641552467167,24.19657166422978],[81.5641552467167,24.19765075714649],[81.56388327811734,24.197918298048634],[81.5622645842773,24.197918269491296],[81.56199704411179,24.197918282354962],[81.5603783932294,24.19819032394261],[81.55984329849812,24.198997424229844],[81.55984329849812,24.19953691881041],[81.56011084633545,24.20007649528165],[81.5611899825598,24.20142317193219],[81.56280418066413,24.20142315339085],[81.5630761531801,24.20169070398586],[81.56334368949197,24.20196268845858],[81.56388327811734,24.20330939761024],[81.56388327811734,24.20357689426139],[81.56388327811734,24.20384889103191],[81.56388327811734,24.204116477361893],[81.5636157437369,24.204388486735766],[81.56172950299393,24.205735098384352],[81.56145752559999,24.206002624275655],[81.560650374549,24.207081726992982],[81.5603783932294,24.207621331392446],[81.56011084633545,24.208160820161226],[81.55984329849812,24.208700397216077],[81.55984329849812,24.2089679786681],[81.56011084633545,24.20896797557795],[81.56181670469985,24.20870042234486],[81.56253664242982,24.208428441157068],[81.56280418066413,24.208160849158645],[81.5636157437369,24.207888871872527],[81.56442277917463,24.207888812628724],[81.5646903106805,24.208160884363636],[81.5646903106805,24.20870037274605],[81.56442277917463,24.208967968876465],[81.56388327811734,24.209235509122948],[81.5636157437369,24.209507512864533],[81.5636157437369,24.210586573603607],[81.5636157437369,24.210854155783395],[81.5636157437369,24.211393729855743],[81.56334368949197,24.21193324126179],[81.5630761531801,24.212200830493444],[81.56280418066413,24.212200771878386],[81.56253664242982,24.21193328794729],[81.5622645842773,24.212200804433408],[81.56145752559999,24.213012404471783],[81.5611899825598,24.213279897799268],[81.56091791951147,24.213547409389307],[81.5603783932294,24.213547437596517],[81.56011084633545,24.213279950126037],[81.56011084633545,24.211933233194998],[81.5603783932294,24.211933231039126],[81.5603783932294,24.21166124093402],[81.56011084633545,24.211393663254896],[81.55984329849812,24.2111261751554],[81.55930376448154,24.21112620141332],[81.55822468480616,24.211661225599798],[81.55768513915623,24.212200811970135],[81.55687803118823,24.213012377387486],[81.55579891662231,24.21301239991729],[81.55579891662231,24.212740322765555],[81.55499178836149,24.212740322495804],[81.55418021565893,24.21301232731537],[81.55418021565893,24.213547479305106],[81.55471978652443,24.214626599530646],[81.55499178836149,24.214898571480845],[81.55606647889564,24.21516606881474],[81.55660603619643,24.215438135779507],[81.55687803118823,24.215705694639297],[81.55714558961668,24.21597318675397],[81.55714558961668,24.216784733755745],[81.55687803118823,24.2170523021734],[81.55633847584576,24.21759186986783],[81.55579891662231,24.217859449622097],[81.55418021565893,24.217859362548452],[81.55391273035335,24.218131427061152],[81.55391273035335,24.218938465256713],[81.55418021565893,24.21893847435672],[81.55418021565893,24.219478029286265],[81.55391273035335,24.21975009202002],[81.5536407246087,24.220017582661484],[81.55310558180858,24.22001764138429],[81.54960077917949,24.218670964248616],[81.54798211192096,24.218131438900926],[81.54690747301314,24.217859385473403],[81.54636792968088,24.217591877745974],[81.54609589659131,24.2173243027797],[81.5458283824768,24.217052298688003],[81.54528883138332,24.21597316819478],[81.54528883138332,24.2154381178852],[81.5458283824768,24.2146265255993],[81.54609589659131,24.21435897754661],[81.54609589659131,24.213547442689872],[81.54609589659131,24.212472833983398],[81.54609589659131,24.211661295704246],[81.5458283824768,24.211393701011005],[81.54555634742908,24.21112612460739],[81.54528883138332,24.211126192016934],[81.54528883138332,24.211393674833985],[81.54502123068929,24.21166121943743],[81.54448167380147,24.211933261851186],[81.5436701548721,24.21193322673625],[81.54259553796393,24.211393672489365],[81.54124441849766,24.211393674106475],[81.54016976688754,24.21193329393921],[81.53774400119212,24.21247278032712],[81.53558579245188,24.211933266136285],[81.53531824090456,24.211661245569147],[81.53531824090456,24.21112619995796],[81.53558579245188,24.21085417444145],[81.53558579245188,24.21058660609556],[81.53558579245188,24.210047058954558],[81.53558579245188,24.209775080150365],[81.53558579245188,24.209235532021083],[81.53531824090456,24.208428372319162],[81.53504625150904,24.208160873988206],[81.53504625150904,24.20788889431263],[81.53531824090456,24.207621342855106],[81.53585777989795,24.207621311054766],[81.53585777989795,24.20788888129593],[81.53612532952283,24.2078888312508],[81.53612532952283,24.207081799612666],[81.53585777989795,24.206272432119192],[81.53531824090456,24.20600268955633],[81.53423915131188,24.206002659831043],[81.5339715949676,24.206274687305992],[81.53369960070322,24.206814216651452],[81.53369960070322,24.20762133514758],[81.53369960070322,24.20788881432638],[81.53369960070322,24.20870043086694],[81.53343204243654,24.208967954045306],[81.53208536271373,24.209235512617397],[81.53046673661586,24.210047074657112],[81.53046673661586,24.210854182508143],[81.53073430542875,24.211393686099015],[81.53127387731851,24.211393676648626],[81.53154588035912,24.21166127050654],[81.53208536271373,24.212472770652198],[81.53208536271373,24.21274033613237],[81.53181336162223,24.213012373659453],[81.53127387731851,24.213279953108454],[81.53046673661586,24.2132799072224],[81.52992715893228,24.213279911525447],[81.5275014812897,24.21327995140163],[81.52696188233378,24.213279943667118],[81.52642236322893,24.212740313665364],[81.52534766714356,24.212200825992866],[81.52507572541279,24.211933227239314],[81.52507572541279,24.2113936921984],[81.52534766714356,24.211393728212002],[81.52561525417431,24.21112613794739],[81.52561525417431,24.210854164811366],[81.52534766714356,24.210854192254843],[81.52453610904743,24.211126203955473],[81.52426860191312,24.211393706185262],[81.5237290634856,24.21220078725746],[81.52346146975336,24.212472781477047],[81.52292192554083,24.212740323780466],[81.52238237746556,24.212740392672302],[81.52022423019693,24.213547468749994],[81.51995662399625,24.21381945266583],[81.51995662399625,24.214087011345583],[81.51995662399625,24.214358979666414],[81.51995662399625,24.2148985960047],[81.5207637100182,24.215705693354536],[81.52103575106682,24.21597321310152],[81.52238237746556,24.215973247416997],[81.52292192554083,24.21624524041472],[81.52346146975336,24.216784790394527],[81.5237290634856,24.217052328449],[81.52426860191312,24.217324317080966],[81.52507572541279,24.21759187106261],[81.52615477906406,24.21759189891047],[81.52669438381398,24.217859383973448],[81.52830857009624,24.218670931325434],[81.52884807567236,24.218938494478934],[81.52992715893228,24.219210469456414],[81.53208536271373,24.22001764185147],[81.53343204243654,24.220824682634287],[81.53450670670392,24.221636275639],[81.53558579245188,24.221903806102745],[81.5380115441067,24.22244339135034],[81.53963017515431,24.222982931789957],[81.54016976688754,24.22352243855171],[81.54043730116027,24.2237900405393],[81.54043730116027,24.224329575912563],[81.54070927104439,24.224597064317052],[81.54205596364889,24.224597124225753],[81.54232349120198,24.224329596537842],[81.5436701548721,24.22432954943916],[81.54636792968088,24.22459714113205],[81.5482541381742,24.22513663007136],[81.54906117150094,24.225408656585202],[81.54960077917949,24.225676252455017],[81.55014029927244,24.22621572811721],[81.55040788172161,24.226483319343004],[81.55040788172161,24.22675529540753],[81.55067981549328,24.227022858111866],[81.5514869901343,24.227294882074332],[81.5533731536847,24.227834404287194],[81.55633847584576,24.228369509924065],[81.55822468480616,24.22864150120583],[81.5611899825598,24.228641556065853],[81.56253664242982,24.228909098073075],[81.56253664242982,24.229181078736843],[81.5636157437369,24.22944860937129],[81.56496236003855,24.229720629561044],[81.5668485194299,24.22972062370394],[81.56792764233225,24.229448571013435],[81.56954186270579,24.22944865333497],[81.57116048305429,24.229448601987144],[81.57142807417236,24.229181106009776],[81.5719676045957,24.229181053161838],[81.57277915210071,24.229720611046687],[81.57304673744241,24.229988172152147],[81.57358625620597,24.22998820354809],[81.57358625620597,24.229448642078992]],[[81.53909066324505,24.214359044605757],[81.53935820136266,24.21408701316909],[81.54070927104439,24.21408703277936],[81.54151638546224,24.214359001558506],[81.54178391493772,24.214626512474766],[81.54178391493772,24.215705697415032],[81.54151638546224,24.21597323319682],[81.54070927104439,24.215973240769515],[81.53963017515431,24.21570566295557],[81.53935820136266,24.215438082006614],[81.53909066324505,24.215166067539045],[81.53909066324505,24.214359044605757]],[[81.56442277917463,24.218131421626126],[81.56253664242982,24.21759187311963],[81.56253664242982,24.217052307608157],[81.56280418066413,24.216512736652774],[81.56388327811734,24.216512758913012],[81.56522988961277,24.216784752350918],[81.56550193701261,24.217052302344015],[81.56550193701261,24.217859449720862],[81.56522988961277,24.218131377357267],[81.56442277917463,24.218131421626126]],[[81.57951242314473,24.208428413596806],[81.57951242314473,24.207621318384895],[81.5792448609075,24.207349264319845],[81.57843773412881,24.207081718746323],[81.5778981666592,24.206814223649317],[81.57762616427405,24.206814193385],[81.57762616427405,24.20654219153009],[81.5778981666592,24.20627462987663],[81.57843773412881,24.206002620125375],[81.5797844186757,24.205195549266875],[81.5797844186757,24.204116443432497],[81.58005197898157,24.203848898227406],[81.58113107899479,24.203848949440385],[81.58167062316252,24.204116431844255],[81.58247771507743,24.204923557374315],[81.58274969982861,24.205463086998137],[81.58274969982861,24.20600268655589],[81.58247771507743,24.207349276797416],[81.58247771507743,24.2078888738219],[81.58247771507743,24.20870038331013],[81.58221016344035,24.2089679293058],[81.58167062316252,24.20923554112997],[81.58059153092839,24.20923548361074],[81.58005197898157,24.208967995331918],[81.5797844186757,24.208700442598982],[81.57951242314473,24.208428413596806]]]]},"properties":{"id":"1855"}}]}