{"type":"FeatureCollection","features":[{"type":"Feature","geometry":{"type":"MultiPolygon","coordinates":[[[[102.7798146820002,18.40058442000003],[102.77863906100006,18.398735937000126],[102.77786797000013,18.398382031000153],[102.77738203000004,18.398070481000133],[102.77888203,18.39738203100019],[102.77939602300009,18.397102724000078],[102.7793675500001,18.39662500000017],[102.77939397400027,18.396181659000163],[102.78022447600026,18.395632030000073],[102.781909264,18.396236550000182],[102.78336797000028,18.395552149000125],[102.78236566500013,18.394656601000108],[102.78238990000025,18.394250000000213],[102.78236090500016,18.393763531000204],[102.78111328100007,18.39297005300027],[102.78009149600027,18.391562115000212],[102.78015636400019,18.390473770000227],[102.77863203000018,18.390882030000256],[102.77652518100015,18.391117970000238],[102.77563203000014,18.390052149000155],[102.77643449400009,18.389335154999984],[102.77927556600017,18.388674135000187],[102.77961797000026,18.387734687999995],[102.77725291800013,18.388154976000123],[102.77626119600015,18.388095865000125],[102.77585346600009,18.38677545900012],[102.77529364400019,18.385745256000234],[102.77430341300007,18.386436947000263],[102.77235356900022,18.385859541000272],[102.77240413300004,18.385011198000157],[102.77378962300011,18.384583368000193],[102.77411797000028,18.383867970000253],[102.7745011060002,18.383382030000092],[102.77561797000013,18.384632030000134],[102.77623633600021,18.384867970000116],[102.7761073950002,18.382704603000178],[102.77434361600027,18.38202656400003],[102.7744432530001,18.3803549040001],[102.77490267600021,18.37907449700012],[102.77659529500019,18.37917538100011],[102.77786797000013,18.379632030000238],[102.77863203000018,18.379867970000134],[102.77905597300017,18.380342447000217],[102.7797699700001,18.3787867850002],[102.78160802800025,18.378896339000292],[102.78110686500023,18.382190971000313],[102.7798750000002,18.382117550000274],[102.77925000000008,18.382154800000166],[102.77817776500021,18.38209089300011],[102.77763203000026,18.38233799400031],[102.77913203000017,18.38261797000021],[102.77972187400016,18.383278126000206],[102.78084059900007,18.384277695000037],[102.78119661300022,18.38505338500019],[102.78205338700022,18.385446615000035],[102.78236797000031,18.386132030000084],[102.78284738200003,18.38661797000023],[102.78311797000012,18.384775522000197],[102.78261543300007,18.383374962000048],[102.78279426200007,18.382882030000204],[102.78386797000016,18.38363203000017],[102.78473829700013,18.383900784000033],[102.78511797000013,18.384474478000072],[102.78444773100009,18.38634242200017],[102.78563203000002,18.38661797000023],[102.78618932300029,18.38692080500006],[102.78611359400034,18.388191374000115],[102.78484339900004,18.388115665000257],[102.78335771600021,18.389778448000158],[102.78261797000013,18.390117970000276],[102.78238203000004,18.390470884000166],[102.78455987200024,18.39008386600021],[102.78583121900019,18.39015964300026],[102.78650390200013,18.389794100000216],[102.78721654100022,18.39134680000025],[102.78861374300007,18.391671881000065],[102.78898593900024,18.390860937000113],[102.78938203000021,18.390132030000103],[102.78963570000028,18.38716025400025],[102.79116398200026,18.386882030000137],[102.79229648600025,18.38866272500013],[102.79325000000026,18.388320595000067],[102.79411997200012,18.388632750000042],[102.79441015600034,18.388615454000032],[102.79511124800027,18.38708791400022],[102.79411797000014,18.386632030000058],[102.7920180780001,18.385490932000238],[102.79243146900032,18.383947441000075],[102.79234850700018,18.38255547700001],[102.79347646300019,18.381547657000112],[102.79451054800009,18.38107304800019],[102.79511797000029,18.38011797000003],[102.79576848600007,18.379536739000173],[102.79611797000015,18.379060566000206],[102.7928319020003,18.378548496000022],[102.79163203000022,18.378117970000204],[102.79039683200037,18.37783058200013],[102.78914060600025,18.378513226000123],[102.78863203000017,18.377802150999997],[102.789711014,18.376838089000174],[102.78936544400037,18.37587500000015],[102.78968386100033,18.374987579000177],[102.78959248700008,18.373454506000172],[102.7890661390002,18.37198757900012],[102.78915830600019,18.370441196000243],[102.78882196800024,18.36950382200004],[102.78963203000015,18.369132030000188],[102.79015765400018,18.368846401000184],[102.7906612850002,18.366681789000225],[102.79170557800026,18.366359322000193],[102.79277769500007,18.365159401000028],[102.79364069400006,18.364763313000296],[102.79361010000005,18.364250000000197],[102.79365782900018,18.363449219000103],[102.79513203000002,18.362132030000197],[102.79636797000032,18.359828777000317],[102.79567298100008,18.359207813000182],[102.79452545900008,18.358853466000085],[102.79355312700002,18.358325092000058],[102.79313203000018,18.356748894000205],[102.79512338300017,18.35496963900016],[102.79570306400026,18.35309240000018],[102.79652812200024,18.35314157900008],[102.79697662400034,18.3541187670002],[102.79969016300024,18.354373425000034],[102.80048593900025,18.355264061000284],[102.80163203400022,18.35561797000007],[102.80307430300027,18.356135471000172],[102.80344137600028,18.35611359400032],[102.80336536400026,18.35483832200005],[102.80212500000007,18.354912251000215],[102.80108280900006,18.354850136000223],[102.80063203400007,18.353867970000223],[102.80007578300015,18.353071636000067],[102.7976183400003,18.351943748000267],[102.79561797000017,18.351632030000232],[102.79488002800022,18.351367249000262],[102.79351953100016,18.351448338000225],[102.79313203000018,18.351882030000226],[102.79282194500021,18.35215908800005],[102.79199744800027,18.35210994700016],[102.79052851900016,18.351311718000105],[102.79010487700029,18.35083758200014],[102.79021440500028,18.349000000000146],[102.79006572300014,18.346505470000253],[102.78923593900024,18.34576406100028],[102.78822790100023,18.344635864000196],[102.7866336330002,18.34433829500027],[102.78638203000017,18.341025520000258],[102.78758453800017,18.339951096000178],[102.78963203000015,18.33963203400006],[102.7901179700003,18.33932048000004],[102.7881039050001,18.338396095000206],[102.78775000000022,18.338000000000036],[102.78652617300028,18.338186165000167],[102.7853690760002,18.338117195000223],[102.78463203000004,18.3386320340002],[102.78361797000028,18.338867966000265],[102.78338203000001,18.339132034000087],[102.78203169300022,18.340112015000074],[102.7801179700003,18.3403679660002],[102.77846438200007,18.341055740000087],[102.7779786570002,18.342628716000036],[102.77636797000028,18.343367966000088],[102.77513203000004,18.344382034000247],[102.77386797000028,18.34461796600013],[102.77232304800029,18.345573044000105],[102.77136797000011,18.34586796600027],[102.77113203000013,18.346132034000178],[102.7708331910001,18.346399040000065],[102.77021082700023,18.347755051000178],[102.76913203000018,18.34736796600012],[102.7679169040002,18.34708525100008],[102.76611932800026,18.347192390000245],[102.7649248920001,18.348026722000085],[102.76606509000001,18.350124958000237],[102.76817523600008,18.350407185000137],[102.76808413300026,18.351935638000214],[102.76857283000012,18.351388683000167],[102.76913203000018,18.35113203000016],[102.76986797000009,18.350617970000172],[102.77033139000034,18.35038203000019],[102.77062151700008,18.353166080000236],[102.77104998400026,18.351778530000004],[102.77350248300016,18.35083572800025],[102.77441594300015,18.349399452000256],[102.77613203000001,18.349132030000234],[102.77711797000015,18.348367970000083],[102.77801988600018,18.34795401800021],[102.77982160600024,18.348436573000157],[102.78086797000029,18.347867966000095],[102.78183199300011,18.347570282000163],[102.78306570800024,18.347643814000023],[102.78525000000027,18.347255653000246],[102.78741264700008,18.347639969000156],[102.7879463540003,18.34880281800018],[102.78786090500031,18.350236469000052],[102.78686797000032,18.35086796999998],[102.78613203000029,18.351577579000164],[102.78788203000002,18.352117970000023],[102.78870299500002,18.35269142200032],[102.78860487000023,18.354337742000283],[102.7872755240002,18.355867970000148],[102.7858800280001,18.355367249000196],[102.78537500000024,18.355397350000118],[102.78469854400012,18.355357033000246],[102.78419475900003,18.356988499000224],[102.78295774100027,18.357556252000037],[102.78106904600023,18.35799568600025],[102.78144664000021,18.3590480350001],[102.78136461600005,18.3604242170001],[102.78072631800026,18.360994530000227],[102.77919718200022,18.361696354000202],[102.7778181190001,18.36161415899997],[102.77699906500007,18.362530846000055],[102.77719784900003,18.363117970000232],[102.77811797000012,18.36261797000016],[102.77963203000004,18.362382030000177],[102.7801179700003,18.362117970000185],[102.78138203000017,18.361882030000203],[102.78225859500034,18.360900978000203],[102.7829364700003,18.35942401500013],[102.78400483300024,18.359094112000193],[102.78561797000029,18.35711797000029],[102.7876962010001,18.356840012000106],[102.78835390500015,18.35610390500004],[102.78888203,18.355632030000166],[102.78911797000032,18.35536796999999],[102.78975289500002,18.35480067100022],[102.79145533800019,18.35490213800017],[102.79133973700013,18.35684161800006],[102.79188203000015,18.357617969999993],[102.79211797000013,18.358882030000316],[102.79313203000018,18.359617970000187],[102.79336797000016,18.359882030000193],[102.79363203000005,18.360117970000076],[102.79386797000015,18.361237793000186],[102.79299775700028,18.362839188000166],[102.79011688200026,18.3631766700002],[102.78912500000027,18.363117550000112],[102.7886892930002,18.363143520000122],[102.7876320300002,18.363882030000127],[102.78661797000015,18.364117970000194],[102.78557361600028,18.36484746600007],[102.78179009200008,18.365143635000152],[102.78088203000019,18.366327137000013],[102.78233484300026,18.3666651570001],[102.7830041280001,18.36954174800016],[102.78247108500014,18.371027332000153],[102.78136797000016,18.371367970000193],[102.78034531800009,18.37216048400012],[102.77961897300023,18.372117191000186],[102.77863203000018,18.37288203000014],[102.77761797000014,18.373117970000123],[102.77688203000017,18.373382030000215],[102.77446489700012,18.37383319100006],[102.77211452900016,18.374676529000197],[102.77068236900024,18.374591167000062],[102.77038203000032,18.3758820300002],[102.7690301170002,18.376936489000144],[102.76816924300013,18.377899986000187],[102.76725000000002,18.377845200000095],[102.76624466300015,18.377905121000268],[102.76684388000015,18.379007820000197],[102.76486797000027,18.37961796999997],[102.76463203000017,18.381382030000168],[102.76389723400015,18.382433973000076],[102.7621179700001,18.383117970000185],[102.76087254300009,18.38398791700004],[102.75931759800014,18.383341169000275],[102.75820390700008,18.383407548999983],[102.75788203000016,18.385132030000207],[102.75754638900023,18.386067461000152],[102.75534519600026,18.386410475000204],[102.7539071850002,18.386324766000044],[102.75363203000009,18.388382030000088],[102.75325546800016,18.38907499500013],[102.75196691900007,18.390226303000176],[102.74825499200008,18.39121461300006],[102.7471849880001,18.392412167000032],[102.7456545270002,18.393522871000087],[102.74503216300022,18.39514181700011],[102.7438649770003,18.39507225000021],[102.74213203100007,18.397146932000183],[102.74353179900024,18.397063502000037],[102.74423262200023,18.397444335000017],[102.74410458600013,18.399592504000026],[102.74419785000012,18.39986796900017],[102.74508435300012,18.398875790000062],[102.74635101300001,18.398581081000188],[102.74669269400013,18.396388440000138],[102.74792590800021,18.395604126000165],[102.74786755000034,18.39462500000006],[102.74793123100008,18.39355656400012],[102.74859911900003,18.392882030000095],[102.74974062500027,18.394842709000045],[102.75070557800026,18.395140678000104],[102.75136797000008,18.39588203000025],[102.75180177900009,18.39626963700026],[102.75366091300023,18.39560256000013],[102.75361721400029,18.394869358000207],[102.75392864800008,18.394296244000216],[102.75566924100016,18.394399988000103],[102.75659339900025,18.393365665000047],[102.75697942700018,18.393388674000093],[102.7573679700001,18.39588203000025],[102.75813203000027,18.396117969000315],[102.75911797000023,18.396882031000203],[102.7601085150001,18.39718790500021],[102.76086797000008,18.398382031000153],[102.7614212230001,18.398867969000207],[102.76189512100015,18.398337580000117],[102.76186723500015,18.397869731000043],[102.76247835200016,18.396400453000155],[102.76363203000025,18.39613203100015],[102.76391261500001,18.395223385000193],[102.76457757900025,18.39488203000019],[102.76586797000024,18.39588203000025],[102.76738203000016,18.396117969000315],[102.76826509100013,18.396434821000156],[102.76861797000012,18.39627552200021],[102.76761797000009,18.395382030000178],[102.76735487700014,18.395087580000236],[102.76741211700008,18.394127258000097],[102.76634240000013,18.393796938000122],[102.76641283000012,18.392615295000226],[102.76499291200022,18.39269992600012],[102.76431171800007,18.392329760000052],[102.76338203000009,18.390867970000073],[102.76248558200021,18.390591152],[102.76188203000024,18.389518023000022],[102.76313203000026,18.38913203000014],[102.76394769300018,18.388562281000162],[102.7653686790002,18.388646975000157],[102.76604911800021,18.387885424000203],[102.76715838200025,18.388660261000098],[102.76850000000005,18.38858029700006],[102.76897502500017,18.389615286000165],[102.7712958980002,18.389887165000275],[102.77200000000008,18.38984520000018],[102.77282938400023,18.38989463200018],[102.77311797000013,18.391118853000137],[102.77222226700027,18.3921179700002],[102.76967176800011,18.391573046000232],[102.76913203000018,18.392023745000216],[102.76988203000028,18.39236797000028],[102.77011797000014,18.392632030000186],[102.77044368700027,18.392923058000108],[102.77273003000019,18.39278678700012],[102.77319661300018,18.393803385000027],[102.77410661700029,18.39422104600021],[102.7743679700001,18.39573197700018],[102.77311797000013,18.396117969000315],[102.77263202999998,18.39642122400018],[102.77317805500022,18.396909089000232],[102.7754994850001,18.396770726000142],[102.77611797000029,18.397224478000027],[102.77545284700031,18.39907816500002],[102.77601575100007,18.400114046000198],[102.77791603500029,18.399605095000098],[102.77844137200006,18.399636406000113],[102.77836104600019,18.400984115000156],[102.77689675500025,18.401436277000087],[102.77838203000013,18.402117969000173],[102.77892050200026,18.40296463000024],[102.77961797000026,18.401867969000094],[102.78083174900021,18.40149316100026],[102.7798146820002,18.40058442000003]]]]},"properties":{"id":"6958"}}]}