{"type":"FeatureCollection","features":[{"type":"Feature","geometry":{"type":"MultiPolygon","coordinates":[[[[105.28653096516794,14.578661024306058],[105.28632134331465,14.57697577582529],[105.28483289930423,14.576348571777743],[105.28281311035019,14.574557088216608],[105.28211890326477,14.574965176052928],[105.28091284857717,14.574815165202423],[105.2801711018869,14.573888888889357],[105.27766577826472,14.57465593126129],[105.27611633300668,14.574060363770045],[105.2742142401788,14.57570288764154],[105.27600040011825,14.577761230469193],[105.2786170789918,14.579134351942784],[105.28002617729928,14.57873196072093],[105.28121192084305,14.578879462348553],[105.2830832926418,14.578454386393844],[105.28398396809766,14.578566419813995],[105.28519141303039,14.579448445638462],[105.28653096516794,14.578661024306058]]]]},"properties":{"id":"22328"}}]}