{"type":"FeatureCollection","features":[{"type":"Feature","geometry":{"type":"MultiPolygon","coordinates":[[[[76.73445231119805,25.15750759548625],[76.73458333333369,25.1562500000001],[76.73350626627618,25.156394314236223],[76.73195231119834,25.159174262152803],[76.73000786675382,25.161756184895964],[76.73026991102464,25.163340928819608],[76.73082546658017,25.16417426215287],[76.73564656575533,25.1659884982639],[76.7352856445315,25.164436848958417],[76.73406792534732,25.162351888020922],[76.7341296386721,25.158407118055578],[76.73445231119805,25.15750759548625]]]]},"properties":{"id":"19084"}}]}