{"type":"FeatureCollection","features":[{"type":"Feature","geometry":{"type":"MultiPolygon","coordinates":[[[[76.4291410319012,27.2305113389759],[76.43193657769118,27.228229166666992],[76.43137112087729,27.22783772786481],[76.42849365234414,27.228944769965466],[76.42546047634576,27.229592827691178],[76.42447536892374,27.22871256510436],[76.42435696072059,27.226727430555783],[76.42504408094638,27.223738878038418],[76.42471191406261,27.2224986436634],[76.42583577473991,27.219577365451627],[76.42649915907148,27.216472710503737],[76.42569444444487,27.21569444444468],[76.42484551323824,27.215956488715577],[76.42383327908013,27.217089301215566],[76.42258544921881,27.217767469618238],[76.4203811306426,27.218280436198114],[76.41913696289069,27.21907172309048],[76.41968967013904,27.221659071180753],[76.41806342230936,27.225569390191126],[76.41840861002609,27.226658799913466],[76.41935275607668,27.226335720486517],[76.41971435546887,27.22554768880225],[76.4206050618491,27.22461724175369],[76.42203409830748,27.223618977864803],[76.42360324435768,27.22401855468773],[76.42315606011292,27.225232476128696],[76.4222300889758,27.2261189778648],[76.42157470703157,27.22641981336824],[76.42004652235258,27.229140082465506],[76.41818834092916,27.230888943142503],[76.416952311198,27.23377848307321],[76.41768052842914,27.234878743489844],[76.42087741427966,27.23582546658008],[76.42225626627643,27.23537190755232],[76.42278564453144,27.233896755642633],[76.42311740451422,27.23176757812523],[76.42471435546898,27.231103244357854],[76.4291410319012,27.2305113389759]]]]},"properties":{"id":"9423"}}]}