{"type":"FeatureCollection","features":[{"type":"Feature","geometry":{"type":"MultiPolygon","coordinates":[[[[83.10844531249998,23.93844433593769],[83.10924999999989,23.93774511718749],[83.11018359375012,23.93855566406262],[83.11109765625005,23.938421875000216],[83.1113906250001,23.937725585937727],[83.11167968750001,23.937555664062486],[83.11194531250001,23.937444335937457],[83.11330078125016,23.936194335937685],[83.11357031250012,23.936305664062715],[83.11398437500011,23.936549804687488],[83.11430468750004,23.936004882812753],[83.11419140625006,23.933453125000057],[83.11307031250001,23.93244433593746],[83.11280468750019,23.93280566406267],[83.11265625000001,23.933496093750037],[83.11216406250011,23.933786132812585],[83.11130468750022,23.93281933593768],[83.11119531250014,23.93155566406253],[83.11105468750006,23.93131933593746],[83.11094531250015,23.931055664062555],[83.11075000000014,23.93074999999996],[83.11044531250016,23.930836914062567],[83.11055468750001,23.931194335937604],[83.11080468750006,23.931620117187506],[83.11069531249998,23.932069335937612],[83.11019531250011,23.93269433593754],[83.11030468750019,23.93294433593772],[83.11077343750006,23.933142578125185],[83.11105468750006,23.9336201171876],[83.1109375,23.93517578125015],[83.11007031250014,23.935944335937506],[83.10980468750003,23.936055664062536],[83.10907031250011,23.936694335937574],[83.10880468750017,23.93680566406269],[83.1085703125,23.936944335937568],[83.10830468750001,23.9370556640625],[83.10782031250014,23.937444335937457],[83.10737890625026,23.937629882812658],[83.10711328125015,23.938257812500098],[83.10657031250017,23.938694335937583],[83.10580468750018,23.938805664062528],[83.10557031250013,23.938944335937578],[83.10419531250014,23.93906542968753],[83.10440234374997,23.939305664062502],[83.10694531250013,23.93919433593757],[83.10717968750001,23.939055664062693],[83.1074453125,23.938944335937578],[83.10792968750022,23.93855566406262],[83.10844531249998,23.93844433593769]]]]},"properties":{"id":"19466"}}]}