{"type":"FeatureCollection","features":[{"type":"Feature","geometry":{"type":"MultiPolygon","coordinates":[[[[74.83133463541745,24.136481730143956],[74.83321180555626,24.12588467068211],[74.8326388888897,24.124583333334],[74.82975151909793,24.124861178928626],[74.82749728732708,24.125798882379158],[74.82720323350756,24.127374810113608],[74.82528537326468,24.126381089952957],[74.82415907118124,24.126118910048504],[74.82388183593847,24.12580891927145],[74.82316297743117,24.125851779514633],[74.821806098091,24.12793816460581],[74.82006727430641,24.127314249675166],[74.81956705729229,24.126754218208177],[74.81917426215338,24.12730319553019],[74.82094346788259,24.128883599176007],[74.82138129340333,24.12956976996597],[74.81999131944528,24.13221598307362],[74.82001193576477,24.132563205295895],[74.81874457465338,24.133695678711646],[74.81924750434118,24.13443664550846],[74.82094889322971,24.133569403755104],[74.82635904948009,24.13397922092082],[74.82665907118113,24.135417887370437],[74.82588270399381,24.13831658257449],[74.82845865885477,24.138603312175263],[74.83010742187574,24.137707451715045],[74.83133463541745,24.136481730143956]]]]},"properties":{"id":"9596"}}]}