{"type":"FeatureCollection","features":[{"type":"Feature","geometry":{"type":"MultiPolygon","coordinates":[[[[78.63556098090308,29.431939154731324],[78.63447591145874,29.428644646539027],[78.63299018012177,29.42750528971405],[78.6321085611983,29.42798075358118],[78.63388346354199,29.429625515408446],[78.63342854817765,29.430272488064602],[78.63249457465307,29.430005289713876],[78.63150743272612,29.428659261068077],[78.63056098090325,29.428212517632772],[78.63157470703189,29.42640947130026],[78.6261165364588,29.426101311578165],[78.62638346354217,29.425550265842546],[78.62772189670184,29.425126512315884],[78.62669569227481,29.422525668674368],[78.62560899522603,29.421108500163115],[78.62650661892397,29.420139702691444],[78.62745849609448,29.421099310981333],[78.62859266493112,29.42163458930159],[78.62985378689288,29.425746527778145],[78.63078559027812,29.424740634494725],[78.63238796658041,29.424677124023972],[78.6332495117193,29.425083753798177],[78.63386230468782,29.426382344564203],[78.63493191189261,29.426424730089337],[78.6353634982643,29.424612087673978],[78.63638346354205,29.42366702609627],[78.63607883029559,29.422330356174584],[78.63374674479198,29.420779825846722],[78.63149603949685,29.420243699815956],[78.63092041015673,29.4190239461267],[78.62904703776067,29.418367309570726],[78.62853190104207,29.419994710286787],[78.62591525607692,29.419232347276818],[78.62532687717064,29.418687303331552],[78.6261056857642,29.416465216743035],[78.62556098090309,29.41610582139809],[78.6226573350697,29.4157583618168],[78.61990749783021,29.41279062906935],[78.61881971571225,29.412747497558982],[78.61721679687557,29.414716932509037],[78.61691460503519,29.416614142524438],[78.61456190321232,29.417174580892322],[78.61313557942756,29.417847764757425],[78.61199924045164,29.420547892253055],[78.61125786675402,29.42057725694481],[78.61287027994828,29.415312364366727],[78.61193901909772,29.414449734158396],[78.61163330078173,29.412848205566775],[78.61028320312519,29.4124206882058],[78.61084662543433,29.41140489366363],[78.6113935004345,29.411383192274684],[78.61296902126767,29.412216932509125],[78.61443901909743,29.41179233127211],[78.61361653645875,29.410055881076843],[78.61529432508704,29.410553588867558],[78.61516248914975,29.41387881808842],[78.61601426866369,29.41391259087503],[78.61748996310794,29.413445332845427],[78.61754150390666,29.412146369086827],[78.61716064453154,29.4105472819014],[78.61430555555617,29.409305555555918],[78.610376790365,29.409723646376193],[78.60696587456621,29.410995483398736],[78.60448106553864,29.413935784234255],[78.60436306423648,29.416916402181386],[78.60656982421906,29.41749471028696],[78.60658447265646,29.414453192817263],[78.60721299913237,29.41442830403689],[78.60788248697966,29.418029378255625],[78.60518202039955,29.41905734592065],[78.60361653645865,29.422532111274236],[78.60433539496572,29.424328918457363],[78.60600396050395,29.424857211643186],[78.60672797309084,29.425909288194845],[78.60556098090305,29.427605217828102],[78.60615315755254,29.427798529731305],[78.60958984375023,29.423616400825182],[78.61027235243083,29.424055447049],[78.61000542534751,29.424727511936126],[78.60833875868073,29.42669976128512],[78.60895073784744,29.426980523003877],[78.61060872395879,29.42691480848569],[78.61276258680604,29.427257927788972],[78.61230278862885,29.429153340658033],[78.61341661241343,29.429197489420986],[78.6153578016496,29.428826870388903],[78.61519531250045,29.424727511936126],[78.61820203993105,29.426065979004235],[78.61868299696224,29.425157063802473],[78.61737060546923,29.421961805555938],[78.61781467013927,29.419173583984715],[78.61909044053854,29.42055026584238],[78.61921142578151,29.419741787380957],[78.61867675781284,29.415640631782196],[78.61922498914961,29.413338623047267],[78.61946072048639,29.41361880832288],[78.61943223741352,29.41433881971622],[78.62113850911501,29.415003323025488],[78.62108371310794,29.416382310655806],[78.62240939670167,29.416353929308215],[78.62332790798641,29.41678748236798],[78.62266628689267,29.41856543646962],[78.62083984375047,29.419143710666674],[78.62082194010466,29.419593539768286],[78.62276882595515,29.420749579535936],[78.62432183159788,29.42124121771961],[78.6255295138894,29.422816128201376],[78.62562689887196,29.425269436306834],[78.62499674479213,29.4252944268125],[78.62457139756995,29.42306610107461],[78.62278401692734,29.42303927951427],[78.62280734592039,29.42449764675608],[78.62193739149333,29.42889156765459],[78.62257215711836,29.429814249674976],[78.62188774956624,29.43176689995697],[78.62196044921907,29.433596327040306],[78.62139675564268,29.434661356608487],[78.62136149088596,29.435548977322483],[78.62176757812543,29.435565049913563],[78.62249565972266,29.434437696669207],[78.62469129774357,29.434765150282587],[78.6250054253475,29.43417195638058],[78.62539333767384,29.431735365126315],[78.62704128689259,29.43090481228346],[78.62809760199681,29.432045016819046],[78.62923556857672,29.4302830674918],[78.63061089409771,29.430560370551603],[78.63188612196203,29.431936645508273],[78.63249104817746,29.431960618761252],[78.63389241536524,29.43088599311021],[78.63499077690997,29.43296159532379],[78.63502088758722,29.433719685872788],[78.63472764756969,29.435560845269464],[78.63278320312523,29.438716328939194],[78.6332486979172,29.43999471028691],[78.63388346354199,29.438605821397942],[78.63495225694507,29.43761555989626],[78.63581027560795,29.435168151855848],[78.63589626736152,29.432998250325923],[78.63556098090308,29.431939154731324]],[[78.62479682074698,29.430867038303333],[78.62390679253505,29.433628980848937],[78.62309868706646,29.43387101915185],[78.62251790364618,29.432503797743493],[78.62362901475737,29.43112898084904],[78.62422037760442,29.427641330295515],[78.62458333333362,29.42736111111148],[78.62498969184057,29.428819919162734],[78.62609320746557,29.430506049262547],[78.62479682074698,29.430867038303333]]]]},"properties":{"id":"38975"}}]}