{"type":"FeatureCollection","features":[{"type":"Feature","geometry":{"type":"MultiPolygon","coordinates":[[[[104.30774983723663,16.967173394097543],[104.30861111110832,16.966729871962087],[104.3093242730009,16.967097167969115],[104.31037733289654,16.967075737847523],[104.31628797742749,16.961520182291935],[104.31861029730604,16.962134331597483],[104.32128065320885,16.962079806857915],[104.32238009982339,16.960935329861456],[104.32237792968445,16.958342556423986],[104.32399902343454,16.95620605468784],[104.32331814235815,16.95555202908021],[104.32121337890342,16.955983072916922],[104.31958604600393,16.957086046007205],[104.3171375868026,16.95781412760445],[104.31622504340001,16.957344021267744],[104.31430826822614,16.954025065104418],[104.31388888888588,16.95361111111147],[104.31346923827832,16.95374728732675],[104.31349338107353,16.954926757812743],[104.3143028428789,16.956846245660074],[104.31374728732342,16.958469509548976],[104.31347493489287,16.960419379340564],[104.3130891927054,16.960789930555876],[104.3112483723929,16.96041286892391],[104.31014160155965,16.96125271267401],[104.30752495659428,16.96189073350743],[104.30302924261869,16.96112386067739],[104.30236382378192,16.961835666232957],[104.30559271918096,16.96359619140651],[104.30607177734097,16.965561252170488],[104.30774983723663,16.967173394097543]]]]},"properties":{"id":"10228"}}]}