{"type":"FeatureCollection","features":[{"type":"Feature","geometry":{"type":"MultiPolygon","coordinates":[[[[77.55638617621563,26.600830620659877],[77.55860839843771,26.59869547526064],[77.55678385416692,26.597847764757063],[77.55316487630242,26.599719509548933],[77.55152777777803,26.59763888888918],[77.5497295464414,26.597834201389034],[77.54970458984408,26.599059244791846],[77.55005398220524,26.600848524305647],[77.5516240776914,26.60165717230913],[77.55450520833372,26.601716037326625],[77.5558504231777,26.60138807508703],[77.55638617621563,26.600830620659877]]]]},"properties":{"id":"18757"}}]}