{"type":"FeatureCollection","features":[{"type":"Feature","geometry":{"type":"MultiPolygon","coordinates":[[[[82.03248711480015,22.912512885199803],[82.03185926649311,22.91215318467887],[82.03123508029492,22.91071397569462],[82.02958713107617,22.91029066297766],[82.0291707356773,22.91170952690986],[82.0277829318575,22.91170857747413],[82.02723510742172,22.910820448133748],[82.02535956488694,22.910404595269256],[82.02513888888885,22.910138888889065],[82.02263888888868,22.91164767795165],[82.02159166124116,22.911047905816133],[82.02073662651893,22.911135118272682],[82.02084920247407,22.912239583333502],[82.0223974609377,22.913042670356077],[82.02439480251738,22.912292209201524],[82.02531602647551,22.912819824218886],[82.02526245117176,22.913345269097434],[82.02713473849835,22.91404649522579],[82.03149441189217,22.914535454644266],[82.03297892252581,22.915093180338687],[82.03415378146704,22.91403835720496],[82.03354207356753,22.912970377604296],[82.03248711480015,22.912512885199803]]]]},"properties":{"id":"20001"}}]}