{"type":"FeatureCollection","features":[{"type":"Feature","geometry":{"type":"MultiPolygon","coordinates":[[[[102.6523722658234,18.876208597093026],[102.65210475393664,18.875669101452416],[102.65210475393664,18.874594383079724],[102.6523722658234,18.87459442769905],[102.6523722658234,18.87405488915472],[102.65156517566905,18.873515348643352],[102.65048611425621,18.87351533345283],[102.6502185190869,18.873243339538945],[102.64967903718153,18.871896699629318],[102.64967903718153,18.871089572536434],[102.64887187809964,18.87081751663871],[102.64779275405627,18.870817569396678],[102.64752525270686,18.870550013501727],[102.64725328340651,18.87001045649724],[102.64698569567528,18.869470865159045],[102.64644614115926,18.868663843411397],[102.64536703963657,18.867317202585795],[102.64428794812139,18.867045179701122],[102.6415946439221,18.866238019630785],[102.63997597536084,18.865970501923243],[102.63808976211553,18.865698533620076],[102.63701065059487,18.864619402974355],[102.63701065059487,18.86435189875033],[102.63728268352261,18.864351842713376],[102.63728268352261,18.86407988791221],[102.63647561054418,18.864079880078833],[102.6356640750586,18.864351863554305],[102.63485692572337,18.864079897290395],[102.63458936654942,18.863812314769277],[102.63404986960629,18.863812281765277],[102.63377784425117,18.86407983810041],[102.63377784425117,18.8643518846918],[102.63404986960629,18.864891387581807],[102.63485692572337,18.864891406042247],[102.63539651402519,18.865158934439805],[102.63593601722962,18.865698512195436],[102.63620357950268,18.865970542257656],[102.63620357950268,18.866777600925815],[102.63593601722962,18.867045124364864],[102.6351244855172,18.867584711481],[102.63539651402519,18.868124301058373],[102.63674317406603,18.869470935524006],[102.63808976211553,18.86947094135401],[102.63890131455216,18.869470888623027],[102.6391688836616,18.8697429110763],[102.63943645339074,18.870550034854702],[102.63943645339074,18.871089588670188],[102.6391688836616,18.87135712157739],[102.63836179757672,18.87162909983367],[102.63808976211553,18.871896672114175],[102.63808976211553,18.872168631981964],[102.63836179757672,18.87243625469368],[102.6391688836616,18.87270374149928],[102.6405154998375,18.87162914567469],[102.64105511443293,18.87055003474687],[102.64105511443293,18.870282440394945],[102.64132260089727,18.870010462354145],[102.6415946439221,18.869742889804257],[102.6418622192389,18.86974295018902],[102.6421341759175,18.87001048057202],[102.642401752474,18.870282494904686],[102.642401752474,18.871896692541654],[102.6421341759175,18.87216868043697],[102.6418622192389,18.8724362511542],[102.6418622192389,18.872975803882838],[102.642401752474,18.874054901623325],[102.64374840612746,18.873782883958043],[102.6448274926303,18.87351534510387],[102.64590658914014,18.873515304347308],[102.64617417438333,18.873782858068623],[102.64617417438333,18.87459445021065],[102.64617417438333,18.875401504100054],[102.64671372764187,18.876480576597984],[102.64725328340651,18.876480634988525],[102.64752525270686,18.87648064654985],[102.6480603436381,18.876480653044567],[102.6480603436381,18.876208608923918],[102.64967903718153,18.87620858780437],[102.65156517566905,18.877555278495592],[102.6523722658234,18.878634359716244],[102.65291184784607,18.878634395172682],[102.65318383036933,18.87836680448592],[102.65318383036933,18.877015679180587],[102.65291184784607,18.877015677904723],[102.65264433471972,18.876748135161023],[102.6523722658234,18.876208597093026]]]]},"properties":{"id":"39346"}}]}