{"type":"FeatureCollection","features":[{"type":"Feature","geometry":{"type":"MultiPolygon","coordinates":[[[[107.80687023400029,14.646120234000009],[107.80844368500007,14.645879766000178],[107.80989660200012,14.646389008000043],[107.81097026800032,14.646346452000074],[107.81197062900029,14.645817110000237],[107.8115976390001,14.642956469000154],[107.81205910100024,14.641195352000281],[107.81316684000015,14.6398342090001],[107.81480914100015,14.639059141000104],[107.81547911800024,14.637639521000054],[107.81737976600013,14.637379766000237],[107.81854597100025,14.636577276000011],[107.81987799800024,14.63663007400011],[107.82295461500016,14.636094351000025],[107.82466823200028,14.634915176000149],[107.82502141000012,14.635368171000067],[107.82492823000021,14.635730625000207],[107.82480909300003,14.636333525000268],[107.82697073400007,14.636854376000201],[107.82683172600022,14.636391685000191],[107.8265186730001,14.636328924000068],[107.82580948700004,14.636186746000206],[107.82541005300018,14.636106667000064],[107.8252500000003,14.63550000000005],[107.82521176700024,14.634963663000164],[107.82497228100013,14.634705954000168],[107.82462023400021,14.63437976600008],[107.82317640900013,14.632040802000276],[107.82264752400008,14.628170900000086],[107.82213563500014,14.626710428000209],[107.82187976600014,14.625370234000172],[107.82146852700001,14.624196928000075],[107.8232307820002,14.623860481000037],[107.82387023400017,14.622870235000178],[107.82412976600014,14.62262976500027],[107.82440836000026,14.62232908600025],[107.82489194500013,14.620801662000261],[107.82550002700029,14.619652496000128],[107.82989737700032,14.619269306000035],[107.83212023500019,14.61687023500005],[107.83431944300017,14.615632267000109],[107.8358676870001,14.616819523000117],[107.83615566300014,14.618028500000051],[107.83735411800026,14.618594101000213],[107.83767562100033,14.615907391000135],[107.83913997700014,14.615627815000195],[107.8391200450001,14.615125000000148],[107.83913203000012,14.614822578000172],[107.84012550700007,14.613902073000219],[107.84049046700014,14.61199046700024],[107.84088900800018,14.610853397000213],[107.8408699150003,14.61037175400024],[107.84122320200012,14.608683174000063],[107.8419253230002,14.608129765000186],[107.84386986500019,14.609158722000146],[107.84537023500033,14.61037976500019],[107.84715696000009,14.610620235000283],[107.84782209000016,14.609902378000214],[107.84823040800038,14.609629765000221],[107.85037023500004,14.61037976500019],[107.85137976500036,14.610620235000283],[107.8538167610001,14.611621246000155],[107.8554228520002,14.611877098000008],[107.85634425000003,14.612871540000313],[107.85712976500022,14.613120235000196],[107.8578702350002,14.614379765000038],[107.85825953300028,14.614740467000047],[107.85862023200016,14.615129765000106],[107.85887976800015,14.6153702350002],[107.85937023200026,14.616129765000068],[107.85963967100022,14.616370235000062],[107.8596200490002,14.615875000000031],[107.85962995100024,14.615625000000222],[107.85959175100007,14.614661106000142],[107.85996204400018,14.614129765000143],[107.86199286700017,14.61466190000003],[107.86237023200002,14.615925323000027],[107.86136070300009,14.616860703000242],[107.86087976800016,14.617879765000083],[107.86049047100013,14.618240467000092],[107.8602500000002,14.618500000000154],[107.86063430000027,14.618615704000135],[107.86132154800012,14.618999146000164],[107.86299584200017,14.618384296000173],[107.8641343000003,14.618615704000135],[107.8651223300001,14.618978539000224],[107.86605091100026,14.61790073000023],[107.86776298500021,14.618855957000207],[107.86856901600007,14.618920719000329],[107.86953045700014,14.618384296000173],[107.87088430000009,14.618615704000135],[107.87111570000027,14.618884296000246],[107.87138430000024,14.619115704000208],[107.87199501800004,14.619824570000247],[107.87534530600024,14.619314049000096],[107.87613430000013,14.618634296000167],[107.87654370900017,14.618159088000013],[107.8784612270002,14.617634296000205],[107.87947259500024,14.617887840000222],[107.88020431500021,14.618737152000236],[107.88007926200007,14.61718077899998],[107.88138430000024,14.616884296000052],[107.88330099500016,14.615756695000101],[107.88436570000013,14.615365704000169],[107.88628718600015,14.614787186000086],[107.8868921610003,14.614454916000128],[107.88740695200008,14.613906952000093],[107.88777149900014,14.613607330000164],[107.8884626060001,14.613503132000076],[107.88919406900024,14.613619080000163],[107.88967507900023,14.613824921000145],[107.88973302700018,14.614733790000201],[107.88946197900029,14.615144960000208],[107.8884626060001,14.616001566000023],[107.88750000000013,14.616750000000224],[107.88718894200017,14.616964767000226],[107.88682077800016,14.617500626000066],[107.88698734000016,14.618618973000139],[107.8874156430002,14.619927677000064],[107.88772184800021,14.620114460000153],[107.88825000000028,14.620250000000269],[107.88814788800008,14.619852108000117],[107.88779673000019,14.619016033000136],[107.88751290900021,14.617750000000186],[107.88765457900016,14.61711804200003],[107.88808189200014,14.616572637000203],[107.88879573000023,14.616263307000096],[107.88948577400024,14.61581120900017],[107.89010443400016,14.615263933000278],[107.8900749210002,14.61486095400025],[107.88992507900005,14.613574921000065],[107.88947130600016,14.613182951000141],[107.88909304800015,14.613114403000239],[107.88758143600032,14.612940922000092],[107.88715695200037,14.613656952000014],[107.88684304800015,14.613843048000135],[107.88611796600017,14.614367970000046],[107.88440313000015,14.614734352000156],[107.88335121900016,14.614356915000101],[107.88264609500024,14.615146095000028],[107.88190729500033,14.61580620600003],[107.87956295000006,14.616451992000165],[107.87863203400022,14.616117970000332],[107.87716710700008,14.61566561100021],[107.8766320340001,14.615299965000148],[107.87863203400022,14.614382029999959],[107.87886796600017,14.613302151000056],[107.8783448790002,14.612339542000072],[107.87645691700013,14.612452072000153],[107.87538203400007,14.611867970000134],[107.87455214700034,14.611632030000152],[107.87388203400022,14.612382030000035],[107.87357194500012,14.612659088000044],[107.87276588400024,14.612611046000254],[107.87235932200028,14.611294422000114],[107.87161796600023,14.61063203000019],[107.87138203400022,14.610367970000198],[107.87111796600024,14.610132030000031],[107.87088203400006,14.609867970000039],[107.86897815700021,14.608759533000068],[107.86622885100027,14.609248108000173],[107.8651320340002,14.611132029999993],[107.86486796600022,14.611367970000245],[107.86463203400021,14.611632030000152],[107.86410390500012,14.612103905000211],[107.86313131700032,14.613192429000037],[107.86182578300011,14.61311461600026],[107.86129572300032,14.612521374000195],[107.86063203400019,14.612882030000193],[107.85824403800021,14.613201416000251],[107.85759059900025,14.611777695000214],[107.85673593900034,14.611014061000276],[107.85613132100022,14.610337371999975],[107.85537500000024,14.610382450000245],[107.8550757830001,14.610364616000098],[107.85462662900014,14.609861919000153],[107.8536043620002,14.610575989000182],[107.85210442000019,14.609345314000137],[107.8521818310002,14.608046494000135],[107.85188203000027,14.608382030000186],[107.85041032400014,14.609238861000208],[107.84775000000033,14.60908029900024],[107.8459322090001,14.609188644000056],[107.84463906100021,14.60848593900026],[107.84221015200015,14.607371151000123],[107.84113203000024,14.606025524000074],[107.84176625100011,14.604257969000201],[107.84338203000024,14.603882030000179],[107.8438679700001,14.603578777000052],[107.84309933900019,14.602892010000161],[107.8439365730001,14.601811653000212],[107.84271515700019,14.601034843000065],[107.84205358500017,14.59999462100015],[107.84048246800003,14.598590842999997],[107.8393679700001,14.597882030000235],[107.83854056200019,14.597304077000103],[107.83916797600014,14.595795609000177],[107.84108121900019,14.59590964100019],[107.84164407000011,14.595603786000027],[107.84216015600012,14.595634544000077],[107.84262637700013,14.5966503490002],[107.84295306400023,14.595592400000243],[107.84369703700028,14.595636744999993],[107.84447343800028,14.597656384000217],[107.84537500000025,14.597602650000027],[107.84587992500022,14.597632744000038],[107.84611797000011,14.597552151000201],[107.84485366100003,14.596422501000177],[107.84438203000016,14.595341000000133],[107.845431805,14.594859188000228],[107.84412605700024,14.593692513000065],[107.84388203000017,14.59186796600018],[107.8435140080002,14.590842293000236],[107.84372447600023,14.589882033999999],[107.84531792400017,14.59045378100015],[107.8458849790002,14.589819130000123],[107.84738203000026,14.589132034000215],[107.84764512300026,14.58883757800018],[107.84759116700033,14.587932373000072],[107.84888203000017,14.587632033999995],[107.84918188100019,14.587296440000117],[107.85077109500034,14.587391159000049],[107.85116820100026,14.589097931000055],[107.85183319100011,14.587649040000159],[107.8523665120002,14.587172523000078],[107.85108435400005,14.586874207000093],[107.85061867900018,14.586353027000229],[107.84990106600029,14.586395798000027],[107.84860376700018,14.585856216000238],[107.84864986400018,14.585082809000014],[107.8499051970002,14.584506660000045],[107.8498675500002,14.583875000000006],[107.8498824500002,14.583625000000097],[107.8498675500002,14.583375000000018],[107.8498824500002,14.583125000000209],[107.8498526500002,14.582625000000135],[107.8498867870002,14.582052231000091],[107.8504139820001,14.581632034000052],[107.85136797000027,14.583132034000258],[107.85189609500034,14.583603905000317],[107.85266777000007,14.584467567000189],[107.85261035500022,14.58350430300024],[107.85211797000014,14.582132034000296],[107.85188203000027,14.58136796600023],[107.85141711800017,14.580512421000222],[107.85113203000029,14.579756118999995],[107.85244784900007,14.579382034000048],[107.85372576900014,14.580076462000122],[107.85447173300011,14.580367966000182],[107.85410034200012,14.579332909000158],[107.85302769500018,14.578840599000188],[107.85232694200002,14.578056313000218],[107.8523870620003,14.577047653000164],[107.85313203000013,14.576382034000247],[107.85339360400027,14.575812119000162],[107.85336755000034,14.57537500000015],[107.85338245000023,14.575125000000241],[107.85336755000034,14.574875000000162],[107.85341199100029,14.574129379000027],[107.85419784900026,14.573132034000196],[107.85534811000005,14.573757088000036],[107.85561797000011,14.572762207000054],[107.85486721400017,14.57138063800005],[107.85488538400014,14.57107578300014],[107.85559280800013,14.570443703000166],[107.85611797000027,14.569617966000223],[107.85644784900026,14.569382034000242],[107.85736796999996,14.56988203400023],[107.85863203400018,14.570117966000026],[107.85904566200028,14.570580910000231],[107.85850312000017,14.571579323000066],[107.85913203400034,14.571867966000326],[107.85986796600022,14.572382034000128],[107.86163203400017,14.57261796600011],[107.86186796600012,14.572882034000202],[107.86219785300014,14.573117966000183],[107.86314602700028,14.572602722000099],[107.86311545600014,14.572089844000118],[107.86164904000012,14.571416809000112],[107.8611688080002,14.570879326000139],[107.8599859390001,14.570514061000026],[107.85950547000024,14.56997631800003],[107.85875000000007,14.56833029900018],[107.85699128700006,14.56843512000006],[107.85663203000016,14.5675521470001],[107.85836872500013,14.566000427000134],[107.85911796600013,14.564367966000162],[107.85963280500019,14.563630928000109],[107.8595781400002,14.562713737000152],[107.86014378400003,14.561353767000071],[107.86067421700014,14.561385384000118],[107.86123593900007,14.56201406100017],[107.86202812200023,14.562721878000204],[107.86261796600022,14.563382034000114],[107.86291242200022,14.563645119000213],[107.86346955900032,14.563611916000227],[107.86309169000012,14.562558800000218],[107.86314986400012,14.561582809000285],[107.86460096000022,14.560916809000162],[107.86489511900024,14.560587578000181],[107.86486624900013,14.560103172000069],[107.86387500000026,14.560162254000161],[107.86240470900023,14.560074615000104],[107.8611036760004,14.559607796000122],[107.86116854100024,14.558519531000044],[107.86188203400022,14.557882034000144],[107.86211796600023,14.557578773000188],[107.8610151290001,14.556593399000192],[107.86115213800022,14.55429466200016],[107.86284250600002,14.554395416000148],[107.86311796600015,14.554302147000243],[107.86236796600028,14.553632034000216],[107.86200921600019,14.553230507000222],[107.8628820340002,14.551132034000133],[107.86313714600018,14.549765228000197],[107.86373779300018,14.549382034000203],[107.8657826690002,14.550493233000125],[107.86653685000024,14.549649155000196],[107.8679808200001,14.549094055000182],[107.86867652900028,14.549135521000053],[107.8685760120002,14.550821960000064],[107.86913203400022,14.551617966000023],[107.86936796600028,14.552382034000175],[107.86959526800015,14.552867966000065],[107.86988891600006,14.550983528000103],[107.86986754600005,14.55062500000011],[107.86988245400013,14.550375000000201],[107.86986754600005,14.550125000000122],[107.8698853840003,14.549825783000145],[107.87040480000027,14.549361687000115],[107.86938361400027,14.548449265000116],[107.86913203400022,14.547367966000095],[107.8688021470002,14.546632034000126],[107.86788203400019,14.5471320340002],[107.8670811920002,14.54737932600014],[107.86663203400022,14.547882034000168],[107.86558338200021,14.548548965000194],[107.86377513900018,14.547147652000248],[107.86516413900009,14.54590660100024],[107.86509735100017,14.544786087000162],[107.86632981900019,14.542518059000002],[107.86558757800023,14.54185488100019],[107.86489406600023,14.541896217000058],[107.86426738000014,14.541555664000043],[107.86439463800028,14.539420471000028],[107.86659494800026,14.540009781000123],[107.86611721000017,14.539130638000216],[107.86613245400011,14.538875000000104],[107.86610636100008,14.53843724100031],[107.86485703300016,14.538051453000094],[107.86492307300031,14.536943489000251],[107.86460378300009,14.536355934000042],[107.86467715500012,14.53512500000025],[107.86459041600014,14.5336697770001],[107.86613203400017,14.533382034000184],[107.86661796600023,14.533117966000276],[107.86740480000012,14.532875000000246],[107.86547187800025,14.53227812200025],[107.86482694200018,14.531556313000209],[107.8648853840003,14.530575783000344],[107.86538203400019,14.530132034000047],[107.86561796600026,14.52986796600004],[107.8676320340002,14.529632034000059],[107.86786796600026,14.529399521000101],[107.86586796600025,14.529132034000085],[107.86510367600025,14.528857796000224],[107.86515831000023,14.527941193000231],[107.86485630000013,14.527099503000215],[107.86549688000017,14.525920685000202],[107.86486796600022,14.52563203400004],[107.8643395460002,14.525344879000258],[107.86445198800024,14.52345825200021],[107.86359933500032,14.522357986000031],[107.86483174900005,14.521256836000234],[107.86361796600013,14.520882034000124],[107.86306067700033,14.520579193000032],[107.86317108200004,14.518726807000235],[107.86271510300034,14.517455994000159],[107.86419785300026,14.517132034000184],[107.86559388000032,14.517890640000246],[107.86586796600025,14.517828781000006],[107.86536717200002,14.517381317000286],[107.86538245400013,14.517125000000135],[107.86535001400003,14.516580765000128],[107.86613203400017,14.515882034000228],[107.86738428500021,14.514480499000086],[107.8688828580002,14.514131836000018],[107.86886447900028,14.513823471000165],[107.86762500000006,14.513897354000235],[107.86712500000024,14.513867554000086],[107.86676953100024,14.513888733000144],[107.86554068800015,14.515264069000082],[107.86401220700017,14.516117966000209],[107.86258954600012,14.515344879000011],[107.86263706200018,14.514547653000136],[107.86338203400018,14.513882034000034],[107.86383119200022,14.513379318000005],[107.86475490600034,14.513094086000208],[107.86436721000015,14.512380646000153],[107.86438985400034,14.512000778000257],[107.86588203400007,14.511132034000227],[107.86611796600025,14.510918610000246],[107.86331144700003,14.510316238000058],[107.86338909100013,14.509013535000179],[107.8646905900001,14.508185791000088],[107.86368375400028,14.506332962000258],[107.8645944750003,14.505882033999981],[107.86635639200026,14.507327652000313],[107.86732902500015,14.508856979000015],[107.86786796600026,14.508012207000107],[107.86703466800012,14.506478745000067],[107.86586796600025,14.505632034000087],[107.8651320340002,14.504981033000135],[107.8667721790001,14.504599426000183],[107.86836796600025,14.503268021000153],[107.86661434900017,14.502726517000198],[107.86613203400017,14.502052155000086],[107.86713433100013,14.501156601000062],[107.86711010000025,14.500750000000082],[107.86713640600013,14.500308624000155],[107.86886834000026,14.500411850000177],[107.8692359390001,14.499610931000248],[107.87020500900027,14.497827621000141],[107.87112500000009,14.497882446000148],[107.8715491180001,14.497857178000189],[107.87086796600013,14.496882034000151],[107.87063203400018,14.49636796600025],[107.87036796600015,14.496132034000183],[107.870018181,14.495740555000111],[107.8704736560002,14.494039917000094],[107.87140900400024,14.493632034000186],[107.87212567100019,14.49519352700024],[107.87267122700021,14.495617966000182],[107.87323593900024,14.4949859310003],[107.8736936870001,14.494576935000111],[107.87469137600002,14.494636414000155],[107.87458331300016,14.496449463000246],[107.87653211200009,14.496902893000012],[107.87716015600009,14.496865448000293],[107.87794684600019,14.495151413000045],[107.87932510400017,14.494882034000227],[107.87965672300007,14.497712875000232],[107.88069635000014,14.497339844000109],[107.88120234700014,14.496773529000137],[107.88232840000015,14.494320068000093],[107.88371006800028,14.494402420000156],[107.8845016020002,14.493157852000024],[107.88530630500028,14.492882034000118],[107.8856917190001,14.495355331000212],[107.88459967800023,14.496331055000127],[107.88489553100013,14.497155579000136],[107.88485752100027,14.49779327400023],[107.8828793330002,14.498162506000227],[107.88212103300017,14.49811731000004],[107.88082878100019,14.498393402000147],[107.87988203400008,14.499882034000038],[107.87884353600012,14.501222092000063],[107.87891970100011,14.502500000000197],[107.87886573000017,14.503405471999983],[107.87711328100025,14.503946609000167],[107.87542869600028,14.505123322000188],[107.87399992400012,14.505389999000045],[107.87447448000003,14.507367966000189],[107.87558435100019,14.506125793000166],[107.8766320340001,14.505882033999981],[107.87742804000007,14.505326004000253],[107.8785492170002,14.505392838000006],[107.87919661700013,14.50680339100019],[107.87988203400008,14.50711796600011],[107.88199282100018,14.508592377000156],[107.88236796600026,14.508025528000331],[107.88179801900006,14.506437088000169],[107.8819744800002,14.505632034000087],[107.88360311900013,14.506216400000113],[107.88437743400007,14.5066371770002],[107.88481912200021,14.506142838000073],[107.88533139000012,14.505882033999981],[107.88561796600018,14.508632034000144],[107.88613203400038,14.509367966000113],[107.88636796600028,14.510314774000207],[107.88554843100022,14.512285156000075],[107.88394357300032,14.512658539000242],[107.88304303700025,14.514620636000316],[107.88186796600027,14.515367966000056],[107.88161638600033,14.516449265000091],[107.88086796600001,14.517117966000086],[107.88019926500013,14.51786639400028],[107.8794941470002,14.518030444999994],[107.87852359700022,14.518163937000025],[107.87823806100019,14.518401882999996],[107.87802391000017,14.519306079000202],[107.87731007200009,14.519758176000309],[107.87745283900026,14.51992473900006],[107.87802391000017,14.519425052000187],[107.87857118600007,14.518711213000188],[107.8793638650001,14.51829972700007],[107.8799756090003,14.518383331000067],[107.88016508200022,14.518981791000016],[107.87997506800033,14.519948533000075],[107.87968953300023,14.520495809000238],[107.87949917600011,14.521352415000052],[107.87938020300012,14.52211384300017],[107.87959435400015,14.522756297000313],[107.87935640800012,14.52368428700018],[107.8790470780003,14.524183974000124],[107.87935640800012,14.524088795000154],[107.8798798890002,14.523803260000065],[107.8798798890002,14.523160805000117],[107.88016542500017,14.52258973500021],[107.8800702460002,14.52211384300017],[107.88014163000017,14.521590361000207],[107.88014163000017,14.520900318000216],[107.8804985490003,14.520234068000164],[107.88070219400035,14.51953480500012],[107.88114310500006,14.51895669600016],[107.88111072500024,14.518139847000171],[107.88162023200007,14.517870239000061],[107.88237976800016,14.517629761000066],[107.88283421300017,14.516666840000056],[107.88471486700027,14.515136307000162],[107.88582133500026,14.515092453000094],[107.88678218100026,14.516908264000136],[107.88600615700025,14.518036026000189],[107.88762976800021,14.519370239000281],[107.88787023200021,14.51962976100016],[107.88887023200007,14.520556319999997],[107.88842054000028,14.52162870800018],[107.88748542800019,14.52249514800019],[107.88796913100012,14.523875198000155],[107.88783067300025,14.527368286000254],[107.88836664600026,14.527389526000235],[107.88902887000009,14.523827820000065],[107.88944827300011,14.519886963000133],[107.89057960500011,14.519842117000238],[107.89132072400017,14.520528809000126],[107.89202552000015,14.521620239000285],[107.89237976800021,14.52137976100019],[107.89262023200033,14.520620239000053],[107.89313526900023,14.519871765000204],[107.89106935100014,14.519295898000252],[107.8898277280002,14.518145477000104],[107.89072374000014,14.516452164000057],[107.88932311200008,14.516118545999987],[107.88862976800019,14.515370239000163],[107.88763400300004,14.51472721900025],[107.88757256300008,14.513177063000057],[107.88937023200018,14.512833862000178],[107.88912976800017,14.51262023900027],[107.88738309500016,14.512204178000118],[107.88736013800022,14.511625000000251],[107.88739977300028,14.510625000000203],[107.88736112200021,14.50964988700008],[107.88821120500037,14.508732422000108],[107.88862976800019,14.509120239000225],[107.88902552000016,14.510370239000267],[107.88990461000034,14.510122772000216],[107.89077556600009,14.509182770000237],[107.89114928400002,14.51075172400003],[107.89187023200023,14.510370239000267],[107.89336718700022,14.50989630100021],[107.89287976800009,14.509370239000205],[107.89139121200023,14.508408997000075],[107.89136112200023,14.50764988700007],[107.89184304000005,14.507129761000101],[107.8926297680002,14.50737023900011],[107.89337596900012,14.507631775000078],[107.89387023200018,14.50737023900011],[107.89566526000019,14.50708428999998],[107.89635117300028,14.505630905000075],[107.89744715900028,14.50558746300004],[107.89812023200002,14.506629761000298],[107.89861872100025,14.50709164400024],[107.89863708500005,14.507554810000016],[107.89804960600011,14.508799606000153],[107.89737023200021,14.509120239000225],[107.89687976800022,14.509379761000105],[107.89591146900031,14.509686325000075],[107.89662023200034,14.510343048000138],[107.89636690499995,14.511171829000062],[107.89536424300016,14.512628952000185],[107.89733745600009,14.512898621000119],[107.89766955600012,14.51463809200007],[107.89930909000012,14.514573120000193],[107.8996297680001,14.514870239000274],[107.90015591400024,14.515438095000178],[107.90113743600014,14.51512733500013],[107.9004915700003,14.514528915],[107.90087023200024,14.514120239000121],[107.90136872100018,14.513658356000178],[107.90138964100018,14.513130539000116],[107.90063828300006,14.513100754000234],[107.89971554600012,14.51409663400021],[107.8983949740003,14.514148987000183],[107.89812023200002,14.513629761000033],[107.8978797680002,14.512370239000091],[107.89731345400006,14.511300003000002],[107.89799540700008,14.509854996000087],[107.89887329100034,14.509889801000028],[107.8996821750001,14.508637161000124],[107.90059304000025,14.509620239000114],[107.90073715200018,14.508676620000287],[107.90036241900023,14.507607468000202],[107.90088275100007,14.50662413000002],[107.90005780800007,14.505548355000002],[107.90042233300025,14.504508316000184],[107.8994193730002,14.504034973000188],[107.89912976800022,14.503120239000268],[107.89834424600016,14.502871536000114],[107.89721554600013,14.501653366000042],[107.89550000000011,14.5015853580001],[107.89389798700026,14.50164886500012],[107.89278031200016,14.500879761000078],[107.89229257200029,14.502057816000118],[107.89312023200031,14.502824677000064],[107.89257711000019,14.50351374800023],[107.89112023200008,14.504370239000039],[107.89087976800019,14.504629761000018],[107.89012709800008,14.505327148000077],[107.88980163600004,14.50737023900011],[107.8889249420001,14.507060852000265],[107.88736302200007,14.506052231000126],[107.88738011900008,14.505620758000035],[107.88677558100008,14.504742218000175],[107.88712023200017,14.504370239000039],[107.8878581920001,14.504021957000177],[107.88728394300014,14.50238356000024],[107.8883025970002,14.502343185000186],[107.8893664400002,14.50271606400004],[107.88939482100014,14.502000000000123],[107.88936099200012,14.50114660600022],[107.88963900800022,14.500353394000129],[107.88961125900013,14.499653305000209],[107.89073033100024,14.49823024000014],[107.89236301400015,14.498802475000247],[107.89237995100021,14.498375000000038],[107.8923405690002,14.497381317000162],[107.89310201300029,14.497351135000244],[107.89387075000022,14.497880127000045],[107.89535800200017,14.49782116700014],[107.89538011900012,14.498379105000112],[107.89496904800004,14.49915596000018],[107.89657960500008,14.499092117000231],[107.89687976800022,14.499370239000058],[107.89757366900025,14.50084054600012],[107.89899996200026,14.501595276000032],[107.9005606000002,14.501657135000272],[107.90125952900021,14.501009537000158],[107.9018971410002,14.500321381000234],[107.90352024100034,14.500385712000138],[107.90286467700005,14.499146805000223],[107.90300000000016,14.498500000000078],[107.90183544900029,14.498256348000169],[107.90111167900025,14.498639328000067],[107.90062075000029,14.498619873000138],[107.89953031200017,14.499370239000058],[107.89812976800019,14.498615433000225],[107.89846826900012,14.497918350000091],[107.89961286900021,14.497555969000317],[107.89966738100023,14.49618064900011],[107.89915696000034,14.495629761000274],[107.89837023200008,14.495870239000183],[107.8967473980002,14.496536819000099],[107.89591239900014,14.495635635000227],[107.89537023200032,14.495379761000109],[107.89462976800021,14.49487023900005],[107.8937876590002,14.49447280900003],[107.89332091500003,14.492691527999995],[107.89465371700007,14.492374054000194],[107.89315020000012,14.490980972000216],[107.8943343810001,14.488743088000234],[107.89362976800018,14.48837023900029],[107.89221616400036,14.48803352400023],[107.89161241900004,14.486892532000155],[107.89188198100024,14.4861234440002],[107.89116804500023,14.48508593700015],[107.89109056900023,14.483131317000073],[107.89233147400031,14.483082138000185],[107.89339902500015,14.484393890000007],[107.89332093000021,14.486364151000217],[107.89412976800017,14.48662023900009],[107.89491159800016,14.487158234000105],[107.89635502600007,14.48710101300017],[107.89690879100013,14.48814753700016],[107.89685133400027,14.48959709200011],[107.89836635600014,14.490830063000075],[107.89975000000013,14.490884903000264],[107.90058985900023,14.490851624000172],[107.90087976800018,14.491120239000097],[107.90114588200007,14.493344100999991],[107.90212976800021,14.492879761000026],[107.90287023200008,14.492370239000138],[107.90348965500007,14.49207791100011],[107.90292517900022,14.491011139000136],[107.90462023200021,14.490474487000142],[107.90418953700018,14.489839996000129],[107.90182872800025,14.490870239000017],[107.90110697900022,14.48970462000021],[107.90114788800022,14.48867259200017],[107.9006002430003,14.48782452400026],[107.89963203400012,14.486927429000204],[107.8996103590002,14.486380539000152],[107.90037500000014,14.48635023500023],[107.90137023200006,14.486389679000197],[107.9009553450002,14.48592480500011],[107.90037976800019,14.485620239000227],[107.89924047100013,14.485259537000132],[107.89887976800034,14.48487023900016],[107.89841789200014,14.484442291000192],[107.89812023200002,14.483879761000011],[107.89787153600028,14.483094254000122],[107.89712846400013,14.482405746000168],[107.89683634900027,14.481483093000122],[107.89579380800015,14.479512878000094],[107.89652552000015,14.478379761000213],[107.89712976800021,14.478620239000222],[107.8978550260002,14.479003998000081],[107.89789351700009,14.478032883000111],[107.89628848300023,14.477524734000085],[107.8964750600002,14.477172134000213],[107.89731882100014,14.476739809000065],[107.89805645400017,14.476359095000177],[107.89884167600027,14.476192533000258],[107.8984371680003,14.476073560000188],[107.89796127600019,14.475835614000118],[107.8977233300001,14.475930792],[107.89722364300027,14.476406684000125],[107.89675914000011,14.476635269000113],[107.8960000000001,14.476605179000202],[107.89463131700026,14.476659424000076],[107.89462004900022,14.47637500000016],[107.89467931400023,14.474879761000167],[107.89412023200023,14.475120239000177],[107.89249016600021,14.476370239000218],[107.89112976800018,14.475994186000094],[107.89138124100012,14.475341675000195],[107.89360987100022,14.473276733000048],[107.89294751700012,14.471386993000195],[107.89393658500026,14.471347790000053],[107.89474900400015,14.47169535200004],[107.89505833300015,14.471957092000025],[107.89586735000032,14.472480574000173],[107.89636703700026,14.472742314000158],[107.89667636700008,14.473479947000172],[107.89686672400003,14.473598920000242],[107.8970094920002,14.473099234000287],[107.89703328600015,14.472718520000143],[107.89627185900028,14.472028476000062],[107.89548097200023,14.471479458000118],[107.89495181300023,14.470908356000109],[107.89412976800017,14.47062023900017],[107.89263547500033,14.470264297000028],[107.89261508900015,14.46975000000019],[107.89263113400003,14.469345276000098],[107.89212023200005,14.468379761000065],[107.89187976800034,14.467620239000098],[107.8914475170001,14.4663869930002],[107.89331889300004,14.466312820000198],[107.89422910300019,14.467499771000078],[107.89528673600003,14.469137604000153],[107.89712023200005,14.47062976100024],[107.89837976800007,14.471620239000217],[107.89902552000032,14.472620239000094],[107.90000294500018,14.471772995000151],[107.90024555800008,14.471576379000055],[107.90102820600018,14.47172277800027],[107.90124192500022,14.472471227000199],[107.90163882400029,14.47386117600027],[107.9018857880001,14.475557953000148],[107.90275000000011,14.476250000000121],[107.90362439300017,14.476644630000266],[107.90407649100027,14.477406058000298],[107.90448099900024,14.477572620000046],[107.90550416700026,14.477525031000013],[107.9065273360001,14.477810566000102],[107.90678907600008,14.477905745000072],[107.90650354100015,14.477453647000146],[107.90588488100033,14.476977755000036],[107.90543278300018,14.476930166000088],[107.90490930200022,14.47688257700024],[107.90433823100025,14.477025344000154],[107.90398131200018,14.476834987000217],[107.90376716100016,14.476478068000162],[107.90326747400022,14.476240122000192],[107.90289974200024,14.47586044300013],[107.90256675000032,14.473946975999993],[107.90155509200028,14.472562057000076],[107.90165513600007,14.471757736000043],[107.90128336900025,14.470752143000155],[107.90148287800034,14.46981557700029],[107.90193497600026,14.468958971000205],[107.90148287800034,14.469577631000234],[107.90105662500034,14.470138824000216],[107.90064974800012,14.471026963000071],[107.90019796900023,14.471267049000218],[107.89982001800016,14.471575567000158],[107.89947156500025,14.471199493000128],[107.89862976800018,14.47062023900017],[107.89787023200009,14.47012976100008],[107.89726906600018,14.469480942000132],[107.89608979000005,14.46838829000015],[107.89613992300022,14.467123444000123],[107.89497148100023,14.466753525000243],[107.89411475400036,14.465508499000265],[107.89413526900015,14.46499081400006],[107.89311473100011,14.464509186000171],[107.89313964100009,14.463880539000215],[107.89264659900007,14.463860992000008],[107.89120304900021,14.464366959000046],[107.8905762940004,14.464391800000229],[107.88962976800033,14.463370239],[107.88918248000019,14.462955794999985],[107.88883745600006,14.461148621000035],[107.8861460420002,14.460780792000065],[107.88611112200013,14.459899887000091],[107.88637023200002,14.459620239000046],[107.88742915300023,14.458639099000052],[107.88795879400007,14.455314285000114],[107.88859164400023,14.454631271000181],[107.8888787990002,14.45461988800021],[107.88962023200023,14.454879761000043],[107.89080397000006,14.455254532000055],[107.89112976800018,14.455870239000191],[107.89159799200027,14.457835938000116],[107.89235117300015,14.458648834000059],[107.89387976800006,14.459370239000151],[107.89576959200011,14.460370239000198],[107.89593309000023,14.460013382000255],[107.89418034400026,14.459186188000103],[107.89311331900015,14.457794739000178],[107.8931299510003,14.45737500000017],[107.8931200490002,14.45712500000009],[107.8931299510003,14.45687500000028],[107.89309056899995,14.455881317000134],[107.89527832000013,14.455794601000065],[107.89562976800019,14.456120239],[107.89604218300022,14.456565338000146],[107.89658420600009,14.455416855000067],[107.89767521700006,14.456167603000011],[107.90008066600032,14.456072250000034],[107.90085996200028,14.45720477300003],[107.90112023200018,14.45937976100005],[107.90137976800023,14.460120239000204],[107.90173706100032,14.461620239000155],[107.90236567700012,14.461235306000006],[107.90238012700033,14.460870575000115],[107.90188739000021,14.460414017000275],[107.90159552800023,14.458737900000145],[107.9019354480001,14.457664246000121],[107.90330653200013,14.457337660000192],[107.90424266800025,14.457604523000072],[107.90444984400014,14.45900645400016],[107.90510891000034,14.458608902000122],[107.90683703600033,14.45839109800022],[107.90760891000022,14.459391098000182],[107.90803887200028,14.459608902000085],[107.90781958800008,14.458125000000322],[107.90791177400033,14.45750112900022],[107.90970118700014,14.457765564000255],[107.90951416800013,14.456500000000077],[107.91126042900001,14.455785294000265],[107.91160891000007,14.455400726000065],[107.91075000000015,14.454250000000073],[107.91035891000021,14.454358902000024],[107.90949018100017,14.455484375000154],[107.90861769900019,14.455355453000138],[107.90781399500023,14.455671402000263],[107.90736769900016,14.455605453000217],[107.90664109000025,14.455891098000137],[107.90527256000027,14.4561235810001],[107.90489909200019,14.456660612000036],[107.90389464600023,14.456505016000136],[107.90377567300024,14.456433633000273],[107.90337942500005,14.456369873000057],[107.90243704200023,14.456407227000128],[107.90162023200006,14.455879761000276],[107.90125952900021,14.455490463000118],[107.8996297680001,14.454974487000058],[107.90017755100021,14.45359800700004],[107.90062023200008,14.453120239000114],[107.90087976800018,14.45287976100012],[107.90112023200018,14.45262023900014],[107.9026297680002,14.45237976100023],[107.90288836500028,14.451241417000091],[107.90353597600009,14.450615915000213],[107.90401186800014,14.450311344000141],[107.90426182300021,14.449898646000108],[107.9049666290002,14.449610184000221],[107.90421781200021,14.449032181000092],[107.90386743900021,14.448578262000098],[107.9036410900001,14.449391098000206],[107.90310891000021,14.450108902000096],[107.90275023900014,14.450797685000154],[107.90232561500014,14.4508787540002],[107.90141239900018,14.451864365000219],[107.90087023200024,14.452120239000152],[107.89848530600031,14.454061157000169],[107.89637976800017,14.453824677000142],[107.89712976800021,14.453129761000199],[107.8972500000003,14.452750000000123],[107.89654861500017,14.452896744000014],[107.89587107100024,14.452869888000095],[107.89423957100027,14.453540039000217],[107.89213679500008,14.452547653000167],[107.89210022700016,14.45162500000012],[107.89215823400028,14.450161606000009],[107.89145665700025,14.44914205900021],[107.89362023200002,14.447440659000208],[107.89331903100012,14.447352448000203],[107.89225000000013,14.447394821000245],[107.89150180100015,14.447365158000181],[107.88937023200018,14.447620239000145],[107.88891873200001,14.44810752900014],[107.88720617700025,14.448556259000242],[107.88637976800018,14.446544342000038],[107.88712023200017,14.445370239000141],[107.88762976800021,14.445129761000146],[107.88837018600012,14.444737976000141],[107.89079362500016,14.445159958000062],[107.89200000000014,14.444737122000078],[107.89379695100016,14.445366959000225],[107.89412910500008,14.445380112000166],[107.89507467700028,14.444879761000067],[107.89687976800022,14.445120239000246],[107.89787023200009,14.445467392000097],[107.89622209200027,14.44239370700025],[107.89495650500024,14.442343552000096],[107.89437023200006,14.442620239000163],[107.89316812900026,14.443256332000118],[107.8920952760001,14.442750000000245],[107.89214880400019,14.441399429000313],[107.89107744600008,14.440662201000151],[107.88990921000018,14.442471313000098],[107.88762976800021,14.442036133000244],[107.88812023200032,14.441620239000201],[107.88875714900016,14.441319641000192],[107.88937023200018,14.44037023900016],[107.89006362900008,14.439362564000277],[107.88837805900025,14.439429382000199],[107.88677994500031,14.439048706000236],[107.88612976800036,14.437193680000135],[107.88647652400007,14.435645752000141],[107.88831786300031,14.435572769000046],[107.8896838150001,14.436620239000035],[107.88996492800007,14.434481964000128],[107.88962976800033,14.434120239000123],[107.88937023200018,14.433879761000213],[107.88845771800024,14.432894913000169],[107.88762023200005,14.432629761000172],[107.88622016100013,14.432139053000157],[107.88586457100027,14.434740936000054],[107.8847987980001,14.43530490100018],[107.88337976800014,14.43337023900024],[107.88288127900015,14.432908356000127],[107.88286183200026,14.432417770000214],[107.88313563500017,14.431837601000083],[107.88411331200021,14.430931732000005],[107.8843866880002,14.430068268000156],[107.88515469400025,14.429356659000163],[107.88596968800007,14.427629761000091],[107.88769848600012,14.42792459100015],[107.88834921300023,14.428626892000082],[107.8903979800003,14.428906891000068],[107.89170880099996,14.429525513000186],[107.89278643800023,14.43022140500021],[107.8931297680002,14.430870239000257],[107.89359530600026,14.431856659000061],[107.89387976800006,14.432120239000298],[107.89412023200023,14.432879761000251],[107.89462976800021,14.433620239000149],[107.89494400000021,14.434286072000347],[107.89674283600019,14.435665482000175],[107.89852020300006,14.436605988000181],[107.89962023200022,14.436649582000058],[107.89937976800022,14.436370239000127],[107.89912023200023,14.436129761000217],[107.89887976800034,14.435870239000153],[107.89794667100014,14.435574814000134],[107.89687976800022,14.434120239000123],[107.89611045100017,14.433117004000252],[107.89614924600008,14.432138290000282],[107.89546554600028,14.431504807000081],[107.89463212600006,14.429929779000148],[107.89460338600028,14.429204712000114],[107.89562976800019,14.428879761000132],[107.8967172240003,14.428304337000128],[107.89912040700008,14.428399597000293],[107.89983767700008,14.426879761000208],[107.90062976800007,14.427370239000112],[107.90142463700013,14.428601151000265],[107.90208760100026,14.427885635000123],[107.90281534600027,14.427542191000128],[107.90188668800019,14.426681732000347],[107.90161725600026,14.425830719000189],[107.89967316400018,14.425907775999988],[107.89887500000029,14.425485428000215],[107.89802635200013,14.425934479000247],[107.89710746000034,14.42561241100016],[107.89611167900009,14.426139328000147],[107.89487191800018,14.426090195000171],[107.89292532300024,14.427120239000033],[107.89224807700018,14.426586426000014],[107.8928702320002,14.424212051000112],[107.89252174400016,14.42262976100011],[107.89150927000023,14.423391968000018],[107.89098929600019,14.426115509000041],[107.89000000000013,14.42615472400017],[107.8895381240001,14.425176056000296],[107.88765573900034,14.425101440000063],[107.88624910700028,14.425845764000016],[107.88563212600005,14.424679779000087],[107.88561072500025,14.424139847000262],[107.88663011900022,14.423600433000132],[107.88807765200013,14.423657806000264],[107.88723591600015,14.422434570000206],[107.88772748600005,14.421392975000089],[107.88962023200023,14.421091461000188],[107.88937976800034,14.420620239000101],[107.88788104200015,14.419652435000145],[107.88786917100023,14.419352859000227],[107.88912023200024,14.418193680000144],[107.88869882200024,14.417626846000232],[107.88551869200015,14.417322128000151],[107.88437976800017,14.415666992000169],[107.88521494300025,14.414636292000154],[107.88702457400026,14.414564575000256],[107.88805166600034,14.41510806300019],[107.8892066730003,14.415473740000252],[107.8900725780002,14.41730851700001],[107.89059164400024,14.417868729000261],[107.89096588100014,14.417883560000334],[107.89193695800029,14.416379761000172],[107.89312023200031,14.416790466000037],[107.89287976800009,14.417879761000194],[107.89237976800021,14.419306320000189],[107.89268824000024,14.420362640000192],[107.89312910500021,14.420380112000046],[107.89454713400025,14.419629761000309],[107.89512976800009,14.419870239000218],[107.89580457300028,14.42059854100009],[107.89685170700031,14.418379760999997],[107.89787023200009,14.418843582000093],[107.8976297680002,14.419629761000309],[107.89712976800021,14.421056320000034],[107.8975759050002,14.422120239000222],[107.8981077350002,14.421699356000133],[107.89852552000005,14.420379761000106],[107.89892925300015,14.420653824000127],[107.89937942500009,14.421139694000004],[107.89991484800024,14.42111846900012],[107.9007921830001,14.422065338000309],[107.90122514300006,14.421147934000246],[107.90310362200003,14.420789291000062],[107.90314837600002,14.419660141000065],[107.90286171700009,14.419350754000135],[107.90168713400018,14.419397308000086],[107.90112023200018,14.419129761000065],[107.90037976800019,14.418620239000177],[107.89938400300005,14.417977219000093],[107.8993504640001,14.417130920000147],[107.89985340100023,14.41711099200009],[107.90065038300011,14.417390335000206],[107.90061035900018,14.416380539000144],[107.9022745740003,14.416314575000186],[107.90304438000013,14.416721924000058],[107.90370781700014,14.416005890000136],[107.90417209600017,14.416989655000094],[107.90532467700015,14.416379761000172],[107.90587976800018,14.416870239000247],[107.90612023200006,14.41712976100014],[107.90625000000014,14.417250000000053],[107.90613203400025,14.416617966000246],[107.90535335500013,14.415613174000242],[107.90539755200021,14.414871582000075],[107.90335390500016,14.414396088000174],[107.90264536300006,14.413603088000201],[107.90175794200016,14.41408531200004],[107.90137725800011,14.41285250900009],[107.90065558600028,14.412895523000188],[107.89942341600002,14.412453415000101],[107.8990670390003,14.41511796600021],[107.8980495070002,14.414865005000152],[107.89738203400012,14.414117966000077],[107.89685390500031,14.413646088000107],[107.89616880800011,14.41287931800018],[107.89488203400023,14.412481979000162],[107.89520202600013,14.410632034000216],[107.89588203400021,14.410867966000197],[107.8975397190001,14.411557449000227],[107.89688203400013,14.409724472000178],[107.89758257300028,14.408850113000213],[107.89904068000024,14.408937027000121],[107.8998679660003,14.408197845000075],[107.89963203400012,14.40786796600004],[107.89824425500015,14.40754507400024],[107.8991179660002,14.406294266000216],[107.89856626900016,14.405882034000314],[107.89786796600018,14.406117966000195],[107.89743378400013,14.406603912000179],[107.8954680860002,14.407023880000196],[107.89409949500023,14.405492157000026],[107.89333122300033,14.405909637000192],[107.89183915700008,14.405820709000025],[107.88999121900011,14.406215530000097],[107.88927859500015,14.405578812000172],[107.8876930920002,14.403636505000136],[107.8873044970002,14.403613342000085],[107.88611796600017,14.40436796600018],[107.88504425800025,14.405117966000063],[107.88425128200012,14.404679077000068],[107.88257758300026,14.403382034000131],[107.88067968000033,14.403688812000112],[107.8799090040001,14.405367966000142],[107.87861796600029,14.404632034000002],[107.87782298300013,14.403382034000131],[107.87736796600026,14.403617966000212],[107.87638203400022,14.404382034000093],[107.87586796600002,14.404617966000075],[107.87538203400007,14.404882034000167],[107.8739666440002,14.405146210000083],[107.87338203400034,14.406775528000168],[107.87368862200029,14.40951286300016],[107.87436796600016,14.409882034000248],[107.87536796600014,14.410341003000113],[107.87498745700029,14.412019928000035],[107.87344519000024,14.4132853240001],[107.8715189060002,14.413880157000023],[107.87089653800021,14.415025452000194],[107.87049349200007,14.416330688000286],[107.8684286500002,14.416453751000248],[107.8678596880001,14.415406738000215],[107.86821086900002,14.413763046000014],[107.86786348000024,14.413123764000062],[107.86886796600024,14.411827576000107],[107.86856112700005,14.411877151000212],[107.86720769500025,14.412612625000222],[107.86641614500033,14.412659805000217],[107.86585446900008,14.4110944210001],[107.86589848300028,14.410356033000213],[107.86513868700033,14.409677170000265],[107.86484059900013,14.409027695000162],[107.86387102500024,14.408161392000252],[107.86286579900016,14.40826947000005],[107.86136796600013,14.408617966000193],[107.86085593400023,14.408896210000037],[107.8601320340002,14.408853073000103],[107.86042570500027,14.409822662000124],[107.86179352600018,14.410245041000167],[107.86236796600028,14.411302155000058],[107.86173964700006,14.411728683000007],[107.85966242200024,14.411604874000147],[107.85917272200007,14.412042419000201],[107.85988203400021,14.412367966000048],[107.86061796600009,14.41288203400022],[107.86211796600023,14.413345215000263],[107.86185495000021,14.414779724000113],[107.86102201800023,14.41516200300022],[107.86261796600022,14.416177017000265],[107.86226197800013,14.417617966000208],[107.86161796600024,14.417132034000062],[107.8611742170003,14.416635391000085],[107.86048393200011,14.416594238000144],[107.85950440200023,14.417469437000179],[107.86036796600021,14.418705734000241],[107.8601320340002,14.419132034000157],[107.85963538400014,14.419575775000013],[107.85959286500028,14.420289169000071],[107.86080214700016,14.419632034000145],[107.86186796600012,14.420065689000054],[107.86162276500019,14.421693573000098],[107.86038203400008,14.422802155000255],[107.8613739320003,14.422882507000239],[107.86211536400018,14.422838318000217],[107.86217139400017,14.423778381000204],[107.86115601300028,14.424914795000262],[107.85963002800023,14.424367249000156],[107.85894120000026,14.424408310000189],[107.85778652200028,14.423994003000189],[107.85722020000034,14.424500000000037],[107.85786461600017,14.425075775000252],[107.85793941500006,14.426330765000174],[107.85714067800015,14.427044418000065],[107.85688203000026,14.427882034000191],[107.85650823100005,14.428216022000285],[107.85597762400008,14.428409057000096],[107.85567305300023,14.428637485000166],[107.85514005400015,14.428656521000136],[107.85472126899995,14.42829484300033],[107.85453091200023,14.42844712800013],[107.85493066100005,14.428923020000255],[107.8551694280001,14.429314122000108],[107.85511236800019,14.429873923000144],[107.8547783760001,14.429989019000075],[107.85449284000035,14.429969983000191],[107.85474030400022,14.430274554000164],[107.85481644700022,14.430598161000034],[107.85453091200023,14.431169231000027],[107.85422634100016,14.431359588000234],[107.85399976300025,14.431557220000244],[107.85360890600012,14.431858901999988],[107.85275000000004,14.433000000000078],[107.85184531400014,14.432904694000186],[107.85073436700023,14.432407028000313],[107.85115468600011,14.43334530600005],[107.85125000000019,14.434500000000284],[107.85209656100014,14.433846558000226],[107.85246481700025,14.433369467000006],[107.85314309800006,14.432933220000052],[107.85400120500006,14.432787445000159],[107.8546089060001,14.431779999000213],[107.8549877680002,14.431397660000187],[107.85538703400019,14.430509066000027],[107.85556052800015,14.430247589000246],[107.85589613400029,14.429103944000218],[107.85620349000013,14.42873529100008],[107.85793305200016,14.428610275000224],[107.85874334000025,14.42684480300025],[107.85944137600026,14.426886414000137],[107.85933829500007,14.428615875000148],[107.85823486300015,14.430039734000275],[107.85895356000023,14.430681885000212],[107.85885123400001,14.432398773000244],[107.85948591600024,14.432360931000048],[107.85935446900024,14.430155579000186],[107.85966015600016,14.429303650000122],[107.8601320340002,14.428882034000054],[107.86036796600021,14.428617966000232],[107.86088203400018,14.428382034000165],[107.86136796600013,14.4276179660001],[107.86169785300015,14.427382034000118],[107.86259339900019,14.428384338000086],[107.86375000000024,14.428315399000155],[107.86655644200036,14.42848266600005],[107.86711796600022,14.429487792999993],[107.86634487900008,14.43091046100011],[107.8655423050001,14.43086262500006],[107.86439760600015,14.430240585000107],[107.86412420700023,14.431415648999987],[107.86317018100013,14.432268066000091],[107.86363203400006,14.433117966000069],[107.86386796600024,14.433671219000104],[107.86289289100031,14.43454245000025],[107.86263203400009,14.435332901000194],[107.86446154000012,14.434842911000061],[107.86558122300025,14.43490963700016],[107.86642183700022,14.434452850000199],[107.86780629000012,14.43494960000018],[107.86811796600014,14.43667121900016],[107.86718719500035,14.437502869000056],[107.86561796600026,14.437867966000155],[107.86488203400009,14.438273743000153],[107.86583937800017,14.438713135000185],[107.86611796600025,14.439724472000108],[107.86489202100014,14.440819855000058],[107.86463203400021,14.44133999600028],[107.86648644300024,14.440568695000053],[107.86800149500019,14.438626251000102],[107.87143431900009,14.438382034000057],[107.87211796600016,14.439197845000237],[107.87127452100029,14.440750000000222],[107.8719537810002,14.442000000000093],[107.87097734100021,14.44379687499999],[107.87039184600027,14.444320007000115],[107.86913203400022,14.443867966000099],[107.86680214700019,14.443632034000117],[107.8650217210002,14.444599533000144],[107.86370930500024,14.444904892000096],[107.86438203400022,14.445867966000023],[107.86461796600028,14.44694784500011],[107.86348351300032,14.447961472000046],[107.86204996500018,14.448367966000106],[107.86113203400018,14.446367966000182],[107.86055963900006,14.445856537000239],[107.85998242200034,14.445890945000059],[107.85960112000018,14.44914593500009],[107.85906874800006,14.449114197000213],[107.8581921540003,14.447204254000098],[107.85779346500007,14.446632034000274],[107.85791970100021,14.448750000000103],[107.85784653500022,14.44997758500024],[107.8566724210003,14.45036796600003],[107.85538203000013,14.449367966000068],[107.85498211700016,14.449132034000087],[107.85538203000013,14.449867966000227],[107.85561797000011,14.450658997000218],[107.85393293400003,14.451432373000259],[107.85262232200014,14.450416702000254],[107.85213203000015,14.449867966000227],[107.85186797000014,14.449632034000075],[107.85163203000016,14.449367966000068],[107.85033392300014,14.448967117000208],[107.84938092400009,14.44963279700022],[107.8490871700001,14.4496152950002],[107.84913463600029,14.450411682000194],[107.85069729200009,14.450318542000204],[107.85111797000027,14.451000381000043],[107.85050000000004,14.45200000000007],[107.85162976500007,14.452120239000152],[107.85215868800023,14.45240011600022],[107.85210976800008,14.453634308000204],[107.8548312680002,14.453015381000142],[107.85518645900018,14.45561433400016],[107.8562318840001,14.45506115700013],[107.85687023500023,14.455316177000185],[107.85577610800013,14.45674298100002],[107.85642697100005,14.457688828000201],[107.85635716200014,14.459450027000173],[107.85587023500025,14.460370239000198],[107.85562976500026,14.461129761000066],[107.85526959200033,14.461620239000155],[107.85297507900017,14.46081601000023],[107.85183211500012,14.458785583000093],[107.85112976500025,14.45906617700021],[107.85217723500008,14.460432144000166],[107.85211644400002,14.461965881000154],[107.85315813100024,14.462638550000207],[107.85417795200013,14.462598129000057],[107.85537023500032,14.463316177000237],[107.8543643530002,14.464627899000135],[107.85520772200036,14.464894913000208],[107.85634194200011,14.466119049000056],[107.8549183270002,14.467868332000108],[107.85442530200018,14.468980343000197],[107.85362749900017,14.469546310000041],[107.85453578200028,14.46984732100016],[107.85463877800024,14.469319729000205],[107.85506361800023,14.468448679000076],[107.85534276200022,14.46818048100009],[107.85587916900002,14.467362335000075],[107.85663750100017,14.467377808000293],[107.8571225010003,14.468377502000138],[107.85802444500027,14.469566162000078],[107.85851412200029,14.4698724980002],[107.85887249800001,14.469098083000162],[107.85811720700022,14.46763192700027],[107.85813020300012,14.466995102000155],[107.85701279400021,14.466452988000071],[107.8566181790001,14.464834259000256],[107.85662790700027,14.464357498000055],[107.85736013000027,14.463653992000118],[107.85787250100023,14.46287249800011],[107.85917313400026,14.462100403000179],[107.85987249800021,14.461372498000259],[107.86015190900005,14.461127502000153],[107.86115269500019,14.461643051000081],[107.8611089550001,14.463786041000205],[107.86026379400008,14.465032867000076],[107.86101509100016,14.465754700000204],[107.86174500300015,14.464994995000225],[107.86261991100028,14.464154404000126],[107.86312249800008,14.46237249800022],[107.86343338000015,14.461464249000215],[107.86446416500033,14.460964172000132],[107.86499500300013,14.459869995000105],[107.8655326000002,14.458826416000008],[107.86628086900012,14.458377502000161],[107.86662252000022,14.46012760900011],[107.86689801800011,14.460121979000178],[107.86837249800024,14.459122498000255],[107.86962078900027,14.45871742200022],[107.87037249800008,14.45917152400014],[107.86987185700033,14.461125000000123],[107.87013007400017,14.462132553000089],[107.87137259700026,14.462107193000122],[107.87199500300025,14.462755005000247],[107.87263279700025,14.463367783000152],[107.87262225300034,14.463884506000099],[107.87012249800003,14.46437249800023],[107.86978442400019,14.465414322000015],[107.86837249800024,14.465872498000266],[107.86806311800015,14.467141602000027],[107.86712500000024,14.467122452000211],[107.86687259700025,14.467127594000104],[107.8664989170002,14.466738663000172],[107.86691171300012,14.468872498000238],[107.86837278000027,14.468372406000071],[107.86887500000009,14.468382660000032],[107.86920417000013,14.467704163000207],[107.8698775020001,14.467377502000176],[107.87037249800008,14.467122498000037],[107.87162750200028,14.466877502000017],[107.87344877600017,14.466254105000047],[107.87387249800011,14.467127502000096],[107.87436223600034,14.468078171000158],[107.87278434800007,14.470680115000235],[107.87182224300003,14.471146881000038],[107.87038221700007,14.471117493000094],[107.86985250100022,14.471390381000205],[107.86872387700012,14.473111816],[107.86685156200033,14.473416611000076],[107.86650000000012,14.47450000000019],[107.8671157000002,14.474115707000195],[107.87011304500012,14.473658966000144],[107.87055592300018,14.473144913000155],[107.87331946600003,14.472884293000178],[107.87411570000009,14.473469543000192],[107.8729628140002,14.47446281400022],[107.87221852100006,14.47532672100003],[107.87319205500015,14.47616546600024],[107.87301729600026,14.478340393000252],[107.87363430000025,14.478615707000202],[107.87386570000021,14.478884293000036],[107.87448343700024,14.479416504000113],[107.87534834300024,14.47934701500013],[107.8747546080003,14.476624969000241],[107.87579201500014,14.47516186500006],[107.87732770500023,14.474199982000144],[107.8777314070002,14.473731400000105],[107.87847370900019,14.473091873000214],[107.87979192400027,14.471387924000183],[107.88165446500025,14.47082714800014],[107.88241528300014,14.470888275000135],[107.88286570000022,14.472384293000104],[107.88318496700006,14.473253677000102],[107.88311122100018,14.474171478000102],[107.88119097900014,14.475028336000122],[107.88071900900033,14.475576141000062],[107.88037022400013,14.47824183700017],[107.87986570000012,14.47961570700025],[107.87960615500006,14.48047776800017],[107.8788657000002,14.4811157070001],[107.87858462500029,14.482960236000224],[107.87697445700022,14.48367872600025],[107.87663430000012,14.484263550000051],[107.87883273300011,14.484925446000105],[107.87911570000009,14.485969543000252],[107.87856286600007,14.486960403000168],[107.8770000000001,14.486834824000269],[107.87593098400029,14.486920715000082],[107.87528959700015,14.486562866000227],[107.87540968300013,14.485068344000211],[107.87457202100009,14.484346664],[107.87413430000024,14.483365707000104],[107.8734286880003,14.48263429300016],[107.87313430000009,14.484884293000164],[107.87272955300008,14.485609726000064],[107.87051624300025,14.484796921000225],[107.87008502200021,14.482898788000199],[107.86864198300029,14.480863586000112],[107.86789257800015,14.480923813000032],[107.86663430000013,14.48238429300008],[107.86575533300007,14.482934830000076],[107.86772460200021,14.482776596000122],[107.86859697700018,14.483263336000078],[107.86825000000024,14.485500000000044],[107.86952934300015,14.485630493000187],[107.86990427400016,14.486470734000065],[107.87138430000024,14.487615707000032],[107.87183812700019,14.488142471000188],[107.87122853900021,14.488865707000073],[107.8698843000004,14.48811570700019],[107.86911570000021,14.48788429300005],[107.86837308500023,14.487611588000135],[107.86773008000031,14.487970337000064],[107.86918676000013,14.489731354000199],[107.86910138700026,14.490793854000188],[107.86686614200013,14.490614243000252],[107.86663430000013,14.491384293000095],[107.86630362700006,14.491865707000315],[107.86548500100017,14.490031113000228],[107.86463430000023,14.490634293000213],[107.86419768500033,14.490865707000268],[107.86214337900029,14.489166428000004],[107.86160186800012,14.488537888000039],[107.86164027400028,14.4880599210002],[107.8622885820001,14.487501373000171],[107.85993722500027,14.487690308000083],[107.85802726000023,14.486194504000224],[107.85763429600033,14.483615707000183],[107.85732552700009,14.483384293000043],[107.85740367100024,14.484356827000042],[107.85704466200022,14.484865707000054],[107.8553904950002,14.483692841000263],[107.85475000000022,14.48350000000012],[107.85463203000032,14.484882034000066],[107.85433984400024,14.485696350000126],[107.8537494430004,14.486223862000074],[107.85288203000019,14.485617966000206],[107.85066691600034,14.485321701000117],[107.85129290400019,14.487066315000234],[107.85221820100017,14.486563507000014],[107.85440660100025,14.486693939000148],[107.85536797000012,14.485617966000206],[107.85572447600012,14.485382034000224],[107.85673593900034,14.486514069000279],[107.85713203000003,14.486867966000162],[107.85746118900002,14.487236359000093],[107.8570617180001,14.487971481000159],[107.85639554600013,14.488566696000206],[107.8574212230001,14.488867966000086],[107.85811867900017,14.488087372000066],[107.85891579400013,14.48813488800019],[107.86000788100014,14.489852020000058],[107.86113203400018,14.490367966000207],[107.86186145800005,14.490764343000237],[107.86211796600023,14.49205630500019],[107.86011714200023,14.492368103000146],[107.86013454400026,14.492660156000056],[107.86176538100025,14.493408661000089],[107.86211796600023,14.494041336000123],[107.86001328300026,14.494434174000205],[107.85913203400034,14.494117966000061],[107.85836797000027,14.49388203400018],[107.85728445800012,14.493493256000164],[107.85663203000016,14.493981979000012],[107.85788203000018,14.49436796600014],[107.85815908800001,14.494678055000136],[107.85811447900008,14.49542652900007],[107.85712500000025,14.495367554000069],[107.85662500000026,14.495397354000048],[107.85570306400021,14.495342407000209],[107.85538203000013,14.496382033999993],[107.85511185100032,14.496879227000179],[107.85583336600016,14.497210373000044],[107.85611797000027,14.498132034000193],[107.85627374300029,14.49836796600026],[107.85682210500019,14.497173187000172],[107.85860401200009,14.49684059100018],[107.8606555860002,14.496104477000202],[107.86137500000021,14.4961473540002],[107.86274585700019,14.496065643000279],[107.86311796600015,14.496891800000341],[107.86127552000013,14.49836796600026],[107.85963831300032,14.497780518000326],[107.85938203400016,14.498882034000076],[107.85902137800034,14.499545731000282],[107.85953652200013,14.500005997000258],[107.86062604500015,14.499615067000065],[107.86136796600013,14.499974472000218],[107.86079293800017,14.501577072000131],[107.8585252080002,14.501880371000084],[107.85813203000001,14.502474472000216],[107.85863203400018,14.503867966000143],[107.85886796600025,14.504908997000214],[107.85786797000011,14.50536796600008],[107.85763203000013,14.50613203400006],[107.85699202300012,14.507048279000202],[107.85484800700007,14.507547118999994],[107.85488906100002,14.50823591600006],[107.85695769100019,14.508112625000166],[107.85791878100011,14.50759036300029],[107.85959800700007,14.507690445000136],[107.85986796600022,14.511082794000245],[107.85899889400017,14.511617966000117],[107.85700962800033,14.511085190000088],[107.85638203000028,14.512337997000188],[107.85788203000018,14.51261796600025],[107.85878929100014,14.512943497000194],[107.85911796600013,14.51444784500005],[107.85860272200003,14.51539602700025],[107.85619452300003,14.515252487000183],[107.8557500000002,14.515750000000054],[107.85738429600022,14.515865707000117],[107.85796040300019,14.516187134000248],[107.85785972600033,14.517440078999996],[107.85711170600021,14.518084534000124],[107.85714059100033,14.51844406100011],[107.85875000000007,14.518314743000076],[107.86004224400025,14.518418564000314],[107.85985972600022,14.520690079000147],[107.85896762100006,14.521458679000233],[107.8569524920002,14.522065384000157],[107.85592389700011,14.520871490000147],[107.85488429600005,14.520719543000183],[107.85538560100022,14.5216180420001],[107.85536101200015,14.521924103000202],[107.85344783800022,14.521770370000084],[107.85313429600032,14.522134293000178],[107.85241588600022,14.52275325000005],[107.85200063300013,14.523683853000051],[107.85087500000023,14.523270477000125],[107.8492741360001,14.523858368000006],[107.84863429600031,14.523115707000287],[107.84836235100008,14.522432410999983],[107.84819601400008,14.521927338000197],[107.84757500200024,14.52150638100018],[107.84750574500018,14.521147502000247],[107.84701606400009,14.521127502000283],[107.84664891400016,14.521754059000074],[107.84638739800008,14.521813751000039],[107.84728696600021,14.52210633000017],[107.84776748600027,14.522694152000142],[107.8480768160002,14.523051071000182],[107.84841517600003,14.524000000000186],[107.8483455200001,14.524866913000054],[107.84974784900012,14.526075089000287],[107.84936570400006,14.527115707000135],[107.84911432300012,14.529308548000216],[107.84786570400027,14.529865700000215],[107.84747197700014,14.530322701000273],[107.84586570400009,14.530615700000268],[107.84553799400024,14.531704163000185],[107.84461570400035,14.532115700000219],[107.84363429600032,14.532884300000035],[107.84310692200009,14.533119621000054],[107.8432541540001,14.533365700000076],[107.84501445400028,14.53271926900024],[107.84610950500021,14.531942841000031],[107.84722776800001,14.531606155000247],[107.84826730700021,14.53039955900006],[107.84925000000007,14.531540176000021],[107.84961570400006,14.531115700000072],[107.85047776800033,14.53085615500001],[107.85118174000021,14.530039055000174],[107.85084893800021,14.528823036000091],[107.84954534500017,14.528241348000108],[107.84966375700029,14.526767639000212],[107.8511319580002,14.526885605000103],[107.85175603900032,14.526537399000077],[107.85109631700018,14.52560696400009],[107.85113877900014,14.525078522000072],[107.85224590300035,14.524584488000045],[107.85312500000023,14.524655136000206],[107.85372726400018,14.52460673500029],[107.85467952300016,14.52350145000024],[107.85557047700016,14.523998550000059],[107.85611570400025,14.52336570700001],[107.8570201870003,14.522586441000016],[107.85850607300026,14.522705841000217],[107.85921245600034,14.522311722000111],[107.86017409500025,14.522388992000202],[107.86009462700022,14.523377945000135],[107.86120870200003,14.52371337900027],[107.86181719200019,14.527706573000174],[107.86034088100016,14.528631248000039],[107.85988430000012,14.53113430000029],[107.85932608800002,14.53213478100011],[107.85996801800005,14.532687836000122],[107.86094007900019,14.53260972600006],[107.86145289600026,14.532014496000187],[107.86211920900021,14.532386253000226],[107.8623657000002,14.536134300000185],[107.86278385900007,14.537272972000068],[107.86257054900008,14.53992768100008],[107.8609377980001,14.540419266000157],[107.86209870900015,14.542500000000189],[107.86161570000021,14.543365700000052],[107.86124134800016,14.544204659000286],[107.85992629200021,14.54409899100007],[107.85963430000024,14.545384300000094],[107.85922536500007,14.546117233000075],[107.8603843000001,14.547115700000276],[107.86086570000018,14.548024933000178],[107.85934862500014,14.548369583000095],[107.85990708200026,14.548850723000115],[107.85984575700033,14.549613899000022],[107.8575000000001,14.5492500000002],[107.85764333300008,14.549404694000302],[107.85862976800016,14.549870232000188],[107.8593225020002,14.550236794000142],[107.85962023200003,14.553530312000149],[107.85886050400015,14.554634369000112],[107.8589414600003,14.556676796000076],[107.85812023500026,14.557870232000056],[107.8578435480002,14.558456505000166],[107.85791445500033,14.560245407000025],[107.85712023500005,14.560620232000218],[107.85687976500034,14.562129768000062],[107.8566838190001,14.562620232000242],[107.85493573000022,14.561279732000074],[107.85425953300015,14.56200952900015],[107.85386417400011,14.562375853999995],[107.85462976500034,14.562870232000051],[107.85537023500032,14.563398293000219],[107.85437023500018,14.563870232000184],[107.85412976500007,14.564053635000263],[107.85545533000024,14.564473312000175],[107.85536605100023,14.56672580700021],[107.8535743560004,14.567293060000068],[107.85395739700019,14.56801694500028],[107.8533702350002,14.568870232000265],[107.85312976500009,14.569379768000061],[107.85237023500022,14.570370232000116],[107.85212976500023,14.570879768000182],[107.8513416100001,14.571907562000135],[107.85139977300022,14.573375000000041],[107.85135843700019,14.574417892000184],[107.85083985900027,14.574898376000235],[107.84965574300017,14.57485144800026],[107.84894964200001,14.575225075000091],[107.84787976500033,14.576379768000152],[107.84760011300014,14.576638878000097],[107.84709056900019,14.576618683000206],[107.84716809500023,14.574662720000006],[107.84668726300023,14.574129768000148],[107.84634391400007,14.57664210500009],[107.84717039900013,14.57740788300022],[107.84817978300023,14.577367874000188],[107.84927917500025,14.576786133000198],[107.84987023500034,14.577280312000056],[107.84909699200031,14.578404015000217],[107.84860805500014,14.579948334000179],[107.84810502200023,14.580898979000054],[107.84662432500019,14.580840294000183],[107.84623650000006,14.583678055000135],[107.84539410000033,14.585270050000233],[107.84512976500034,14.586379768000214],[107.84485502200025,14.586898979000281],[107.84412120400029,14.586869895999996],[107.84321660200013,14.587186951000206],[107.84228627000024,14.587679237000174],[107.8410535160003,14.590291336000206],[107.84062976500033,14.591629768000189],[107.84030201300001,14.59256488000021],[107.83882467700008,14.593870235000026],[107.83804993800013,14.593034077000212],[107.8386297650002,14.591379768000024],[107.8388702350002,14.590370232000069],[107.83927914800009,14.589203560000172],[107.83812023500016,14.588129768000144],[107.8378611220003,14.587850113000187],[107.83788127500029,14.587341644000134],[107.8388465960002,14.586447220000196],[107.83912023500031,14.585890701000068],[107.83822143200027,14.584879768000178],[107.83734388700012,14.586965018999962],[107.83738795500014,14.58807685900021],[107.83853929900019,14.58957827800009],[107.83807934600006,14.590447510000075],[107.83607257800028,14.59036796600006],[107.83471163900023,14.58889914700012],[107.83412976500009,14.588693687000173],[107.83477914800008,14.590546440000182],[107.83332718700015,14.591891762000202],[107.83629086700003,14.591774292000167],[107.83665788300013,14.592170399000068],[107.83661013800017,14.59337500000018],[107.83664500000023,14.594254589000215],[107.83587023500016,14.594620235000178],[107.83512976500018,14.595016277],[107.8362130890001,14.595527542000283],[107.83611826700022,14.597919857000079],[107.83509393700032,14.599408451000144],[107.83362057100018,14.59935005200002],[107.83300953300014,14.600009533000133],[107.83243465400008,14.600542183000158],[107.83334669500024,14.600972614000241],[107.83362023500015,14.602193684000284],[107.83310117300007,14.60367462200007],[107.83262023500018,14.604120235000181],[107.83237976500018,14.604717388000196],[107.83379871000008,14.604220055000269],[107.83424046700023,14.602365467000027],[107.8348811340002,14.601154724000125],[107.83485256600014,14.60043399400017],[107.83612976500032,14.600129765000133],[107.83646091500017,14.599083817000107],[107.83778739200014,14.599136391000187],[107.83820300300025,14.601313301000275],[107.84061867900013,14.601698120000236],[107.84012023500023,14.60312023500012],[107.83987976500006,14.603879765000173],[107.8389140050003,14.6054570470002],[107.83962976500018,14.60612023500019],[107.83999791300025,14.606517567000026],[107.84037023500017,14.608925323000292],[107.83979398300025,14.610014332000063],[107.83886986900026,14.61087057100022],[107.83891335300021,14.611967644000032],[107.83806087900021,14.613206493000135],[107.83598088800014,14.612844311000273],[107.83562976500005,14.61137023500008],[107.83528105200017,14.610629765000098],[107.8354047280001,14.613750000000067],[107.83418513100017,14.614325577000173],[107.83337976500005,14.614879765000197],[107.83186832800024,14.615168327000092],[107.83037976500023,14.616379765000147],[107.82918544800012,14.616664249000323],[107.82887976500032,14.617629765000189],[107.82832402400007,14.618437389000036],[107.82662500000018,14.618370045000063],[107.8262904430002,14.618383305000279],[107.82480771600027,14.619167892000178],[107.82434164000009,14.619670914000224],[107.82387976600032,14.621129765000049],[107.82327690700018,14.622269062000171],[107.81996672100021,14.623191776000226],[107.82037976600029,14.62437023400021],[107.82062023400019,14.625129766000171],[107.82143460800026,14.627263960000178],[107.82187023400033,14.629175322000052],[107.82130156900016,14.63025000000016],[107.82162976600031,14.630870234000227],[107.82187023400033,14.632129766000077],[107.82317116900023,14.633335148000157],[107.8231174760003,14.634689848000164],[107.82137023400017,14.635370234000234],[107.82004092400021,14.635916258000208],[107.81887500000019,14.635870045000203],[107.81857021700031,14.635882126000041],[107.8176297660003,14.636379766000275],[107.81536546900017,14.636740469000102],[107.81454120600037,14.6380169090002],[107.81174155000028,14.64061093000015],[107.8113797660001,14.642129766000053],[107.81111099200015,14.642896602000093],[107.81115968100008,14.644125000000116],[107.81111910100017,14.645148829000192],[107.80989556100022,14.645726267],[107.8088797660001,14.645370234000126],[107.80745566300013,14.645129766000125],[107.80553754000013,14.645917647000203],[107.80462302200013,14.646590397000097],[107.80687023400029,14.646120234000009]]]]},"properties":{"id":"7129"}}]}