{"type":"FeatureCollection","features":[{"type":"Feature","geometry":{"type":"MultiPolygon","coordinates":[[[[79.78044140624993,23.848189453124988],[79.78075000000015,23.84802539062514],[79.78105859375009,23.848189453124988],[79.78131640625017,23.848310546874956],[79.78155859375008,23.848439453125167],[79.78226562500006,23.84856054687512],[79.7828945312501,23.8481259765625],[79.78305859375027,23.84743554687512],[79.78319140624993,23.847189453125125],[79.78330859375009,23.846935546875045],[79.78344140625009,23.84668945312505],[79.78355859375009,23.846185546875077],[79.7836914062502,23.845939453124984],[79.78380859375008,23.845685546875004],[79.7839414062502,23.84543945312501],[79.78405859375025,23.845185546875115],[79.78419140625019,23.84493945312512],[79.78430859375007,23.843537109375106],[79.78405859375025,23.843064453125137],[79.7839414062502,23.84281054687507],[79.78366796875005,23.842682617187606],[79.78350000000003,23.8425000000001],[79.78305859375027,23.842560546875077],[79.78231640625009,23.843189453125007],[79.78205859375007,23.84331054687496],[79.78166796875016,23.843579101562696],[79.7814414062502,23.8440644531251],[79.78126171875002,23.84440429687514],[79.7804140625,23.844560546875],[79.77994140625006,23.844310546875107],[79.7792890625,23.84418945312514],[79.77862500000012,23.844540039062494],[79.77819140624993,23.844310546875107],[79.77768359375008,23.84418945312514],[79.77744140625018,23.844060546875113],[79.77710546875014,23.84393945312516],[79.77694140625019,23.844382812500058],[79.7773164062501,23.844560546875],[79.77814843750005,23.84526562500014],[79.77830859375021,23.845939453124984],[79.77855859375026,23.846410156250002],[79.7780585937501,23.847060546875085],[79.77794140625016,23.847314453125165],[79.77775781250014,23.847659179687568],[79.77680859375008,23.847810546874967],[79.77655078125011,23.847947265625066],[79.77657031250013,23.848401367187464],[79.77756640625003,23.84856054687512],[79.77780859375005,23.848689453125147],[79.77871093750005,23.848810546874844],[79.77918359375005,23.84856054687512],[79.77994140625006,23.848439453125167],[79.78018359375008,23.848310546874956],[79.78044140624993,23.848189453124988]]]]},"properties":{"id":"19501"}}]}