{"type":"FeatureCollection","features":[{"type":"Feature","geometry":{"type":"MultiPolygon","coordinates":[[[[102.36434299044836,15.971994900173826],[102.36399386935452,15.969419487847404],[102.36211588541389,15.967801378038331],[102.35947265624688,15.966153971354373],[102.35824137369494,15.96431586371547],[102.35731363931993,15.965797254774628],[102.3574148220458,15.967056477864872],[102.35694932725383,15.967457411024526],[102.35615804036163,15.96701605902797],[102.3544064670107,15.969280056424026],[102.35366699218449,15.9695730251739],[102.35320475260121,15.968367241753853],[102.35412163628169,15.966723904080013],[102.35399603949352,15.965158962673769],[102.35479654947599,15.964029676649517],[102.353611111108,15.961944444444654],[102.352074924042,15.962071397569645],[102.35081624348649,15.963057454427329],[102.35102783202811,15.965691189236324],[102.35047932942413,15.96922661675373],[102.35132541232346,15.970896809896104],[102.35228108723643,15.971323242187708],[102.35376925997949,15.973050672743284],[102.35523925780947,15.971344401042018],[102.35644449869474,15.970589463975912],[102.35748697916372,15.968781467014082],[102.35824381510113,15.96820475260435],[102.35899902343434,15.969896918403023],[102.36003499348638,15.969813639323135],[102.36040635850398,15.97083794487871],[102.35842393662878,15.97254584418424],[102.35890082464985,15.973844129774562],[102.35818277994488,15.975131293402953],[102.35822455511865,15.975652126736392],[102.36126030815674,15.975961914062765],[102.3636420355871,15.97648139105921],[102.36475938584752,15.975857747396091],[102.36394775390315,15.97343912760445],[102.36434299044836,15.971994900173826]]]]},"properties":{"id":"10267"}}]}