{"type":"FeatureCollection","features":[{"type":"Feature","geometry":{"type":"MultiPolygon","coordinates":[[[[86.44914054786156,24.85513648502689],[86.45282354482336,24.853187590102337],[86.45536464182854,24.854532211548786],[86.45576042090843,24.853403078112436],[86.45514410146401,24.85189929054171],[86.45320548926773,24.850103110664335],[86.45317822689802,24.849414990140218],[86.45375521257486,24.848576536635633],[86.45437153201951,24.84645863366788],[86.45357210710611,24.84494774228334],[86.45543191613396,24.84396361820565],[86.46004603831315,24.84650914025977],[86.4604251344501,24.84579250275425],[86.45956711578671,24.844673474026976],[86.45959939660284,24.84385943458463],[86.45845627594295,24.84219824412797],[86.45767502594296,24.84054297069045],[86.45689499664607,24.84013022044634],[86.45602490658544,24.841069398913064],[86.45195711687197,24.841681496759165],[86.45086458757507,24.844284188409546],[86.45227300771396,24.846014840265056],[86.45093959300019,24.846364249580404],[86.44927685971058,24.846377694268966],[86.44932623037025,24.845129355781538],[86.44899040137719,24.84302098107996],[86.44838940853865,24.84332766578595],[86.44628057607318,24.84560376848772],[86.44524297841699,24.844484010729474],[86.44365308041367,24.843642708917443],[86.44166523319129,24.8457881794306],[86.4404349000749,24.84500662425482],[86.44041089291349,24.844400019572774],[86.44093511708886,24.843409418986866],[86.44137891049175,24.841715693400943],[86.44014667850396,24.840573946032393],[86.44012457021401,24.84001640683411],[86.44181185319994,24.838019709514185],[86.44166658952801,24.83676569136655],[86.4405496461687,24.83697892446652],[86.43856288401585,24.840683758450922],[86.43706752268795,24.841157187812684],[86.43570128462349,24.84242307390774],[86.43565896691538,24.843490799195123],[86.43627677833021,24.845253477553598],[86.43623446062176,24.846321372383144],[86.43698831261841,24.84713497101596],[86.43847743479725,24.848010401652928],[86.440217072384,24.849480484253903],[86.44231830936306,24.850472136000846],[86.44328998905056,24.85173924279883],[86.44283643002288,24.852596345934572],[86.44449943458031,24.854391169475306],[86.44575201162021,24.85468953814116],[86.44744485558724,24.856516515341085],[86.44914054786156,24.85513648502689]]]]},"properties":{"id":"9528"}}]}