{"type":"FeatureCollection","features":[{"type":"Feature","geometry":{"type":"MultiPolygon","coordinates":[[[[79.69346191406285,25.393330620659853],[79.69388617621573,25.39179578993067],[79.69298665364622,25.391359592013956],[79.6919471571185,25.390247938368105],[79.69318901909779,25.389022352430658],[79.69382324218813,25.388412543402936],[79.69556043836846,25.389730360243306],[79.69614203559084,25.38971896701392],[79.69607964409752,25.38664605034728],[79.69792480468809,25.386684027777818],[79.69860839843821,25.385275065104267],[79.70109754774356,25.384970703125006],[79.70028049045177,25.3838693576389],[79.70294270833384,25.383923611111285],[79.7024386935768,25.38294542100708],[79.7027886284728,25.381923285590418],[79.70501898871558,25.380280490451383],[79.70555826822962,25.380842013888994],[79.7062635633686,25.380827365451424],[79.70498046875039,25.378336588541814],[79.70444715711866,25.3788916015625],[79.70275336371563,25.37944118923619],[79.7008414713545,25.381397569444516],[79.69966091579906,25.38137369791683],[79.6980582682298,25.380536566840362],[79.69901258680594,25.37961968315983],[79.69832790798691,25.378609483507006],[79.699719509549,25.37777506510419],[79.70137803819497,25.377808702256985],[79.70169108072949,25.37716362847229],[79.70166178385463,25.375730794270865],[79.70027506510459,25.375280490451487],[79.69972493489618,25.374809027777786],[79.70430664062556,25.37406304253487],[79.70331434461852,25.372780490451404],[79.70278049045177,25.373336046006997],[79.7019113498267,25.373608398437653],[79.70139160156296,25.373036566840383],[79.70223904079918,25.37222222222242],[79.70081434461841,25.37194715711813],[79.70026963975758,25.372514105902937],[79.69907443576417,25.372489691840343],[79.69861382378522,25.37184244791682],[79.69977539062555,25.3710812717016],[79.70220865885474,25.37113064236125],[79.70276150173672,25.37055555555561],[79.70416937934064,25.370280490451407],[79.7044417317712,25.369981011284878],[79.70387478298667,25.36943630642365],[79.70276909722267,25.369458550347332],[79.70278103298668,25.368874782986126],[79.70392523871558,25.36831976996544],[79.70512207031297,25.368344184027848],[79.70753092447953,25.36999728732654],[79.70749728732679,25.36833062065982],[79.70780761718808,25.367780490451494],[79.70860839843809,25.368613823784855],[79.70932562934084,25.368599175347285],[79.70971950954922,25.367747938368154],[79.70885145399345,25.366914062500157],[79.70617133246569,25.366968858507008],[79.70458333333366,25.366425238715337],[79.70253146701427,25.36712727864588],[79.70194715711855,25.366270073784833],[79.70426757812547,25.364892578125065],[79.70610839843786,25.363176540798605],[79.70498318142424,25.361516927083358],[79.70500705295203,25.360340169270913],[79.7072195095491,25.359549153645915],[79.70415473090324,25.35833658854186],[79.70358723958387,25.360084635416655],[79.7036414930561,25.36273111979186],[79.70166395399346,25.363052842881984],[79.70063747829911,25.363581814236255],[79.69879991319479,25.362502712673844],[79.6964925130213,25.36657280815973],[79.69560709635473,25.36746365017366],[79.69610731336857,25.369763997395964],[79.69480577256988,25.37101453993074],[79.69432779947974,25.37002875434034],[79.69163194444488,25.369371744791792],[79.69061469184058,25.366805555555658],[79.69191948784774,25.365949978298616],[79.6922352430561,25.364655490451483],[79.69221625434088,25.363739149305673],[79.69081325954917,25.363058268229267],[79.69084255642397,25.36164171006952],[79.69159993489623,25.36091362847229],[79.69264702691024,25.357081705729257],[79.69180555555604,25.35569444444448],[79.69110839843793,25.35583062065976],[79.69055121527836,25.357242296007044],[79.68980143229206,25.3579633246529],[79.6906749131949,25.35838704427087],[79.69027289496589,25.359168294270944],[79.69083604600749,25.359441731771057],[79.69110839843793,25.359943576388915],[79.68931152343825,25.362169053819613],[79.68883192274379,25.364135742187585],[79.68773600260462,25.362995334201415],[79.6862603081602,25.360518663194554],[79.68694173177127,25.358772243923667],[79.68547960069478,25.358336046007125],[79.6847249348962,25.359196506076458],[79.68583658854223,25.360264214409938],[79.68640787760486,25.363791775173695],[79.6872249348962,25.36499728732646],[79.68750759548644,25.36586859809036],[79.68748860677121,25.36680284288194],[79.68879394531282,25.368996310764018],[79.68787109375054,25.369883355034943],[79.68666395399342,25.37027506510421],[79.68639160156309,25.37056966145846],[79.68749728732675,25.370546875000045],[79.68834092881994,25.371425238715318],[79.68831380208391,25.37275607638898],[79.68889702691021,25.3736165364584],[79.688885633681,25.37417534722229],[79.68767306857674,25.374177517361204],[79.68700683593792,25.37623155381945],[79.68609700520878,25.376663953993074],[79.68613009982684,25.375029296875056],[79.6855815972227,25.373963758680574],[79.68374728732701,25.37459201388897],[79.68331976996583,25.374146592882127],[79.683303493924,25.372780490451404],[79.68220323350752,25.373347439236213],[79.68139539930613,25.375012478298828],[79.68079155816022,25.37444715711821],[79.68028049045208,25.375029839409777],[79.68194173177133,25.376696506076414],[79.68110622829889,25.377498914930626],[79.68140516493096,25.378078884548728],[79.68134819878529,25.379163953993157],[79.67960069444476,25.37856608072937],[79.67833604600762,25.37864095052089],[79.67889160156287,25.37971950954868],[79.67886990017425,25.380789930555792],[79.67690646701428,25.382245551215362],[79.6751768663199,25.382807074652888],[79.67359700520873,25.382774522569548],[79.67362521701423,25.38138997395849],[79.67277506510473,25.38111382378483],[79.67250271267417,25.380633680555746],[79.67446017795177,25.37999837239589],[79.67332519531286,25.378907877604178],[79.67361545138945,25.37777506510419],[79.67124945746602,25.37738986545149],[79.66999891493091,25.378339301215277],[79.66931749132019,25.377383355034922],[79.6702837456601,25.376109483507022],[79.66944173177146,25.375836046006995],[79.66889160156299,25.37534125434034],[79.67028049045174,25.375002712673634],[79.67055284288224,25.37462022569457],[79.6691509331603,25.37370062934039],[79.66913682725729,25.37194715711813],[79.66638617621575,25.373330620659814],[79.66597222222285,25.37376139322916],[79.66525878906307,25.373058268229244],[79.66444715711842,25.37390299479172],[79.66357693142433,25.37388509114595],[79.66402018229232,25.36998318142369],[79.66235568576425,25.369994032118086],[79.66290147569501,25.3678645833334],[79.66241265191027,25.367502712673655],[79.66078396267417,25.369798719618046],[79.66014377170197,25.371108398437656],[79.65916937934068,25.369295789930547],[79.66000271267401,25.368891601562623],[79.66027506510457,25.368079969618123],[79.65778049045204,25.367829318576426],[79.65895616319486,25.373304578993114],[79.6580940755214,25.373722873263986],[79.65693088107676,25.373324652777796],[79.65631401909755,25.371425238715318],[79.65470594618094,25.37111111111122],[79.6541531032992,25.370535481770844],[79.65416937934069,25.369720052083423],[79.65328070746571,25.366103515625028],[79.6525081380212,25.36611924913197],[79.65089789496588,25.36529025607652],[79.64971950954899,25.365002712673657],[79.64944715711843,25.364648980034744],[79.65148600260474,25.362689887152783],[79.64969238281296,25.36139160156263],[79.64847384982696,25.362019314236207],[79.64750271267397,25.363374023437558],[79.65177897135473,25.367825520833406],[79.65309136284762,25.369596354166717],[79.65271647135475,25.371057942708376],[79.65416232638947,25.37244683159726],[79.65446668836873,25.37462619357649],[79.65937500000038,25.375226236979273],[79.66029188368114,25.375847439236196],[79.66027452256984,25.37668023003475],[79.66110839843813,25.37751953125003],[79.6596972656254,25.37749077690978],[79.65916937934068,25.376941731771097],[79.65778049045204,25.376752387152806],[79.65926649305587,25.379332139757054],[79.66092827691003,25.380422092013944],[79.66000162760454,25.38194986979174],[79.65914008246588,25.381366102430633],[79.65743598090316,25.37849555121541],[79.65664713541727,25.377780490451386],[79.65665744357702,25.380036349826426],[79.65571506076444,25.380941297743206],[79.65615071614641,25.38264105902782],[79.6561040581602,25.38493381076401],[79.65802842882002,25.385403103298714],[79.65833062066011,25.386914605034747],[79.65580349392425,25.387219509548657],[79.65500271267413,25.386386176215296],[79.65435763888948,25.386113823784825],[79.65389160156306,25.386768663194545],[79.65523220486168,25.38764756944454],[79.65555284288226,25.388490125868103],[79.6547162543408,25.389724392361202],[79.65682183159763,25.390067274305636],[79.65788791232691,25.39061686197924],[79.66971950954897,25.387219509548657],[79.67231933593806,25.386856553819456],[79.6741639539936,25.386108398437543],[79.67606119791728,25.385836046006972],[79.6810411241324,25.388065321180676],[79.68224175347271,25.388058810763937],[79.68454155816008,25.389772135416763],[79.68694715711862,25.390552842881917],[79.69113009982689,25.392774522569525],[79.69166666666703,25.39221679687509],[79.69229112413231,25.392866753472347],[79.69346191406285,25.393330620659853]],[[79.69933648003527,25.365002712673657],[79.70041666666722,25.364861111111367],[79.70065646701445,25.36595974392364],[79.69899305555592,25.368600802951477],[79.69854709201454,25.36760091145831],[79.69865831163233,25.36621744791681],[79.69933648003527,25.365002712673657]]]]},"properties":{"id":"9480"}}]}