{"type":"FeatureCollection","features":[{"type":"Feature","geometry":{"type":"MultiPolygon","coordinates":[[[[79.85249511718771,24.70193874783034],[79.85431749131968,24.701921929254027],[79.85711100260417,24.702286173503097],[79.85808973524323,24.702803955078664],[79.85982313368092,24.70273525661939],[79.86159559461831,24.701515367296594],[79.86193901909738,24.69971693250919],[79.86360785590298,24.69892930772629],[79.86388346354184,24.697772488064714],[79.86529676649351,24.695541076660703],[79.86395236545147,24.69490675184518],[79.86329861111128,24.693520541721426],[79.86337727864591,24.691523946126793],[79.86229763454887,24.68762681749189],[79.86055013020851,24.685005289714],[79.8602696397572,24.683827921550147],[79.85922146267367,24.68173346625491],[79.85636990017369,24.677680494520857],[79.85496690538221,24.67665147569498],[79.85435655381949,24.676675652398558],[79.85388780381962,24.678642578125647],[79.85307020399338,24.679400295681987],[79.85273654513904,24.675574306912367],[79.85076931423643,24.673008558485847],[79.84939507378496,24.67306301540846],[79.849467230903,24.6748749118386],[79.85081054687507,24.677068888346895],[79.85119791666685,24.679098849826957],[79.85168891059052,24.68002665201874],[79.85250542534746,24.67999430338608],[79.85277235243078,24.681722581651997],[79.85220594618087,24.68279364691888],[79.85162977430574,24.68277079264378],[79.85002875434034,24.68118893093603],[79.84940755208359,24.679945305718817],[79.84721679687507,24.67833862304738],[79.84694986979181,24.677494710286993],[79.84612413194444,24.67672970242016],[79.84582953559058,24.675799153646395],[79.84463650173612,24.674298502604657],[79.8432714843751,24.67329725477485],[79.8421950954864,24.673339911567354],[79.84222819010446,24.674171617296523],[79.8416107855904,24.67471693250924],[79.84058973524307,24.673614942763123],[79.83954427083339,24.673284030491047],[79.8385763888891,24.67162950303876],[79.83734537760418,24.67167829725534],[79.83659450954863,24.674352416992804],[79.8372276475695,24.675272488064678],[79.83816297743058,24.677465922038408],[79.84001573350727,24.678072035048245],[79.83999403211831,24.678627387153256],[79.8384060329864,24.678564453125574],[79.83727539062502,24.67916283501566],[79.8352316623266,24.67975460476397],[79.83271267361138,24.678421596951665],[79.8319167751736,24.67973765055403],[79.83113172743086,24.679706522624286],[79.83000542534737,24.678277418349097],[79.83060221354194,24.677149353027858],[79.83053114149354,24.67535515679316],[79.82960286458334,24.674006551107283],[79.82830132378493,24.674462822808678],[79.82704915364613,24.676627434625132],[79.82543674045152,24.676062215169722],[79.82441894531249,24.67467475043452],[79.82446777343782,24.673445739746555],[79.82547200520841,24.672971801758493],[79.82582790798617,24.672216932509258],[79.82675889756953,24.671354302300827],[79.82652777777807,24.670694444445004],[79.82471679687532,24.67110582139813],[79.82378363715301,24.67174801296703],[79.82333875868065,24.673616400825324],[79.82250542534754,24.675086500380218],[79.82362304687533,24.677263760037405],[79.82475802951396,24.678404880100388],[79.82472819010442,24.680016276042124],[79.82547851562506,24.679986538357724],[79.82638346354176,24.682101406521696],[79.82520562066006,24.682657233344756],[79.82579698350727,24.683773837619924],[79.82934516059046,24.68539652506567],[79.82999457465306,24.68635162353567],[79.82697753906254,24.686832275391154],[79.82663248697921,24.685384996202927],[79.82397732204905,24.683731723362072],[79.82332790798634,24.681671210395507],[79.82332682291698,24.680806070964124],[79.82243923611114,24.680841267904327],[79.82127387152784,24.681457722982245],[79.82049750434047,24.68229610867023],[79.81948459201394,24.684441765679907],[79.81827745225698,24.684716932509218],[79.81720757378477,24.684150729709728],[79.81560926649311,24.684130249023966],[79.81498426649333,24.684460923937195],[79.81500868055568,24.68507941352047],[79.81754611545139,24.687430352105608],[79.82244900173643,24.687900187175046],[79.8241910807296,24.687506476508744],[79.82471733940977,24.686938747830368],[79.82565592447926,24.686975945367337],[79.82666124131961,24.688060845269604],[79.8290022786459,24.689531419542533],[79.83042154947921,24.686622823079915],[79.8318994140628,24.686681382921606],[79.83305013020848,24.68769846598356],[79.83165364583348,24.68814069959906],[79.83169325086814,24.689141133626777],[79.83110568576419,24.689994710287053],[79.83083224826387,24.69142737494623],[79.82861653645838,24.691444803874134],[79.82924533420143,24.692633836534824],[79.83056152343775,24.6930504014762],[79.83056152343775,24.695016276042267],[79.83162055121542,24.694974297418057],[79.83089898003473,24.69772891574482],[79.82801269531276,24.70156060112909],[79.8280615234377,24.7027940538201],[79.82872287326396,24.70276784261108],[79.82916124131967,24.701383599175912],[79.8297705078127,24.700498114692394],[79.831633029514,24.6992956542974],[79.83320529513898,24.69528835720547],[79.83369683159745,24.69322319878529],[79.83546386718783,24.69143269856822],[79.83697591145861,24.691962551541366],[79.83832790798638,24.690402289497],[79.83666124131949,24.69000528971408],[79.83499023437506,24.688891160753613],[79.83533365885435,24.688338623047358],[79.83652777777777,24.688970472548263],[79.83874945746547,24.688240831163696],[79.83916124131966,24.686939154731377],[79.83972656250003,24.68608574761342],[79.84171603732639,24.68509667290631],[79.84249457465276,24.685364278158133],[79.84139431423628,24.68778306749185],[79.84028320312498,24.688636983236265],[79.84201931423624,24.689492085775186],[79.84308159722227,24.69031684027827],[79.84301269531258,24.692055630154627],[79.84169433593766,24.693277248806908],[79.84085720486135,24.694573499891945],[79.84141818576407,24.696175062392086],[79.84407714843766,24.69729390462294],[79.8458002387155,24.69638207329703],[79.84668240017388,24.6963717651372],[79.84721679687507,24.698060845269666],[79.84843478732651,24.700453898112485],[79.85000596788231,24.700828145345596],[79.85040256076414,24.70188696967284],[79.84993164062499,24.70323065863765],[79.85135470920139,24.70368119981596],[79.85200249565972,24.702981669108652],[79.85249511718771,24.70193874783034]]]]},"properties":{"id":"4960"}}]}