{"type":"FeatureCollection","features":[{"type":"Feature","geometry":{"type":"MultiPolygon","coordinates":[[[[108.40599385579313,12.753066134983001],[108.40572665744256,12.752777777778121],[108.40383511013366,12.752979058159994],[108.4010038926858,12.756329345703392],[108.39948208278966,12.759033067491629],[108.39837097167864,12.759750569661918],[108.39881937662656,12.76041137695347],[108.40052727593209,12.759926079644387],[108.40380472818916,12.756952718099313],[108.40695170084555,12.755467393663508],[108.40735209147047,12.754324815538595],[108.40599385579313,12.753066134983001]]]]},"properties":{"id":"22805"}}]}