{"type":"FeatureCollection","features":[{"type":"Feature","geometry":{"type":"MultiPolygon","coordinates":[[[[78.15665391710084,23.91693162706214],[78.15790988498256,23.91656304253516],[78.15896728515636,23.917168714735723],[78.15943169487835,23.91609829372878],[78.15988688151052,23.915720147027457],[78.16030436197931,23.91337741428002],[78.16180311414942,23.91213229709244],[78.16367078993048,23.911584201389303],[78.16443169487857,23.910982869466565],[78.16338867187508,23.910116441515214],[78.16078342013876,23.910230238173185],[78.1586678059895,23.90870768229216],[78.1579058159721,23.90779052734426],[78.15652777777777,23.907361111111555],[78.15554280598954,23.9074871826176],[78.15529052734368,23.90827223036068],[78.15644395616314,23.908610636393647],[78.15693169487841,23.909735039605522],[78.15805392795139,23.91022182888507],[78.15832058376728,23.911014607747802],[78.15734185112856,23.91143907335119],[78.15643202039931,23.912764960395435],[78.15607693142366,23.91035820855076],[78.15501274956611,23.91112392849439],[78.15347547743065,23.911464911567194],[78.15390407986118,23.912213270399874],[78.15382839626747,23.91295518663233],[78.15112901475689,23.913357272678383],[78.15081190321203,23.91583591037366],[78.15212049696194,23.917404988607217],[78.15519883897568,23.917764960395502],[78.15665391710084,23.91693162706214]]]]},"properties":{"id":"19478"}}]}