{"type":"FeatureCollection","features":[{"type":"Feature","geometry":{"type":"MultiPolygon","coordinates":[[[[103.71041531032685,16.570453287760657],[103.71074462890326,16.56775770399335],[103.71304497612547,16.569317220052397],[103.71381673176782,16.569301486545456],[103.71712293836501,16.568169759114838],[103.7190418836777,16.568191189236344],[103.71902289496214,16.5672574869794],[103.71790825737563,16.56652696397599],[103.71919325086523,16.566109754774487],[103.72128662109074,16.566538628472557],[103.72310139973675,16.5677688259551],[103.72483805338263,16.569576280382293],[103.72556803385115,16.569930555555842],[103.72684163411148,16.569274359809214],[103.72680257161167,16.56735270182324],[103.72517876518796,16.5673857964413],[103.72456407334786,16.567069227430835],[103.7240207248233,16.56594916449687],[103.72232449001453,16.56431939019123],[103.71816460503172,16.56403049045163],[103.71606092664629,16.565114203559332],[103.71449191622966,16.56405056423658],[103.71112467447617,16.563436686198216],[103.71069200303523,16.56122097439264],[103.7095874023407,16.559076605903016],[103.71264160155957,16.555697157118374],[103.71362928602142,16.553661295573164],[103.71458604600403,16.55319715711839],[103.71596950954583,16.551930881076586],[103.71532823350404,16.55097493489606],[103.71280897352133,16.553008626302358],[103.71194254557,16.552562120225986],[103.7126527235213,16.55151421440999],[103.71263156466736,16.550468207465556],[103.71068359374706,16.55125840928855],[103.70950412326104,16.551254340278092],[103.70902370876425,16.553225640191357],[103.7081030273408,16.554110243055817],[103.70593831379912,16.55374104817733],[103.70428602430272,16.55262098524328],[103.7043139648408,16.5512527126739],[103.70095594617763,16.54802625868078],[103.70097629122975,16.547027723524522],[103.70503119574354,16.546367730034973],[103.70711317273995,16.5442008463544],[103.70705349392054,16.543197157118314],[103.70342610676786,16.544858398437853],[103.70168240017077,16.543960232205265],[103.70125081379908,16.54263047960096],[103.70066379122957,16.542642415364895],[103.69904595268795,16.54427164713573],[103.69719156900757,16.542774793837168],[103.69988037109093,16.540668674045534],[103.69985432942426,16.539391818576618],[103.69684922959769,16.54042046441002],[103.69610134548324,16.540405002170445],[103.69560519747964,16.538370225694692],[103.69412787543095,16.53695068359403],[103.69166666666356,16.535833333333613],[103.6892765299448,16.53597086588563],[103.68737033419833,16.53662326388917],[103.68644449869507,16.538970811632296],[103.68820014105611,16.540272352430904],[103.68818522135135,16.541006401909968],[103.68700900607357,16.542741699219008],[103.68373046874697,16.544042154948244],[103.68375488280967,16.54524169921909],[103.68519070095184,16.545707465278056],[103.68657063801786,16.54567952473991],[103.68832004122984,16.544493543837092],[103.6908021375838,16.54328938802115],[103.692233344181,16.54474500868089],[103.69272867838234,16.547281901041956],[103.69320855034422,16.54821370442734],[103.69433648003186,16.548760850694833],[103.69430202907685,16.55044786241342],[103.69373860676777,16.551541612413416],[103.69291422525745,16.551524793837103],[103.69180826822631,16.551936577691237],[103.69483588324343,16.554515516493296],[103.696563856334,16.553458658854467],[103.69753499348647,16.55347873263915],[103.69979139539632,16.554393717448136],[103.70015082464997,16.55806966145856],[103.7017122395803,16.558827039930776],[103.70233398437202,16.560108506944786],[103.69945556640315,16.563331705729453],[103.70006076388589,16.564025065104346],[103.70273871527493,16.562118055555857],[103.70418457030976,16.5618082682294],[103.70554633246249,16.5627313910593],[103.70514187282677,16.565419379340682],[103.70449517143814,16.566373426649577],[103.70393500433718,16.569242078993327],[103.7003309461775,16.572705078125324],[103.70045735676806,16.57430284288226],[103.7021085611951,16.57263102213571],[103.7029066297712,16.572647298177387],[103.70513617621228,16.57168240017384],[103.70724527994511,16.56902262369833],[103.70802137586529,16.569038357205187],[103.70854248046598,16.570644802517606],[103.70815538194134,16.572534993489782],[103.70820014105638,16.574727647569688],[103.70915093315685,16.574238009982864],[103.71041531032685,16.570453287760657]]]]},"properties":{"id":"10246"}}]}