{"type":"FeatureCollection","features":[{"type":"Feature","geometry":{"type":"MultiPolygon","coordinates":[[[[75.59888359917531,24.925520044963065],[75.59725348578527,24.92400967068214],[75.5966347249346,24.92205534193309],[75.59677124023412,24.918611323039272],[75.59555589463955,24.91587988959479],[75.59524373372383,24.913595945570748],[75.5946957736542,24.913617663913953],[75.59405890570716,24.914967091878708],[75.59274224175331,24.9152724795877],[75.59174445258222,24.914195590549568],[75.5874834526908,24.912223137750075],[75.58759467230894,24.909416436089927],[75.58706169976134,24.90789566040108],[75.58753553602415,24.906671964857964],[75.58805982801633,24.907237879435826],[75.58832804361973,24.904439146254262],[75.58872368706571,24.903310267131104],[75.59101847330695,24.900490519206272],[75.59236646864125,24.89773340013349],[75.59480258517763,24.896301235623483],[75.59580030653186,24.89418703715056],[75.59687072753891,24.893195292155454],[75.60028306749129,24.88778307596904],[75.6027782524956,24.882972005208956],[75.60417195638004,24.881949742635783],[75.60481533474373,24.880953436957995],[75.6063720024953,24.87951112535309],[75.60752753363684,24.877721693251402],[75.60832153320283,24.876985999213886],[75.60909077962211,24.87535603841191],[75.61059617784261,24.873574625651585],[75.61137301974807,24.871928558350106],[75.61264682345913,24.871327387492386],[75.61339362250405,24.870170898438175],[75.61473856608043,24.868883972168447],[75.61475775824644,24.867505298191247],[75.61559109157972,24.86832803514332],[75.6171761745874,24.86678073459261],[75.61753926595051,24.86601145426482],[75.61995313856309,24.864113235474136],[75.62037835015158,24.862327914768287],[75.62290283203114,24.860504319933327],[75.62332804361975,24.85916137695365],[75.62390475802945,24.858626997206443],[75.62444831000411,24.85691028171162],[75.62745395236524,24.853725179037042],[75.627792426215,24.853008032905223],[75.62776346842432,24.85227849324596],[75.62944973415793,24.850283067491915],[75.63017639160134,24.847676357693672],[75.6308451334634,24.84634733412061],[75.63322747124553,24.843739793566115],[75.63203653971348,24.842636328803707],[75.63160624186165,24.840829925537534],[75.631693589952,24.838625878228612],[75.6310976155597,24.83807366265249],[75.63139600965687,24.837222222222778],[75.6308386230468,24.83416137695363],[75.62991977267771,24.83321372138184],[75.63029134114552,24.829648064507893],[75.63026068793383,24.826375223796035],[75.63086059570279,24.82524151272301],[75.63242655436173,24.824502478706094],[75.6330398220484,24.821928015815402],[75.63370496961775,24.822279968262237],[75.63471693250838,24.822166307237993],[75.63349907769069,24.820979207357283],[75.63306084526889,24.81777248806496],[75.63241387261266,24.816197340224093],[75.63377217610642,24.814223378499875],[75.63621236165338,24.81383465237144],[75.63703375922282,24.812948133681076],[75.63690802680108,24.809775729709813],[75.63757941351972,24.808506910536707],[75.63917195638018,24.80667195638071],[75.63945163302927,24.80549789428774],[75.64055026584177,24.804316474067335],[75.63916137695307,24.80250528971399],[75.63872436523408,24.801579267714473],[75.64004652235215,24.799954681396997],[75.64141113281264,24.799310658773408],[75.64194240993899,24.79411756727481],[75.64278306749102,24.79333862304756],[75.64305026584194,24.791383599175873],[75.64342332628038,24.79067852444163],[75.6451939561629,24.789037984212726],[75.64329528808568,24.787278798421738],[75.64362759060296,24.78665079752662],[75.64472880045545,24.786694454617546],[75.64471082899283,24.786240556505646],[75.6458280436195,24.784388529460145],[75.64527248806397,24.7833386230474],[75.64500528971317,24.77987552219021],[75.64614325629307,24.778017001682414],[75.64725524902323,24.777492201063893],[75.64538967556413,24.776611751980823],[75.64472751193549,24.773812577989915],[75.645529446072,24.771524488661512],[75.64701917860216,24.770785675049453],[75.6483280436195,24.769161376953605],[75.64901801215282,24.768835737440995],[75.64999471028639,24.767444085015796],[75.64891133626273,24.76644027710016],[75.646521674262,24.76816958957302],[75.64611640082435,24.769449734158556],[75.645600789388,24.769927469889794],[75.64296081542957,24.77027248806489],[75.64250528971345,24.768954247369265],[75.64398559570296,24.767023824056608],[75.64377427842877,24.761691504584945],[75.64214253743481,24.761379987929175],[75.63972751193549,24.75888359917586],[75.63688069661444,24.758340081109495],[75.63428331163178,24.756965671116035],[75.63305026584206,24.756671956380742],[75.6317504204641,24.756027340359736],[75.63102145724795,24.754482693142933],[75.62966125488268,24.75415869818842],[75.62776943630624,24.753157653809126],[75.62664103190096,24.751619194879012],[75.62667236328102,24.750828416613032],[75.62563334147112,24.74975114610521],[75.62499471028619,24.749449734158517],[75.62402716742596,24.74821426391658],[75.62171115451403,24.747662607829454],[75.62100728352871,24.745439232720813],[75.61936692979592,24.74630722045947],[75.6186164008246,24.744716932509178],[75.61639824761275,24.744188571506584],[75.61583862304687,24.743555196126792],[75.61641506618898,24.742465837267233],[75.61638122558585,24.74161222669869],[75.61316006130633,24.739623819987486],[75.61100165473087,24.73620166354766],[75.60943915473061,24.735283067491906],[75.60917195637998,24.73466630723793],[75.60973130967866,24.733609297011114],[75.60925252278625,24.733165707058888],[75.60885131835929,24.731481475830535],[75.60693915473055,24.7311164008251],[75.6065372043183,24.729846767849907],[75.60548807779921,24.728894178603042],[75.60270779079858,24.730036214193234],[75.60326504177507,24.73216286553341],[75.60215915256052,24.73251298692547],[75.60114529079843,24.733607262506027],[75.59944973415773,24.73444973415846],[75.59802001953116,24.7347169325092],[75.59711168077237,24.733894178602853],[75.59664299858943,24.735374620226196],[75.59665215386278,24.73689385308215],[75.59355523003447,24.737216932509185],[75.59276299370643,24.73636194864966],[75.59178439670123,24.736400739882455],[75.59135993109797,24.737300025092765],[75.58987169053799,24.738760596381923],[75.58772169325053,24.740305277507147],[75.5861058213973,24.741939154731426],[75.58578728569844,24.742614067925814],[75.58468919542096,24.743631490072175],[75.58416015624991,24.744752587212986],[75.58244391547296,24.745860833062565],[75.58105394151463,24.747360992432263],[75.57769497341567,24.752885080973883],[75.57457784016893,24.756066199409133],[75.57568203396258,24.757670796712787],[75.57287007649731,24.760233222114337],[75.5698908148868,24.760640394423362],[75.56917161729567,24.761416609022888],[75.56505350748668,24.76140328301389],[75.56361640082437,24.762505289714085],[75.56131134033197,24.76276919894802],[75.55728980170343,24.764124348958802],[75.55694481743697,24.763034769694485],[75.55527248806422,24.762505289714085],[75.5541866048176,24.760204450819927],[75.55242845323315,24.758575405545244],[75.55138380262574,24.758616824680487],[75.5503667873804,24.756960890028765],[75.54917195637987,24.757783067491772],[75.54827741834836,24.7580502658425],[75.54605767144093,24.75712432861374],[75.54613881429017,24.75917158338808],[75.54543284098295,24.759825710721003],[75.54389417860219,24.75888359917586],[75.54214589436819,24.758338623047464],[75.53971693250864,24.75916137695353],[75.5388287353513,24.760025143094012],[75.53726287841775,24.75996307373103],[75.53639417860214,24.760560845269694],[75.53471693250836,24.76082804362035],[75.53159851074204,24.762839389377675],[75.53013888888862,24.762456919352687],[75.52881025526258,24.762805057102426],[75.52722751193542,24.763894178602968],[75.52440066867374,24.764759029812808],[75.51890367295974,24.764738142226136],[75.51777208116292,24.764139370388946],[75.51596181233717,24.764211120606006],[75.51238986545107,24.76324749416834],[75.51139024522544,24.762254079183492],[75.50873192681198,24.76111640082513],[75.50826348198771,24.76210895114528],[75.50652913411457,24.762772488064826],[75.50394443088098,24.75998285929417],[75.50359015570714,24.75849561903256],[75.50221693250833,24.75806084526961],[75.50033430311404,24.756469930013722],[75.50167951795791,24.75583506266331],[75.50137257893854,24.755550638835174],[75.50139458550339,24.754995083279567],[75.50099416096995,24.75462405734639],[75.49832054985885,24.755183427599263],[75.49830573187901,24.7538868204759],[75.49146731906453,24.752104543050706],[75.49049964057068,24.753050265842518],[75.48940819634302,24.752472720676607],[75.48889417860212,24.75138359917588],[75.48437659369571,24.7504072740348],[75.48389417860241,24.748883599175983],[75.4824593098958,24.747554117839044],[75.48250569661454,24.746384328206858],[75.48213443332244,24.74568274603992],[75.47984232584625,24.744957054986457],[75.47830668131482,24.744144473606227],[75.47837504068994,24.742419823541155],[75.47647101508218,24.7411902872728],[75.47448106553801,24.740716281467527],[75.47059173583963,24.74087042914543],[75.46926923963733,24.7398562791618],[75.4675457763669,24.741252204047967],[75.4658280436195,24.741661376953843],[75.46484303792292,24.742494710286934],[75.46444763183567,24.74165688408803],[75.46389417860226,24.741949734158624],[75.46022186279268,24.742216932509265],[75.45917121039466,24.74166098700684],[75.4568835788302,24.74165874905114],[75.45583787706138,24.741105431451317],[75.45388793945287,24.74118270874068],[75.44981574164481,24.739322662354084],[75.44826276991094,24.737646586100823],[75.44693915473064,24.73722751193621],[75.44551021999754,24.736064622667683],[75.44345401340044,24.732798784044604],[75.44216630723704,24.73250528971407],[75.44079637315522,24.733230200873976],[75.43721693250839,24.730838623047532],[75.43688649495428,24.728764461941722],[75.43603634304444,24.729214324951684],[75.43530734591982,24.730001118978407],[75.4337319268117,24.730272488064813],[75.43332824707002,24.72941711425827],[75.43088745117169,24.729513871935254],[75.42998291015599,24.7286258782286],[75.4299943033852,24.72777297973694],[75.43144927978491,24.72598519219352],[75.43124999999989,24.725416666667215],[75.42995120578306,24.725963236491452],[75.42816077338298,24.728328043620337],[75.42694973415772,24.727494710286976],[75.42522186279271,24.727227511936235],[75.42444973415772,24.728060845269596],[75.42220635308152,24.728595225016804],[75.42035237630179,24.729576246474124],[75.4200052897136,24.731394178602955],[75.41858815511043,24.733071153429336],[75.41792643229158,24.733044925266313],[75.41694973415784,24.731383599175928],[75.41506303575287,24.729735209147805],[75.4131393432614,24.728908928765733],[75.41188391791437,24.729772813585598],[75.40605519612612,24.730272488064813],[75.40484968397342,24.729634585910873],[75.40247273762995,24.72972880045627],[75.40253726535346,24.731357116699712],[75.39888709174235,24.731951599121587],[75.39819074842646,24.73158311631998],[75.39899817572697,24.730409698486852],[75.40140343560088,24.72995049370715],[75.40138014051618,24.729362216526127],[75.39806362575925,24.729493662516845],[75.39606909857847,24.731023152669778],[75.396116773817,24.73222652859215],[75.395202433268,24.734622684055438],[75.39450280083534,24.734994710286955],[75.39411258273626,24.7333565266932],[75.38971693250843,24.732783067491923],[75.38884636772977,24.732322421604266],[75.3889097764754,24.73072267320474],[75.38799964057054,24.73000528971407],[75.38652825249542,24.731593339708695],[75.3842344835069,24.732031266954806],[75.37993747287308,24.733930070665778],[75.3794497341577,24.73505591498551],[75.38055026584166,24.73613842434402],[75.37902774386922,24.736078084310506],[75.37732835557719,24.735178866916897],[75.3758386230468,24.735764499240958],[75.377250942654,24.736676500109027],[75.37610582139726,24.737216932509185],[75.37528306749121,24.737986721463287],[75.37695393880185,24.73906568739197],[75.37687459309885,24.741068149143317],[75.37525285508886,24.74145443386557],[75.37532009548582,24.743151024713114],[75.37369283040348,24.74366621229443],[75.37306084526878,24.745005289714044],[75.37250979953333,24.74551588270451],[75.370084364149,24.745902252197794],[75.36868699815531,24.74516284518822],[75.36780236138216,24.746117587619906],[75.36749521891264,24.746105414497052],[75.36547559950057,24.74738327026421],[75.36363810221346,24.745974222819527],[75.36324822319844,24.744337327745725],[75.36074378119557,24.74361640082516],[75.3600052897132,24.744470333523765],[75.3611164008245,24.744994710287017],[75.36152631971541,24.746289469401518],[75.36222751193569,24.746939154731493],[75.36262179904517,24.747774573432736],[75.36333716498453,24.75003416273391],[75.3643802218966,24.751000603570432],[75.36386152479352,24.75198087904252],[75.36393239339199,24.75277248806485],[75.36610582139738,24.751105821398127],[75.36862742106095,24.750838623047386],[75.36860456678605,24.751415371365468],[75.36749471028614,24.751939154731403],[75.36588344997799,24.753250427246584],[75.36369818793392,24.75394229465111],[75.36021423339812,24.756556023492294],[75.35804497612841,24.757072736952495],[75.35652245415545,24.757878384060902],[75.35558013915985,24.758895365397635],[75.35211103651247,24.75895385742237],[75.35139417860236,24.759727511936248],[75.3506139119464,24.75999471028699],[75.35024166531045,24.758431939019573],[75.349397447374,24.75806084526961],[75.3488941786022,24.759222581651997],[75.35024912516249,24.76055765787811],[75.3536308458113,24.761019829644468],[75.35514458550338,24.759978213840725],[75.35583811442021,24.760005696615096],[75.3580502658418,24.75860582139829],[75.36301578097866,24.757251366509948],[75.36420216878255,24.756671956380742],[75.36497243245415,24.757503289117352],[75.36610582139738,24.757605217828242],[75.36512268066375,24.756176503499887],[75.36984914143844,24.753945905897965],[75.37033928765155,24.7554940456819],[75.37337517632366,24.75669253879171],[75.37417175292958,24.75666095309836],[75.37454888237815,24.75746002197326],[75.37570882161455,24.75777248806483],[75.37610582139726,24.75610582139811],[75.37781578911657,24.75577935112898],[75.37832804361969,24.754161376953633],[75.3793949381508,24.75268858167928],[75.38206156412744,24.750560845269632],[75.38432793511285,24.75176010131885],[75.38711313883451,24.749744533963266],[75.39118743896452,24.749449734158517],[75.39250528971323,24.750828043620373],[75.39318294948978,24.752447679308418],[75.39249471028646,24.75277248806485],[75.39191070556635,24.754009924995017],[75.39196200900577,24.755304599338658],[75.39494656032966,24.755186309814974],[75.3962943861217,24.753348727756546],[75.39753550211574,24.75306084526963],[75.39889417860209,24.754161376953633],[75.39917114257784,24.755324028863498],[75.40005591498456,24.75610582139811],[75.40082804361944,24.755272488064847],[75.40340966118683,24.7544497341585],[75.40471730550118,24.755861053467385],[75.406415371365,24.75583989461316],[75.40694861518014,24.756969790989004],[75.40861002604137,24.75778530544764],[75.40944512261254,24.757492624919195],[75.41206637912316,24.758673739963726],[75.41158508300774,24.759583333333865],[75.41197174072258,24.760314042833613],[75.41323221842444,24.760908915202307],[75.41778232150577,24.760839012994197],[75.41832878960489,24.760549875895762],[75.4192040676538,24.760584564209495],[75.41916097005176,24.7616717698844],[75.42029364691822,24.762206336127846],[75.42101430257159,24.76298409356062],[75.42226474338096,24.76232242160428],[75.42219570583737,24.760581088596453],[75.42281483968091,24.759681345622283],[75.42438886854373,24.758938496908087],[75.42582804361965,24.758697628445674],[75.42499189588736,24.760277777778214],[75.42548407660578,24.761207936605416],[75.42498369004986,24.76167158338825],[75.42500569661425,24.762227138943587],[75.42412753634974,24.7630407884391],[75.42417324489989,24.764193929037035],[75.42524471706807,24.764151458740784],[75.42708112928588,24.762656928169037],[75.4281758626299,24.762227511936246],[75.42860582139733,24.763667026096556],[75.42682030571817,24.765321400960772],[75.42823693169456,24.76716874864414],[75.43150126139315,24.76781390719995],[75.43503970675968,24.76528757731174],[75.4356578233504,24.765954708523694],[75.43888932969824,24.763879920112217],[75.43943915473076,24.76429463704484],[75.43805026584195,24.766105821398085],[75.43767096625405,24.767698109945144],[75.43924299452019,24.768050265842575],[75.44027248806393,24.766939154731446],[75.44163119845885,24.766508975559347],[75.4432043117944,24.76936982896659],[75.44447048611082,24.770187479655434],[75.45025770399289,24.76974895901199],[75.45209730360213,24.768194393582263],[75.45261023627378,24.766574215359668],[75.45366702609581,24.766116400825197],[75.45494879828564,24.767499796549927],[75.45769392225449,24.767828284370168],[75.45870093451614,24.76951746622767],[75.46027604844838,24.76896540323945],[75.46254153781436,24.770289594862746],[75.46307098388641,24.770860985650486],[75.46341895209392,24.774144575331533],[75.4645377265081,24.775971730550665],[75.4665811496308,24.77677649604003],[75.46583380805109,24.777468956841872],[75.4655608452691,24.778687422011174],[75.4677230156789,24.780807274713],[75.47087599012579,24.78110939873639],[75.4730608452688,24.782216932509257],[75.47334876166425,24.782527652317185],[75.47333947075728,24.78362738715336],[75.47431064181845,24.78358888414219],[75.47531965467644,24.78532565646769],[75.47810852050773,24.785215131972095],[75.47889699300103,24.78361111111161],[75.47860205756271,24.783053741455575],[75.47916174994546,24.782494303386017],[75.47965928819409,24.782514021132386],[75.48001722547721,24.78101123386007],[75.48103179931613,24.78028306749198],[75.48154164632152,24.781893378364273],[75.48382354736324,24.782216932509257],[75.48575666639513,24.780734524197598],[75.48612575954829,24.77995247734961],[75.48610541449617,24.779439341227757],[75.4883280436197,24.777772488064784],[75.48969248453764,24.77744747585787],[75.49001997205917,24.775391659207344],[75.49108534071169,24.774888865153585],[75.49397538926851,24.774449734158637],[75.49681698269316,24.776174265544157],[75.49807593451587,24.777532992893356],[75.5006944444444,24.7788558959966],[75.50136674669025,24.78028038872668],[75.50376047770172,24.780661705865256],[75.50446482340473,24.781421881782236],[75.50682434082003,24.782870890300032],[75.50779320610874,24.783916541206068],[75.50776984320746,24.784505937365054],[75.5086164008246,24.78610582139804],[75.50892734103721,24.788057691786477],[75.50893412272129,24.790446896023766],[75.5084787665472,24.791746097141385],[75.50748819986953,24.79337488810279],[75.50487274169896,24.79628494262751],[75.5044497341577,24.798060845269617],[75.5036054144962,24.799995439317954],[75.5036041259763,24.801148173014894],[75.50290608723961,24.801794959174714],[75.5024860975474,24.803121490478986],[75.50307973225895,24.805326368544357],[75.50484310573975,24.805256466336246],[75.50566942003027,24.80397684733127],[75.50740675184434,24.8029554748541],[75.50979855007589,24.8005608452697],[75.51150695800774,24.801159651015126],[75.5128802490232,24.80079979790648],[75.51691552056198,24.796744469537188],[75.5177698092987,24.795060950385732],[75.51805026584194,24.79388359917587],[75.51889417860232,24.792783067491868],[75.51947092692049,24.78992446899467],[75.52076134575728,24.788728824192205],[75.52780056423589,24.78768125746045],[75.52893747965467,24.788079732259646],[75.52877254909933,24.79224082099128],[75.52805026584176,24.79360582139803],[75.52752180311384,24.79874430338603],[75.5252508544921,24.801681433784296],[75.52528347439218,24.80250471327092],[75.52447045220234,24.803686218262186],[75.52532823350683,24.804480980767778],[75.5264471435544,24.804436628554058],[75.52751475016268,24.803284369575152],[75.52892713758658,24.803340352376836],[75.52885525173602,24.805154198541032],[75.5305062527124,24.805933363173324],[75.5308280436195,24.80694973415865],[75.53187588161862,24.80792061699819],[75.53393747965484,24.807198045519186],[75.53396521674247,24.80556084526968],[75.53594597710489,24.806255103217794],[75.5374947102865,24.804994710287062],[75.53833136664483,24.804599846734533],[75.54043433295337,24.805463646783352],[75.54174608018653,24.80404791937987],[75.54245005289684,24.80255625406957],[75.54417195637987,24.802227511936323],[75.54633070203968,24.800737491184307],[75.54726128472205,24.80169264051709],[75.54806064181824,24.80166095309835],[75.54844462076792,24.802474517822745],[75.55000528971331,24.802772488064903],[75.55085886637337,24.803359849718362],[75.55193952772325,24.803317006429523],[75.55246582031239,24.803885040283703],[75.55368971082888,24.80427251180062],[75.55416137695292,24.804656863742977],[75.55295996771886,24.80622355143288],[75.55341756184887,24.807088317871603],[75.55477813720668,24.807494710287045],[75.55689873589384,24.80667195638071],[75.55728953043601,24.808718838162477],[75.55719584147116,24.81108249240502],[75.55755591498453,24.81166137695368],[75.55870747884083,24.811052008735388],[75.56201816134947,24.81143551296705],[75.56363837348087,24.811395467123077],[75.56359510633669,24.812487759060872],[75.56471693250839,24.814727511936297],[75.5655719672308,24.81527967664981],[75.56554897732198,24.815859815809986],[75.56423292371952,24.816480899387443],[75.5664423285588,24.818528035482217],[75.5683390299478,24.82110631307026],[75.5683390299478,24.82167122734971],[75.56791164822019,24.82247884114635],[75.57000515407978,24.822772064209417],[75.57119269476968,24.825416666667152],[75.57079691568984,24.826164618598654],[75.57085747612817,24.82769290500275],[75.57029880099813,24.830363362630763],[75.57222751193567,24.83332804362027],[75.57251464843719,24.833936411540307],[75.57248406304225,24.834707421197493],[75.57309360080271,24.835859358046335],[75.57421590169261,24.83584079318628],[75.57415527343736,24.837371317546157],[75.57521959092847,24.837873619927976],[75.57611606174012,24.836906110976173],[75.57766533745635,24.83696751912497],[75.57830973307264,24.838332824707507],[75.57997890896232,24.838861304389567],[75.58184943305108,24.840441979302838],[75.58250528971328,24.841105821398088],[75.58333862304684,24.843050265842578],[75.58439615885388,24.84699149237784],[75.58474419487837,24.850261349148695],[75.58388359917527,24.851383599175833],[75.58330858018647,24.854235755073248],[75.58339830186625,24.856500091553244],[75.58439921061174,24.85742748684403],[75.58471693250843,24.86134365505704],[75.58181050618484,24.864537921482267],[75.58195393880189,24.86815653483123],[75.57973178439661,24.869960564507906],[75.57582804361985,24.870272479587797],[75.57195780436169,24.87117963155184],[75.57083862304663,24.87194974263562],[75.56970906575489,24.872307357788586],[75.56973056369347,24.872849010891926],[75.57193949381494,24.872761459351153],[75.57221727159262,24.8730612521707],[75.57568793402774,24.873165401883114],[75.57752522786436,24.875890596178323],[75.57748019748229,24.877027808295864],[75.57528306749109,24.88139418708009],[75.57365980360217,24.883576202393144],[75.57108513726118,24.88587237887961],[75.57112704806823,24.886929643419606],[75.5701665581594,24.88874474419552],[75.56939568413603,24.889459025065705],[75.56886427137559,24.889437967936686],[75.56668443467865,24.891599171956955],[75.5663941786024,24.89238109164836],[75.56811143663177,24.892772479587663],[75.56920084635405,24.892196053399545],[75.57702385796412,24.89246932983454],[75.5788759358721,24.890618591309163],[75.57918056911885,24.889656295777016],[75.57919243706581,24.887822308011096],[75.57847079806854,24.886065504286478],[75.57905592176641,24.8838324483242],[75.58127421061172,24.88120743645615],[75.58368740505634,24.880838631524483],[75.58694973415768,24.882216924032164],[75.58882575141044,24.884016342163648],[75.59034200032531,24.88685226440495],[75.5902699788409,24.888669357300387],[75.58934841579836,24.889523213705075],[75.58592556423585,24.889387546116012],[75.58484395345036,24.889959877862452],[75.58444973415763,24.890930048625194],[75.5850343831377,24.893161146376457],[75.5849693467882,24.894801652696927],[75.58389417860238,24.89583863152454],[75.58305026584188,24.896105812920922],[75.58002109103703,24.898797938029446],[75.57383965386256,24.899221479628494],[75.57316053602395,24.90066050211651],[75.57221693250861,24.901105812920918],[75.57191718207449,24.90423366970542],[75.56887702094176,24.904717975193137],[75.56962904188364,24.905810792711748],[75.57071417914469,24.90615436977872],[75.57194919162319,24.906105414497034],[75.57277248806415,24.906742986043966],[75.57218512641023,24.908418680827424],[75.57088243272543,24.9096256934277],[75.56913465711781,24.910302802192405],[75.56596266004763,24.910908398098883],[75.56670376247817,24.911985321045535],[75.56832804361969,24.91278307596899],[75.57509494357603,24.913124957614997],[75.57698201497371,24.915024600559363],[75.5769265407985,24.91642333136717],[75.57818311903205,24.917587585449823],[75.58119249131951,24.916337729560638],[75.58393527560756,24.91696150038034],[75.58501274956566,24.91812438117192],[75.5903063964843,24.920024414063022],[75.59087626139288,24.921824340820976],[75.59171434190532,24.923408092923154],[75.59251532660576,24.924150280423234],[75.5956407335066,24.925301929050534],[75.5963930935329,24.925272106595102],[75.59821526421442,24.92591075473419],[75.59888359917531,24.925520044963065]],[[75.61108167860212,24.82059502495717],[75.61180555555543,24.820138888889502],[75.61248718261689,24.82075210571348],[75.61165493435297,24.822208743625737],[75.61068379720044,24.822764926487096],[75.60945726182698,24.822026824951735],[75.61001118977848,24.820596889920196],[75.61108167860212,24.82059502495717]],[[75.6087646484373,24.804466451009574],[75.60925767686624,24.803123948839442],[75.61082607693109,24.80242411295623],[75.61111124674463,24.79932045830678],[75.612083333333,24.799027777778434],[75.61374220106305,24.799637722439783],[75.61415635850668,24.800565880669964],[75.61501763237825,24.80130796644484],[75.6149494086371,24.802157168918697],[75.61276746961786,24.8024896748867],[75.61251030815961,24.803195427789134],[75.61495361328119,24.803641103109243],[75.6129944525824,24.805928870307596],[75.6116619194876,24.805821787516876],[75.61020595974398,24.806139356825582],[75.6087646484373,24.804466451009574]],[[75.60588562011694,24.788228064643533],[75.60549024793804,24.787009718153797],[75.60422119140608,24.786597917345418],[75.60499721950944,24.785552775065668],[75.60583055284266,24.785148484972268],[75.6039318847655,24.784469451904798],[75.6030588107636,24.783630557590612],[75.603042127821,24.782813975016964],[75.60343248155354,24.78200931125272],[75.60486111111103,24.78152031792591],[75.60690361870653,24.78221944173241],[75.607027316623,24.78065834893168],[75.60537489149303,24.778328518338256],[75.60333692762558,24.77837010701556],[75.60364529079854,24.77444864908918],[75.6019532606334,24.77362777710013],[75.60193054199195,24.77251361423123],[75.60277818467873,24.77082077026418],[75.60418368869333,24.770138888889434],[75.60430555555527,24.76819444444496],[75.60714904785121,24.77009314643064],[75.6082423231334,24.76895526462178],[75.6102533637152,24.77567216661309],[75.6112660725909,24.777166171604193],[75.61056783040354,24.78125990125919],[75.61271925184454,24.781784379747748],[75.61333055284283,24.783570319282134],[75.61257398817278,24.78523546006997],[75.61089369032092,24.786069437663258],[75.60950269911015,24.787405887180455],[75.6113861083983,24.788319617377823],[75.60945509168803,24.78906204223692],[75.60941908094614,24.790825161404655],[75.61001091851111,24.791112297906338],[75.6086083306204,24.79138610839911],[75.60737894693986,24.792219441732286],[75.60724175347187,24.788903164334272],[75.60588562011694,24.788228064643533]],[[75.50608489990228,24.766642269558915],[75.50491895887572,24.765131734212773],[75.50502149793809,24.76443774753203],[75.50624999999971,24.76375000000057],[75.50758470323322,24.76484358045859],[75.50729251437721,24.76682072957422],[75.50608489990228,24.766642269558915]],[[75.43039269341338,24.758913133409763],[75.43208333333305,24.75875000000059],[75.43263346354158,24.759262424045744],[75.43040486653629,24.76192306518604],[75.4286920505098,24.762060699463433],[75.42818969726554,24.7611602783209],[75.42889923095683,24.76084365844791],[75.43039269341338,24.758913133409763]]]]},"properties":{"id":"323"}}]}