{"type":"FeatureCollection","features":[{"type":"Feature","geometry":{"type":"MultiPolygon","coordinates":[[[[108.25006054687518,12.716562500000066],[108.2500000000002,12.71624999999996],[108.24981054687501,12.716312500000072],[108.24968945312523,12.71831250000018],[108.2493105468752,12.71881250000007],[108.24918945312507,12.719062499999964],[108.24906054687503,12.719312500000143],[108.24893945312508,12.719812500000117],[108.24868945312525,12.720300781249946],[108.2488105468752,12.720687500000125],[108.24906445312521,12.720812499999994],[108.2493105468752,12.720937500000119],[108.24956445312509,12.721062500000073],[108.250044921875,12.721308593750067],[108.25093554687501,12.720562500000185],[108.25168554687517,12.720378906250204],[108.25170703125005,12.719335937500077],[108.25131054687503,12.71881250000007],[108.25118945312508,12.71856249999999],[108.25106054687504,12.71831250000018],[108.25093945312526,12.717812500000107],[108.25081054687504,12.717562500000028],[108.25068945312509,12.71731250000012],[108.25006054687518,12.716562500000066]]]]},"properties":{"id":"22816"}}]}