{"type":"FeatureCollection","features":[{"type":"Feature","geometry":{"type":"MultiPolygon","coordinates":[[[[76.26587117513046,26.13832546657997],[76.26655002170142,26.136846516927278],[76.26877956814249,26.136979437934187],[76.26945271809907,26.1355126953126],[76.27127644856776,26.134452311198046],[76.27174628363744,26.135476074218985],[76.27282958984395,26.135973307291835],[76.27415879991335,26.134815266927248],[76.27221435546889,26.134452311198046],[76.27163058810802,26.13379882812505],[76.27169569227462,26.132707519531337],[76.27263427734394,26.131868760850793],[76.27158569335964,26.131118977864773],[76.2690905761722,26.132275661892535],[76.26799343533006,26.132210286458402],[76.26736111111128,26.130694444444543],[76.26659125434051,26.130838216146017],[76.26476847330744,26.131761610243203],[76.26445231119826,26.132785644531495],[76.26381903754364,26.133076171875103],[76.26272054036494,26.133067220052183],[76.26281304253504,26.134620496962114],[76.26401217990471,26.136960177951593],[76.26587117513046,26.13832546657997]]]]},"properties":{"id":"18839"}}]}