{"type":"FeatureCollection","features":[{"type":"Feature","geometry":{"type":"MultiPolygon","coordinates":[[[[77.67470947265687,30.43986545138891],[77.6719571940109,30.438529730902957],[77.67269856770898,30.437914496527867],[77.67385335286528,30.43741319444456],[77.67415391710128,30.436307508680542],[77.67334608289977,30.43554253472223],[77.67237169053877,30.435290798611163],[77.67167941623333,30.43612413194444],[77.67084472656333,30.436375868055592],[77.66917941623322,30.435652126736358],[77.67098307291704,30.434734700521005],[77.67223497178864,30.434457465277802],[77.67259087456668,30.43363715277792],[77.67411268446224,30.432976888021003],[77.6729692925351,30.432481011284708],[77.6726388888894,30.432083333333523],[77.67220947265676,30.432209201388872],[77.67114583333378,30.433234049479182],[77.66827636718793,30.43453776041669],[77.66695529513945,30.434403211805687],[77.66606852213599,30.4350000000001],[77.66628472222285,30.437119683159764],[77.66834608289972,30.437486979166707],[77.66895589192748,30.437836371527794],[77.66965576171938,30.440221354166738],[77.67119222005252,30.440542534722212],[77.67165391710117,30.43998697916679],[77.67235731336856,30.439735243055637],[77.67310872395885,30.440953233506974],[77.6743210177955,30.441375868055573],[77.67470947265687,30.43986545138891]]]]},"properties":{"id":"17649"}}]}