{"type":"FeatureCollection","features":[{"type":"Feature","geometry":{"type":"MultiPolygon","coordinates":[[[[101.5167591688336,15.511008300781427],[101.51611206054392,15.509246148003598],[101.5166305881045,15.508316786024494],[101.51791164821745,15.509320203993383],[101.51903238931985,15.509013400607756],[101.5205449761252,15.51008572048633],[101.52151746961502,15.5079063585071],[101.52218668619477,15.506962619357779],[101.52432359483183,15.506008843316167],[101.52644259982347,15.50690131293429],[101.52764322916349,15.506231553819632],[101.52818413628174,15.50696831597243],[101.52722384982346,15.508689507378719],[101.52827189127308,15.5095922851565],[101.52822414821728,15.511202799479292],[101.52909695095187,15.512433810764023],[101.53014716254032,15.512349175347381],[101.5314823404918,15.513296169705157],[101.53349921332173,15.512952202691096],[101.53414455837353,15.51220323350718],[101.53370659721921,15.509380425347416],[101.53199055989276,15.507189398871702],[101.53278062608197,15.506075032552218],[101.53154527451952,15.50501085069456],[101.53126030815653,15.503585611979332],[101.53399386935465,15.50316921658002],[101.53435601128169,15.501184082031457],[101.53424180772268,15.499762369791867],[101.5351491970454,15.498482530382134],[101.53599867078688,15.496244032118227],[101.53750094943271,15.495426974826628],[101.53971340602996,15.49898464626753],[101.54015353732322,15.501397298177253],[101.54214558918969,15.503113606771166],[101.54210367838223,15.504419216579976],[101.54388305663767,15.505952148437686],[101.54529324001416,15.503834906684219],[101.54609564886826,15.50172064887174],[101.54734944661155,15.499952256944539],[101.54659912109074,15.49721055772595],[101.54282647026614,15.487465006510504],[101.54024509005777,15.485241156684168],[101.53888888888562,15.484722222222373],[101.53368882920702,15.486286621093967],[101.53288452148135,15.48794542100714],[101.53365559895539,15.489327528212002],[101.53401746961507,15.491135253906464],[101.53238389756623,15.491517469618174],[101.53046318901605,15.489928656684242],[101.52817437065679,15.492585449218922],[101.52611992729717,15.491439073350918],[101.5254269748232,15.491782769097355],[101.52937282985792,15.49721761067724],[101.5292753092418,15.49843261718766],[101.52605943467577,15.499762369791867],[101.52331163194154,15.499264322917014],[101.52235989040477,15.498733181423745],[101.52071072048315,15.499685058594068],[101.51929782443258,15.499571668836936],[101.51863376193265,15.499941948784965],[101.51876478406822,15.501572536892624],[101.5207869466116,15.502181260850975],[101.52067911783527,15.503523763021022],[101.51811143662886,15.50500705295164],[101.51598253037892,15.503184136284872],[101.51531168619496,15.502926974826693],[101.51455430772276,15.503805881076602],[101.51464138454568,15.504889594184391],[101.51364501952807,15.505684136284955],[101.51256971570857,15.505084092882257],[101.51168117946727,15.503482530382115],[101.51014919704554,15.505126681857888],[101.51181586371243,15.507073025173824],[101.51207302517045,15.508675401475955],[101.51104410806997,15.51012668185787],[101.50968614365999,15.509163953993252],[101.50918402777458,15.509746907552355],[101.51133802625546,15.512160101996727],[101.51090684678493,15.513334147135694],[101.51181586371243,15.513739691840541],[101.51387424044836,15.515544976128638],[101.51576185438083,15.516261393229485],[101.51635538736676,15.516950141059183],[101.51707302517062,15.51642279730919],[101.5164769151443,15.51535454644116],[101.51661756727114,15.513604329427253],[101.51623589409425,15.512920193142563],[101.5167591688336,15.511008300781427]]]]},"properties":{"id":"10291"}}]}