{"type":"FeatureCollection","features":[{"type":"Feature","geometry":{"type":"MultiPolygon","coordinates":[[[[72.9711008029515,33.449711914062775],[72.97216932508675,33.44834764268681],[72.97097222222217,33.44652777777809],[72.97049994574664,33.446669921875284],[72.97058973524346,33.44778611924929],[72.96748969184026,33.44804524739605],[72.96616970486113,33.44869391547334],[72.96433430989603,33.44859110514349],[72.96389919704862,33.44929375542554],[72.96757731119814,33.450565388997674],[72.9672767469618,33.454307047526285],[72.96862141927093,33.454711914062756],[72.9692475043403,33.45543863932308],[72.97140869140625,33.455265028212],[72.97193413628477,33.453678181966296],[72.97028808593748,33.45295050727016],[72.97084364149308,33.45195475260432],[72.9711008029515,33.449711914062775]]]]},"properties":{"id":"16709"}}]}