{"type":"FeatureCollection","features":[{"type":"Feature","geometry":{"type":"MultiPolygon","coordinates":[[[[83.08419140625014,23.996310546875037],[83.08400000000026,23.996000000000066],[83.08330859375005,23.99606054687513],[83.08306640625014,23.99618945312507],[83.08231640625004,23.996368164062588],[83.08226953125009,23.99753710937513],[83.08255859375006,23.997689453125105],[83.08304296875,23.9979179687502],[83.08355859375004,23.99858984375001],[83.08330859375005,23.99906054687493],[83.08319140625017,23.999314453125095],[83.08296093750013,23.999750000000006],[83.08319140625017,24.000185546875016],[83.08333984375011,24.000810546875044],[83.08374609375008,24.00066992187513],[83.08344140625005,24.000087890624997],[83.08355859375004,23.999685546875043],[83.08394140625003,23.999189453125055],[83.08405859375003,23.998935546874975],[83.08455859375019,23.99828320312494],[83.08444140624991,23.997560546875164],[83.0843085937502,23.99731445312507],[83.08419140625014,23.996310546875037]]]]},"properties":{"id":"31123"}}]}