{"type":"FeatureCollection","features":[{"type":"Feature","geometry":{"type":"MultiPolygon","coordinates":[[[[108.01612689086821,14.802257942665406],[108.01585485134004,14.801990423436237],[108.01531529493988,14.801718358608326],[108.01450822309718,14.801450822594191],[108.01396866909553,14.801183290831318],[108.01316151040348,14.800104241270589],[108.01181489413696,14.799297075399195],[108.01154285848204,14.799025093481319],[108.01100330976524,14.7984855607058],[108.01073579669534,14.79821800986619],[108.01046376201063,14.797678492228414],[108.01046376201063,14.79713888775025],[108.0096567031022,14.796871317139335],[108.00857761335877,14.79687135958254],[108.00803806993108,14.797138870575807],[108.0077704690473,14.797410929995166],[108.0077704690473,14.798485531160807],[108.00911715774927,14.799297101330993],[108.0096567031022,14.799564653889234],[108.01019624941765,14.799832204104192],[108.01154285848204,14.80010422761093],[108.01181489413696,14.80037175701392],[108.01208240816086,14.80064375968729],[108.01316151040348,14.801990440900312],[108.01396866909553,14.801990438807593],[108.01450822309718,14.802257970137305],[108.01504777805977,14.802797489433559],[108.01531529493988,14.803337023006051],[108.01531529493988,14.803609100146602],[108.01531529493988,14.803876638879629],[108.01531529493988,14.804955705317255],[108.01423618502244,14.80630235718958],[108.01396866909553,14.806569899655727],[108.01370106296699,14.806569904078316],[108.01370106296699,14.807648998017143],[108.01396866909553,14.807648992328268],[108.01504777805977,14.806569865636973],[108.01612689086821,14.804955669869699],[108.01612689086821,14.804416137576553],[108.01612689086821,14.804144145543205],[108.01612689086821,14.80333707895987],[108.01612689086821,14.80306954216617],[108.01612689086821,14.802257942665406]]]]},"properties":{"id":"39221"}}]}