{"type":"FeatureCollection","features":[{"type":"Feature","geometry":{"type":"MultiPolygon","coordinates":[[[[77.14419140625003,26.124441406250014],[77.14462500000016,26.124205078125115],[77.14505859375024,26.124441406250014],[77.14581640625019,26.124558593750066],[77.14619531250011,26.12476562500008],[77.14758203124998,26.12468261718746],[77.14780859375023,26.124183593749947],[77.14794140625006,26.123941406250125],[77.14805859375011,26.123433593750065],[77.14819140625022,26.123191406249973],[77.14830859375022,26.122683593750097],[77.14844140625004,26.12244140625009],[77.1485585937501,26.122183593750023],[77.14894140625009,26.12169140625012],[77.14905859374997,26.12143359374997],[77.14944140625019,26.12094140624997],[77.14955859374996,26.120433593750093],[77.14970703124996,26.120164062500066],[77.15019140625006,26.119941406250007],[77.15058984375011,26.119663085937603],[77.1508085937501,26.119183593749966],[77.15094140625004,26.118941406250045],[77.15105859375015,26.118683593749978],[77.15146484375006,26.11815917968758],[77.15194140625007,26.117941406250083],[77.15243359375009,26.117558593749976],[77.15269140625023,26.11744140625028],[77.15293359374996,26.117308593750167],[77.15319140625004,26.117191406250114],[77.15393359375022,26.116558593750014],[77.15469140625007,26.11644140624996],[77.15534375000013,26.115907226562726],[77.15555859375016,26.115433593750012],[77.15570703125016,26.11516406250017],[77.1561914062502,26.11494140625011],[77.15643359375,26.114808593750084],[77.15694140625007,26.114691406250117],[77.15718359375026,26.11455859375009],[77.1576640625,26.114441406250037],[77.15840234375011,26.115012695312586],[77.15855859374997,26.11569140625008],[77.15934765625022,26.116592773437716],[77.1598164062502,26.116808593750008],[77.16005859375016,26.11694140625012],[77.16306640625007,26.117058593750087],[77.16330859375014,26.117191406250114],[77.16402343750005,26.117308593750167],[77.16460937500025,26.1168994140627],[77.16480859375011,26.116393554687605],[77.16452734375011,26.116191406250053],[77.16387499999999,26.116544921875104],[77.16344140625026,26.116308593749935],[77.16302734375009,26.116191406250053],[77.16256640625008,26.11644140624996],[77.16180859375024,26.116558593750014],[77.16156640625005,26.11669140625004],[77.16082421874992,26.116808593750008],[77.15982421875006,26.11596093750002],[77.15969140625006,26.114808593750084],[77.15955859375023,26.114566406250077],[77.15944140625007,26.113822265625046],[77.16026953125018,26.112846679687493],[77.1609414062502,26.112691406250107],[77.16118359375017,26.11255859375008],[77.16144140625008,26.112441406250113],[77.16234375000002,26.111654296875187],[77.1625585937501,26.111183593750084],[77.16269140625005,26.110941406249992],[77.16280859375016,26.110683593749926],[77.16298046875002,26.110371093750103],[77.16274999999999,26.11000000000014],[77.16205859375,26.110058593750082],[77.16140625000006,26.110592773437588],[77.16119140625025,26.111066406250117],[77.16080859374998,26.111558593750118],[77.16069140625021,26.111816406250185],[77.16023828125012,26.112401367187644],[77.15955859375023,26.11255859375008],[77.15931640625004,26.112691406250107],[77.15880859375014,26.112808593750074],[77.15856640625006,26.112941406250187],[77.15815234375,26.11305859374997],[77.15757421875006,26.112746093750147],[77.15743750000004,26.11128613281258],[77.15682812500009,26.11132324218771],[77.15669140625008,26.113066406250226],[77.15651171875007,26.113395507812484],[77.1558085937501,26.113558593749957],[77.15556640625007,26.11369140625007],[77.15530859375,26.11380859375012],[77.1550664062502,26.11394140625005],[77.15480859375012,26.11405859374993],[77.1545664062501,26.114191406249958],[77.15330859375015,26.11430859375001],[77.15306640625019,26.114441406250037],[77.15280859375022,26.11455859375009],[77.1525664062502,26.114691406250117],[77.15230859375023,26.114808593750084],[77.15206640625004,26.11494140625011],[77.1508085937501,26.115058593750163],[77.15056640625019,26.11519140625019],[77.15030859375011,26.115308593749972],[77.15006640625009,26.11544140625],[77.14980859375012,26.115558593750052],[77.1495664062501,26.11569140625008],[77.14930859375013,26.11580859374996],[77.14906640625006,26.115941406250073],[77.14805859375011,26.116058593750125],[77.14706640625022,26.11694140625012],[77.14680859374997,26.117058593750087],[77.14531640625003,26.118441406250057],[77.14505859375024,26.11855859374994],[77.14440625,26.119092773437714],[77.14411718750003,26.11972460937507],[77.14365234375006,26.12005859375006],[77.14316406250012,26.119793945312495],[77.14289062500009,26.119203125000098],[77.14252734375006,26.118941406250045],[77.14206640625005,26.119191406250124],[77.14180859375008,26.11930859375009],[77.14131640625018,26.119691406250098],[77.14105859375022,26.11980859374998],[77.14081640625002,26.119941406250007],[77.1399023437501,26.12005859375006],[77.13944140625003,26.11980859374998],[77.13893359374995,26.119691406250098],[77.13834765625009,26.11923730468753],[77.13814453124999,26.118357421875046],[77.13744140625019,26.118191406250077],[77.13631640625019,26.119191406250124],[77.13605859375022,26.11930859375009],[77.13581640625003,26.119441406250118],[77.13555859374995,26.11955859375017],[77.13531640625021,26.119691406250098],[77.1348085937502,26.11980859374998],[77.13456640625,26.119941406250007],[77.13359765624992,26.1200917968752],[77.13344140625,26.120973632812536],[77.13369140625005,26.12143359374997],[77.13380859375022,26.12169140625012],[77.13419140625021,26.122183593750023],[77.1343085937502,26.123191406249973],[77.13444140625003,26.123433593750065],[77.13455859375009,26.123941406250125],[77.13487890625007,26.124399414062594],[77.13556640625004,26.124558593750066],[77.13580859375011,26.124691406250093],[77.13856640625002,26.124808593749975],[77.13880859375021,26.124941406250088],[77.14081640625002,26.12505859375014],[77.14105859375022,26.125191406250067],[77.14278906250016,26.12530859374995],[77.14343359374996,26.124808593749975],[77.14369140625021,26.124691406250093],[77.14393359375023,26.124558593750066],[77.14419140625003,26.124441406250014]]]]},"properties":{"id":"27088"}}]}