{"type":"FeatureCollection","features":[{"type":"Feature","geometry":{"type":"MultiPolygon","coordinates":[[[[83.42518359375018,24.734439453125106],[83.42380859375001,24.733189453125064],[83.42280859375015,24.733310546875117],[83.42256640625007,24.733439453125143],[83.42230859375027,24.733560546875097],[83.42188281250012,24.733785156250107],[83.42155859375,24.733314453125104],[83.42143359374998,24.73146582031258],[83.42071093750005,24.73201855468757],[83.42000000000004,24.73125000000003],[83.41830859375014,24.731310546875093],[83.41806640625006,24.731439453125134],[83.41694140625006,24.731574218750012],[83.41705859375011,24.731689453125213],[83.41776562500016,24.73185839843761],[83.41794140625026,24.732185546875115],[83.41808203125018,24.733385742187664],[83.4189921875001,24.733602539062602],[83.41955859375017,24.734341796875086],[83.41906640625027,24.734689453125],[83.41856640625005,24.73492578125007],[83.41851953125004,24.736111328124963],[83.41869140625008,24.736435546874944],[83.41880859375001,24.73668945312511],[83.41905859375018,24.737162109375063],[83.41894140625024,24.73756445312503],[83.41844140625008,24.738216796875165],[83.41880859375001,24.738439453125224],[83.41931640624992,24.738560546875092],[83.41978906250014,24.738810546875087],[83.42044140625009,24.738689453125033],[83.42068359375017,24.738560546875092],[83.42169140625023,24.738439453125224],[83.42193359375014,24.738310546875013],[83.42419140625006,24.738189453125045],[83.42443359375014,24.738060546875104],[83.42518359375018,24.7378818359375],[83.42519531250005,24.73756933593758],[83.42505859375015,24.737314453125222],[83.4249414062501,24.73706054687497],[83.42469140624999,24.736589843749954],[83.4251914062501,24.73593945312504],[83.42530859375015,24.73543554687508],[83.42555859375014,24.734962890625113],[83.42544140625009,24.73456054687506],[83.42518359375018,24.734439453125106]]]]},"properties":{"id":"19237"}}]}