{"type":"FeatureCollection","features":[{"type":"Feature","geometry":{"type":"MultiPolygon","coordinates":[[[[83.12180859375027,23.474067382812507],[83.12169140625011,23.473557617187595],[83.12155859375011,23.473317382812624],[83.12144140625023,23.473057617187706],[83.12130859375,23.472817382812465],[83.12108984374996,23.47233007812511],[83.12018359375,23.472192382812622],[83.11994140625009,23.472057617187474],[83.11946093750018,23.471843750000133],[83.1193085937501,23.471567382812694],[83.11911328124998,23.47113476562511],[83.11868359375009,23.47094238281258],[83.11844140625013,23.470807617187702],[83.1181835937501,23.4706923828125],[83.1179414062502,23.470557617187524],[83.1174101562502,23.47043750000013],[83.11725000000004,23.47024999999998],[83.11630859375,23.470307617187544],[83.1160664062501,23.470442382812692],[83.11580859375007,23.470557617187524],[83.11556640625011,23.4706923828125],[83.11482421875016,23.47086035156252],[83.11469140625022,23.472317382812577],[83.11430859375011,23.472807617187527],[83.11419140625006,23.473067382812545],[83.11344140625019,23.473943359374942],[83.11361328125,23.474307617187478],[83.11444140625011,23.474192382812546],[83.1148749999999,23.47395019531271],[83.11530859375009,23.474192382812546],[83.1160664062501,23.474307617187478],[83.11630859375,23.474442382812626],[83.11656640625009,23.474557617187642],[83.11720703125005,23.47505761718753],[83.11769140625009,23.4749423828127],[83.11790625000017,23.474461914062573],[83.1181835937501,23.474307617187478],[83.11844140625013,23.474192382812546],[83.11889062500026,23.473942382812467],[83.11948828125017,23.474104492187635],[83.11994140625009,23.474682617187597],[83.12016015625008,23.475169921875036],[83.1212109375002,23.475330078125083],[83.12194140625022,23.476182617187533],[83.12210937500024,23.47655761718748],[83.12330859375012,23.4764296875001],[83.12296484375011,23.476067382812786],[83.12244531249999,23.47583593750018],[83.12241796875006,23.475498046875103],[83.12255859375009,23.47518261718757],[83.12280859375025,23.474734375000025],[83.12269140624997,23.474557617187642],[83.12199218750024,23.47439941406256],[83.12180859375027,23.474067382812507]]]]},"properties":{"id":"19693"}}]}