{"type":"FeatureCollection","features":[{"type":"Feature","geometry":{"type":"MultiPolygon","coordinates":[[[[72.22161946614594,33.475780300564466],[72.22248914930563,33.47525566948802],[72.22322035047753,33.475363701714656],[72.225594075521,33.47474846733965],[72.22692437065993,33.47372165256094],[72.22741061740444,33.472533704969976],[72.22833333333327,33.47239739312087],[72.22977891710067,33.472611016167775],[72.23220431857632,33.47219896104619],[72.23196234809032,33.47192654079895],[72.2302598741318,33.47168457031272],[72.22835123697908,33.47107794867651],[72.2289141167536,33.4689887830949],[72.22974527994793,33.468347167968986],[72.22958333333335,33.4673611111114],[72.22855278862838,33.46764811197944],[72.22777845594604,33.46865132649758],[72.22653279622429,33.46957485622849],[72.22485378689228,33.47026204427104],[72.22418457031253,33.471129014757196],[72.22143880208321,33.47259412977451],[72.22112901475683,33.47335123697944],[72.2204200575089,33.47389845106353],[72.22022311740457,33.47523132324247],[72.22161946614594,33.475780300564466]]]]},"properties":{"id":"16707"}}]}