{"type":"FeatureCollection","features":[{"type":"Feature","geometry":{"type":"MultiPolygon","coordinates":[[[[77.35778483072929,23.174699028863245],[77.35886935763901,23.17361436631991],[77.36190972222218,23.173652886285083],[77.3622195095484,23.173330485026412],[77.36279785156259,23.17334228515662],[77.36276963975698,23.171958685981295],[77.3638053385416,23.170880533854614],[77.36484266493042,23.170346137153146],[77.36914171006927,23.170285780165287],[77.37024034288183,23.169752739800728],[77.37081949869784,23.169196370443032],[77.37134168836818,23.16767062717051],[77.37166965060769,23.16639119466187],[77.37169731987834,23.16418674045184],[77.37011691623243,23.163372531467346],[77.36586208767366,23.16334689670184],[77.36440972222229,23.16305908203161],[77.36305284288184,23.161669379340637],[77.36251193576399,23.160002712674],[77.36164822048593,23.16028008355076],[77.36085286458328,23.161107855903197],[77.36026963975698,23.161119791667133],[77.35972493489575,23.160552842882325],[77.35805826822914,23.159563395182644],[77.35894232855898,23.15802815755255],[77.35971950954846,23.15721950954905],[77.36166015625005,23.15684054904554],[77.36169026692701,23.155375027127064],[77.35991292317695,23.154209798177547],[77.35930067274299,23.152323404948376],[77.35710666232617,23.150745578342466],[77.35593343098938,23.15134996202299],[77.35335340711791,23.151402587891013],[77.35208333333313,23.150138888889302],[77.35055826822898,23.15030463324692],[77.3511102973089,23.151382378472604],[77.35240831163199,23.152733425564676],[77.35609320746508,23.15275824652818],[77.35694173177072,23.154009874132328],[77.35599202473966,23.155446641710483],[77.35749728732642,23.15689276801257],[77.35637613932275,23.159494764540312],[77.35499131944434,23.160825330946608],[77.35471788194437,23.161944851345837],[77.35528049045146,23.162775065104555],[77.35580837673618,23.164401448568114],[77.35715820312507,23.16580647786519],[77.35831922743037,23.166369628906722],[77.35915228949656,23.16805148654548],[77.36082085503475,23.1690420193148],[77.35999728732642,23.169441731771187],[77.35886718750007,23.172022569444792],[77.35652967664916,23.173410237630577],[77.35528049045146,23.1752530924483],[77.35604193793384,23.17610690646744],[77.35692437065953,23.176124810113294],[77.35778483072929,23.174699028863245]]]]},"properties":{"id":"5019"}}]}