{"type":"FeatureCollection","features":[{"type":"Feature","geometry":{"type":"MultiPolygon","coordinates":[[[[104.59654676649026,15.90480007595508],[104.59763129339987,15.90383083767388],[104.59736870659432,15.902908799913433],[104.59323459201087,15.899282226562747],[104.5931722005179,15.898235948350944],[104.59513129339982,15.896747775607949],[104.59459092881642,15.895964355469047],[104.59297417534432,15.895222167968967],[104.59233018662925,15.89393581814258],[104.59053548176783,15.892682020399533],[104.58905110676804,15.89200086805593],[104.58777777777485,15.890833333333518],[104.58548719617758,15.89102891710101],[104.58362033419868,15.892475585937646],[104.58075683593458,15.893422309028153],[104.57847981770541,15.89685818142381],[104.57942111544835,15.897126193576554],[104.58142686631666,15.895725368923834],[104.58336100260132,15.895610080295327],[104.58509223090019,15.897391493055736],[104.58715006510116,15.896535644531511],[104.58869954426783,15.897330729166967],[104.59016981336535,15.898644748264232],[104.59011610242752,15.899549424913474],[104.59067816839982,15.90111599392381],[104.59067111544837,15.903442925347534],[104.59156467013597,15.904066840278006],[104.5943223741294,15.904002007378693],[104.59654676649026,15.90480007595508]]]]},"properties":{"id":"10271"}}]}