{"type":"FeatureCollection","features":[{"type":"Feature","geometry":{"type":"MultiPolygon","coordinates":[[[[83.09778483072913,23.106920030382113],[83.09968505859374,23.1069052463109],[83.10055067274297,23.10750990125888],[83.10110324435774,23.107419026692952],[83.10044325086793,23.106204698350894],[83.098257107205,23.105502115885542],[83.09721598307286,23.105564236111306],[83.09664333767395,23.105253092448024],[83.09668565538195,23.10454250759564],[83.0984790039063,23.102940131293593],[83.10098687065997,23.10303805881098],[83.10054687500022,23.10222846137175],[83.10058485243067,23.101593967014082],[83.10203640408005,23.101680365668628],[83.1034928385416,23.102471923828446],[83.10443657769102,23.101906602647816],[83.1023754882813,23.10088039822078],[83.09645914713539,23.10023166232662],[83.09597222222229,23.09763888888908],[83.09508843315965,23.097911783854542],[83.09457817925349,23.100105523003634],[83.09379665798608,23.101224093967218],[83.093061794705,23.10082465277803],[83.09260091145833,23.100852186415267],[83.09358723958329,23.1026672363283],[83.0941181098091,23.104386121962037],[83.09502712673608,23.10585652669282],[83.09609971788186,23.10579264322932],[83.09716200086811,23.107617051866455],[83.09778483072913,23.106920030382113]]]]},"properties":{"id":"19912"}}]}