{"type":"FeatureCollection","features":[{"type":"Feature","geometry":{"type":"MultiPolygon","coordinates":[[[[75.98243537387944,32.5967644778893],[75.98332719613616,32.59843660007612],[75.98372408133065,32.59952907951408],[75.98402725798817,32.59971187812011],[75.9842591349858,32.59969410570678],[75.98524013514947,32.598677423410855],[75.9856236409162,32.597674105594244],[75.98576632604816,32.59799959948461],[75.98701930955683,32.59919911985203],[75.98703720038259,32.59939981223999],[75.98950752932761,32.60047444621026],[75.989953462777,32.60047439622309],[75.99009614346534,32.60092922410123],[75.99046174545444,32.601241404079346],[75.99060442562096,32.60182109085747],[75.99097011483889,32.60213319330095],[75.99097454313547,32.60305176606996],[75.99122429883373,32.603404078674195],[75.9912287271222,32.60445637622752],[75.99137140650126,32.60475074051303],[75.9924371132071,32.6053170109943],[75.99275373271357,32.605317021827595],[75.99328441195767,32.60666364798432],[75.99384174697195,32.60697131449758],[75.99529985870029,32.60697131456876],[75.99575029026597,32.60722992798452],[75.99708802620674,32.607229972376516],[75.99723069956737,32.607938967943895],[75.99772567137465,32.60850085189561],[75.99773009945585,32.60955311785547],[75.99786834408003,32.60984747253242],[75.99867991960996,32.61041374027361],[75.9995092910543,32.61041378875971],[75.99978126004532,32.61099792274776],[76.00065525903315,32.61181393311818],[76.00014692510051,32.61243822844749],[76.00014692510051,32.61320069750979],[75.99937999268215,32.6140924911526],[75.9993977933556,32.614690016355695],[76.00003542791403,32.61545702316857],[76.0008469907733,32.61589401632079],[76.00121708099044,32.61592077527924],[76.00154705291453,32.616228445597805],[76.0015649418692,32.61877009908891],[76.0016942382057,32.61902428165169],[76.00275995424208,32.61971545491352],[76.00358487340768,32.61996958496385],[76.00360276209959,32.62029956985827],[76.00396841708397,32.62073661638539],[76.00399064505024,32.62093725948495],[76.00358487340768,32.62148571680152],[76.00360276209959,32.62182905185663],[76.00385692296831,32.62220808576598],[76.00492705024236,32.62277438210961],[76.00574310086941,32.62276994933276],[76.00613106639062,32.622520213123664],[76.00707188491356,32.62237749022359],[76.00734835540823,32.6225201759436],[76.00823125076604,32.62248457551307],[76.0087484990853,32.62277435596587],[76.00944860989779,32.622774360986334],[76.01040286604388,32.62353687345318],[76.01097810859393,32.62366618387432],[76.0111207676684,32.624121004109774],[76.01148640282555,32.62430385730907],[76.0112322559428,32.62492366291123],[76.01137491475563,32.62577539993828],[76.01276173495236,32.62672517820626],[76.01250759040887,32.62772396998515],[76.01199478374517,32.62862029575358],[76.01199921137083,32.62955669411789],[76.01236936037607,32.6301586797573],[76.0122489292293,32.63027462567176],[76.01225335684684,32.63197793271913],[76.01276173495238,32.63258438667262],[76.01290439219044,32.633039256182755],[76.01370259701804,32.63337363271618],[76.01390768196215,32.63360550414445],[76.01391219807797,32.63516180138065],[76.01415296882386,32.6355096054384],[76.01352425433707,32.63663328281182],[76.01310505072607,32.63677593553405],[76.01288659325068,32.63714159521838],[76.01233810141936,32.6371550163229],[76.01174949306228,32.63764993547485],[76.01132142878716,32.63766776352367],[76.0108309331565,32.63806466734355],[76.01017103270316,32.63804679361329],[76.00970276005148,32.63843031548643],[76.00957347118135,32.63906795134361],[76.00931932079058,32.639451440528575],[76.0093193207906,32.63994642396721],[76.00915434417252,32.639959784592605],[76.00881093005648,32.64046813045459],[76.0088154463384,32.641917313580755],[76.00895367991613,32.642216063839946],[76.00931932079058,32.64239891096428],[76.00932374850173,32.64319261274697],[76.00946640927913,32.64349135365071],[76.00995690973916,32.64375001914527],[76.01048309552066,32.644383204120494],[76.0110405385608,32.644690848849535],[76.01148640282555,32.64469084888058],[76.011504290498,32.64514566533544],[76.01199478374517,32.64571201225686],[76.01214186939403,32.64629172500228],[76.01250759040887,32.64647448535873],[76.01265024790864,32.64680448403552],[76.01339939661347,32.64744656439902],[76.0135420531949,32.648329480774464],[76.01467471112984,32.64889578660717],[76.0153257350935,32.649988313406915],[76.0158830700978,32.65029591914392],[76.01658314485778,32.65029593233269],[76.01728773208401,32.65106290727891],[76.01900451198664,32.65170056640012],[76.01902231014004,32.65240953808121],[76.01945035061306,32.65284658093826],[76.02019503516573,32.65270391044229],[76.02108688040572,32.65206620390276],[76.0215551145651,32.651428581109705],[76.021537228191,32.65108524261762],[76.02123404494348,32.65090239846483],[76.02066327234274,32.65090241546621],[76.0205205345512,32.650447606829914],[76.02015492324614,32.650264714007875],[76.02000775756082,32.64955571526236],[76.01964214490114,32.64937290480545],[76.01949940605645,32.64904738486666],[76.01886177248439,32.64853465521463],[76.01824193422888,32.6482269193484],[76.01797000145547,32.64738861427332],[76.01759092397579,32.646880272167195],[76.01702907983145,32.64657258118793],[76.01658766088634,32.64657259611474],[76.01607929682312,32.6461891466206],[76.01567798807868,32.6447131942985],[76.01505813557026,32.644405522497294],[76.01465682386676,32.64369647396049],[76.01391219807797,32.64338431503108],[76.01376502575725,32.64280466135783],[76.01299808010423,32.642269569032074],[76.01331465269014,32.64225619898175],[76.01364911194815,32.64201540547245],[76.01496896513116,32.64199754922661],[76.01573598842144,32.641618569159924],[76.01608372431822,32.6411013070276],[76.01709593453393,32.64021389469673],[76.01735015920713,32.6395852179838],[76.01786294604256,32.639197230569586],[76.01798779974189,32.63894310236429],[76.01798779974189,32.63741363824718],[76.01862543733976,32.636775979513075],[76.01900893938819,32.635772691199435],[76.0195574047983,32.6356300056896],[76.02065432909835,32.63424318311163],[76.02197871989787,32.633717006563096],[76.02244686249347,32.633208715514385],[76.0225762278907,32.63258445065524],[76.0229954028233,32.63257106174958],[76.02346805778271,32.63218751384736],[76.02359733367993,32.631041561227406],[76.02345017165591,32.630698250385976],[76.0230845680919,32.63051535255459],[76.0230800522753,32.6280673027663],[76.02257622789071,32.62745646920909],[76.0225583416486,32.62636399006259],[76.02143017553723,32.62495489288927],[76.02141237769347,32.62458028838189],[76.0210288823048,32.62394263251538],[76.01996321821606,32.623380855868554],[76.01959308950833,32.6233540611365],[76.01894208560954,32.62287245370274],[76.0179877997419,32.6228725097375],[76.01798337230767,32.62220365059945],[76.01758649652886,32.62126717903722],[76.01658766088634,32.620495771636314],[76.01656977387034,32.61999190077446],[76.0164404914087,32.61973772760959],[76.01607929682312,32.61955487938123],[76.0159321268052,32.619100122455514],[76.01537479199833,32.6187923908761],[76.01480399523992,32.61879242909335],[76.01435362555088,32.61853820789991],[76.01359111073147,32.6185382004398],[76.01289553699681,32.6189217447044],[76.01221324262673,32.618810261181906],[76.01174506542864,32.61917589674005],[76.011183197571,32.619019787524984],[76.01058121274258,32.61833759524353],[76.01002385640861,32.61802992344961],[76.00869501210325,32.61803437543594],[76.00856129455778,32.61815474788943],[76.00836505718469,32.61802992990194],[76.00741530333748,32.61802991666282],[76.00701396949987,32.61757505343506],[76.00639416679182,32.6172629213576],[76.00638965043102,32.61596091111635],[76.00613992201642,32.615608567850806],[76.006122122208,32.61477029377216],[76.00548451562341,32.61400330673163],[76.00502517139645,32.613713461518905],[76.00537302272647,32.61320074389594],[76.00537302272647,32.612959912196914],[76.00575647290157,32.6126923875189],[76.00588133751035,32.61205916345713],[76.00639416679182,32.61116288586755],[76.00639416679182,32.60989208134592],[76.00663937839587,32.609646774223556],[76.00706745713049,32.60963340632523],[76.00749553454344,32.60931680797153],[76.00918551529307,32.60938818137539],[76.0095690434782,32.609138473802304],[76.0110940246377,32.609134009724784],[76.01153546109002,32.608911046444454],[76.01199478374517,32.609392604684174],[76.01214186939403,32.61010607074853],[76.01339939661347,32.610877471332294],[76.01341719548732,32.61125203238051],[76.01365353952093,32.61155975233044],[76.0136579670936,32.61222858671221],[76.01390768196215,32.612580844131045],[76.01405042657133,32.61367335727655],[76.01677494311816,32.61525633368466],[76.01759535142256,32.61525186802513],[76.01797885632462,32.61500214405871],[76.01874586294159,32.61500219950751],[76.01919621834458,32.61525632447811],[76.02006575608966,32.61523854328872],[76.02065432909835,32.61461873248862],[76.02083266259542,32.61460532739456],[76.02118047423635,32.61395871984544],[76.02231315822544,32.61283508622089],[76.02325395538034,32.61269235045831],[76.02359733367993,32.61206812592439],[76.02439999262567,32.611925408116825],[76.02524275736963,32.610922134580704],[76.02575108777117,32.61066795183583],[76.02702194987135,32.610663486259874],[76.02740985577707,32.61041378220857],[76.02783795884014,32.61040042410761],[76.02902849453554,32.60944609685543],[76.0302815298053,32.610159610883116],[76.03136066102425,32.61015956567836],[76.03181097535034,32.61041373563195],[76.03403162506318,32.610409322788556],[76.03492789648098,32.60990544424266],[76.03690776536823,32.60990540858748],[76.0370950200788,32.609776143825165],[76.03786200918125,32.60990540767746],[76.03811619567199,32.61015957143061],[76.03826334207866,32.610868579207214],[76.03913727517632,32.611385863722354],[76.03940934338225,32.61201461497472],[76.03991762166237,32.612527399910824],[76.04187962377951,32.613851723277484],[76.04270457532061,32.613981075903936],[76.04340911792346,32.61448935853006],[76.04639227326311,32.614489349546176],[76.04669991634006,32.61434668517081],[76.04703880984728,32.61372684145653],[76.04792171736351,32.613722440539206],[76.04822493056263,32.61358417350325],[76.04886260566326,32.61320066289585],[76.0493352606196,32.61269234972455],[76.04946008587602,32.61218851439797],[76.04997293058358,32.61167119664394],[76.05009775526247,32.611167354335215],[76.05047683206946,32.61079726871866],[76.05086024568676,32.61105144216542],[76.05100295212205,32.611506235759016],[76.05176995241614,32.61201459620268],[76.05328154310497,32.61258086047281],[76.05398169389791,32.613089194184376],[76.05435173043166,32.61311594608858],[76.05457472565223,32.6134192344468],[76.05506524304661,32.61367785850903],[76.05481108779831,32.61409255369632],[76.05481108779831,32.615497146841555],[76.05495370161609,32.615840486552514],[76.05575192905395,32.616174881837175],[76.05640293644996,32.6166565188853],[76.05723231576813,32.616656502926695],[76.05725019751718,32.61736553943939],[76.05762916611785,32.61787830377185],[76.0584452596394,32.61831529841332],[76.05880191728042,32.61829741676748],[76.05913635490397,32.6180566311326],[76.05933703479248,32.61818593902443],[76.06015302966682,32.6181815227188],[76.06054101945749,32.61793180278266],[76.06092891963314,32.61793180676232],[76.0612009448229,32.618261737559386],[76.0622666445757,32.61882363562153],[76.06296232368084,32.61882365113805],[76.06405031661237,32.61933199511337],[76.06538358528874,32.61933196808281],[76.06583396551952,32.61958611080021],[76.06678818605644,32.61958614642076],[76.0668060665636,32.6197868335348],[76.06729654036052,32.62004988339002],[76.06731433228452,32.62093720276431],[76.06780489278496,32.62149911041055],[76.06795200748378,32.621953937837525],[76.06870112158589,32.622346292090036],[76.06922734900853,32.623229230899064],[76.06971781416661,32.62366624929558],[76.06986501533352,32.62412107799992],[76.07042239559328,32.62442875978568],[76.07149253811146,32.624424240437286],[76.07188049590893,32.62417457673615],[76.07256276080888,32.62416119859892],[76.07289716496753,32.62392037859005],[76.07396737672288,32.62390696556372],[76.07430177746222,32.6236662237962],[76.07684347970769,32.62366178822115],[76.07723142239136,32.62341201359935],[76.07837293937118,32.62366172972894],[76.07939849979948,32.62315788488804],[76.08033943833493,32.623140005950965],[76.08144526077831,32.62212336783385],[76.08182876507195,32.62148568990162],[76.08182876507195,32.62111564044723],[76.08313973449727,32.620848025956455],[76.0834741128924,32.62035309576811],[76.08416083399126,32.6199562198474],[76.0845042375044,32.61944344157019],[76.0845042375044,32.619064420086396],[76.08475833784945,32.618560528051944],[76.08538708150712,32.61793179186798],[76.08831675528425,32.616402314417925],[76.08900345213145,32.616388981521084],[76.09014938476942,32.615622023313854],[76.09087625227419,32.614480459651666],[76.09138460587586,32.61409253020548],[76.09176808237098,32.6133300240838],[76.09176808237099,32.61295097247178],[76.09214713274218,32.61243823654383],[76.09214713274218,32.61205918128271],[76.09291408039077,32.61079725366037],[76.09384598769118,32.61001687135072],[76.0945773490563,32.60886200583524],[76.09499196832797,32.608616710966764],[76.09571438520422,32.60759559718375],[76.0958436817587,32.60696240618423],[76.09609784957833,32.60657451306945],[76.09609342465514,32.60512972992495],[76.0958436817587,32.604541112707416],[76.09686486360299,32.60288682220657],[76.09762735995987,32.602244657884626],[76.09775665470792,32.60160702931235],[76.09801081897649,32.60122358752937],[76.09801081897649,32.600715185875565],[76.09839427691902,32.60033171908061],[76.09851914609797,32.59994829008326],[76.09781904535376,32.599297215600856],[76.09654379260378,32.59878887270982],[76.09622272085173,32.599056389829656],[76.09609342465514,32.59968066890267],[76.09567429528266,32.59982342371734],[76.0943186649346,32.601727432490804],[76.09376129324403,32.60198604934793],[76.09278920610087,32.602993779954026],[76.09236112802913,32.60300722734133],[76.09188844403138,32.60339068823982],[76.09163426840088,32.60478636957173],[76.09134000110885,32.604920128406256],[76.09075137612703,32.6056692811038],[76.09019398992396,32.60581193036072],[76.08984617553648,32.60645411534387],[76.0893512686575,32.60694454932994],[76.0889187546911,32.60708727516432],[76.08869572669812,32.60747517639394],[76.08781281549454,32.60823322133888],[76.08768351136153,32.60912063787263],[76.08704592780282,32.609762755525324],[76.08666686332387,32.61063669634025],[76.0858597879247,32.611162919041305],[76.08374166812551,32.61318729818658],[76.08242176521591,32.61358417148012],[76.0820784449972,32.6140925032182],[76.0820784449972,32.61434226355583],[76.0814408353821,32.61498437952493],[76.08119557970087,32.615733450539345],[76.0780117299771,32.617517101036604],[76.07668743491959,32.617789092321665],[76.07621921098,32.61802993267255],[76.07582232577039,32.61706227400337],[76.07462732615586,32.61637110713185],[76.07386036477382,32.61611694420204],[76.0723977712682,32.61611697946371],[76.0719518382457,32.61586276272308],[76.07099756503968,32.61586277449601],[76.07054720172567,32.61560864600011],[76.06972223994062,32.615608582055906],[76.0685093955011,32.6150958549926],[76.06806796420524,32.61509585386687],[76.06710923817496,32.6145874677464],[76.06602569533523,32.61458750842906],[76.06549954417625,32.61349500597664],[76.06457647331568,32.613160553754255],[76.06398791061144,32.61259424361167],[76.0641172370585,32.61243819683786],[76.06411272258498,32.611626626471086],[76.06373368331934,32.611194078138304],[76.06371589093207,32.6101818913674],[76.0635865641077,32.60992771156994],[76.06322088986211,32.609744898415336],[76.06347954407688,32.609249916224684],[76.06347954407688,32.60874160429988],[76.06307819608988,32.60814411207388],[76.06252087457894,32.60783638596831],[76.06144172163302,32.60796127192698],[76.06086651221634,32.60757779602622],[76.05997917306077,32.60774279638076],[76.05964022286486,32.60725226246575],[76.05927462665382,32.6070694457363],[76.05912750267453,32.606485281410905],[76.05818659596198,32.60592344286764],[76.05685334607513,32.60592343989916],[76.05640293644996,32.60566924971217],[76.05544873241858,32.60553997487308],[76.05505187578471,32.60457677000775],[76.05424027694873,32.604010450907644],[76.05328605793373,32.60401052293975],[76.0528356366422,32.60375631786943],[76.05125268802819,32.60376074606839],[76.04972319235829,32.60452325268505],[76.04903647630202,32.6045366249755],[76.04878230993273,32.60466598723089],[76.04843899425309,32.60529470354175],[76.04767206395152,32.606066127564375],[76.04729297943106,32.607069397485255],[76.0468693631978,32.607341461527746],[76.046534984324,32.607836391069554],[76.04597759586835,32.60797905373862],[76.04411365692799,32.60936585479443],[76.04245491246424,32.60936589623894],[76.04200454431798,32.60910727224176],[76.04117958859139,32.609107272386474],[76.04103244529378,32.60839825152629],[76.0406667997172,32.60821546496805],[76.04028778447831,32.60775614450562],[76.04026990052867,32.60699812341092],[76.04014064022981,32.606743935332524],[76.03977941902667,32.60656113724993],[76.03963227423617,32.60597697587004],[76.03716195361585,32.60452324914487],[76.0344864461272,32.6045232536076],[76.03408519079093,32.60472398572987],[76.03372395374532,32.60452332935535],[76.0332156526654,32.60452326737099],[76.0327741968395,32.60477745385969],[76.03226137674834,32.604777468882716],[76.03181097535034,32.60452328419968],[76.03104846820186,32.60452325590469],[76.03034837810316,32.60477748012257],[76.02984006460517,32.60452325960675],[76.02969290922509,32.60380982062093],[76.02907311950281,32.60337281759651],[76.02893039039022,32.60279311645996],[76.02818132575771,32.602226863513195],[76.02803859572433,32.60164715678468],[76.02752584660347,32.60113438632511],[76.0269683814058,32.60082666233402],[76.02550582146337,32.60082667411503],[76.0250599138054,32.60057254824775],[76.0244891569889,32.6005725004094],[76.02391397057266,32.600189036745874],[76.02347691230007,32.60019351946853],[76.0226609661449,32.60071523141239],[76.02220610617204,32.60133505143916],[76.02125635868646,32.601731886177],[76.02092634514482,32.602102018726555],[76.02011029540141,32.60211540262702],[76.01964214490114,32.60249883270668],[76.01900451198664,32.603899012716425],[76.01900451198664,32.6045322362182],[76.01849615679768,32.605174282860155],[76.01849615679768,32.60669931809966],[76.01786737348063,32.6075778013001],[76.01743490066113,32.607720484089555],[76.01671694321057,32.60834472064007],[76.01618635361515,32.60750639145683],[76.01544164749949,32.607198767158586],[76.01465682386676,32.60597695610088],[76.01378282458414,32.605589016344155],[76.01351088305432,32.604322624694966],[76.01269930576102,32.603756334440845],[76.01157557550636,32.60389904279537],[76.01034937970022,32.60503161401046],[76.00957789888439,32.60503161021842],[76.00913202847963,32.60477744300097],[76.00805290104364,32.60477746487279],[76.00760250941251,32.60452328838257],[76.00652788642742,32.60452329893103],[76.00614443838535,32.60477749988949],[76.00571192897492,32.604790876956805],[76.00435187114238,32.605548922694325],[76.00397284496597,32.605205506549545],[76.00382566209214,32.60457679672642],[76.00346452318769,32.6043939955788],[76.00346000673147,32.60385438075132],[76.00306317791721,32.60304735957122],[76.00237649578338,32.602610368370655],[76.00205989822027,32.60261030461333],[76.00191722982353,32.601647143629286],[76.00135983866635,32.60133501521742],[76.00065968702091,32.601334999663464],[76.0006418865093,32.601134399827636],[76.00008449022953,32.60082666119107],[75.99887165407885,32.600572566010285],[75.9987288938436,32.60024250929795],[75.99817157844299,32.599934855566865],[75.99670898019139,32.59993483679387],[75.99670446351534,32.59901181546038],[75.99656178961399,32.59871304396459],[75.9951126360271,32.59776775175424],[75.99467114731458,32.5977677367584],[75.99465334603515,32.59756713274343],[75.99403348812127,32.59725939568691],[75.99388638327238,32.596550424885],[75.99307477972813,32.595984085522424],[75.99233455490176,32.59599750046596],[75.99200013282064,32.59623828718599],[75.99142047187772,32.595984122803024],[75.990354757375,32.59611791693683],[75.99006487949092,32.59565409454582],[75.98823224919009,32.594838097630515],[75.98627019558805,32.594842608022205],[75.98588226314565,32.59509227895246],[75.9850707014335,32.595234947732465],[75.98472731631703,32.59574328214947],[75.98472731631703,32.59623826821692],[75.98384887717768,32.59624273237359],[75.98346093798183,32.59649247218679],[75.98264945071375,32.59651026076587],[75.98243537387944,32.5967644778893]]]]},"properties":{"id":"37006"}}]}