{"type":"FeatureCollection","features":[{"type":"Feature","geometry":{"type":"MultiPolygon","coordinates":[[[[73.30308186848973,33.296638047960315],[73.30301052517385,33.294834255642485],[73.30414686414932,33.2926139322918],[73.30166124131964,33.29139417860263],[73.30129937065996,33.29100341796901],[73.30005588107647,33.291661376953456],[73.29907687717056,33.29136895073813],[73.29819444444465,33.29041666666697],[73.2974945746528,33.290550265842256],[73.295833875868,33.29136528862867],[73.29556098090299,33.29222751193599],[73.29389431423616,33.29275512695327],[73.29439480251759,33.29332804361991],[73.29778320312496,33.29306084526927],[73.29981174045159,33.29222751193599],[73.30221679687523,33.29257297092035],[73.30179470486124,33.29422159830749],[73.29972764756943,33.29507934570336],[73.30013210720509,33.29580851236996],[73.301669921875,33.29526950412348],[73.30289442274338,33.29693915473112],[73.30308186848973,33.296638047960315]]]]},"properties":{"id":"16715"}}]}