{"type":"FeatureCollection","features":[{"type":"Feature","geometry":{"type":"MultiPolygon","coordinates":[[[[83.35961328125009,24.704978515625058],[83.36012500000024,24.704713867187493],[83.36056250000021,24.704938476562504],[83.36206250000012,24.705061523437593],[83.36231250000023,24.705188476562583],[83.36256250000011,24.705311523437487],[83.36281250000022,24.705438476562577],[83.36306249999998,24.705561523437567],[83.36355078125021,24.70581152343756],[83.36431250000012,24.70566503906271],[83.36418749999999,24.705311523437487],[83.36406249999996,24.705063476562543],[83.36393750000022,24.7048115234376],[83.36368750000011,24.70432617187501],[83.36381250000014,24.703186523437623],[83.36406249999996,24.702701171875034],[83.36321093750016,24.70173339843764],[83.36281250000022,24.701938476562432],[83.36256250000011,24.70206152343762],[83.36213671875001,24.70227929687512],[83.36156250000013,24.701563476562498],[83.36141015625012,24.70093847656257],[83.36081249999998,24.70106152343756],[83.36016015625015,24.701554687500135],[83.35968749999998,24.701311523437553],[83.35943750000021,24.70118847656265],[83.3591875000001,24.70106152343756],[83.35893750000022,24.70093847656257],[83.35868750000012,24.70081152343758],[83.35742187500003,24.7006875000001],[83.35700000000006,24.700250000000054],[83.35614062499988,24.70032617187499],[83.3558125000001,24.70081152343758],[83.35568750000007,24.701563476562498],[83.35556250000022,24.701811523437712],[83.35543750000014,24.70206347656257],[83.35481250000012,24.70281152343759],[83.35468750000021,24.7038134765625],[83.35443750000022,24.70429882812509],[83.35457812500002,24.705583984375124],[83.3560625000002,24.7069384765626],[83.35681250000007,24.707061523437602],[83.35706250000013,24.707188476562507],[83.35756250000011,24.707311523437596],[83.35805078125006,24.70756152343749],[83.35864453125012,24.70737402343771],[83.35881250000014,24.70668652343757],[83.3591875000001,24.706188476562545],[83.35931250000013,24.7059365234376],[83.35943750000021,24.705688476562656],[83.35961328125009,24.704978515625058]]]]},"properties":{"id":"19248"}}]}