{"type":"FeatureCollection","features":[{"type":"Feature","geometry":{"type":"MultiPolygon","coordinates":[[[[76.34445732964443,25.80193169487862],[76.34348347981799,25.80112277560775],[76.34187635633711,25.80083631727443],[76.34152777777794,25.80041666666675],[76.34037109375035,25.800959201388963],[76.3361370171443,25.80143391927095],[76.33525906032995,25.80134440104176],[76.33537231445317,25.802455512152875],[76.33823920355908,25.80282226562518],[76.33938259548646,25.803477105034816],[76.34010511610254,25.804648708767417],[76.34290608723987,25.80498725043421],[76.34387600368959,25.804431694878602],[76.34556844075539,25.804179416232728],[76.34582044813399,25.803760579427134],[76.34492960611996,25.803020562066138],[76.34445732964443,25.80193169487862]]]]},"properties":{"id":"18898"}}]}