{"type":"FeatureCollection","features":[{"type":"Feature","geometry":{"type":"MultiPolygon","coordinates":[[[[107.64659986707804,12.385119086371773],[107.64433776855358,12.382777777778102],[107.6428718397344,12.38395046658016],[107.64143656412651,12.384360894097554],[107.64241746690428,12.386408420139162],[107.64387715657458,12.387575683594207],[107.64399163140095,12.386655815972588],[107.64354648166116,12.38549804687537],[107.64454474555029,12.384911295573247],[107.64572611490777,12.38638834635448],[107.64545349120985,12.388580457899565],[107.64744866265076,12.387739529080193],[107.64794372558495,12.386897243923997],[107.64732279459534,12.385423719618302],[107.64659986707804,12.385119086371773]]]]},"properties":{"id":"22939"}}]}