{"type":"FeatureCollection","features":[{"type":"Feature","geometry":{"type":"MultiPolygon","coordinates":[[[[102.20042453341719,15.63945800781272],[102.20216023762717,15.636263834635741],[102.20348008897255,15.635424533420462],[102.20488457573472,15.633773328993229],[102.20559828016181,15.632218153212008],[102.20831244574336,15.630638020833558],[102.21048163519649,15.630133463541782],[102.21096435546585,15.628946940104328],[102.21040879991014,15.627924533420398],[102.20995076497073,15.625980088975908],[102.20873480902489,15.626829427083663],[102.20803209092585,15.62678765190995],[102.20764675563933,15.625131022135704],[102.20722222221903,15.624722222222402],[102.20553860134234,15.625036349826601],[102.20425265841706,15.625735134548947],[102.20375786675058,15.626813422309183],[102.20281141492771,15.628034667969075],[102.20027031792253,15.627883029514038],[102.19952785915498,15.629500868055842],[102.19675726996232,15.63267740885442],[102.19579250759236,15.632619900173836],[102.19311347113418,15.629868977864788],[102.1918995496932,15.630528428819602],[102.1920967610645,15.633835991753628],[102.19365804036167,15.635363226996702],[102.19410251193258,15.636802842882133],[102.1939811197885,15.638838161892622],[102.19159138997085,15.638695746528057],[102.19098008897257,15.639092610677338],[102.19418565537885,15.642065158420309],[102.1959643554658,15.642646755642602],[102.20083618163753,15.643028157552209],[102.20207546657664,15.642135959201639],[102.20083414713233,15.640534125434229],[102.20042453341719,15.63945800781272]]]]},"properties":{"id":"10287"}}]}