{"type":"FeatureCollection","features":[{"type":"Feature","geometry":{"type":"MultiPolygon","coordinates":[[[[74.91215277777852,25.44464545355953],[74.91060221354238,25.441267361111542],[74.90891764323018,25.439106987847623],[74.90551866319541,25.439309624566576],[74.90375271267456,25.438350151910143],[74.90310112847314,25.43831108941015],[74.90132432725792,25.43878716362886],[74.90013888888981,25.437638888889396],[74.89941948784823,25.43777316623313],[74.89948242187589,25.438830023872043],[74.89886718750094,25.439449055989968],[74.90316297743138,25.44057861328166],[74.90417426215348,25.442214355469147],[74.9048187934035,25.4449837239587],[74.90616102430656,25.44425428602473],[74.90816351996605,25.44559380425396],[74.90905924479247,25.446596408420575],[74.91001464843842,25.447115614149837],[74.91388129340353,25.447345920139227],[74.91215277777852,25.44464545355953]]]]},"properties":{"id":"18994"}}]}