{"type":"FeatureCollection","features":[{"type":"Feature","geometry":{"type":"MultiPolygon","coordinates":[[[[108.49098951551562,12.740317654080243],[108.49249016655713,12.737789984809453],[108.49444980197396,12.736839192708672],[108.49567023383159,12.7356028917103],[108.49609151204314,12.734030490451673],[108.49352396647024,12.734578043620175],[108.4930904812272,12.732358398437768],[108.49204583061956,12.72978285047779],[108.49170159233827,12.724858398437775],[108.49139614528977,12.723965657552384],[108.48920484754686,12.721860351562754],[108.48835849338022,12.720115831163511],[108.48767110188723,12.719444444444747],[108.48683451334531,12.719941134983046],[108.48459384494251,12.723099229601047],[108.4841587320955,12.72444037543437],[108.48451626247751,12.725835503472624],[108.48445495605384,12.728844129774672],[108.48629116482093,12.729439968533356],[108.48574211968221,12.731044514974315],[108.48452901204317,12.731633029514256],[108.48414652506418,12.732811414930879],[108.4811460367828,12.734074028863134],[108.48306416829323,12.737797444661751],[108.4822313774948,12.738201633029774],[108.48158901638382,12.738870035807608],[108.48189853244273,12.740136176215586],[108.48371548122739,12.73875745985282],[108.4844739447689,12.739608018663588],[108.48281378851905,12.742057291667024],[108.48253492567167,12.743063151042108],[108.48566887749482,12.743971625434355],[108.4864628770608,12.743145345052454],[108.48868184407448,12.742068820529866],[108.49098951551562,12.740317654080243]]]]},"properties":{"id":"10459"}}]}