{"type":"FeatureCollection","features":[{"type":"Feature","geometry":{"type":"MultiPolygon","coordinates":[[[[84.28307101779544,23.94609537760458],[84.28349175347242,23.945622762044465],[84.28608615451398,23.945061442057522],[84.28629611545168,23.943373616536675],[84.28384277343778,23.943529120551574],[84.28205349392371,23.94245076497421],[84.28164849175349,23.941396755642756],[84.28176323784729,23.94047363281284],[84.28152777777788,23.939861111111313],[84.27949462890629,23.94219455295159],[84.28032226562519,23.94533786349855],[84.28022894965275,23.946087782118283],[84.28221598307314,23.946060045030634],[84.28324191623281,23.947749091254508],[84.28413899739601,23.947860717773636],[84.28418538411475,23.94748874240473],[84.28307101779544,23.94609537760458]]]]},"properties":{"id":"19462"}}]}