{"type":"FeatureCollection","features":[{"type":"Feature","geometry":{"type":"MultiPolygon","coordinates":[[[[103.49895426432008,16.346286892361377],[103.49985541449357,16.345963541666976],[103.50093614366037,16.346028103298835],[103.50346435546587,16.344780273437806],[103.50286566839989,16.343678656684247],[103.50024142794857,16.343834906684293],[103.49920301649021,16.34310953776071],[103.49715467664643,16.343173828125288],[103.49580946180245,16.342234157986354],[103.49497775607327,16.337502983941278],[103.49545355902498,16.336176486545355],[103.49540500216725,16.335361870659938],[103.49444444444165,16.334444444444856],[103.49302734374706,16.334747178819754],[103.48926161024028,16.334522840712026],[103.48692708333053,16.335791286892643],[103.48542453341716,16.338480088975942],[103.48362277560486,16.340545789930943],[103.48457790798304,16.34179768880236],[103.48737141926799,16.339281412760684],[103.48817925346938,16.339329427083612],[103.48979627820873,16.338199869792078],[103.49114691839972,16.33788574218771],[103.49345106336503,16.33787651909742],[103.49429660372951,16.338822699653107],[103.49460042317415,16.345009494357996],[103.49603108723656,16.346287977430833],[103.49895426432008,16.346286892361377]]]]},"properties":{"id":"22131"}}]}