{"type":"FeatureCollection","features":[{"type":"Feature","geometry":{"type":"MultiPolygon","coordinates":[[[[77.76438856336816,23.21448052300397],[77.76531494140627,23.21277587890671],[77.76670138888872,23.21108615451422],[77.76721435546878,23.208881022135742],[77.76777208116303,23.207854682075066],[77.76804768880211,23.206435546875497],[77.76680555555564,23.204861111111512],[77.76606770833322,23.20499877929734],[77.76530978732629,23.205847032335456],[77.76495008680544,23.20815687391533],[77.76408582899293,23.208881022135742],[77.76282443576414,23.208195665147954],[77.7624999999999,23.210622287326885],[77.76179199218737,23.211924913194864],[77.7598090277776,23.21238633897609],[77.75930881076394,23.212946234809436],[77.75797471788209,23.213325466580216],[77.75675075954857,23.21195583767411],[77.75584120008673,23.21327555338584],[77.75723008897566,23.214158799913577],[77.75749213324653,23.214730088976125],[77.76028564453125,23.214992133246938],[77.76186767578113,23.215970187717417],[77.76251302083338,23.216984998915336],[77.76342529296866,23.21693074544305],[77.76449978298595,23.216346706814647],[77.76438856336816,23.21448052300397]]]]},"properties":{"id":"19848"}}]}