{"type":"FeatureCollection","features":[{"type":"Feature","geometry":{"type":"MultiPolygon","coordinates":[[[[71.38061557345898,32.501185167101],[71.38124450683594,32.498605278863195],[71.38219645182298,32.49862481011289],[71.38211900499161,32.49008246527801],[71.3852805582683,32.483336046006954],[71.38573771158858,32.48099446614593],[71.386661851671,32.47920043945321],[71.3870391845704,32.47765272352464],[71.39009419759108,32.4752080620663],[71.39162584092875,32.473613823784916],[71.39221944173167,32.4741167534725],[71.39166944715717,32.47555826822922],[71.39057196723084,32.47627780490488],[71.39054097493491,32.477797851562755],[71.39221944173167,32.47776367187524],[71.39194722493463,32.47833604600706],[71.38975063747844,32.479581434461906],[71.38970859103765,32.481638861762264],[71.39043782552099,32.48275119357665],[71.39083604600702,32.48193033854204],[71.39360243055538,32.48193617079005],[71.39361945258227,32.48276977539078],[71.39332892523859,32.48333374023467],[71.39390333387578,32.48418117947061],[71.39251139322928,32.48415269639791],[71.39180162217886,32.485530463324864],[71.39249165852877,32.48695271809926],[71.39327880859369,32.48770901150182],[71.39217196994346,32.48806816948802],[71.39111389160175,32.48916937934048],[71.390227525499,32.489457058376814],[71.3884732394749,32.491282958984414],[71.38639166937944,32.49293321397592],[71.38675543891046,32.493842773437706],[71.38981648763016,32.49176771375869],[71.39221944173167,32.492353515625084],[71.39179877387144,32.49430135091157],[71.38941704644074,32.496188693576656],[71.38861389160147,32.49774793836825],[71.39147711859803,32.497467176649394],[71.39334431966157,32.49666680230055],[71.39460544162344,32.49278049045142],[71.395008477105,32.493056640625255],[71.39496853298593,32.495014784071316],[71.39602920390283,32.495319609964994],[71.3958552381728,32.496644015842236],[71.39111450195313,32.500251057942876],[71.39109700520848,32.50110839843775],[71.39278055826802,32.50083604600701],[71.39552890353733,32.49916937934029],[71.39573967827701,32.50111911349849],[71.39361389160152,32.50238104926255],[71.39566996256528,32.503089057074575],[71.394431423611,32.50564195421032],[71.39139166937915,32.508058268229234],[71.3884388563367,32.5093117947051],[71.38684617784273,32.51141072591162],[71.38860310872414,32.51137491862009],[71.3899972195097,32.512030029296994],[71.3897250027126,32.513058268229486],[71.38889234754757,32.513858371310874],[71.38886969672328,32.51496839735253],[71.39119764539922,32.51501600477437],[71.39333611382372,32.51361382378482],[71.39425686306427,32.51206285264779],[71.39610833062059,32.51084893120674],[71.39570353190109,32.50916937934062],[71.39442789713544,32.509444580078195],[71.39336324055992,32.51055284288229],[71.39222500271265,32.51019504123275],[71.39252441406254,32.50783867730068],[71.395644463433,32.50587592230907],[71.39697821723067,32.50555080837685],[71.39907789442285,32.50446912977435],[71.40149617513029,32.50610839843756],[71.40302591959639,32.505536973741556],[71.40215488010014,32.50374159071211],[71.4007982042099,32.504661187066276],[71.39987291124126,32.503772243923635],[71.40138373480906,32.501781141493225],[71.40141967773437,32.50002007378495],[71.40030904134116,32.49944797092057],[71.39871120876742,32.499415283203504],[71.39723219129812,32.499794379340486],[71.39718071831604,32.49727105034752],[71.39775878906269,32.496669379340375],[71.3989058430989,32.49694512261304],[71.39944166395398,32.49750271267392],[71.4019614664713,32.49833401150191],[71.40275878906263,32.49916395399336],[71.4046495225696,32.49879896375879],[71.40344319661457,32.496959092882065],[71.4016638861763,32.496669379340375],[71.40015903049047,32.49545464409732],[71.39837714301237,32.496535237630454],[71.39758896897015,32.494843015083475],[71.39751417371971,32.49385891384583],[71.39819424099383,32.49320556640656],[71.39640835232197,32.491434868706904],[71.3958876546225,32.48991360134583],[71.3975800238716,32.48694715711834],[71.3987440999347,32.487366400824754],[71.40164889865449,32.49021172417547],[71.40203002929675,32.4913861762157],[71.40292168511289,32.49073269314263],[71.40224860297295,32.48865831163215],[71.40155944824224,32.48760728624153],[71.40032680935352,32.48679904513904],[71.3986958143445,32.48194688585099],[71.39821404351133,32.478649631076706],[71.40009406195733,32.480076226128574],[71.4020967610679,32.47759521484389],[71.40096401638439,32.47685262044298],[71.39972500271259,32.47502468533011],[71.40055277506511,32.47055284288221],[71.40224351671,32.47000406901063],[71.40139166937948,32.469185655382105],[71.40192728678394,32.467503119574815],[71.40276638454881,32.46748602973096],[71.40374979654942,32.46939507378491],[71.40333611382383,32.47278049045164],[71.40270874023432,32.47370605468757],[71.40398851182718,32.47436537000884],[71.40557522243924,32.47332505967887],[71.40444722493478,32.47224121093771],[71.40471944173171,32.47110839843772],[71.40527452256939,32.47057495117217],[71.40527486165396,32.469997287326436],[71.40638983832477,32.469439697266],[71.40719231499585,32.470275065104545],[71.40730407714832,32.46934393988735],[71.40694722493495,32.46860839843774],[71.40583828396277,32.46788126627622],[71.4057965766061,32.46583685980936],[71.4066720920139,32.465819091797314],[71.40818481445339,32.46860839843774],[71.40888610839855,32.46816338433163],[71.40823187934049,32.46647786458341],[71.41057840983078,32.465674235026114],[71.41295138888873,32.467024603949724],[71.4111954752606,32.468852132161956],[71.41033908420158,32.46926757812528],[71.41134168836831,32.47133409288219],[71.41188293457029,32.47189737955736],[71.41265163845472,32.469172092014176],[71.4130582682291,32.469163818359874],[71.41358052571607,32.47024034288202],[71.41414767795149,32.47083062065988],[71.41445827907975,32.47026028103325],[71.41443589952289,32.469165717231164],[71.41582838270384,32.46871392144105],[71.41584174262144,32.46806016710079],[71.41361389160167,32.46512410481789],[71.41444722493495,32.465275065104294],[71.41499721950939,32.46611382378475],[71.41656853569881,32.46673366970495],[71.4173211669922,32.468284912109695],[71.42241767035577,32.46864122178853],[71.42286451551664,32.471386176215304],[71.42361389160172,32.47111382378475],[71.42468139648443,32.470002712673974],[71.42557386610267,32.47027981228311],[71.42685648600266,32.47119913737001],[71.42858751085063,32.4744212510854],[71.43145812988271,32.473179253472296],[71.43305277506519,32.47369669596381],[71.43278055826838,32.47416937934034],[71.43111416286891,32.474710150825004],[71.43147026909722,32.475350477430865],[71.43082885742163,32.47722439236121],[71.43289123535149,32.477915445963646],[71.43454603407113,32.476579589843965],[71.43999721950959,32.476960720486304],[71.43888020833347,32.478047553168466],[71.43890265570738,32.47914672851583],[71.43832865397147,32.47972127278673],[71.4388966200087,32.48082383897584],[71.43833055284293,32.48221950954873],[71.43770765516504,32.48731675889783],[71.43652825249566,32.4884499782989],[71.43748101128475,32.48944173177105],[71.44166388617631,32.489150526258726],[71.44074150933162,32.487308349609634],[71.43944722493464,32.48668036566852],[71.44070231119807,32.48445421006963],[71.44364997016086,32.48416585286476],[71.44495964898013,32.48280273437513],[71.4466204155814,32.48194715711834],[71.4467265489366,32.483137613932456],[71.44639166937944,32.4841693793405],[71.44361389160159,32.48534857855921],[71.4439729817706,32.48635796440976],[71.44611389160141,32.48583604600722],[71.44678507486984,32.48481241862001],[71.45080858018676,32.482224934895925],[71.45138610839862,32.48273993598126],[71.45090176052551,32.48380072699673],[71.44805833604588,32.48661499023447],[71.44838189019126,32.48833062066011],[71.45072998046876,32.4855582682292],[71.45145494249132,32.48607245551243],[71.45033094618074,32.486809353298696],[71.44946268717453,32.48859903971385],[71.44889166937926,32.489147677951536],[71.45063754611553,32.48874538845514],[71.45150994194867,32.48694715711834],[71.45187981499564,32.487578396267736],[71.45112013075098,32.48830837673634],[71.45109632704023,32.48947591145857],[71.45305853949631,32.48943589952276],[71.45303025987394,32.49082139756955],[71.45443752712677,32.49174397786473],[71.4544474962021,32.492232259114914],[71.45102810329874,32.49334187825558],[71.44981960720489,32.49497205946204],[71.44794650607642,32.49557996961839],[71.44735575358092,32.497400309245066],[71.44499721950936,32.498330620659814],[71.44443983289963,32.49918077256976],[71.4419472249347,32.499129909939555],[71.44221944173174,32.50028049045167],[71.44444166395377,32.500590820312766],[71.44416944715695,32.501947157118565],[71.44374443901913,32.5023555501305],[71.44333611382356,32.50361382378493],[71.44110833062061,32.5038861762155],[71.43940999348948,32.50445190429713],[71.43836303710967,32.505541720920206],[71.43638610839847,32.50610839843756],[71.43389166937928,32.507651502821474],[71.4353314208984,32.50806518554715],[71.43525797526027,32.511663953993235],[71.43637830946184,32.511136338975874],[71.43754591200079,32.50916937934062],[71.438058336046,32.509441731770906],[71.43900533040372,32.51103691948812],[71.44029764811185,32.511663953993235],[71.43922159830728,32.512697753906295],[71.44167121039496,32.51333089192741],[71.44111389160153,32.514959174262515],[71.44201714409743,32.51594319661464],[71.4427749972875,32.515552842882286],[71.44555833604616,32.51528049045146],[71.44632697211395,32.51448052300388],[71.44747009277333,32.51389160156266],[71.44805291069864,32.51440266927118],[71.4483305528428,32.516391601562844],[71.44954074435739,32.51678439670157],[71.4502860514323,32.518621961805735],[71.45025926378017,32.51993625217037],[71.45096259223104,32.52138617621537],[71.45161553276947,32.52097181532133],[71.45221245659738,32.519227837456626],[71.45224758572064,32.517508002387245],[71.45002176920585,32.51449720594647],[71.44964362250428,32.51339233398481],[71.45006252712656,32.511673855251985],[71.45193556043839,32.51168633355056],[71.45196872287315,32.51006008572074],[71.45139166937932,32.50837415907134],[71.45167270236519,32.50775566948815],[71.45249721950952,32.50696343316005],[71.45092468261717,32.50539279513899],[71.45139600965726,32.50442125108525],[71.45330342610677,32.50250271267373],[71.45399380154092,32.5028222656252],[71.45298712836384,32.50514892578157],[71.4541704644096,32.509166937934154],[71.45340033637146,32.51106553819481],[71.45392130533864,32.51320271809915],[71.45790574815513,32.514594455295125],[71.45916809082033,32.51416246202295],[71.459702758789,32.514718967014105],[71.46110833062065,32.51474772135417],[71.46028055826812,32.51333062065979],[71.45955471462676,32.512978379991594],[71.46000386555991,32.51166639539943],[71.45861389160157,32.50845377604186],[71.45939147949227,32.50810180664068],[71.45978583441834,32.50971950954876],[71.46055833604615,32.5094471571181],[71.46083245171471,32.50860256618935],[71.46195305718302,32.508625488281496],[71.46139166937931,32.506985270182454],[71.46217068142371,32.504169379340354],[71.46278055826812,32.50499728732653],[71.46305277506511,32.50583604600699],[71.46416388617641,32.506375189887294],[71.4636438666449,32.50799858941001],[71.4630583360462,32.508891601562595],[71.4619540066191,32.509427490234515],[71.46156880696614,32.51055284288229],[71.46342705620648,32.510213216146056],[71.46500278049061,32.50833604600726],[71.4655291748048,32.5067138671878],[71.46628682454426,32.50555826822951],[71.46701354980453,32.50607543945321],[71.46666944715699,32.508891601562595],[71.46563991970507,32.51127115885451],[71.4647250027127,32.515738118489764],[71.46572455512162,32.51541463216164],[71.46716016981335,32.51352267795154],[71.4675535753037,32.51070488823807],[71.46878770616323,32.508309190538654],[71.46783528645844,32.50690416124148],[71.4688918050131,32.50639160156268],[71.46887580023864,32.50560736762179],[71.4694324408637,32.50389200846378],[71.46972486707895,32.50388604058186],[71.47163228352886,32.50497097439248],[71.47194166395414,32.50750271267371],[71.47298095703135,32.51024902343758],[71.47250278049043,32.51611382378482],[71.47139567057289,32.51647311740456],[71.47137986924909,32.51724785698825],[71.47278042263443,32.5172193739152],[71.47331434461822,32.51777506510443],[71.47390896267356,32.51723456488732],[71.47382771809922,32.51325330946199],[71.47445258246543,32.510815158420385],[71.4744299994575,32.50970893012182],[71.47581434461816,32.50833604600726],[71.47639295789932,32.50916571723107],[71.47601860894085,32.51025919596378],[71.47683498806433,32.512775065104265],[71.47801818847645,32.51229261610254],[71.47917107476147,32.51055677625912],[71.47838297526053,32.50861382378501],[71.47898132324204,32.508934054904586],[71.4817706298829,32.51172837999147],[71.48426615397133,32.5149207899308],[71.48291978624158,32.516214328342286],[71.4836966959638,32.51860839843779],[71.48426927354623,32.51827867296012],[71.48517571343328,32.5155582682293],[71.4864546712237,32.516429036458646],[71.48777709960919,32.517760823567954],[71.48805508083771,32.51890096028667],[71.48971706814265,32.51970730251743],[71.49063286675337,32.521104193793605],[71.49166388617627,32.52112521701392],[71.49001234266481,32.51667073567742],[71.48744974772151,32.51485283745701],[71.48500610351553,32.51182549370694],[71.48498263888874,32.51067708333338],[71.48641296386702,32.51141384548636],[71.4883133273656,32.511375189887275],[71.49146321614572,32.51489095052101],[71.49275831434474,32.518029649522774],[71.49406928168392,32.519002549913424],[71.49492078993049,32.52249552408867],[71.49609456380213,32.52249186197956],[71.49750271267365,32.52360839843787],[71.49777506510398,32.525280490451436],[71.49850301106758,32.527407633463824],[71.49694715711806,32.53088311089439],[71.4972890896266,32.53221950954871],[71.49827921549493,32.53186903211834],[71.49944715711823,32.52916937934066],[71.49977254231791,32.52750271267385],[71.50127726236965,32.52788791232646],[71.50036810980922,32.53192925347237],[71.50219075520849,32.53448486328139],[71.50139160156263,32.53694729275203],[71.50028049045144,32.53692464192736],[71.500552842882,32.53805826822942],[71.50110839843731,32.5385921223959],[71.50055148654533,32.540020209418586],[71.49944715711823,32.54108127170177],[71.5003093804252,32.54283094618067],[71.50114420572893,32.549163953993144],[71.50192721896704,32.54875800238749],[71.50197401258694,32.543686794704996],[71.50166232638921,32.54277601454028],[71.5030365668404,32.54166937934063],[71.50356472439259,32.54508802625871],[71.50365112304692,32.54931871202301],[71.50294650607614,32.55175333658869],[71.50388617621562,32.55333604600723],[71.50456665039056,32.553666314019196],[71.50528049045144,32.55471950954875],[71.505552842882,32.5561138237849],[71.5061138237846,32.55638617621547],[71.50654039170993,32.559441731770974],[71.50727444118925,32.55895046658023],[71.50791300455731,32.55567925347263],[71.50833062065973,32.5561138237849],[71.50917521158848,32.5563879394532],[71.50915256076397,32.5574972873265],[71.51000271267375,32.55722493489593],[71.51040703667522,32.55639160156275],[71.5108836534288,32.55833062065986],[71.5116639539929,32.55791246202271],[71.51139160156262,32.55638617621547],[71.51031521267376,32.555863850911564],[71.50972547743052,32.55529717339439],[71.50971394856796,32.55473076714431],[71.51080349392359,32.55416937934042],[71.5130011664497,32.55575995551253],[71.51388617621544,32.5570654296876],[71.51360731336794,32.55779771592911],[71.51276353624147,32.5586083984377],[71.51279188368042,32.559994439019476],[71.51139336480034,32.56103108723981],[71.51136908637167,32.56221950954864],[71.51250271267375,32.561947157118155],[71.51286336263027,32.56083604600704],[71.51419067382832,32.561187472873584],[71.51415785047723,32.56279215494827],[71.51666341145844,32.56279758029528],[71.51668036566846,32.56196695963557],[71.51535169813374,32.55889594184056],[71.51745917426226,32.559441731770974],[71.51639160156267,32.55835232204889],[71.51888617621549,32.55834743923626],[71.51796657986088,32.556785888672024],[71.51677395290793,32.55600382486986],[71.51594319661447,32.554736870659866],[71.51055284288199,32.553613823785],[71.51000271267375,32.552775065104356],[71.50786946614576,32.552477213541735],[71.50840060763872,32.55092556423617],[71.50755655924476,32.54968044704894],[71.50890448676208,32.54833468967051],[71.50789822048617,32.5480082194013],[71.50739447699672,32.54594156901075],[71.5061602105034,32.545132378472346],[71.50575751410602,32.54395616319472],[71.50638617621516,32.54335232204866],[71.5061138237846,32.54277506510438],[71.50501939561624,32.54224405924501],[71.50444173177075,32.54139160156278],[71.5041693793402,32.53999728732644],[71.50360961914058,32.53945936414934],[71.50293741861984,32.53538587782161],[71.50382256401903,32.53453531901067],[71.50498914930543,32.532814398871665],[71.50530124240461,32.53129041883696],[71.50530571831584,32.52682671440981],[71.50500271267376,32.525275065104594],[71.50389960394975,32.52455173068583],[71.50387030707466,32.523114691840405],[71.50422214084202,32.52174167209219],[71.50333943684913,32.52043945312505],[71.50335313585086,32.51778049045154],[71.5027750651042,32.51722493489602],[71.49999267578144,32.51275811089441],[71.49885484483511,32.512781304253735],[71.49612521701394,32.511408148871624],[71.49583062065975,32.51083604600716],[71.49533515082473,32.50728759765636],[71.49461981879344,32.50654310438408],[71.4935027398005,32.50730034722257],[71.49228115505653,32.50670762803843],[71.49191636827246,32.50483927408865],[71.49110643174927,32.50444634331612],[71.49193820529504,32.50239569769978],[71.490830552843,32.50166937934037],[71.49029195149743,32.50055921766524],[71.48833055284294,32.49944715711831],[71.487525024414,32.49865152994802],[71.48507961697041,32.4937326388892],[71.48236429850257,32.4893381076392],[71.47924723307304,32.48214165581621],[71.47916375054231,32.47805324978302],[71.47951375325513,32.476687554253814],[71.47887512207049,32.474703640407995],[71.47893310546905,32.47186211480039],[71.47810580783423,32.468468560112996],[71.47582872178819,32.465467529297044],[71.47462619357631,32.46344184027812],[71.47221944173182,32.46139160156261],[71.46950195312499,32.458201497396004],[71.46743313259569,32.457697211371865],[71.46528510199633,32.45563340928841],[71.46490417480479,32.44891777886288],[71.46554206000437,32.44695190429708],[71.46610833062064,32.4464078776045],[71.46483608669692,32.43814005533875],[71.46380154079881,32.434951850043504],[71.46151997884138,32.43201782226579],[71.45989583333338,32.431053738064435],[71.45760504828573,32.42866943359404],[71.45555277506494,32.42778049045157],[71.4548465304903,32.42670328776062],[71.4538861083984,32.4263916015627],[71.4527805582683,32.42555284288231],[71.44882819281693,32.425166286892704],[71.44444681803398,32.42416381835963],[71.44366706000451,32.4241796875003],[71.44083055284287,32.42333604600728],[71.43918185763883,32.42055881076389],[71.4386083306205,32.420280490451674],[71.43829671223958,32.41932020399324],[71.43708333333339,32.418472222222306],[71.43566290961363,32.41862657335081],[71.43314425998298,32.42065972222247],[71.43219902886281,32.42111829969642],[71.43136508517787,32.421986219618304],[71.42544935438369,32.42568413628496],[71.42359063042537,32.427244601779734],[71.42102973090292,32.428487006293494],[71.41804029676658,32.43048109266498],[71.41499721950939,32.4313861762154],[71.41139166937924,32.43305826822959],[71.40701436360675,32.43472493489621],[71.4009006754558,32.43628200954899],[71.3944472249348,32.43722493489585],[71.38694722493503,32.43765679253501],[71.38554755316844,32.43665269639767],[71.3841852484808,32.43668050130226],[71.38286722819012,32.43600151909759],[71.37417473687074,32.43696546766505],[71.37425435384117,32.44193413628496],[71.37251715766061,32.44196953667567],[71.37190850151902,32.44078816731813],[71.37197557237423,32.437502712673705],[71.36889166937934,32.43783406575538],[71.36935757107207,32.439644232856224],[71.37026855468744,32.440519476996855],[71.37029724121109,32.44192532009576],[71.36909505208328,32.44488918728335],[71.36906832419467,32.445658383797394],[71.36784199046306,32.44627209946074],[71.36592508951813,32.446063774956784],[71.36333611382369,32.4440112304689],[71.36381817072831,32.443395871166004],[71.36279227556284,32.442792403421706],[71.36076802571588,32.44410142686637],[71.35967427571646,32.444456380208464],[71.35779581705745,32.443892144097475],[71.35530714246968,32.44384128146727],[71.35427130805155,32.44491943359405],[71.35020419650604,32.446523573134],[71.34469712999143,32.449360622830156],[71.33927497016069,32.450929768880584],[71.33611036512585,32.451392144097454],[71.33394531250022,32.450837266710124],[71.33070895724816,32.450771213107984],[71.32934068467878,32.45143513997435],[71.32983615451374,32.45531141493066],[71.32943589952279,32.461854519314656],[71.3275973171657,32.46441094292577],[71.32666375054274,32.46694186740474],[71.3263310411244,32.46987236870663],[71.3277915445963,32.47196302625886],[71.32775831434449,32.47498033311648],[71.32978563096796,32.47627251519141],[71.33056376139317,32.47862426757847],[71.33083055284308,32.48028049045162],[71.33137410481757,32.480802815755254],[71.33140272352452,32.4822067599828],[71.33045166015611,32.48377509223123],[71.3314930555558,32.484805908203185],[71.33104180230012,32.48568196614626],[71.33162692599834,32.486888020833405],[71.3332110595704,32.48888617621536],[71.33364092949128,32.48853050494763],[71.33654154965379,32.4935797326379],[71.3403320150974,32.50380956446966],[71.34440986062518,32.512210926895946],[71.34795429582445,32.51630065981804],[71.35013548671625,32.52039039274031],[71.36485852523609,32.54329289710441],[71.36840296043536,32.55065441636454],[71.37194739563503,32.5623783174083],[71.37194739563503,32.5705577832525],[71.3692209070197,32.57737400478956],[71.36622176954339,32.58364492860338],[71.36229322069974,32.587904912751654],[71.3580081074119,32.59406476310359],[71.35774028783104,32.59968897429431],[71.36416795776356,32.60076025261637],[71.36898871021279,32.600224613455424],[71.37380946266236,32.59460040226443],[71.37809457595054,32.59085092813717],[71.3794336738529,32.587369273590454],[71.3802371325942,32.58120942323889],[71.3826475088189,32.57130009875951],[71.3829153283996,32.556837841411905],[71.3826475088189,32.54505377986908],[71.38012686147906,32.53565872898311],[71.37621983888684,32.529788063779804],[71.37568419972584,32.523092574266855],[71.38101961218157,32.512461928994156],[71.3818909457776,32.50426556253856],[71.3824816894531,32.503257378472554],[71.38250291612408,32.50221950954878],[71.38127868652347,32.50182223849876],[71.38061557345898,32.501185167101]]]]},"properties":{"id":"314"}}]}