{"type":"FeatureCollection","features":[{"type":"Feature","geometry":{"type":"MultiPolygon","coordinates":[[[[73.84915879991368,24.683881089953076],[73.85003228081675,24.680957845052802],[73.84998833550421,24.68022308349684],[73.8474921332473,24.679452243381817],[73.84736111111167,24.67902777777853],[73.84665879991374,24.679158867730763],[73.84592285156324,24.679982571072742],[73.84499213324725,24.680269978841878],[73.84416151258742,24.680850118002056],[73.84373480902823,24.679468315972983],[73.84265896267422,24.679174465604063],[73.84173556857709,24.680626322429134],[73.84028564453203,24.679436645508517],[73.83953748914993,24.679174465604063],[73.83871663411534,24.681309305827597],[73.83780110677131,24.682245652941305],[73.8365014648443,24.682842203776787],[73.83868679470547,24.685347764757623],[73.84008599175408,24.6852643839526],[73.84180609809081,24.68361891004845],[73.84381212022643,24.6848590766066],[73.84502061632028,24.68701432969914],[73.84495822482714,24.688062574599343],[73.84563178168455,24.6886645168735],[73.84672146267437,24.68859958224907],[73.84770128038267,24.687502712674345],[73.84915879991368,24.683881089953076]]]]},"properties":{"id":"19253"}}]}