{"type":"FeatureCollection","features":[{"type":"Feature","geometry":{"type":"MultiPolygon","coordinates":[[[[108.44309238009893,12.758486870660036],[108.44337287055023,12.757875705295405],[108.44474385579346,12.75795735677113],[108.44476311577611,12.757632242838994],[108.44365607367527,12.756047498915265],[108.44361836751213,12.75541666666696],[108.44506096733855,12.754754638672225],[108.44627922905735,12.752662217882161],[108.44754007975169,12.751535644531643],[108.44917310926544,12.749204915364999],[108.45100172254686,12.748211127387407],[108.45412265353625,12.748247884114932],[108.45501892089746,12.747447102864996],[108.45505581325844,12.746824679904805],[108.45416497124458,12.746504991319782],[108.45285203721707,12.746583251953481],[108.45203063964752,12.745071343316354],[108.45204366048065,12.741374782986426],[108.44905999077585,12.73833333333367],[108.44794236924807,12.738984103733017],[108.44602776421348,12.742507052951765],[108.44621792263368,12.745697292752098],[108.4424942355677,12.754919704861464],[108.44242858886636,12.758126085069748],[108.44309238009893,12.758486870660036]]]]},"properties":{"id":"10457"}}]}