{"type":"FeatureCollection","features":[{"type":"Feature","geometry":{"type":"MultiPolygon","coordinates":[[[[78.07949001736162,25.545645345052193],[78.08080702039965,25.543771430121595],[78.08180528428872,25.54297227647575],[78.08029324001794,25.54005533854172],[78.08140435112867,25.53973768446187],[78.0816512044274,25.539255371093873],[78.08048475477452,25.53876383463549],[78.08060736762204,25.53777777777799],[78.07986111111157,25.537361111111224],[78.07850341796924,25.537530924479213],[78.07776231553842,25.538317871093838],[78.07583387586843,25.54145426432298],[78.07470675998289,25.541928982205135],[78.07445990668433,25.54251546223962],[78.07334879557337,25.543150770399308],[78.0742507595489,25.543873155382073],[78.07608425564294,25.544192437066187],[78.07692898220526,25.54481743706603],[78.07637017144137,25.54526529947931],[78.07641303168444,25.545610351562573],[78.07556016710114,25.545504286024354],[78.07529324001783,25.5459838867188],[78.0764021809899,25.546872016059098],[78.07735243055575,25.547206759982785],[78.07949001736162,25.545645345052193]]]]},"properties":{"id":"18964"}}]}