{"type":"FeatureCollection","features":[{"type":"Feature","geometry":{"type":"MultiPolygon","coordinates":[[[[102.77641737196191,14.291569146050591],[102.77858723958323,14.291524861653812],[102.77927924262136,14.291881306966374],[102.78053195529506,14.291252780490623],[102.784137641059,14.288469441731948],[102.78650065104162,14.287802937825745],[102.78692572699666,14.286493326823077],[102.78832112630218,14.28515265570762],[102.78774875217019,14.284308336046237],[102.78741726345484,14.28125732421897],[102.78639024522582,14.281236368815243],[102.78439398871544,14.28257039388032],[102.78196994357651,14.283191663954284],[102.77915988498259,14.28210517035609],[102.77726453993066,14.278923814561907],[102.77938123914922,14.276889919704928],[102.78136962890616,14.27317125108523],[102.78243760850691,14.272145250108608],[102.78296495225695,14.271121554904795],[102.78175699869789,14.270302802192148],[102.77720865885411,14.268488905165086],[102.77610975477447,14.26635572645425],[102.77558132595502,14.263776177300414],[102.77675021701376,14.260812920464502],[102.77853325737848,14.259604220920323],[102.78350043402784,14.260136108398555],[102.78539143880212,14.259842597113945],[102.78607530381939,14.25851494683188],[102.78611002604171,14.256822713216337],[102.78451280381958,14.25600002712686],[102.78007622612867,14.254981825087114],[102.77813910590268,14.252375759548812],[102.77579454210061,14.251994086371752],[102.77581054687485,14.25122239854619],[102.77523817274292,14.24898918999584],[102.77527587890634,14.247141927083433],[102.77427924262159,14.245555555555697],[102.77052652994789,14.247080552843073],[102.76914306640649,14.247919447157273],[102.76719862196202,14.248393486870796],[102.76885633680556,14.250856323242346],[102.76776340060755,14.252468600803141],[102.76771701388881,14.256962754991406],[102.76830295138873,14.259249131944586],[102.7683580186634,14.26194417317717],[102.76763427734372,14.263778889974063],[102.76529513888877,14.264579603407213],[102.76251817491314,14.264558715820442],[102.7613812934027,14.265304158528721],[102.76094238281243,14.267552354600781],[102.75741780598949,14.269455091688585],[102.75636528862859,14.271497870551528],[102.756664767795,14.273061930338812],[102.75830430772587,14.27576531304274],[102.75795844184026,14.277090386284883],[102.75612467447925,14.27710801866347],[102.75500352647586,14.27653055826832],[102.75486355251766,14.278889024522798],[102.75680528428828,14.286251695421171],[102.75719835069438,14.289067314995819],[102.75775417751734,14.290691663954178],[102.7591097005209,14.297567409939376],[102.75979383680558,14.298977118598245],[102.76739230685749,14.30096774631096],[102.76855902777791,14.300991550021777],[102.77236328125005,14.297336493598308],[102.77327636718744,14.295454169379497],[102.7749433051217,14.293817206488924],[102.77641737196191,14.291569146050591]]]]},"properties":{"id":"1929"}}]}