{"type":"FeatureCollection","features":[{"type":"Feature","geometry":{"type":"MultiPolygon","coordinates":[[[[79.61139919704877,23.689176974826935],[79.61236273871546,23.688823242187937],[79.61445475260419,23.690267469618462],[79.61484212239608,23.69113498263944],[79.61542100694444,23.691088460286892],[79.61526421440996,23.689134250217478],[79.61415093315983,23.689223768446666],[79.61421549479198,23.688417426215636],[79.61276746961803,23.687510308160213],[79.6122531467017,23.685802408854585],[79.61302083333331,23.685863986545527],[79.61360080295142,23.685602484809536],[79.6121283637153,23.684680175781622],[79.61161729600721,23.68408704969667],[79.61170518663201,23.68299357096413],[79.61332302517391,23.682095133464003],[79.61193413628487,23.681676974826857],[79.61152235243074,23.680309922960575],[79.61022840711834,23.681032036675887],[79.61089029947945,23.67789482964467],[79.61069444444476,23.677361111111566],[79.60944715711818,23.67890964084249],[79.60808919270855,23.677845865885757],[79.60775119357655,23.681523030599536],[79.60630154079868,23.68412122938419],[79.60806966145842,23.689718695747146],[79.60776312934033,23.69083916558219],[79.60828667534733,23.691378580729676],[79.6091563585073,23.689989691840793],[79.6097504340278,23.689477674696647],[79.61139919704877,23.689176974826935]]]]},"properties":{"id":"19584"}}]}