{"type":"FeatureCollection","features":[{"type":"Feature","geometry":{"type":"MultiPolygon","coordinates":[[[[82.40943901909728,24.870550257365295],[82.41075737847203,24.870236239963432],[82.4134882269964,24.87026613871295],[82.41427110460077,24.867500000000376],[82.41387478298591,24.866369400024695],[82.41556098090288,24.86306084526946],[82.41634847005199,24.86057289971278],[82.41770480685759,24.859697113037413],[82.41818603515631,24.85817716810466],[82.4199110243056,24.858781772190028],[82.42057020399287,24.859493408203534],[82.42280517578106,24.85943786621128],[82.42307508680554,24.85745140923423],[82.42471679687483,24.855660773383704],[82.42372856987853,24.85422456529436],[82.42227159288197,24.852874416775506],[82.42120062934035,24.853441026476006],[82.42060384114566,24.852796732585134],[82.42174289279504,24.851949734158282],[82.42442409939233,24.85288943820565],[82.42582221137141,24.852399393717903],[82.42758626302069,24.851465894911385],[82.42888346354167,24.84916137695342],[82.4302832031249,24.848894178602677],[82.43264675564242,24.84744691636854],[82.43371392144084,24.847820994059674],[82.43361979166653,24.85147196451851],[82.43488471137132,24.851939154731255],[82.43705240885421,24.849301435682833],[82.43891357421862,24.848589935303053],[82.43945990668394,24.846295928955428],[82.44233778211796,24.84640997992649],[82.44316406250013,24.849020080566817],[82.44467827690963,24.850541161431465],[82.4463316514755,24.851383599175648],[82.4493787977431,24.84899066501221],[82.45077962239569,24.848547159831],[82.45287733289942,24.84891245524119],[82.45605685763897,24.848980322944115],[82.4576703559026,24.847238972982026],[82.45834038628473,24.845518341064903],[82.46031087239598,24.843312954373147],[82.4611439344616,24.841547393799132],[82.46334933810763,24.84084921942855],[82.46394721137133,24.840203908284835],[82.46456027560751,24.83890455457923],[82.46671332465289,24.838616400825032],[82.46840413411465,24.839779968262192],[82.47061387803805,24.8396923828129],[82.47165744357645,24.838650275336676],[82.4722167968749,24.837346733941317],[82.47049452039946,24.836936475965985],[82.46937282986121,24.836342892117344],[82.46889431423611,24.835201466878573],[82.46954671223958,24.833339504666156],[82.47157009548604,24.83203286065023],[82.47193901909733,24.829716932509058],[82.47266276041657,24.82937545776396],[82.47332872178802,24.829727901882833],[82.47405327690981,24.829699198405365],[82.47622694227422,24.82912960476378],[82.47721679687501,24.828605821397943],[82.47878363715287,24.828338623047216],[82.48369493272574,24.83109107123525],[82.48473795572929,24.830539059109455],[82.4847105577256,24.829845225016612],[82.48105604383684,24.82886240641305],[82.48054009331597,24.828305681017042],[82.48052734374986,24.826649034288707],[82.48122124565984,24.826676534017253],[82.48166124131947,24.825957845052557],[82.47920355902792,24.825372399224463],[82.47826199001744,24.823798336453237],[82.47139431423594,24.824944085015574],[82.47195258246538,24.823888888889186],[82.47132568359362,24.822627461751594],[82.4696088324653,24.821036716037682],[82.46917209201379,24.81981184217703],[82.47033610026048,24.816738450792528],[82.47166748046888,24.811357404921154],[82.47249620225685,24.810589718289208],[82.47286159939225,24.809435611301268],[82.47361653645842,24.808338623047263],[82.47399414062497,24.806752353244818],[82.4760129123263,24.803818935818512],[82.4767000325522,24.799898088243637],[82.47636962890633,24.79450020684169],[82.47515435112828,24.791541120741442],[82.47239556206583,24.789371761746253],[82.47138346354163,24.788894178602817],[82.47077067057299,24.78823254055473],[82.46888346354157,24.787783067491702],[82.46805013020835,24.78694973415834],[82.46745334201412,24.785760464138804],[82.46751600477418,24.784177076551984],[82.46693901909705,24.78333862304723],[82.46638346354158,24.781671956380677],[82.46596896701388,24.779500698513758],[82.46470594618043,24.77890453762511],[82.4652373589411,24.77790006849537],[82.47008544921883,24.776629604763727],[82.47166124131931,24.774994710286776],[82.47306993272551,24.77396155463356],[82.47827799479174,24.773625437418886],[82.48293565538185,24.772973480225048],[82.48908610026055,24.77329798380559],[82.49016818576379,24.773677198622295],[82.49170600043416,24.772913631863318],[82.49359998914926,24.773409881592187],[82.49582790798624,24.772494710286693],[82.50194986979156,24.772227511936038],[82.50745035807293,24.7716041395403],[82.50982801649312,24.771698387994135],[82.51133978949636,24.772498321533547],[82.51344618055563,24.772833862304978],[82.51500379774305,24.77277211507196],[82.51861653645815,24.77360582139798],[82.5216840277777,24.77494454277911],[82.5238834635417,24.775560845269396],[82.53083875868063,24.776939154731252],[82.53221679687502,24.777505289713872],[82.53510959201375,24.77796610514352],[82.54250379774297,24.777772115071954],[82.5440817599825,24.778185543484526],[82.54752739800338,24.778048977322328],[82.54750705295126,24.776907382541566],[82.54995903862843,24.774131266276342],[82.54921820746515,24.773338623047252],[82.54745605468739,24.776067199707427],[82.54596191406242,24.777032114664962],[82.54180555555578,24.776867370605757],[82.53518934461809,24.77712961832708],[82.53306098090272,24.776383599175645],[82.52890950520819,24.7756856113013],[82.52673014322906,24.77479036119277],[82.5238834635417,24.77444973415828],[82.52100423177072,24.773737657335346],[82.52000542534714,24.773050265842286],[82.51832790798599,24.772783067491645],[82.51589680989579,24.771855400933504],[82.51292887369786,24.770181647407142],[82.51098198784709,24.770588972303884],[82.50516818576378,24.770675506591985],[82.50298773871535,24.77113172743087],[82.492774251302,24.77166102091502],[82.49077311197905,24.77207968817845],[82.48043131510403,24.771878967285474],[82.48000542534729,24.77057815551784],[82.48206488715286,24.76732350667355],[82.48152777777793,24.76680555555599],[82.48025119357627,24.76724441528367],[82.48029215494782,24.768276384142027],[82.47820068359366,24.769810350206598],[82.47733235677086,24.770747494168063],[82.4743682183159,24.771617465549298],[82.47383789062488,24.771045023600706],[82.47224392361099,24.771462656657192],[82.47139431423594,24.771271769206024],[82.47306939019094,24.76971954345737],[82.47217881944457,24.769449734158286],[82.46976372612855,24.77130164252415],[82.46622911241323,24.771677805582982],[82.4651003689236,24.773931257460262],[82.46264214409726,24.775668945312802],[82.46071316189219,24.77766272650868],[82.46088053385407,24.781888648139358],[82.46024088541665,24.782818450928076],[82.46027208116308,24.78472583346931],[82.46074734157972,24.786997443305467],[82.46119032118045,24.788261311849325],[82.46448567708327,24.788890465630757],[82.46610649956588,24.79000569661494],[82.4688302951387,24.791407725016754],[82.47004611545125,24.791396230062176],[82.47235785590291,24.793168945312758],[82.47332628038183,24.79412945217605],[82.47394314236092,24.795713840061026],[82.47388047960098,24.797297448052618],[82.47250542534712,24.800838623047184],[82.47027235243044,24.8041613769536],[82.46891384548607,24.807487013075473],[82.46422688802082,24.81322645399338],[82.46313476562486,24.81491789076091],[82.46277072482624,24.81644655015758],[82.46113905164933,24.817958221435873],[82.46083875868035,24.818789435493002],[82.46226372612838,24.82631379869281],[82.46221516927065,24.827537061903612],[82.46061876085079,24.829016350640543],[82.459837782118,24.830671098497504],[82.45815673828119,24.831464470757666],[82.45536458333336,24.831401960585154],[82.45722764756951,24.8344391547312],[82.45749457465277,24.83765697903138],[82.45662516276028,24.838067372640253],[82.45426079644099,24.840160064697585],[82.45173448350695,24.84064237806558],[82.45045383029495,24.841319970025197],[82.44722764756935,24.839994710286803],[82.44378987630196,24.83915406968886],[82.4428119574653,24.83919284396741],[82.44207953559052,24.83880533854206],[82.44291802300327,24.83758678860164],[82.44332790798617,24.83575702243408],[82.44267550998276,24.833895602756314],[82.43888943142363,24.83476886325444],[82.43743435329847,24.83735361735053],[82.43576605902771,24.838577219645487],[82.43416124131946,24.838883599175674],[82.42961100260405,24.84080783420167],[82.42756781684037,24.841197933621274],[82.42659369574656,24.841713324653085],[82.42256401909711,24.841746707492774],[82.42197509765609,24.841111263699275],[82.42070203993072,24.84083862304736],[82.4198855251735,24.843768141005086],[82.4186526150173,24.84498818291587],[82.41742513020856,24.845603213840292],[82.41694986979175,24.84611640082501],[82.41582790798614,24.846383599175667],[82.41500542534729,24.846949734158372],[82.4132161458335,24.84721693250893],[82.41047064887161,24.846642506917746],[82.4089423285591,24.846703084310192],[82.40745334201372,24.84611640082501],[82.40541097005215,24.847521786160144],[82.40409776475698,24.847519243028927],[82.40308702256934,24.848610161675637],[82.40161485460075,24.84896085951094],[82.39892008463536,24.851298065185986],[82.39777235243068,24.851661376953587],[82.3935894097223,24.85431294759148],[82.39361789279528,24.855033026801706],[82.39305013020848,24.856105821397875],[82.39278320312482,24.857278137207373],[82.39443901909735,24.860283067491622],[82.39539116753477,24.861524556478074],[82.40282877604179,24.86864817301465],[82.40616617838523,24.869470918443767],[82.4078371853299,24.8712082756893],[82.40943901909728,24.870550257365295]],[[82.4022349717882,24.850290629069406],[82.40251085069443,24.849958631727787],[82.4032815212673,24.85003718058303],[82.40458333333314,24.849583333333655],[82.40470947265632,24.850290629069406],[82.40526502821186,24.850752105713156],[82.40501274956605,24.851401740180435],[82.4039789496529,24.85247667100728],[82.40157335069475,24.852721862793345],[82.40159478081605,24.85082249959339],[82.4022349717882,24.850290629069406]]]]},"properties":{"id":"7620"}}]}