{"type":"FeatureCollection","features":[{"type":"Feature","geometry":{"type":"MultiPolygon","coordinates":[[[[85.49682490794166,24.589886588447627],[85.49867939334732,24.586857820543955],[85.49682026248806,24.58688864329781],[85.49604803212796,24.587297273668952],[85.49541167280708,24.5866104925274],[85.4948239720691,24.5866337876121],[85.49424383290929,24.58725990658992],[85.49347743479731,24.587009798082946],[85.49433660634676,24.585761222236684],[85.49485574425879,24.584121512764042],[85.49549291738194,24.583298758857794],[85.49744044749255,24.583981369263583],[85.49928442128797,24.5850734916594],[85.49985574425907,24.58434866527044],[85.49815784793739,24.58268745785952],[85.49823078494919,24.580846976631207],[85.49740650516398,24.579173630005684],[85.49820236969325,24.578017013794877],[85.4975873726768,24.576519787503656],[85.49790709517029,24.574581751750543],[85.49479765913534,24.571700688925077],[85.4954218792416,24.57052098107988],[85.49571732330608,24.568973468601627],[85.49681076813064,24.56718764774662],[85.49735574425895,24.56578817943071],[85.4998663236859,24.563020981079987],[85.50017227936084,24.562054625014426],[85.50012846968198,24.56094944787688],[85.49794551341037,24.558926844523896],[85.49757730187602,24.558146645684943],[85.4961668472321,24.55723583161162],[85.49444436730565,24.555376802477525],[85.49320704905486,24.55561304244077],[85.49375521257488,24.557177068319533],[85.49402241092562,24.559409869968874],[85.49625873905072,24.561903223918407],[85.4959499350683,24.562486787829116],[85.49409572093,24.56247397044622],[85.49375521257488,24.564965425524463],[85.49339324018982,24.56564952790073],[85.49187109120979,24.566131434367634],[85.4909774347972,24.56543936351261],[85.4915531658626,24.56379680573278],[85.49151935916782,24.562944449775756],[85.48953402116868,24.563023151218815],[85.48959946441968,24.564674253920657],[85.48846685536992,24.56606595720838],[85.4878522991634,24.56764408899008],[85.48793089888139,24.569627087308263],[85.487656783213,24.572218775676347],[85.48691069624473,24.57356595720846],[85.48569965701947,24.572732623875098],[85.48439798058715,24.57232050093674],[85.48400528717352,24.5706718735496],[85.4823663236862,24.569348665270482],[85.48427638499257,24.567578917006713],[85.48256356896584,24.565061962796605],[85.4818743125098,24.564687647746624],[85.48066188303946,24.56656519087808],[85.47812054867526,24.567273605591723],[85.47596634674366,24.56638873145971],[85.47514410146371,24.56714505877089],[85.4771756227311,24.568339347236616],[85.48099282921979,24.568188047866073],[85.4809622099165,24.568961024211404],[85.47957796648123,24.569399290541824],[85.4793107681306,24.57000160580874],[85.48182829878371,24.571189722941952],[85.48179283057632,24.572085006959],[85.47970244429163,24.572484109063964],[85.48042374420467,24.573847227553514],[85.48011938222541,24.575008726576883],[85.47947583431969,24.57560500614518],[85.4747828072473,24.575419018460636],[85.47176997630115,24.573298758857717],[85.47105176205397,24.574073905342146],[85.47247089725371,24.575924559096393],[85.4717570232846,24.576962021119073],[85.47012935130093,24.57801308041823],[85.47045588938713,24.57863024757303],[85.47263311513578,24.57854395064369],[85.47763409847985,24.58107694353656],[85.47872964562615,24.58103350685039],[85.47902241092564,24.58140493968449],[85.47809433746633,24.58324416630127],[85.47698641374669,24.583594948907702],[85.47443992530285,24.583593456937237],[85.4748883302506,24.584440828356406],[85.47699495866866,24.585435057143343],[85.47908412425042,24.585932697117286],[85.4798557442588,24.58656146095207],[85.4781996570193,24.58886038402042],[85.47900271013353,24.589677068319546],[85.48213611942177,24.58715692671801],[85.4830510364138,24.587193208727484],[85.48511758507922,24.591787969198435],[85.4855211291875,24.59348216950221],[85.48811410607519,24.59588468279435],[85.48881160227776,24.597362615194456],[85.49178872765751,24.596505003432398],[85.49736086443036,24.59539307851911],[85.49833749474735,24.5948763141963],[85.49709122467354,24.59252110315029],[85.4967733671431,24.591186739001074],[85.49682490794166,24.589886588447627]],[[85.49135514068902,24.5818992905418],[85.48986103397246,24.580871153334698],[85.48875463613174,24.581632499092066],[85.48836014557187,24.581616867310515],[85.48790268707589,24.580171995619864],[85.4879292373686,24.579501931329503],[85.49126579200217,24.578864893840333],[85.49199346669806,24.5780795748299],[85.49305547841678,24.57787680247756],[85.49323743099959,24.578395974298388],[85.49285694461699,24.58021455068716],[85.49135514068902,24.5818992905418]],[[85.48390939416132,24.576398395359504],[85.48331338586038,24.57546740577621],[85.48411626943246,24.574953421943732],[85.48499992286148,24.57482124692197],[85.48613843197595,24.575352930949705],[85.4864972169693,24.57638944353657],[85.48560217031135,24.576874096585556],[85.48390939416132,24.576398395359504]]]]},"properties":{"id":"4965"}}]}