{"type":"FeatureCollection","features":[{"type":"Feature","geometry":{"type":"MultiPolygon","coordinates":[[[[75.99392896864177,31.606859809027895],[75.9936239284946,31.605820583767468],[75.99288404676687,31.604792480468973],[75.99273640950562,31.603344184027975],[75.99427727593351,31.602064344618228],[75.99347222222266,31.60097222222234],[75.99248718261768,31.601098361545326],[75.99009168836844,31.60286187065988],[75.99071078830346,31.60428927951402],[75.99193162706197,31.604818793403027],[75.99167948404974,31.605290527343996],[75.99029059516099,31.60569824218757],[75.99107299804714,31.60615749783007],[75.99185648600317,31.60607747395845],[75.99419453938859,31.607765028211944],[75.99525953504806,31.607436794704995],[75.99392896864177,31.606859809027895]]]]},"properties":{"id":"17130"}}]}