{"type":"FeatureCollection","features":[{"type":"Feature","geometry":{"type":"MultiPolygon","coordinates":[[[[77.8131203884549,24.3571316189241],[77.81588677300337,24.354736599392965],[77.81851426866317,24.3552724880648],[77.82107476128479,24.354978162977915],[77.8232088216146,24.353971015083147],[77.82498779296864,24.352666083442358],[77.82502549913201,24.35171888563417],[77.82445068359365,24.350079006619453],[77.8272276475694,24.34917195638063],[77.82774224175333,24.348616400825193],[77.82843207465268,24.3516613769536],[77.82894721137157,24.35105394151529],[77.82880126953128,24.347371893989305],[77.83026584201386,24.345874905057016],[77.83080674913205,24.34472880045628],[77.8314233398439,24.344704318576916],[77.83272189670149,24.346105821398098],[77.83343343098969,24.34504930284332],[77.83510823567698,24.344519042969267],[77.83727511935754,24.342857394748734],[77.83805013020825,24.3435755750874],[77.83767632378485,24.344798516167984],[77.83642496744787,24.345661824544678],[77.83600992838538,24.34804606119839],[77.8366517469619,24.34807149251357],[77.83772189670165,24.34750528971408],[77.83860568576372,24.348202039931067],[77.8376934136285,24.34936102973147],[77.83610568576384,24.350272488064803],[77.83583875868047,24.351116400825106],[77.8344498697916,24.352403293186228],[77.83527343749986,24.352783474392822],[77.83638183593743,24.352739529080367],[77.8364135742186,24.35354241265253],[77.83459933810755,24.35568956163239],[77.83693060980895,24.357433946398004],[77.83696912977436,24.356457994249567],[77.83660427517376,24.355064968533455],[77.83832085503471,24.352955729167178],[77.83835937500007,24.35197862413243],[77.83778320312493,24.350889214410174],[77.83819146050345,24.35037122938411],[77.84041612413196,24.34984130859428],[77.84113878038201,24.34917161729649],[77.84107611762138,24.347590535482297],[77.84193739149308,24.34642598470107],[77.84191840277762,24.344206203885022],[77.84388264973958,24.34418294270901],[77.84391547309028,24.34335984971854],[77.84075520833338,24.343023546007615],[77.84018446180548,24.34003356933647],[77.83800021701379,24.339707912869528],[77.83334364149297,24.33970614963171],[77.83221733940988,24.340272081163647],[77.83175347222229,24.340772705078592],[77.82977810329854,24.339727511936346],[77.82904595269102,24.341105821398017],[77.82777235243086,24.340005289714014],[77.82709120008693,24.3389503987635],[77.82624999999987,24.33847222222265],[77.82499457465266,24.338605821398204],[77.82127821180566,24.339829983181957],[77.82056098090285,24.341671956380637],[77.81889431423602,24.34206895616383],[77.82002468533003,24.343050265842493],[77.82232801649312,24.34170111762198],[77.82601671006952,24.340478244358167],[77.82688422309039,24.341282009549104],[77.82781765407978,24.34272766113341],[77.82943901909712,24.343113878038622],[77.82889431423618,24.34389417860288],[77.8280284288193,24.34445326063431],[77.8280734592013,24.345590006510932],[77.8256768120659,24.348023817274793],[77.8222748480903,24.348640882704473],[77.82194986979178,24.350005289714076],[77.82083875868054,24.35035705566449],[77.82119791666682,24.35100477430605],[77.82271267361122,24.350473904080317],[77.8236056857638,24.351771850586417],[77.82258165147559,24.352684936524028],[77.81901991102418,24.353864407010022],[77.81440294053826,24.35420505099877],[77.81389431423631,24.35528306749191],[77.81194986979185,24.357464463976243],[77.8131203884549,24.3571316189241]]]]},"properties":{"id":"4977"}}]}