{"type":"FeatureCollection","features":[{"type":"Feature","geometry":{"type":"MultiPolygon","coordinates":[[[[78.39878987630257,25.67521674262163],[78.39974338107677,25.674698621961838],[78.40115180121566,25.67471164279523],[78.40117513020866,25.67128743489586],[78.4027848307297,25.669697808159754],[78.40405354817742,25.669773491753546],[78.40501220703166,25.66942952473974],[78.40554768880239,25.668930121527893],[78.40383110894132,25.66860948350704],[78.40392930772597,25.666962076823182],[78.4035598415804,25.66667453342022],[78.40281277126766,25.667510308159862],[78.40185845269141,25.667453613281296],[78.40125461154562,25.666777615017438],[78.39806342230943,25.668896755642464],[78.39692003038246,25.669158799913447],[78.39696831597249,25.6683485243056],[78.39625488281288,25.667327202691112],[78.39750515408005,25.66587320963548],[78.39783447265646,25.662013075086932],[78.40000786675395,25.66167453342014],[78.4002699110246,25.66141791449661],[78.39814534505243,25.661118977864717],[78.39659342447968,25.66220296223969],[78.3966902669276,25.660576714409956],[78.39633599175377,25.65992513020852],[78.39652777777812,25.65902777777785],[78.39582546658008,25.659158799913385],[78.39556342230927,25.660329047309176],[78.39615125868087,25.660854492187624],[78.39613606770885,25.662777777777876],[78.39548556857685,25.663076171875133],[78.39441704644148,25.663012424045192],[78.39445529513935,25.663653157552147],[78.3932069227433,25.66357883029535],[78.39278021918452,25.66219726562504],[78.39218153211849,25.66223280164948],[78.39224663628508,25.663327636718833],[78.39190673828173,25.663603244357773],[78.39139675564283,25.66249213324656],[78.39077582465322,25.662230088975747],[78.39084906684079,25.66345730251747],[78.39216335720525,25.664293077257113],[78.39005343967042,25.66629692925362],[78.38870958116345,25.666711697048754],[78.3880634223095,25.667557508680602],[78.3891739908859,25.66749131944455],[78.38974663628531,25.668340386284854],[78.38973090277804,25.669452039930704],[78.38874457465297,25.669756673177147],[78.38923692491355,25.6706627061633],[78.39012478298648,25.67145589192721],[78.392832573785,25.671400553385467],[78.39448594835116,25.673184950086878],[78.39612413194473,25.67369059244811],[78.39721435546917,25.674452311197967],[78.39834120008706,25.674714355468865],[78.39878987630257,25.67521674262163]]]]},"properties":{"id":"9462"}}]}