{"type":"FeatureCollection","features":[{"type":"Feature","geometry":{"type":"MultiPolygon","coordinates":[[[[75.69456766764316,22.82501057942754],[75.69746507432697,22.82470228407155],[75.69785678439663,22.82224351671036],[75.69920349121085,22.821373833550737],[75.70029541015597,22.82141710069483],[75.70027208116304,22.82082912868971],[75.70070237901442,22.81960137261325],[75.7029197184244,22.819073215061067],[75.70332804361973,22.818555230035173],[75.70192654079827,22.817256673177397],[75.70195888943121,22.816440565321614],[75.7052724880642,22.816000569661895],[75.70412984212217,22.81526272243964],[75.70238226996494,22.81533203125042],[75.70033535427493,22.81674045138942],[75.69983357747387,22.818325466580163],[75.69757927788604,22.818605821397924],[75.69695312499991,22.816628011068104],[75.69804077148424,22.81553846571221],[75.699101087782,22.81558051215312],[75.69958597819013,22.813544921875447],[75.70028306749114,22.812227511936086],[75.70055026584171,22.810550265842423],[75.70265407986105,22.80965725368958],[75.70332804361973,22.80857272677987],[75.7021851264104,22.80861802842915],[75.7010623508028,22.809736870660103],[75.70051845974379,22.809715304904884],[75.69981424967423,22.808955213759035],[75.69931830512152,22.810005967882304],[75.69889417860216,22.812227511936086],[75.69776502821159,22.815016004774677],[75.69694939507363,22.814983723958875],[75.69652777777773,22.815438639323276],[75.69582804361957,22.814727511936255],[75.69556084526883,22.8124947102869],[75.69378472222215,22.811587185330296],[75.69331793891033,22.811083441840623],[75.69334113226975,22.810497368706947],[75.69443915473076,22.809439154731223],[75.69584981282529,22.80860989040832],[75.69581542968743,22.807743326823427],[75.69667195638002,22.806949734158422],[75.69717047797317,22.805375162760797],[75.69833862304668,22.805005289713947],[75.69860900878902,22.803026936849477],[75.69927483452685,22.802409939236654],[75.70083862304668,22.801671956380503],[75.70120903862815,22.80011691623301],[75.70305026584177,22.796105821397973],[75.70392306857613,22.79582953559067],[75.70597364637578,22.793511691623692],[75.707242160373,22.790249430338847],[75.70594577365424,22.79030083550387],[75.70537428114127,22.791511637370192],[75.70500528971345,22.793060845269494],[75.70413248697903,22.793337131076882],[75.70352152506482,22.79399658203178],[75.70218668619762,22.793338623047163],[75.70081542968725,22.79468777126776],[75.70085951063359,22.795799153646158],[75.70029364691814,22.79686862521737],[75.69905612521669,22.797216932509087],[75.6985409884982,22.795589870877095],[75.69950174967457,22.794649386936143],[75.69999471028612,22.7917875162764],[75.69896470811605,22.7913014051653],[75.69833862304668,22.791444769965594],[75.69919277615011,22.792236192491686],[75.69845411512577,22.794716932509004],[75.69741719563788,22.79294826931462],[75.69582804361957,22.791949734158464],[75.69430555555559,22.7893055555559],[75.69373901367177,22.78948486328163],[75.69515279134086,22.792317708333684],[75.69747504340287,22.793814290364963],[75.69807807074622,22.799571126302425],[75.69795179578998,22.80275634765657],[75.69666137695285,22.804439154731313],[75.69561014811197,22.80679538302992],[75.69451070149731,22.807314181858004],[75.69501098632784,22.807777777778142],[75.69386121961779,22.80890435112893],[75.69311876085058,22.808874918620234],[75.69204542371929,22.807212727864965],[75.69109483506921,22.80721611870706],[75.6911309136282,22.80630547417573],[75.69169392903635,22.80524156358544],[75.69331732855872,22.804475368924116],[75.69360582139748,22.804128282335498],[75.69249579535577,22.80417236328158],[75.6912291802299,22.803728434245116],[75.69048129611517,22.80453559027825],[75.68934258355031,22.804994710286834],[75.68889417860223,22.802958848741625],[75.68951700846324,22.800582004123612],[75.68856594509523,22.799940185547186],[75.688060845269,22.800055881076702],[75.68862704806853,22.801125895182636],[75.68859781901043,22.801863878038617],[75.68719821506053,22.801373291016063],[75.68581271701382,22.801428222656625],[75.6852830674911,22.80189873589451],[75.68755900065074,22.802539333767754],[75.68745185004312,22.80524332682326],[75.68782877604136,22.805592583550705],[75.68944973415788,22.80610582139795],[75.68971693250856,22.807156846788487],[75.68835130479576,22.80893771701436],[75.69017808702242,22.80886528862885],[75.69285542805963,22.809331461588997],[75.69193915473059,22.810828043620177],[75.69164299858929,22.811763509115025],[75.69171447753891,22.81356770833368],[75.69250528971341,22.814716932508958],[75.69309807671422,22.81684353298654],[75.69267713758651,22.818044433594125],[75.69185445149711,22.819599202474336],[75.69024475097629,22.8210906304257],[75.68947747124545,22.819464789496877],[75.6886781819658,22.818650444878827],[75.688060845269,22.81906141493087],[75.68915283203117,22.82064832899343],[75.6894391547307,22.823338623047263],[75.69046563042528,22.824830322265896],[75.69367133246502,22.824730088976054],[75.69359463161888,22.826665988498604],[75.69410834418389,22.826939154731264],[75.69456766764316,22.82501057942754]],[[75.69482659233907,22.821378580729657],[75.69427808973492,22.820149332682576],[75.6949779595266,22.816940917969106],[75.69569444444429,22.816527777778248],[75.69620598687058,22.817347276476127],[75.69665635850666,22.820915934245164],[75.69482659233907,22.821378580729657]],[[75.6986138916013,22.798090820312808],[75.69986111111083,22.797916666666907],[75.70028055826802,22.79833062066004],[75.70055277506495,22.800803358290338],[75.69893561469158,22.801663953993398],[75.6986138916013,22.798090820312808]]]]},"properties":{"id":"9736"}}]}