{"type":"FeatureCollection","features":[{"type":"Feature","geometry":{"type":"MultiPolygon","coordinates":[[[[79.03056586371522,24.259732530382365],[79.03083658854169,24.259418334961396],[79.0314382595486,24.260545247396493],[79.03200222439258,24.259281684028423],[79.0353884548613,24.25955376519144],[79.03610080295132,24.25915635850744],[79.03915635850709,24.25832302517408],[79.04152479383683,24.25789096408468],[79.04140272352439,24.260032348633302],[79.04215386284741,24.259971991645628],[79.0424896918403,24.25776746961857],[79.04666259765636,24.257210761176736],[79.05160237630227,24.257671034071635],[79.05305745442709,24.25806925455774],[79.05360080295137,24.257852308485695],[79.05271891276058,24.256608615451896],[79.0501858181423,24.25584594726614],[79.04736138237845,24.255476413303498],[79.04756157769097,24.252983262804293],[79.04938395182293,24.252084960937978],[79.05049262152804,24.2533718532991],[79.0511433919273,24.253319566515216],[79.05103814019108,24.25200975206205],[79.0522325303821,24.250565863715835],[79.05265787760433,24.249612698025643],[79.05206841362869,24.248899197049113],[79.04997748480909,24.250204264323457],[79.04917697482634,24.24910007052999],[79.05013726128473,24.248272772895504],[79.04911295572944,24.24663967556471],[79.04925157335063,24.244915093316592],[79.04849283854188,24.241784871419796],[79.0472119140625,24.241399197049134],[79.04680555555584,24.23902777777822],[79.0463975694444,24.23937927246145],[79.04584364149324,24.240976833767803],[79.04639919704883,24.24248969184076],[79.0470095486111,24.24551866319493],[79.04665635850691,24.24582302517402],[79.04637722439244,24.24705206977052],[79.04582166883685,24.248047824436355],[79.04590766059036,24.249119940864247],[79.0446579318577,24.25147549099458],[79.0404028320315,24.252756618924096],[79.03941758897585,24.251613023546412],[79.03842800564249,24.251692504883394],[79.03751030815968,24.252271660699407],[79.03862141927098,24.25276746961866],[79.03887858072918,24.253122151693134],[79.03809000651054,24.253801472982303],[79.03722981770832,24.253321533203547],[79.03683892144122,24.2533530002176],[79.036334906684,24.25557101779566],[79.03503634982641,24.257229207357227],[79.03082302517359,24.25776746961857],[79.02984157986126,24.25812784830785],[79.02867485894095,24.259482014974395],[79.02768093532998,24.259116956923307],[79.02686170789931,24.257280883789605],[79.02699273003466,24.255648871528265],[79.02915364583359,24.254295450846783],[79.02943413628489,24.25287740071667],[79.0285446506077,24.252232530382386],[79.0278046332468,24.25309122721407],[79.02459174262171,24.25283304850312],[79.02362141927105,24.254544067383307],[79.02500786675344,24.254432644314747],[79.0258230251736,24.254904174805134],[79.02523166232638,24.257064887153206],[79.02529486762151,24.25785007053001],[79.02609347873263,24.25853827582516],[79.02643419053814,24.259301961263517],[79.02794949001745,24.260821940104705],[79.02957736545139,24.261191677517743],[79.03001763237845,24.26020494249188],[79.03056586371522,24.259732530382365]]]]},"properties":{"id":"9591"}}]}