{"type":"FeatureCollection","features":[{"type":"Feature","geometry":{"type":"MultiPolygon","coordinates":[[[[82.60740017361124,25.07875922309084],[82.60984619140615,25.077232530382318],[82.61170979817715,25.077807617187872],[82.6126980251735,25.077728407118443],[82.61317843967012,25.078142361111475],[82.61251030815961,25.079339192708687],[82.61375623914941,25.079096679687822],[82.61423366970476,25.077510850694807],[82.61570963541672,25.07668728298647],[82.61893364800372,25.078045247396275],[82.61943413628458,25.077516818576726],[82.61895724826391,25.07695149739628],[82.6164586046007,25.07609429253506],[82.61529866536452,25.07618760850734],[82.61289116753463,25.07537923177121],[82.60982503255198,25.07550781250039],[82.60745985243054,25.07721191406283],[82.60721055772567,25.07639485677113],[82.60732069227416,25.07502332899348],[82.60566569010408,25.075630967882276],[82.60486111111132,25.07458333333375],[82.60398898654543,25.074845920139296],[82.60450466579871,25.076002061632238],[82.60665635850685,25.077242296007427],[82.60569932725681,25.078715820312937],[82.60395562065966,25.079493815104556],[82.60467285156258,25.08110080295178],[82.60561713324645,25.080828993055945],[82.60740017361124,25.07875922309084]]]]},"properties":{"id":"6534"}}]}