{"type":"FeatureCollection","features":[{"type":"Feature","geometry":{"type":"MultiPolygon","coordinates":[[[[80.63594140625005,23.089306640625097],[80.63513281250007,23.088389648437584],[80.63468359375017,23.08819335937507],[80.63444140624998,23.088056640625055],[80.63418359375018,23.08794335937499],[80.63344140625,23.087306640625087],[80.63268359374993,23.087193359375107],[80.63169140625016,23.08630664062521],[80.63115625000009,23.086187500000207],[80.63100000000011,23.086000000000055],[80.63055859375007,23.086056640625046],[80.63031640625016,23.086193359375144],[80.62962890625002,23.08630664062521],[80.62913671875012,23.08602343750009],[80.62866015625005,23.086072265625006],[80.62844140625,23.08656835937508],[80.62805859375018,23.087056640625008],[80.62794140625013,23.087318359375146],[80.62780859375007,23.08755664062498],[80.62769140624997,23.088049804687458],[80.62819140625018,23.088681640624984],[80.62830859375006,23.08894335937495],[80.62871874999999,23.08946582031257],[80.62908984375005,23.08942773437515],[80.62930859374993,23.088931640625063],[80.62964843750015,23.088458984375194],[80.63005859375008,23.088693359375142],[80.63106640624997,23.088806640625123],[80.63149999999999,23.089053710937506],[80.63193359375018,23.088806640625123],[80.6323710937501,23.088693359375142],[80.63280859375007,23.08894335937495],[80.63331640624997,23.089056640625103],[80.63380859374993,23.089443359374926],[80.63431640625018,23.08955664062509],[80.63505859375007,23.09019335937508],[80.63531640625015,23.09030664062506],[80.63555859375006,23.090443359375072],[80.63612500000013,23.090556640625053],[80.6363085937501,23.09025488281253],[80.63605859374994,23.089818359375144],[80.63594140625005,23.089306640625097]]]]},"properties":{"id":"19920"}}]}