{"type":"FeatureCollection","features":[{"type":"Feature","geometry":{"type":"MultiPolygon","coordinates":[[[[102.7469949001738,14.292562052409139],[102.74593912760409,14.290765787760478],[102.74414035373255,14.290989515516614],[102.73816813151038,14.290277777777916],[102.7368885633679,14.290568440755337],[102.7351236979168,14.290348985460241],[102.73443359375008,14.29056728786911],[102.73511230468759,14.291722073025412],[102.73766710069444,14.292093912760592],[102.73960476345476,14.292838609483809],[102.7413294813368,14.294992675781401],[102.7436002604168,14.296234605577382],[102.74665473090292,14.298651462131303],[102.74853814019107,14.297544352213777],[102.74912489149321,14.296295030382197],[102.74780870225695,14.2944929334855],[102.7469949001738,14.292562052409139]]]]},"properties":{"id":"22360"}}]}