{"type":"FeatureCollection","features":[{"type":"Feature","geometry":{"type":"MultiPolygon","coordinates":[[[[79.62833604600755,28.926113891601958],[79.62861165364629,28.92526536729629],[79.63077365451451,28.926379191081054],[79.63166395399352,28.926397365994276],[79.63201171875036,28.92603535970089],[79.63360460069501,28.92658047146311],[79.63361924913241,28.925844997830183],[79.63182128906286,28.924393717448268],[79.63027506510448,28.92361389160196],[79.62771213107672,28.921514282226894],[79.62694715711874,28.92002990722709],[79.62721950954923,28.918886108398723],[79.62806423611173,28.918611992730334],[79.6280246310769,28.916682603624523],[79.63280219184063,28.916390313042925],[79.63101725260455,28.916041937934338],[79.6299972873268,28.915002780490866],[79.62972493489642,28.913608330621074],[79.62926323784771,28.912712063259946],[79.63107042100731,28.91333055284322],[79.6294471571185,28.9117074924049],[79.62972927517413,28.910222846137472],[79.63191460503523,28.91249721950986],[79.63203070746565,28.911531372070684],[79.63129503038257,28.910103488498592],[79.63176161024344,28.909617987739082],[79.633869900174,28.91110833062099],[79.63472493489624,28.91083611382406],[79.63509602864619,28.91045003255239],[79.63638617621584,28.913336113824144],[79.63675781250046,28.913693033854557],[79.63584852430594,28.91550136990054],[79.63581922743086,28.916941324870194],[79.6361349826395,28.916947767469978],[79.63763943142416,28.915438028971764],[79.63805447048665,28.91415812174516],[79.63944118923663,28.9141864691844],[79.63907769097253,28.913169080946474],[79.64055284288227,28.911385972765103],[79.64332465277832,28.91165832519576],[79.64402018229222,28.913886108398913],[79.64499728732679,28.913263278537713],[79.64465115017398,28.911230265299878],[79.64332519531294,28.910547214084644],[79.6424983723962,28.9105641004779],[79.64215494791725,28.90915384928421],[79.6408306206603,28.909180908203496],[79.63980034722258,28.90810831705764],[79.63859537760479,28.90748779296908],[79.63736111111169,28.908772650825014],[79.63640407986159,28.907776489258183],[79.63305772569484,28.907219306098384],[79.62730957031286,28.906828545464762],[79.6269308810769,28.906092529297283],[79.62693630642391,28.904730902778184],[79.62833604600755,28.9047193060984],[79.62940700954923,28.90544535319053],[79.62979112413231,28.90387044270868],[79.631637369792,28.903908148871935],[79.63244357638925,28.90349297417572],[79.63440375434064,28.90416388617669],[79.63415635850734,28.903577202691253],[79.63194173177126,28.90250278049089],[79.63141276041725,28.90195210774766],[79.62333062066025,28.901669447157445],[79.61988064236166,28.900560845269382],[79.61881564670173,28.89849310980945],[79.61916395399348,28.897774997287655],[79.6228537326393,28.896359252929997],[79.62635904947948,28.896430799696546],[79.62722493489642,28.89500257704023],[79.62721408420205,28.894453125000368],[79.62804741753521,28.894436102973472],[79.6291124131948,28.894984741211417],[79.63011447482685,28.895005154080238],[79.63127007378526,28.893058336046337],[79.63194932725739,28.8935211181643],[79.63194118923647,28.893902248806725],[79.63327365451468,28.895232679579294],[79.63583062066024,28.896653103298917],[79.63694173177137,28.898613891602025],[79.63752549913258,28.898897026910205],[79.63747450086865,28.901379869249567],[79.63878417968809,28.90140658908453],[79.63971950954911,28.898673706054964],[79.6389035373268,28.897808363173084],[79.63884765625059,28.895071546766786],[79.63957356770882,28.893613891601944],[79.64001953125054,28.893896823459528],[79.63999186197961,28.895267469618418],[79.64246419270873,28.896628757053364],[79.6436138237851,28.898052775065494],[79.64450683593813,28.901381632487386],[79.64581922743102,28.90140842013922],[79.64611924913234,28.90082533094656],[79.64609700520887,28.89973022460974],[79.64694173177114,28.898918796115836],[79.64610243055589,28.89805291069932],[79.64612467447947,28.896980658637503],[79.64499131944487,28.894730360243486],[79.64549641927144,28.893750000000367],[79.64500271267397,28.892497287326677],[79.64306315104224,28.8913458251957],[79.6430441623269,28.890405748155843],[79.64450846354211,28.88969529893693],[79.64638617621566,28.88780768500466],[79.64611382378527,28.885830552843203],[79.64388617621566,28.885558336046444],[79.64083604600759,28.88360833062096],[79.63852105034763,28.88315633138062],[79.63760036892401,28.88268222385014],[79.62610839843794,28.882803344726923],[79.62541666666723,28.882083333333753],[79.62482747395873,28.88227450900638],[79.6244373914935,28.883078748915366],[79.62000271267422,28.887780558268602],[79.61752604166705,28.889989827474395],[79.61055826822954,28.891391669379885],[79.60665798611157,28.891868286133146],[79.60221950954903,28.895274997287743],[79.5991693793408,28.898336113824172],[79.59784830729225,28.89931532118098],[79.59722547743095,28.900524291992525],[79.59721462673676,28.901078898112402],[79.59834255642417,28.904202813042872],[79.60111382378525,28.907497219509963],[79.60165473090339,28.90861239963145],[79.60361870659764,28.908932088216574],[79.60359266493086,28.91020955403681],[79.60391004774354,28.911187269423152],[79.60722222222276,28.912321031358857],[79.60888237847271,28.91175286187095],[79.60887532552115,28.914148084852783],[79.6095735677089,28.915552775065365],[79.61078613281305,28.912631971571642],[79.61117513020892,28.909451633029875],[79.61197591145876,28.90943528917134],[79.61192491319483,28.911936170790284],[79.61292046441028,28.91258890787796],[79.61388617621563,28.91389166937975],[79.61483669704913,28.9142001003693],[79.61402235243119,28.91587890625054],[79.61166937934078,28.91645250108546],[79.6121348741323,28.917773166233005],[79.61277506510444,28.91778625488317],[79.61358127170197,28.91694722493517],[79.6136637369797,28.917634887695684],[79.61323567708374,28.918886108398723],[79.61416937934078,28.918613891601893],[79.61470323350758,28.918058336046457],[79.61555284288252,28.918830362956058],[79.61389160156293,28.920890028212185],[79.61575792100732,28.921941663954414],[79.61662651909776,28.920806681315426],[79.61697970920179,28.918393147786745],[79.61612087673669,28.916726413303337],[79.61610785590315,28.91609775119386],[79.61694118923643,28.91529724121129],[79.6169525824657,28.914730224609883],[79.61647026909779,28.913794080946587],[79.61698621961861,28.913298611111472],[79.61693630642421,28.91084181043871],[79.61769368489624,28.910451456706085],[79.6186138237853,28.911663886176584],[79.6191704644103,28.913332790799004],[79.6186138237853,28.91528055826862],[79.61722493489643,28.91757086859846],[79.61759385850732,28.91860833062097],[79.61833604600727,28.918058336046457],[79.6186914062504,28.916599799262585],[79.61942599826446,28.915835706923048],[79.62054850260452,28.91547132704025],[79.6205750868061,28.91416931152378],[79.61995171441029,28.913570217556725],[79.62148166232672,28.912436116536867],[79.62108289930617,28.91039482964446],[79.62026367187539,28.909997287326732],[79.62029730902808,28.90834669325126],[79.6197249348962,28.907796766493533],[79.62102593316004,28.907692667643644],[79.62278483072961,28.90812154134153],[79.62276909722257,28.908886244032473],[79.62305826822981,28.9091638861765],[79.62336642795182,28.911054823134094],[79.62502387152833,28.911459011502117],[79.6250081380214,28.914697265625364],[79.62420030382006,28.916361965603684],[79.62244737413246,28.918046196831938],[79.62388617621585,28.918396945529935],[79.62347873263937,28.91996799045191],[79.62167046441013,28.92040879991356],[79.62256890191017,28.92177856445349],[79.62350748697955,28.92129489474857],[79.62444173177121,28.92222500271309],[79.62602050781302,28.922609863281664],[79.62639160156309,28.923330756293694],[79.62637478298686,28.924163547092505],[79.62721896701422,28.924158257378863],[79.62639160156309,28.92688184950127],[79.62679090711859,28.92860833062103],[79.62833604600755,28.926113891601958]]]]},"properties":{"id":"1715"}}]}