{"type":"FeatureCollection","features":[{"type":"Feature","geometry":{"type":"MultiPolygon","coordinates":[[[[105.81964497021778,15.377272456696158],[105.81972971329179,15.379711579531158],[105.82199046856924,15.380326913154015],[105.82299826351756,15.380153002849735],[105.82307852902187,15.379698155066489],[105.82280655810102,15.37930578450995],[105.82278864171707,15.378784068942869],[105.822538977087,15.378498674732974],[105.822538977087,15.377878866855024],[105.82398814744391,15.37646980892888],[105.8241576376017,15.376104088625937],[105.8241576376017,15.372487784285514],[105.82461692804148,15.371711919099774],[105.82469719424641,15.371141140957349],[105.82523227330596,15.370062051221781],[105.82560234144395,15.369732036394998],[105.82658337047755,15.367908268964324],[105.82723885592159,15.367212669441162],[105.82777842152815,15.366940633847948],[105.82827785481348,15.367212682296202],[105.82910723058184,15.367190410487266],[105.82964680162027,15.36677119645952],[105.82981620736196,15.366401090337778],[105.83072137952897,15.36637878697484],[105.83101127922806,15.366133596858095],[105.83171130465671,15.366022082681512],[105.83187184323809,15.365790255231968],[105.83258978923922,15.366133614813418],[105.83304014185951,15.366133590394233],[105.83368669138353,15.365692141720494],[105.83385619039785,15.364942962616981],[105.83412817751146,15.364514957782305],[105.83412817751146,15.364131465570171],[105.83439568564731,15.363707864319474],[105.83439568564731,15.362245282722228],[105.83466776313834,15.361821617500034],[105.83466776313834,15.360292192259443],[105.83385619039785,15.358825124797093],[105.83385619039785,15.357326855622755],[105.83358859345172,15.356938913142967],[105.83358859345172,15.356586657183023],[105.83385619039785,15.356158567373702],[105.83383388317202,15.355605613147798],[105.83368230161196,15.355338049029585],[105.83278150476268,15.355052676304517],[105.83289743003968,15.354544346612393],[105.8334191842686,15.354374925719032],[105.83358859345172,15.354004857729972],[105.83350393363439,15.353362682851163],[105.83304014185951,15.3531977677168],[105.83133235531922,15.353197756266717],[105.83086408967657,15.353367199315514],[105.83078382080416,15.35364366060483],[105.83096218616932,15.353937906266955],[105.8306946829787,15.354365981926255],[105.8306946829787,15.355284604238358],[105.83057427979296,15.355440659385],[105.83005253355705,15.355614586671535],[105.82971811147472,15.356051589750612],[105.82771598126395,15.356060475658563],[105.8277293293244,15.357045968164128],[105.82745735158419,15.357777214365285],[105.82763123454012,15.358151754182689],[105.82799691782607,15.358437131688193],[105.82801922435067,15.358958888119894],[105.8283804291703,15.359681239365644],[105.82970028400854,15.360394699115124],[105.83049401104586,15.36063554122693],[105.83096218616932,15.361130468649712],[105.83110937579858,15.361643268302421],[105.83079277938195,15.362249676322987],[105.83032460468566,15.362619816778517],[105.82976272494028,15.363797040700836],[105.82709166936155,15.36381930975192],[105.82628012973743,15.364238430137426],[105.82572274140402,15.364876082569443],[105.82520109839122,15.36504551176964],[105.82466154028057,15.365585089459197],[105.82214660924126,15.370075410551836],[105.82207073363722,15.370646218035477],[105.82153118463548,15.371613843691513],[105.82153118463548,15.372532422358429],[105.8212592159847,15.372960458380854],[105.8212592159847,15.373879045619633],[105.82071966934517,15.374851121192467],[105.82034952137185,15.375016101520231],[105.82018460330914,15.375386173127684],[105.82018460330914,15.376304777846393],[105.81964497021778,15.377272456696158]]]]},"properties":{"id":"39197"}}]}