{"type":"FeatureCollection","features":[{"type":"Feature","geometry":{"type":"MultiPolygon","coordinates":[[[[80.72255468749998,23.24306933593749],[80.72250000000005,23.242750000000157],[80.72180468750017,23.242805664062587],[80.72157031250006,23.24294433593772],[80.72130468750018,23.24305566406248],[80.7208203125002,23.24344433593761],[80.72055468750014,23.24355566406264],[80.7200703125001,23.24394433593777],[80.71955468750016,23.24405566406263],[80.71907031250018,23.244444335937672],[80.71862109375004,23.24463378906259],[80.71794531250018,23.245437500000122],[80.71805468750014,23.245694335937614],[80.71844531250017,23.246180664062592],[80.71855468750013,23.246444335937497],[80.7189453125001,23.246930664062646],[80.7191367187501,23.247388671875214],[80.71955468750016,23.24769433593754],[80.71982031249993,23.247805664062668],[80.72030468749998,23.24819433593761],[80.72057031250009,23.24830566406264],[80.72080468750013,23.248444335937606],[80.72132031250018,23.248555664062636],[80.72180468750017,23.24894433593768],[80.7223203125001,23.24905566406271],[80.72255468749998,23.249194335937574],[80.72282031250009,23.24930566406252],[80.72305468750014,23.249444335937568],[80.72332031250008,23.249555664062683],[80.72374609375018,23.249805664062492],[80.72469531250019,23.249694335937463],[80.72492968750001,23.249555664062683],[80.72542578125021,23.249346679687548],[80.72555468750014,23.24830664062503],[80.72444531250008,23.247305664062594],[80.72399218750016,23.2471152343751],[80.72355468749996,23.246569335937536],[80.7234453125001,23.246305664062632],[80.72330468750002,23.246069335937563],[80.72319531250005,23.245555664062664],[80.72305468750014,23.245319335937495],[80.72294531250017,23.24405566406263],[80.72280468750014,23.24381933593756],[80.72269531250006,23.24330566406266],[80.72255468749998,23.24306933593749]]]]},"properties":{"id":"19831"}}]}