{"type":"FeatureCollection","features":[{"type":"Feature","geometry":{"type":"MultiPolygon","coordinates":[[[[76.30093359375027,25.00431054687506],[76.30158593750022,25.004189453125107],[76.30227343750008,25.004553710937458],[76.3028945312499,25.00412695312508],[76.30305859375014,25.003438476562664],[76.30130859375012,25.0015644531249],[76.30119140625013,25.00131054687509],[76.30075000000019,25.000749999999954],[76.29995703125016,25.000819335937564],[76.30069140624997,25.001685546875123],[76.30080859375013,25.001939453125104],[76.3010390625,25.00237499999993],[76.30075000000019,25.00292480468758],[76.29905859375012,25.00306054687512],[76.29881640625015,25.00318945312496],[76.29853125000002,25.003323242187463],[76.29817578125002,25.00330957031254],[76.29786718750026,25.002655273437554],[76.29746875000004,25.002439453125177],[76.29681640625009,25.002939453125066],[76.2963906250001,25.003140625000228],[76.29619140624996,25.00356445312518],[76.29555859375003,25.00431054687506],[76.29544140625015,25.00471289062503],[76.29569140625009,25.005185546875083],[76.29580859375014,25.005439453124964],[76.2960781250001,25.00583105468752],[76.29656640625015,25.00606054687509],[76.29680859375011,25.006189453125117],[76.30012500000018,25.006310546875085],[76.30030859375015,25.005966796874972],[76.29969140624999,25.005160156250184],[76.29998437500015,25.004608398437497],[76.30069140624997,25.004439453125002],[76.30093359375027,25.00431054687506]]]]},"properties":{"id":"19155"}}]}