{"type":"FeatureCollection","features":[{"type":"Feature","geometry":{"type":"MultiPolygon","coordinates":[[[[76.2781686740453,25.885142957899433],[76.27902777777805,25.882361111111308],[76.27192301432316,25.882842068142494],[76.26759657118086,25.882230088975774],[76.26723008897599,25.883150770399396],[76.26927775065113,25.884806586371823],[76.27096747504348,25.884705946180617],[76.27319064670152,25.883908148871612],[76.27368150499163,25.886537814670234],[76.27588473849838,25.88693657769106],[76.27659030490454,25.88614691840297],[76.2781686740453,25.885142957899433]]]]},"properties":{"id":"18884"}}]}