{"type":"FeatureCollection","features":[{"type":"Feature","geometry":{"type":"MultiPolygon","coordinates":[[[[76.32462890625013,22.612428710937564],[76.32449999999997,22.61225000000023],[76.32355078125019,22.61230175781266],[76.32332421875012,22.612448242187597],[76.3226992187501,22.612573242187636],[76.3228007812501,22.61294824218767],[76.32304687500002,22.61333496093758],[76.32257421875008,22.61369824218764],[76.32184375000006,22.613843750000015],[76.32166796875023,22.61472949218752],[76.32132421875,22.61494824218751],[76.32055078125009,22.61505175781255],[76.32032421875007,22.615198242187674],[76.31988281250008,22.615367187500084],[76.31955078125006,22.615801757812704],[76.31944921875024,22.616323242187676],[76.31930078125006,22.616551757812502],[76.31916796875012,22.617229492187704],[76.31882421875011,22.617448242187677],[76.31813671875008,22.61758593749998],[76.31787890625017,22.61825390624999],[76.31757421875008,22.618448242187554],[76.31708593750014,22.618635742187706],[76.31694921875007,22.619330078124975],[76.31746875000007,22.61991503906262],[76.31782421875008,22.620051757812547],[76.31821484375016,22.62030175781271],[76.31894921875008,22.62019824218757],[76.31917578125004,22.620051757812547],[76.32069921875026,22.61994824218749],[76.32092578125022,22.61980175781264],[76.32119921875008,22.61969824218768],[76.32142578125004,22.61955175781256],[76.32369921875008,22.6194482421876],[76.3239257812501,22.61930175781248],[76.32469921875,22.619198242187608],[76.32492578125007,22.61905175781267],[76.32519921875027,22.618948242187628],[76.32542578125006,22.618801757812506],[76.32594921875008,22.61869824218772],[76.3269257812502,22.617801757812543],[76.32719921875011,22.617698242187487],[76.32742578125007,22.617551757812635],[76.3276992187501,22.617448242187677],[76.32792578125006,22.617301757812555],[76.32865625000008,22.617156250000093],[76.32878515625,22.61651562500002],[76.32844921875025,22.616301757812593],[76.32742578125007,22.61619824218755],[76.32719921875011,22.616051757812514],[76.32651953124994,22.615916015625075],[76.32630078125007,22.615573242187523],[76.32619921875025,22.61530175781263],[76.32605078125007,22.61507324218755],[76.32594921875008,22.61405175781259],[76.3258007812502,22.613823242187507],[76.32569921875009,22.6135517578127],[76.3250507812501,22.612823242187545],[76.3249492187501,22.612551757812653],[76.32462890625013,22.612428710937564]]]]},"properties":{"id":"20156"}}]}