{"type":"FeatureCollection","features":[{"type":"Feature","geometry":{"type":"MultiPolygon","coordinates":[[[[105.43776312965063,12.117187965067592],[105.43776312965063,12.119502242549789],[105.43814214197572,12.120559036027476],[105.43918112270094,12.12206175957925],[105.44021117056695,12.122574590053327],[105.44093800920577,12.12314085380574],[105.44273058098119,12.123604579159721],[105.44557104020654,12.125223293276699],[105.44650297126313,12.125571027022614],[105.44981165745905,12.125450651761788],[105.45160861193324,12.124616790481898],[105.45246029671495,12.123952428054627],[105.45409680907493,12.123827522473508],[105.4549083661517,12.123595673932762],[105.45566199657266,12.123341541760102],[105.45740099112159,12.122302514168146],[105.4589081874391,12.120015063276298],[105.45965736515257,12.120006144952834],[105.4604109267544,12.119751941222933],[105.46157028617743,12.119056347990005],[105.46219011035802,12.118391901415164],[105.46301502618864,12.118271488418829],[105.46388455804329,12.117901396845685],[105.465850989148,12.116273880423932],[105.46736263948549,12.114539215022514],[105.46763022835289,12.113946197531856],[105.46797801403044,12.111863754588308],[105.4678531150838,12.110410116802726],[105.46759902602142,12.109768005047497],[105.46632813924793,12.107333307698642],[105.4653159066957,12.10625421506995],[105.46507514247952,12.1039176468552],[105.46458905547215,12.102700367050467],[105.46427247829257,12.102432782302229],[105.46377307248049,12.101545400507586],[105.46276532490737,12.100809677748883],[105.46253341505148,12.099984759258202],[105.46334501149619,12.099012647150962],[105.46424127656276,12.096970421729868],[105.464580204535,12.096939187489838],[105.46473621354377,12.09673852688919],[105.465850989148,12.096248018872004],[105.46736263948549,12.09496827277154],[105.46844175914904,12.092408767434163],[105.46855771797294,12.09101749777976],[105.46736710972714,12.086723354413133],[105.46609631405013,12.084868428078227],[105.4646872204417,12.083789270104752],[105.46408964875188,12.083820488180924],[105.46384888623155,12.084257490294062],[105.46335395177333,12.08464540904362],[105.46265831018219,12.086674299039451],[105.46246654210496,12.086718932658702],[105.46219458046686,12.087146968199136],[105.4614410111398,12.086919552905897],[105.46056255136014,12.086924018813837],[105.45988471172454,12.087552793729367],[105.45785138746632,12.08657179546923],[105.45650476129397,12.086576259150277],[105.45594288789282,12.086919560143262],[105.45536769590554,12.08691961964157],[105.45484149613694,12.08657180761202],[105.45345028383171,12.086571753014553],[105.45293302961012,12.086919551103856],[105.45192972530201,12.086946373682949],[105.45169782989764,12.087066744978971],[105.45142579570644,12.087539401023724],[105.45143473537075,12.088306388020342],[105.45169336005866,12.088716593605772],[105.45223734030797,12.089059942301072],[105.45226862928128,12.089523733331749],[105.45288842030502,12.090464552919414],[105.45262085411225,12.090968463469027],[105.45169782989764,12.09134746900164],[105.45153280351853,12.091681867169115],[105.45111818213756,12.091931611455948],[105.45084614885415,12.092404294974061],[105.45084614885415,12.093108844874035],[105.45122965958709,12.093813354050951],[105.45217047132108,12.094219143440416],[105.45221955029425,12.094312782352173],[105.4510155550059,12.094214707352029],[105.4506499239931,12.09436179743926],[105.44980718766861,12.096109778881189],[105.44993198426107,12.097211176427194],[105.44909819096462,12.097113044861734],[105.4481082286537,12.097835431697478],[105.44783628948035,12.098312547061838],[105.44781394078353,12.099008167179466],[105.44752412314381,12.099306997508622],[105.44706034441118,12.099458556753593],[105.44679725691073,12.099935688620203],[105.44682407519018,12.100515349067056],[105.44615960884029,12.101478561238904],[105.44527675663825,12.101398273123495],[105.4448620608046,12.101741605305602],[105.44440275883714,12.101768379970368],[105.44382304604225,12.102120635928754],[105.44355102419115,12.102597783154483],[105.44355102419115,12.103587732433514],[105.44261910899009,12.105340126293171],[105.44162471406155,12.105942112522666],[105.439421940425,12.108140435836491],[105.43857469974344,12.109656568900826],[105.43834282218629,12.110472535786679],[105.43845876092608,12.112902779407511],[105.43903398627545,12.11401757029983],[105.43776312965063,12.117187965067592]]]]},"properties":{"id":"22979"}}]}