{"type":"FeatureCollection","features":[{"type":"Feature","geometry":{"type":"MultiPolygon","coordinates":[[[[108.10909909087721,14.184846381658176],[108.10937112255644,14.183771686929234],[108.10937112255644,14.182960174198087],[108.1085595515336,14.182960154327233],[108.1082920438511,14.182692618383783],[108.10802444594165,14.182153051273147],[108.10802444594165,14.18053438709579],[108.10883158273677,14.179459758258048],[108.10909909087721,14.179187745641272],[108.11017817236743,14.179187793449515],[108.11044577212718,14.178648178297223],[108.11044577212718,14.177569106571738],[108.11125734807254,14.176762015896287],[108.11179689208771,14.176762040330601],[108.11233643704557,14.177301590238557],[108.11260394819581,14.177841134244474],[108.11314349454622,14.178108658419916],[108.11287145957047,14.177841148716183],[108.11260394819581,14.17756911137775],[108.11260394819581,14.176846800112202],[108.11260394819581,14.176494490121769],[108.11287145957047,14.175682879824578],[108.1142225900501,14.174336230132653],[108.11475770628695,14.174336255519009],[108.11556929345241,14.17460829310906],[108.1158368073782,14.174875803729122],[108.11610884494135,14.17541540228953],[108.11691591220645,14.175415342919948],[108.11745546602205,14.175147773963445],[108.11745546602205,14.174875847665618],[108.11718342729111,14.174875846542776],[108.11691591220645,14.174608254176022],[108.11664839735565,14.173796725401004],[108.11664839735565,14.173257137700972],[108.11691591220645,14.17298957489804],[108.11718342729111,14.172722098117305],[108.11853457644688,14.171370975336188],[108.11880209291488,14.171103418192544],[108.11880209291488,14.169756793886705],[108.11853457644688,14.16841008049532],[108.1182625367729,14.167331036357197],[108.11799502077182,14.166251902378477],[108.11799502077182,14.165444787700196],[108.1182625367729,14.164905259369817],[108.11853457644688,14.164633281679315],[108.11906960960746,14.16436568274608],[108.12042076693805,14.164365670313458],[108.12068828502308,14.164365689968491],[108.1212278453514,14.164365717762436],[108.1212278453514,14.164098163610092],[108.12042076693805,14.163826129792923],[108.11934164999141,14.163558595484346],[108.11906960960746,14.163286597402163],[108.11880209291488,14.16301910455988],[108.11880209291488,14.15978624909647],[108.11906960960746,14.158974688853363],[108.12014872562006,14.157900001544263],[108.1212278453514,14.156548927011755],[108.12149536412787,14.156281331500935],[108.12257448852162,14.155741832015494],[108.12365361663419,14.15574183172808],[108.12392113748595,14.15574177196308],[108.12392113748595,14.155202274741427],[108.12176740662258,14.155202256874034],[108.1212278453514,14.155474260642436],[108.12042076693805,14.156281397302521],[108.12014872562006,14.15654891762442],[108.11960916715103,14.156820924815321],[108.11906960960746,14.157088501722086],[108.11880209291488,14.15708847117034],[108.1182625367729,14.15654890290081],[108.1182625367729,14.155741847942664],[108.11799502077182,14.155474273991487],[108.11718342729111,14.154662708349505],[108.11691591220645,14.154395132511851],[108.11691591220645,14.153855623944338],[108.11718342729111,14.153588037884091],[108.11772298156492,14.153588101314071],[108.11799502077182,14.152508953788768],[108.11799502077182,14.151162342086451],[108.11772298156492,14.151162313061747],[108.11745546602205,14.150622779431359],[108.11745546602205,14.147389949902305],[108.11691591220645,14.146850390696983],[108.11664839735565,14.146578390243178],[108.11637635932524,14.146038790407076],[108.11637635932524,14.145499229225393],[108.11664839735565,14.144964138940779],[108.11691591220645,14.144692151117397],[108.11718342729111,14.144424594377966],[108.11745546602205,14.144152598298973],[108.11799502077182,14.144152598397923],[108.1182625367729,14.143613096442195],[108.1182625367729,14.14307797981003],[108.1182625367729,14.142538435166216],[108.1182625367729,14.142266405984557],[108.1174532046617,14.142266399038292],[108.11718342729111,14.142266396722718],[108.11691591220645,14.141998831072016],[108.11691591220645,14.141459287578044],[108.11718342729111,14.141187311037555],[108.11745546602205,14.141187267694008],[108.11772298156492,14.140919722066485],[108.11772298156492,14.139301117106115],[108.11745546602205,14.138766047545715],[108.1182625367729,14.137954481328904],[108.11960916715103,14.13714736489895],[108.11988120800194,14.137414909807575],[108.11988120800194,14.138226448167742],[108.12042076693805,14.13903356707695],[108.12068828502308,14.139301121274244],[108.12230696881957,14.139301124912393],[108.12311405211082,14.139033582492004],[108.12311405211082,14.137954466318078],[108.12284653195061,14.137954418608416],[108.12284653195061,14.13849401884002],[108.12257448852162,14.138765997563382],[108.12230696881957,14.13876603526576],[108.1212278453514,14.138494013908229],[108.12096032680816,14.13822646175909],[108.12096032680816,14.136340243842469],[108.12042076693805,14.13526112604265],[108.12014872562006,14.135261166394812],[108.12014872562006,14.135800676965431],[108.1182625367729,14.13741487229376],[108.11772298156492,14.137686876682196],[108.1158368073782,14.137686935728567],[108.11502974290684,14.137414917299367],[108.11341109685733,14.1374149243873],[108.11341109685733,14.137686864303575],[108.11314349454622,14.137954490940771],[108.11260394819581,14.138226489642733],[108.11098531474082,14.138226482267754],[108.11071771452274,14.13876605554971],[108.11071771452274,14.139033571290113],[108.11098531474082,14.139033542283457],[108.11098531474082,14.138766026857468],[108.11268419718212,14.13876602546081],[108.11341109685733,14.138766024863145],[108.11502974290684,14.139301115021823],[108.1158368073782,14.13957313054037],[108.11610884494135,14.139840687190187],[108.11637635932524,14.14011268326901],[108.11637635932524,14.140380194993867],[108.11610884494135,14.140652168776654],[108.1158368073782,14.140652209586932],[108.11556929345241,14.141187268286856],[108.11556929345241,14.142538394158223],[108.1158368073782,14.142538446475925],[108.1158368073782,14.14334551526835],[108.11556929345241,14.143613068297853],[108.11502974290684,14.144152616894232],[108.11475770628695,14.144424612487924],[108.11502974290684,14.146038825010152],[108.11529725636555,14.14685039625752],[108.11556929345241,14.147389917311571],[108.1158368073782,14.147389878665948],[108.1158368073782,14.148196976896159],[108.11556929345241,14.148464545448533],[108.11502974290684,14.148464548924863],[108.11475770628695,14.148736558550354],[108.11475770628695,14.150350783990248],[108.1142225900501,14.151162339292767],[108.11502974290684,14.151701869949633],[108.11529725636555,14.151969448437441],[108.11529725636555,14.152776491178614],[108.11502974290684,14.153048504855434],[108.11502974290684,14.154395153379681],[108.11502974290684,14.154934668648679],[108.11475770628695,14.155202268659892],[108.11368304183102,14.155474274817848],[108.11206440277945,14.15547423014469],[108.11125734807254,14.155741831629129],[108.11071771452274,14.156009397405782],[108.11071771452274,14.156548929554077],[108.11098531474082,14.156548879715544],[108.11098531474082,14.15628132906643],[108.11287145957047,14.156281331869167],[108.11395064460024,14.156548923283623],[108.11502974290684,14.15708849127462],[108.11556929345241,14.157627992008656],[108.11556929345241,14.158707133542123],[108.11556929345241,14.160053750831977],[108.1158368073782,14.160593318589477],[108.1158368073782,14.161672397636124],[108.11556929345241,14.163019100517431],[108.11502974290684,14.163286613042004],[108.11502974290684,14.163826164315083],[108.11502974290684,14.165712395446107],[108.1144901932864,14.167058962852394],[108.1142225900501,14.167331029539],[108.11179689208771,14.167598573656974],[108.11125734807254,14.16759852725906],[108.11071771452274,14.167330998457103],[108.11017817236743,14.166791456535208],[108.11017817236743,14.166069044351985],[108.10963863115515,14.166523916100246],[108.10963863115515,14.16705897701884],[108.10991066330158,14.168677655955506],[108.11017817236743,14.16867768505206],[108.11098531474082,14.168410092631476],[108.11179689208771,14.168410154749964],[108.11341109685733,14.169484749460608],[108.11395064460024,14.16948478532143],[108.11502974290684,14.169756770764039],[108.11529725636555,14.17002427881495],[108.11529725636555,14.170563856696347],[108.11502974290684,14.170835842606238],[108.11260394819581,14.170835869807235],[108.11260394819581,14.172182542092031],[108.11287145957047,14.172722070485193],[108.11287145957047,14.17325714857067],[108.11152485829749,14.174875787280854],[108.11152485829749,14.175415393809558],[108.11125734807254,14.17595489872079],[108.11098531474082,14.176222480271846],[108.10963863115515,14.176222494509958],[108.1085595515336,14.17676204855016],[108.10883158273677,14.177569105071512],[108.10883158273677,14.178108643714523],[108.1085595515336,14.178380663203583],[108.10802444594165,14.178648228719723],[108.10667334235765,14.17972733865021],[108.10640583631002,14.180266871005088],[108.10640583631002,14.18080642634763],[108.10613380722694,14.181073937174276],[108.10532667743016,14.18134593233684],[108.10451964020459,14.181345964505596],[108.10424761276542,14.181073998089104],[108.10398001834167,14.180806459612214],[108.10371251460256,14.179187757472064],[108.10371251460256,14.178108649113398],[108.10344048787337,14.17810863253058],[108.10317298460146,14.17972727497758],[108.10317298460146,14.180534443914254],[108.10344048787337,14.18134598763723],[108.10398001834167,14.18242283455696],[108.10424761276542,14.182420567894013],[108.10532667743016,14.182420627344499],[108.10586630163763,14.18269260343574],[108.10613380722694,14.182960145613762],[108.10613380722694,14.183499712490715],[108.10586630163763,14.18377173847459],[108.10559870581247,14.18377172835956],[108.10559870581247,14.184578827793516],[108.10694537191651,14.184846318722208],[108.10775241544835,14.184846349094457],[108.10909909087721,14.184846381658176]]]]},"properties":{"id":"39214"}}]}