{"type":"FeatureCollection","features":[{"type":"Feature","geometry":{"type":"MultiPolygon","coordinates":[[[[108.0281252034496,12.410409071180851],[108.02939663357117,12.40903700086838],[108.03206617567176,12.41013346354201],[108.03262173122712,12.409366319444786],[108.03328308105378,12.407277832031554],[108.0358601209841,12.40582709418436],[108.03553731282463,12.40498914930582],[108.032073771158,12.403640136719204],[108.03169345431749,12.402922092014165],[108.03142652723412,12.401244574652978],[108.03031541612305,12.399629991319713],[108.03115227593233,12.39772677951423],[108.03363789876195,12.396553548177437],[108.03337097167858,12.395966796875314],[108.03155999077583,12.395277777778077],[108.02924146864055,12.395594618055824],[108.02724114311954,12.396886393229494],[108.02729973686954,12.398363444010826],[108.02659959581055,12.402021213107943],[108.02486999511635,12.405171169705099],[108.02284335666124,12.406480034722534],[108.02225986056757,12.407583007812818],[108.02266432020289,12.408937717014169],[108.02741882324116,12.410689019097518],[108.0281252034496,12.410409071180851]]]]},"properties":{"id":"10479"}}]}