{"type":"FeatureCollection","features":[{"type":"Feature","geometry":{"type":"MultiPolygon","coordinates":[[[[77.10394531250003,26.48019531250003],[77.10435937500014,26.47994531250005],[77.10557031250008,26.48005468750013],[77.10598437500002,26.48030468750011],[77.10594531250021,26.479554687500055],[77.10576171875024,26.479250000000107],[77.1060546875,26.478764648437703],[77.10594531250021,26.478054687500105],[77.10575000000009,26.477750000000086],[77.10505468750009,26.477804687500125],[77.10457031250004,26.478195312500205],[77.10430468749999,26.478304687500014],[77.10382031250018,26.478695312500093],[77.10344531250004,26.47884863281263],[77.10355468750012,26.479195312500067],[77.10379296875007,26.47959374999995],[77.10332031250007,26.47994531250005],[77.10282812499989,26.480147460937502],[77.10276953125006,26.480552734375067],[77.1031796875001,26.48030468750011],[77.10394531250003,26.48019531250003]]]]},"properties":{"id":"31189"}}]}