{"type":"FeatureCollection","features":[{"type":"Feature","geometry":{"type":"MultiPolygon","coordinates":[[[[76.12945224338083,23.843896755642888],[76.1302218967011,23.840588785807867],[76.1298611111109,23.839583333333778],[76.1292243787976,23.839780002170556],[76.12883409288176,23.841043836805994],[76.12786749945715,23.841381022135863],[76.12667446560326,23.8405476888026],[76.12560336642767,23.840217013889372],[76.1239820014105,23.840313585069936],[76.12169942220024,23.8417247178824],[76.12149943033839,23.842769911024746],[76.12411397298158,23.841952311198412],[76.12561991373687,23.843119303385834],[76.12683464898001,23.843676757812986],[76.12721442328544,23.844336344401626],[76.12363213433153,23.845105251736484],[76.12430867513021,23.846350233290522],[76.1288477918836,23.846658799913698],[76.12945224338083,23.843896755642888]]]]},"properties":{"id":"19503"}}]}