{"type":"FeatureCollection","features":[{"type":"Feature","geometry":{"type":"MultiPolygon","coordinates":[[[[83.23541205512143,25.022177191840697],[83.23750759548622,25.021956380208707],[83.24028591579881,25.02109592013919],[83.24054524739577,25.02167697482676],[83.24117757161449,25.02193413628511],[83.24221191406261,25.020267469618474],[83.24288221571172,25.019690212673922],[83.24360080295148,25.017683376736485],[83.24235649956589,25.017232530382373],[83.2404351128474,25.019212782118387],[83.2392732747397,25.019119466146194],[83.23789252387147,25.018349066840685],[83.23596381293422,25.01566297743112],[83.23864284939233,25.01280815972258],[83.23833848741313,25.012232530382292],[83.23612141927075,25.014176974826782],[83.23439914279535,25.015332031250438],[83.23265489366335,25.015856662326797],[83.23143554687519,25.015759006076863],[83.22978027343751,25.016682400173963],[83.22926676432289,25.016641167535056],[83.22857394748272,25.013377821180853],[83.22876274956613,25.011030815972717],[83.23028808593747,25.00862141927118],[83.23097222222216,25.004861111111495],[83.23041720920136,25.00502821180592],[83.22927164713562,25.006857096354537],[83.22889919704849,25.008899197049118],[83.22804524739573,25.010267469618412],[83.22766601562492,25.011526692708657],[83.22781032986123,25.015265842014387],[83.22905978732629,25.01686143663234],[83.2294341362846,25.017981228298922],[83.22850802951396,25.01928710937554],[83.22738769531239,25.019711914062867],[83.22795871310782,25.018157009549014],[83.22739501953137,25.017788085937894],[83.22582302517375,25.018600802951752],[83.22500542534718,25.019382052951826],[83.22418402777791,25.021743164062897],[83.22743381076398,25.02159396701431],[83.22686469184035,25.02261393229206],[83.22714762369807,25.02332302517408],[83.22879014756953,25.02215874566012],[83.23004503038189,25.022207573785124],[83.23054660373273,25.022789713541968],[83.23335205078152,25.023453776042075],[83.23541205512143,25.022177191840697]],[[83.23135715060758,25.02168782552124],[83.2314770507812,25.01969238281292],[83.23091118706591,25.017344292535242],[83.23223741319461,25.017082248264245],[83.23365641276033,25.01766493055591],[83.23523790147564,25.017055121528102],[83.23569444444465,25.016527777778194],[83.23692165798619,25.020263671875384],[83.23639919704877,25.020972764757303],[83.23554361979163,25.02080349392395],[83.23488986545144,25.021218532986538],[83.23352484809041,25.02134440104207],[83.23303738064251,25.022024739583657],[83.23135715060758,25.02168782552124]]]]},"properties":{"id":"19146"}}]}