{"type":"FeatureCollection","features":[{"type":"Feature","geometry":{"type":"MultiPolygon","coordinates":[[[[80.56332804361969,23.82028306749156],[80.5627969021264,23.81750122070335],[80.56194973415771,23.81688856336835],[80.56304375542507,23.81587483723989],[80.56407212999105,23.813835720486296],[80.56374999999971,23.812916666666936],[80.56230027940504,23.813447129991673],[80.56194973415771,23.815283067491563],[80.56110582139772,23.815550265842305],[80.56049967447908,23.816105821397727],[80.5593545193141,23.81549981011311],[80.55833862304681,23.816207817925573],[80.56001627604135,23.81776231553843],[80.55955607096351,23.818631998698137],[80.55801845974364,23.818618028429015],[80.5574539523652,23.819227430555827],[80.55531392415341,23.820237358941185],[80.55472751193551,23.820734592014134],[80.55803521050345,23.822189263238045],[80.55856316460503,23.822759060330142],[80.56088663736946,23.824066975911663],[80.56343770345049,23.82499471028686],[80.56416137695285,23.823690456814518],[80.5625642225477,23.8231848144533],[80.56361640082454,23.82250528971379],[80.56388359917528,23.82186808268257],[80.56332804361969,23.82028306749156]]]]},"properties":{"id":"19518"}}]}