{"type":"FeatureCollection","features":[{"type":"Feature","geometry":{"type":"MultiPolygon","coordinates":[[[[105.21368945312511,14.420691406249972],[105.21416210937511,14.420441406250077],[105.21456445312495,14.42055859375013],[105.21545214843766,14.421308593750013],[105.21618945312522,14.421191406250045],[105.21643554687492,14.421058593750203],[105.21693457031265,14.420824218750084],[105.2169541015625,14.420335937499985],[105.21681054687517,14.420066406249958],[105.21668945312521,14.419808593750162],[105.21656054687506,14.41956640624997],[105.2164394531251,14.419058593750009],[105.21619140625015,14.418589843750127],[105.21617578125003,14.418199218750047],[105.21662500000005,14.417960937500027],[105.21706054687505,14.418191406250074],[105.21731445312523,14.418308593750126],[105.2176250000002,14.418472656250074],[105.21793554687517,14.418308593750126],[105.21893945312522,14.418191406250074],[105.21941210937516,14.417941406249994],[105.2203144531251,14.418058593750047],[105.22078710937504,14.418308593750126],[105.22168164062501,14.418144531250007],[105.22169921875022,14.417699218750073],[105.2214394531251,14.417558593750158],[105.22118554687515,14.417441406250106],[105.2207500000001,14.417210937500059],[105.2203144531251,14.417441406250106],[105.21881054687506,14.417558593750158],[105.21833789062512,14.417808593749967],[105.21793554687517,14.417691406250086],[105.21768945312513,14.417558593750158],[105.2174355468749,14.417441406250106],[105.2171894531252,14.417308593749993],[105.21599707031268,14.417167968749993],[105.21581054687502,14.416816406249993],[105.21568945312495,14.416558593750196],[105.21544140625011,14.416089843750044],[105.21606054687507,14.41528125000005],[105.21593945312512,14.414558593750002],[105.21568945312495,14.414085937500047],[105.21581054687502,14.413683593749994],[105.21593945312512,14.413441406249987],[105.21606054687507,14.413183593750105],[105.2171894531252,14.411941406250136],[105.21731054687515,14.411433593750175],[105.21743945312508,14.411191406249984],[105.21750000000017,14.410500000000127],[105.21715527343767,14.410609374999936],[105.21693945312498,14.411066406249944],[105.21606054687507,14.412058593750103],[105.21582910156249,14.41255078125019],[105.21556445312521,14.412691406250104],[105.21509570312506,14.412910156250078],[105.2149394531252,14.413566406250027],[105.21481054687516,14.413808593750119],[105.21468945312498,14.4140664062501],[105.21456054687516,14.414308593750107],[105.21441601562506,14.415214843750121],[105.2130644531251,14.416441406250144],[105.21207714843766,14.416597656250104],[105.2119394531251,14.418316406249929],[105.21181054687489,14.41855859375012],[105.21168945312522,14.418816406250087],[105.21056054687514,14.420058593749971],[105.21039746093774,14.42074218749994],[105.20981445312512,14.421191406250045],[105.209560546875,14.421308593750013],[105.20781445312494,14.422941406249976],[105.20756054687504,14.423058593750127],[105.20731445312506,14.423191406250155],[105.20611425781252,14.423332031250055],[105.20589160156263,14.424265625000189],[105.20556445312494,14.424441406250097],[105.20456054687489,14.424558593749978],[105.20406445312508,14.424941406250085],[105.20358300781251,14.42516796875013],[105.2029394531252,14.425957031250007],[105.20306054687504,14.42644140625012],[105.2038144531252,14.426558593750173],[105.20406054687501,14.4266914062501],[105.2058144531251,14.426808593749982],[105.20606054687514,14.426941406250094],[105.2080644531251,14.427058593750061],[105.20831054687514,14.427191406250088],[105.20856445312509,14.42730859375014],[105.20903710937509,14.42755859375005],[105.20993945312526,14.427441406249983],[105.210685546875,14.426808593749982],[105.21093945312512,14.4266914062501],[105.21143554687504,14.426308593750008],[105.2119394531251,14.426191406249941],[105.21218554687513,14.4260585937501],[105.21293261718748,14.425882812500106],[105.21294921875008,14.425449218750131],[105.2126894531252,14.425308593750216],[105.2114970703125,14.42516796875013],[105.21118945312494,14.424585937499998],[105.2113105468749,14.42418359375013],[105.21143945312511,14.423941406249938],[105.21167089843763,14.423449218749937],[105.21193554687503,14.423308593750207],[105.21268261718765,14.423132812500214],[105.21269433593753,14.422820312500022],[105.21256054687504,14.422566406250041],[105.21243945312497,14.422308593749975],[105.2119394531251,14.421656250000112],[105.21222753906252,14.421125000000032],[105.21268554687506,14.420808593750124],[105.21368945312511,14.420691406249972]]]]},"properties":{"id":"22345"}}]}