{"type":"FeatureCollection","features":[{"type":"Feature","geometry":{"type":"MultiPolygon","coordinates":[[[[77.4463991970488,26.625660536024554],[77.44684950086824,26.624485677083484],[77.449063856337,26.62451416015645],[77.44857557508695,26.622892795139194],[77.4475103081601,26.62165635850718],[77.44639675564255,26.621321072048758],[77.44513888888903,26.61986111111119],[77.44429199218771,26.6201161024308],[77.44556586371564,26.62165635850718],[77.44606445312516,26.62331244574669],[77.44665635850734,26.623822428385566],[77.44556586371564,26.62473253038209],[77.44445475260434,26.625228407118215],[77.4447271050349,26.625880262587017],[77.44603569878527,26.626464301215492],[77.44649332682329,26.62748969184061],[77.44719997829876,26.62709581163216],[77.4463991970488,26.625660536024554]]]]},"properties":{"id":"18750"}}]}