{"type":"FeatureCollection","features":[{"type":"Feature","geometry":{"type":"MultiPolygon","coordinates":[[[[99.86766547309045,19.200687866211368],[99.86850585937518,19.198979560004744],[99.87005805121541,19.199041069878817],[99.87379937065967,19.194215562608875],[99.87481065538188,19.19102193196663],[99.87738606770827,19.18562540690141],[99.87733615451393,19.184374660916234],[99.87767957899317,19.183065049913566],[99.8791124131944,19.18173733181463],[99.88129231770856,19.18182373046926],[99.88307128906243,19.18088222927564],[99.8844601779513,19.179383205838164],[99.88653320312514,19.17792195638056],[99.88960123697913,19.17511230468783],[99.89125542534728,19.174588623047285],[99.89246636284716,19.173659871419687],[99.89569986979186,19.168755289713843],[99.8963042534721,19.16747483995269],[99.8962125651041,19.16516391330336],[99.89683756510439,19.163982815213018],[99.89958767361125,19.16311204698394],[99.90186360677095,19.16320224338139],[99.90328993055564,19.16474134657153],[99.90496961805567,19.16337443033889],[99.9062364366321,19.16404486762191],[99.90689941406256,19.164018554687857],[99.90894639756951,19.1629355197487],[99.911533203125,19.162088623047225],[99.91402235243086,19.159608832465636],[99.90791775173605,19.159264187283384],[99.90620442708334,19.15787014431467],[99.90563910590296,19.156671956380563],[99.90570366753482,19.155044962565512],[99.90661566840274,19.153321668837165],[99.9061941189236,19.152644178602856],[99.90352430555558,19.15402459038667],[99.90200683593773,19.15430026584228],[99.89985460069462,19.152128160265107],[99.89711859809026,19.153252020942162],[99.89569986979186,19.15569973415836],[99.89502007378488,19.156329413520353],[99.89250162760405,19.157633599175725],[99.89005750868071,19.154995930989912],[99.88861707899301,19.15393968370276],[99.88715766059053,19.15236416286932],[99.88611924913218,19.150755954318996],[99.88448784722235,19.149986097548123],[99.88392035590309,19.148784044054224],[99.88221896701404,19.148378770616745],[99.88181098090271,19.147860785590595],[99.88295518663202,19.146800604926526],[99.88290581597218,19.145559963650598],[99.88027777777799,19.144444444444872],[99.87923285590276,19.144907769097657],[99.8773665364586,19.144833780924827],[99.87189019097238,19.14703030056468],[99.87027832031256,19.14788330078163],[99.86593207465265,19.151014607747797],[99.86485568576396,19.15152248806463],[99.86395399305556,19.152697143555187],[99.86264431423623,19.1533670383033],[99.86376139322917,19.15499057345957],[99.86374294704868,19.15545376247863],[99.86157172309018,19.157465616862254],[99.8595659722221,19.159846327040313],[99.85960015190963,19.160707126193955],[99.85898003472218,19.162476671007397],[99.857660047743,19.16369988335542],[99.85629991319465,19.166013522678313],[99.85597764756952,19.16736640082506],[99.85484809027773,19.16883917914525],[99.85481716579883,19.172774590386666],[99.85525499131975,19.174444444444802],[99.85470757378462,19.176532999674905],[99.85632866753471,19.178647121853643],[99.85540256076379,19.180760362413693],[99.85546061197928,19.182219034831135],[99.855042860243,19.183814222548065],[99.85611111111123,19.18741665310371],[99.85786838107632,19.18957573784759],[99.85856445312513,19.192497422960457],[99.85992133246523,19.193754950629653],[99.85985243055543,19.19549608018707],[99.85874457465272,19.196522488064517],[99.85847764756934,19.197139214410157],[99.85930664062496,19.199337022569892],[99.85992296006961,19.199908175998615],[99.86297471788211,19.199787258572414],[99.86612792968745,19.20074883355072],[99.86766547309045,19.200687866211368]]]]},"properties":{"id":"7644"}}]}