{"type":"FeatureCollection","features":[{"type":"Feature","geometry":{"type":"MultiPolygon","coordinates":[[[[79.18811857440599,25.20810154217645],[79.19129118908043,25.207467019241633],[79.19303612715126,25.20810154217645],[79.19763641842931,25.19858369815313],[79.19668463402698,25.197156021549617],[79.19430517302115,25.198266436685728],[79.19303612715126,25.196204237147214],[79.19224297348282,25.195886975679812],[79.19018077394432,25.19763191375064],[79.1892289895421,25.196680129348508],[79.18684952853627,25.195093822011287],[79.18415280606311,25.193666145407676],[79.182407867992,25.193507514674067],[79.18335965239433,25.195569714212397],[79.18510459046516,25.197949175218312],[79.182407867992,25.19652149861463],[79.17955251478506,25.195728344946104],[79.17511085424073,25.194776560543872],[79.17463496203962,25.195728344946104],[79.17812483818156,25.197156021549617],[79.18177334505711,25.198425067419336],[79.18399417532922,25.200011374756556],[79.18558048266644,25.200963159158874],[79.18161471432356,25.201121789892753],[79.181297452856,25.202232205028693],[79.18605637486766,25.203818512365913],[79.18764268220488,25.203183989430997],[79.18938762027571,25.20334262016479],[79.1903394046781,25.20461166603461],[79.18605637486766,25.205880711904413],[79.18589774413394,25.206832496306646],[79.18558048266644,25.209846480247464],[79.18811857440599,25.20810154217645]]]]},"properties":{"id":"4921"}}]}