{"type":"FeatureCollection","features":[{"type":"Feature","geometry":{"type":"MultiPolygon","coordinates":[[[[103.27842013888605,17.735404866536783],[103.27704427083026,17.733435194227795],[103.27709499782682,17.732581922743393],[103.27824571397284,17.732091200087368],[103.27934705945879,17.733216824002156],[103.27994710286171,17.733181016710446],[103.28164360893808,17.731468641493535],[103.2844458007784,17.730424533420646],[103.28723280164647,17.731170925564555],[103.28763102213256,17.729800482856348],[103.28596435546567,17.729035644531592],[103.28318413628173,17.72650363498299],[103.2816715494761,17.726511501736454],[103.2793223741289,17.725668674045522],[103.27810845268792,17.725681152344094],[103.27728759765333,17.724762369792103],[103.27765706379901,17.720584038628914],[103.27703911675061,17.71837863498307],[103.27961452907707,17.716077473958677],[103.27927680121226,17.710485839844267],[103.27757107204556,17.70840684678869],[103.27560438367757,17.70750434027819],[103.27322102864278,17.708142632378795],[103.27096815320888,17.706638997396126],[103.26999999999705,17.70555555555589],[103.26901068793089,17.705740288628817],[103.26688883463234,17.70876871744835],[103.26506890190663,17.709603949653086],[103.26310845268799,17.709646267361535],[103.26195746527483,17.712015245226084],[103.26369113497955,17.713733995226008],[103.26402859157693,17.71518391927127],[103.26464219834767,17.715732421875416],[103.26542290581293,17.71568576388931],[103.2662280273407,17.716123318142678],[103.26540879991038,17.71763102213579],[103.26427408853883,17.721148274739903],[103.26346435546597,17.72151991102467],[103.26169894747957,17.72302164713578],[103.26097222221935,17.722626953125328],[103.25921576605626,17.723532986111465],[103.25755289713246,17.722371690538523],[103.25615505642057,17.723131239149637],[103.25626790364291,17.72502332899346],[103.25792453341714,17.725408799913538],[103.25983452690681,17.727546657986508],[103.26013102213236,17.7282754177521],[103.25848008897285,17.729942084418823],[103.25906982421569,17.731027696397902],[103.2601451280353,17.730963541667037],[103.26095648871242,17.7314044867625],[103.26344048393801,17.731982421875415],[103.26267008463262,17.73412963867223],[103.26394829643809,17.735271809896133],[103.26487358940679,17.736726345486417],[103.26603162977145,17.735917561849377],[103.26651991102122,17.734853244357993],[103.26732801649015,17.734035644531573],[103.26763102213252,17.735980088976063],[103.26802897135113,17.7367119683163],[103.27001654730608,17.73717447916708],[103.27241997612535,17.7404710557729],[103.27454996744493,17.740344102648095],[103.2761943901879,17.73945054796043],[103.27720323350403,17.73832126193618],[103.27842013888605,17.735404866536783]]]]},"properties":{"id":"10180"}}]}