{"type":"FeatureCollection","features":[{"type":"Feature","geometry":{"type":"MultiPolygon","coordinates":[[[[99.64296956454571,19.697490276925304],[99.64282240173841,19.69780691839708],[99.64290711378479,19.69809227488998],[99.6431970216554,19.6981680420895],[99.64420924300451,19.697904959761395],[99.64429395645006,19.697717684320967],[99.64424042637923,19.69748142497622],[99.64382569693926,19.697717681130463],[99.64337536817277,19.697717698415246],[99.64296956454571,19.697490276925304]]],[[[99.64433856486849,19.697276260523342],[99.64472644668662,19.697450183095903],[99.64547111682411,19.69727629627533],[99.64618010603049,19.696371080425276],[99.64615784381434,19.696174836448172],[99.64571192097203,19.695920737483323],[99.64472644668662,19.695920677612886],[99.64433856486849,19.69609464261415],[99.64420924300451,19.696371047606945],[99.64436082660235,19.696625205877023],[99.64433856486849,19.697276260523342]]],[[[99.64228286362953,19.68298482609086],[99.64245678994514,19.683809795880407],[99.64284024479022,19.68397480247999],[99.64355821835426,19.683974756026785],[99.64420924300451,19.68353328627848],[99.64438308834212,19.683167679221576],[99.64436082660235,19.682610257939977],[99.64420473968431,19.682342774184427],[99.64337536817277,19.682177714168112],[99.64245228671894,19.682619188684136],[99.64228286362953,19.68298482609086]]],[[[99.64296956454571,19.697490276925304],[99.64337536817277,19.697267355499896],[99.64382569693926,19.697267338659778],[99.64424042637923,19.69748142497622],[99.64433856486849,19.697276260523342],[99.64416905300455,19.69691064073245],[99.64420473968431,19.69635771998647],[99.64337536817277,19.6961926811799],[99.6429919108837,19.69636218149317],[99.64282240173841,19.696732241706027],[99.64296956454571,19.697490276925304]]],[[[99.63554521687848,19.68595018924178],[99.63556747628024,19.686503042449832],[99.63625862514733,19.687582194447916],[99.63673576332323,19.687747202121024],[99.63744918171471,19.68828673321391],[99.63897425387474,19.688286720272743],[99.63933092934573,19.68813952948468],[99.63985710914788,19.688674665859057],[99.64012466090497,19.689214209335507],[99.64012466090497,19.689722515055546],[99.63933543240448,19.689722530951038],[99.63894749053107,19.689896481822654],[99.63877798955271,19.69071247204644],[99.63895641164467,19.69108705593435],[99.63970103060313,19.691252018981867],[99.64039671663059,19.691992270056062],[99.63951377071795,19.69160874028523],[99.63867994252651,19.691782633201303],[99.63851044208852,19.692148283688105],[99.63862199797737,19.694498244255303],[99.63895641164467,19.69485939068852],[99.63967426702771,19.695216138308652],[99.64024063708244,19.695291931315897],[99.6408426112446,19.695934057925804],[99.64122164052183,19.696103524711507],[99.64178343286099,19.696081239335868],[99.64205549396262,19.695929609794657],[99.64222491659318,19.695563958893228],[99.64339762965128,19.69554171652054],[99.64367411430744,19.69539002667221],[99.64384354020427,19.695024375861465],[99.64382127860755,19.69393194469455],[99.64346008077705,19.693214032978496],[99.64322378635396,19.693049008344925],[99.64357597659478,19.69232669903293],[99.64354929675159,19.69150618712987],[99.64330399553342,19.69122077285001],[99.64330399553342,19.690601030777763],[99.64357597659478,19.690172879580572],[99.64357597659478,19.689455001581205],[99.64330399553342,19.689062642779856],[99.64330399553342,19.687635697012237],[99.64357597659478,19.687207639800885],[99.64357597659478,19.686288998427937],[99.64384354020427,19.685861001256523],[99.64373206234401,19.684857693101154],[99.64301859054976,19.684331497013865],[99.64200638355489,19.6844430164215],[99.64174332898803,19.684871037156185],[99.64174332898803,19.685321371369575],[99.64201088675716,19.685959045155744],[99.64169430372867,19.68610174139666],[99.64103429227916,19.68595010625357],[99.64005329102928,19.68541062955869],[99.63879583174483,19.68541060660058],[99.63839005025602,19.68568257179255],[99.63806906285512,19.68568260622613],[99.63762760098155,19.68541062166703],[99.63610255329517,19.68541061173872],[99.63571462636715,19.685584460822227],[99.63554521687848,19.68595018924178]]]]},"properties":{"id":"39313"}}]}