{"type":"FeatureCollection","features":[{"type":"Feature","geometry":{"type":"MultiPolygon","coordinates":[[[[77.1543678114148,24.715071953668115],[77.15563001844632,24.714177008735376],[77.15834364149285,24.714434102376856],[77.15933946397573,24.714989657932463],[77.16062744140609,24.71442789713592],[77.16117404513895,24.713793504503712],[77.16311618381062,24.71394955105299],[77.16213840060752,24.712570529514522],[77.16227728949636,24.710842963325305],[77.16165635850686,24.71056589762418],[77.16139919704861,24.709156324599206],[77.15802775065109,24.708541327582964],[77.1580673556858,24.708047044542766],[77.15680555555562,24.70652777777829],[77.15447726779499,24.707983839247547],[77.15408610026046,24.709413214790104],[77.15417860243039,24.71056518554738],[77.15328789605027,24.710962592231468],[77.15340359157969,24.712402818468405],[77.15278808593777,24.713506062826056],[77.15318671332469,24.714977077908515],[77.1543678114148,24.715071953668115]]]]},"properties":{"id":"19246"}}]}