{"type":"FeatureCollection","features":[{"type":"Feature","geometry":{"type":"MultiPolygon","coordinates":[[[[76.13554524739592,27.486676974826608],[76.13507229275186,27.486128200955108],[76.1347132025825,27.48609917534742],[76.13423326280409,27.48665635850712],[76.13309570312529,27.486193847656423],[76.13297878689244,27.484738769531504],[76.13359917534743,27.48189425998298],[76.13248969184056,27.481399197048958],[76.13223253038208,27.48054524739618],[76.13180555555553,27.480138888889158],[76.1294547526044,27.480283203125282],[76.13056837293848,27.484165581597495],[76.13021640353767,27.485779351128755],[76.12988830566408,27.489862196180837],[76.13048326280389,27.491838107639026],[76.13157660590306,27.49301812066001],[76.13387858072949,27.49445475260444],[76.136836819119,27.49582166883708],[76.13806586371541,27.49610080295166],[76.1396202256947,27.497202962239854],[76.14047587076826,27.497271592882186],[76.14243686252203,27.495582139757133],[76.1431491427953,27.494305555555854],[76.14276170518698,27.493611111111335],[76.14349439832907,27.492105577257206],[76.14498969184055,27.491438259548744],[76.1447093370227,27.4892534722224],[76.14263739691862,27.488875596788347],[76.13980516221815,27.48749810112868],[76.13599060058627,27.48706081814258],[76.13554524739592,27.486676974826608]]]]},"properties":{"id":"9415"}}]}