{"type":"FeatureCollection","features":[{"type":"Feature","geometry":{"type":"MultiPolygon","coordinates":[[[[79.65219140625001,23.635189453125065],[79.65266406250018,23.634939453124986],[79.65331640625001,23.635060546875124],[79.65355859375009,23.635189453125065],[79.65431640625005,23.635310546875118],[79.65455859375007,23.63543945312496],[79.65506640625014,23.635560546875197],[79.65530859375016,23.63568945312504],[79.65656640625005,23.635810546875007],[79.65721875,23.63631054687508],[79.6575117187501,23.63615234375007],[79.65705859375018,23.635564453125],[79.65694140625018,23.635060546875124],[79.65671093750015,23.634625000000113],[79.65705859375018,23.633962890625142],[79.65655859375019,23.633324218750204],[79.65543359375019,23.633189453124956],[79.65469140625018,23.632560546875126],[79.65168359375005,23.632439453125173],[79.65144140625014,23.63231054687496],[79.65118359375006,23.632189453124994],[79.65094140625004,23.632060546875053],[79.65066796875013,23.631932617187687],[79.65050000000011,23.631750000000082],[79.64905859375008,23.631810546875073],[79.64881640625018,23.6319394531251],[79.64830859375004,23.632060546875053],[79.64806640625014,23.632189453124994],[79.64780859375006,23.63231054687496],[79.64756640625004,23.632439453125173],[79.64681640625017,23.632618164062507],[79.64678515624999,23.633396484375155],[79.64705859375002,23.633912109375004],[79.64694140625014,23.634814453125117],[79.64655859374992,23.635310546875118],[79.64644140625003,23.635564453125],[79.64619140624998,23.636035156250017],[79.64669140625014,23.6366855468752],[79.64680859375008,23.63718945312499],[79.64694140625014,23.637435546875082],[79.64711718750013,23.637810546875286],[79.64744140625001,23.637689453124963],[79.64793359375008,23.637310546875128],[79.64844140624999,23.63718945312499],[79.64868359375018,23.63706054687505],[79.64919140625014,23.63693945312518],[79.65043359374991,23.635810546875007],[79.65119140625015,23.63568945312504],[79.65168359375005,23.635310546875118],[79.65219140625001,23.635189453125065]]]]},"properties":{"id":"19617"}}]}