{"type":"FeatureCollection","features":[{"type":"Feature","geometry":{"type":"MultiPolygon","coordinates":[[[[76.33282145182292,24.547649434408015],[76.3340001085069,24.54542192247223],[76.33599392361091,24.542814907498368],[76.33776190863713,24.541095241971064],[76.34131252712675,24.539158121745317],[76.34489786783834,24.538501485189258],[76.34527248806413,24.535996059842077],[76.3443770345049,24.533894178603063],[76.33738945855029,24.536661376953603],[76.33653930664067,24.535344780816516],[76.3376470269097,24.5343183729389],[76.33971693250842,24.53340783013276],[76.33855523003476,24.533060845269603],[76.33637301974815,24.53421559651757],[76.33483995225671,24.534154832628616],[76.332083875868,24.52996826171929],[76.33293199327258,24.528365478516065],[76.33542968749984,24.527574734158605],[76.34001586914033,24.525293646918982],[76.34186211480036,24.523440212674146],[76.34401340060779,24.52186231825138],[76.34507785373248,24.52135996500695],[76.34611640082468,24.52028306749179],[76.34668986002609,24.518225606283096],[76.34665527343745,24.517352362739217],[76.34587904188365,24.516949734158615],[76.34556084526909,24.518616400825152],[76.34314737955728,24.519933302138043],[76.34270724826374,24.519000684950655],[76.34002400716136,24.519428880480092],[76.33843438042507,24.51998602973144],[76.33778306749119,24.51860582139814],[76.3363835991751,24.516949734158615],[76.33608737521675,24.51601426866368],[76.3361322699653,24.514883558485664],[76.33694973415791,24.513338623047417],[76.33721693250882,24.51188852946025],[76.33607272677929,24.510828416612966],[76.3361291503904,24.50940667046487],[76.33778306749119,24.508338623047422],[76.33805026584199,24.50762691921706],[76.3356583658854,24.50825364854647],[76.33361640082464,24.50944973415845],[76.33266723632804,24.509716932509193],[76.33222751193549,24.50832804362031],[76.33077433268213,24.507738477919347],[76.33091471354177,24.50419728597069],[76.32952650282098,24.503499416775725],[76.33000569661434,24.50167056613546],[76.33001953125003,24.49992282443627],[76.32752807617166,24.498166334364655],[76.32721842447896,24.497188042535342],[76.32624999999976,24.495972222222733],[76.32552829318561,24.496396484375524],[76.32556342230876,24.49728047688849],[76.32693142361089,24.49854807535867],[76.32849785698775,24.501753946940653],[76.32746446397564,24.5022169325092],[76.32645195855005,24.501124098036513],[76.32451090494786,24.50050954182987],[76.32383368598065,24.498799845378173],[76.32265692816824,24.498338623047445],[76.3222275119355,24.49904585096634],[76.32306084526888,24.499439154731363],[76.32332804361963,24.50031609429304],[76.3216933865015,24.500251295302334],[76.32111640082448,24.500632731120376],[76.32412801106764,24.502403225369363],[76.3250640190972,24.503413357205318],[76.3280933973522,24.503351338704945],[76.32692613389733,24.510786505805612],[76.32693752712655,24.511981506348306],[76.32476372612828,24.51443264431468],[76.32281019422746,24.515415683322914],[76.3238449435764,24.51737097846187],[76.32221693250838,24.518328043620286],[76.32170912000853,24.51887610541499],[76.32139417860233,24.520757988824272],[76.3225466579859,24.521105821398123],[76.33014444986972,24.516308322483198],[76.33277520073764,24.51547539605083],[76.33530069986986,24.51610999213389],[76.33606865776906,24.517737494575158],[76.33789686414931,24.520197991265633],[76.33711412217869,24.520923360189315],[76.33333862304667,24.522783067491957],[76.33138359917544,24.523328043620367],[76.32944973415775,24.524449734158424],[76.32717407226548,24.52508409288245],[76.32221693250838,24.52721693250915],[76.32083672417528,24.52822401258723],[76.31890923394084,24.52913367377441],[76.31560641818581,24.531507466634636],[76.31528306749104,24.532393188477087],[76.31879692925324,24.53186923556919],[76.32136637369788,24.53197106255469],[76.32249525282097,24.53110541449719],[76.3234498426647,24.531089986165867],[76.32614637586781,24.52966305202959],[76.32922485351557,24.529752061632394],[76.32976372612828,24.530333624946252],[76.33148912217868,24.529972635905466],[76.33193915473069,24.53139417860298],[76.3328979492185,24.53238494873105],[76.33276000976568,24.535865105523655],[76.33083862304662,24.5369177585183],[76.33364841037306,24.537253994412453],[76.3335957845052,24.53858110215978],[76.32693915473081,24.54249471028696],[76.32462537977429,24.54410464816668],[76.3216324869791,24.545281609429793],[76.31949354383684,24.547403462728283],[76.31750244140628,24.54803385416716],[76.31489990234368,24.55245069715771],[76.31339762369785,24.55292633056689],[76.31278306749132,24.55363698323623],[76.31419365776881,24.554302707248766],[76.31638400607633,24.55193874783042],[76.31667141384528,24.55195014105962],[76.31943915473065,24.54999471028694],[76.32272542317693,24.548234761556458],[76.32556084526888,24.54778306749172],[76.32616468641473,24.547463582357295],[76.32851033528644,24.547476467556947],[76.33221733940971,24.550561252170652],[76.33283596462675,24.55056335449271],[76.33391370985245,24.552846815321658],[76.33390502929669,24.554711812337686],[76.33317314995637,24.555775451660708],[76.33144612630204,24.557493252224802],[76.33111640082464,24.558965216743076],[76.3318448893227,24.56104370117245],[76.33300564236092,24.56193915473139],[76.33443915473063,24.56161075168238],[76.33384128146693,24.560480787489766],[76.33332804361996,24.560005289714113],[76.33306084526905,24.559110751682383],[76.33364813910563,24.55800086127445],[76.33637220594599,24.556002807617702],[76.33666137695312,24.55384223090327],[76.33526624891468,24.551814778646346],[76.33351616753473,24.550785929362448],[76.3327307128906,24.549938151042184],[76.33282145182292,24.547649434408015]]]]},"properties":{"id":"9568"}}]}