{"type":"FeatureCollection","features":[{"type":"Feature","geometry":{"type":"MultiPolygon","coordinates":[[[[77.37175754123282,26.89798936631965],[77.37249728732658,26.897219238281508],[77.37278049045179,26.897225206163426],[77.37547607421911,26.895152452257136],[77.37583062065991,26.89450792100716],[77.37432779947952,26.89414171006976],[77.37249701605921,26.891113552517496],[77.37248643663227,26.88975097656268],[77.37285346137165,26.888678385416995],[77.37221435546897,26.887752821180726],[77.37221923828159,26.886652832031444],[77.36854383680574,26.88509575737868],[77.36635036892383,26.886937120225852],[77.36525851779558,26.886374782986323],[77.36421712239607,26.884289279514093],[77.36528076171916,26.882224663628648],[77.36528618706618,26.881397026909923],[77.3642279730906,26.879032118055676],[77.36389160156264,26.875374620225827],[77.36602403428859,26.87283447265648],[77.36919921875037,26.87193874783007],[77.37086452908036,26.87026421440997],[77.37278618706634,26.870274793837083],[77.37275417751775,26.868701171875188],[77.37334255642403,26.86608534071196],[77.37193033854183,26.866114366319735],[77.37195827908025,26.867481282552305],[77.37132351345522,26.868754069010578],[77.36983913845498,26.869727376302222],[77.36942464192728,26.86971896701411],[77.36945638020856,26.86815972222243],[77.36843804253513,26.867780490451736],[77.36798909505242,26.870080295139047],[77.367185058594,26.870852864583554],[77.36388997395855,26.871656087239757],[77.36301947699675,26.8733951822919],[77.36196804470532,26.87440538194464],[77.35992377387188,26.87357638888919],[77.3591357421877,26.871578504774604],[77.35801106770865,26.871963433160033],[77.35685845269134,26.87193983289953],[77.35414225260436,26.86911295572949],[77.354178602431,26.867329644097353],[77.3550027126739,26.86611382378483],[77.35527506510451,26.86443060980926],[77.35413574218788,26.86387803819474],[77.35417480468769,26.861962619357783],[77.35721950954903,26.858330620659984],[77.35835123697936,26.85796332465314],[77.35832248263901,26.85655571831613],[77.36027506510445,26.855258789062816],[77.35913004557344,26.85415852864608],[77.35916992187524,26.852196723090557],[77.36029161241365,26.8505419921876],[77.36027479383742,26.849708387586958],[77.35915256076422,26.849163953993283],[77.35902777777821,26.846805555555676],[77.3579391818578,26.84715874565987],[77.35750271267378,26.848058268229366],[77.35608615451403,26.8491981336809],[77.35611436631964,26.850575358073115],[77.35722466362873,26.8505525716148],[77.35834743923627,26.850840386284943],[77.35832166883702,26.852093098958534],[77.35665825737894,26.852498643663367],[77.35667019314249,26.853086208767493],[77.3577715386289,26.854144151475865],[77.3580528428823,26.85475206163231],[77.35721950954903,26.855552842882233],[77.35694715711819,26.856947157118313],[77.35614800347261,26.85733506944466],[77.3558346896705,26.8586195203995],[77.35386338975732,26.85861436631967],[77.35390299479187,26.860547417534946],[77.35288574218785,26.861524793837063],[77.351448025174,26.86103244357659],[77.35082004123277,26.861686197916853],[77.34942789713588,26.86165771484397],[77.34889160156288,26.860552842882143],[77.34837510850733,26.860056423611198],[77.34664469401068,26.86110839843765],[77.34583604600718,26.859441731771113],[77.34469346788208,26.858887261284877],[77.34363199869833,26.85778238932322],[77.34295355902819,26.85750271267382],[77.3420917426217,26.85968967013916],[77.3406081814239,26.860051269531468],[77.34028049045176,26.861370985243198],[77.34105441623282,26.862219509548765],[77.34278889973976,26.86081949869815],[77.34415581597253,26.860824924045332],[77.34556396484416,26.86139621310788],[77.34554850260432,26.86215630425373],[77.3475227864586,26.86263753255227],[77.34751057942745,26.8653824869795],[77.34889187283031,26.865830620659978],[77.34888210720501,26.866300184462034],[77.35000271267396,26.86666395399324],[77.35050835503503,26.867190212673876],[77.35083279079899,26.869182400173827],[77.35153320312534,26.869855685764037],[77.3519506835942,26.872845323350944],[77.35401231553854,26.874479709201523],[77.35503200954875,26.876035156250197],[77.35617919921893,26.876407335069686],[77.35774902343778,26.87637532552108],[77.35862820095505,26.87667616102452],[77.35919108072957,26.877836371528105],[77.3591419813371,26.88023790147598],[77.36000271267389,26.882497287326572],[77.36035698784761,26.884673394097348],[77.35928873697938,26.885699598524567],[77.35834147135452,26.884713541666798],[77.35670654296896,26.884746907552312],[77.35485568576414,26.8840332031252],[77.35404676649327,26.88319146050364],[77.3519325086809,26.88277886284743],[77.35118923611142,26.88124674479198],[77.34805284288214,26.88055826822938],[77.34774875217042,26.879311523437707],[77.34704915364622,26.878891601562657],[77.3466693793408,26.880836046007133],[77.34480902777804,26.88110839843769],[77.34444335937545,26.87886230468777],[77.3437852647572,26.877584906684305],[77.34058213975712,26.876759711371776],[77.34018907335101,26.875548773871728],[77.33918023003494,26.87556939019113],[77.33776584201419,26.874610731337057],[77.33754367404529,26.87333604600724],[77.33555826822933,26.875002712673876],[77.3348432074657,26.875275065104262],[77.3330059136288,26.874169379340415],[77.332224934896,26.875013834635624],[77.33335639105925,26.875562608507124],[77.3344007703997,26.876649576823098],[77.33535427517401,26.87711208767378],[77.3381575520838,26.876391601562744],[77.3386135525175,26.877796495225923],[77.34008382161497,26.87927083333362],[77.34113661024335,26.878892144097463],[77.34109836154553,26.880762803819707],[77.34552652994827,26.88360541449677],[77.34782335069465,26.884376085069647],[77.34833062066005,26.883330620659848],[77.34947428385462,26.883058268229362],[77.3515969509551,26.8852674696183],[77.35305826822938,26.885552842882078],[77.35472493489621,26.88638617621544],[77.35551730685788,26.887594672309305],[77.35888617621546,26.889447157118326],[77.36077745225722,26.88981635199663],[77.36116861979181,26.891021592882126],[77.36384412977455,26.892157389323202],[77.36416748046886,26.89447238498282],[77.36919650607652,26.89944173177102],[77.37175754123282,26.89798936631965]]]]},"properties":{"id":"9430"}}]}