{"type":"FeatureCollection","features":[{"type":"Feature","geometry":{"type":"MultiPolygon","coordinates":[[[[80.50007880316818,24.44332787407795],[80.50087124294677,24.442441067166044],[80.50085286458298,24.440921766493403],[80.50266621907522,24.440224711100527],[80.5033255343964,24.4394035169816],[80.50224338107611,24.439468010796688],[80.5011024305555,24.438848029242862],[80.4991246202255,24.438899671766805],[80.49914686414925,24.435084296332818],[80.49800069173156,24.435884941949112],[80.49809624565953,24.437487928602835],[80.49717088487401,24.438047756619227],[80.49657986111103,24.437386271159127],[80.4947144232855,24.436952243381413],[80.4942685275607,24.43645317925379],[80.49473076714386,24.43472717285198],[80.49474595811623,24.433351304796403],[80.49430555555548,24.43263888888916],[80.49249220106307,24.432769978841478],[80.49170647515169,24.433196953667817],[80.49127692328554,24.436863403320586],[80.49385050455695,24.437244737413508],[80.49435879177494,24.439967854817965],[80.49640096028637,24.441881239149566],[80.49636684841587,24.442453647189907],[80.4949190266926,24.44276997884137],[80.49366027832022,24.44136111789301],[80.49301649305531,24.441399502224726],[80.4923982069225,24.442746615939967],[80.49103013780373,24.441396687825787],[80.49013888888854,24.442394239637878],[80.48838955349359,24.4409638129343],[80.48770941840266,24.442325778537537],[80.48780680338533,24.443959214952457],[80.4886033121742,24.44473002115923],[80.49069010416665,24.446057230631865],[80.49285875108487,24.446381089952567],[80.49532653808566,24.445040045844536],[80.49765448676189,24.444321187337508],[80.49823438856325,24.443672146267645],[80.50007880316818,24.44332787407795]]]]},"properties":{"id":"19313"}}]}