{"type":"FeatureCollection","features":[{"type":"Feature","geometry":{"type":"MultiPolygon","coordinates":[[[[104.37819986978869,16.25819986979191],[104.37943495008389,16.25734971788225],[104.38043945312202,16.257389594184332],[104.38241292317431,16.256345214844075],[104.38375189886872,16.25737196180583],[104.38522054036159,16.255033365885808],[104.38717176649007,16.25544162326412],[104.38942192925052,16.25371609158009],[104.39183729383407,16.253732096354398],[104.3926228841116,16.252067328559306],[104.39324490017063,16.25149115668421],[104.3944940863685,16.251540798611316],[104.397067328556,16.249567328559223],[104.39824191622986,16.249013129340625],[104.40034233940688,16.249014214409982],[104.4026855468721,16.247034233941335],[104.40351888020555,16.245343695746755],[104.40345703124697,16.243782552083516],[104.40402235242792,16.24152235243075],[104.40444254556994,16.240728624132203],[104.40341742621231,16.23923882378493],[104.40184163411155,16.236086154514226],[104.40249999999699,16.234207085503783],[104.40166666666371,16.23305555555585],[104.40082275390321,16.233322753906506],[104.40042209201093,16.234588758680843],[104.39923828124714,16.236043294271127],[104.40009928385135,16.23898437500023],[104.40041124131673,16.241176757812667],[104.39952745225392,16.242355685764196],[104.39839165581301,16.241754828559138],[104.39844590928524,16.237667914496768],[104.39520128037915,16.23704861111149],[104.39335828992759,16.235926106771075],[104.39162706162918,16.234057888455112],[104.39008300780964,16.233477647569728],[104.38876817491027,16.23417317708372],[104.38949598524025,16.236951768663374],[104.39155463324377,16.239325086805835],[104.39152153862554,16.24015516493091],[104.39011203341724,16.240433213975948],[104.3901464843722,16.241299913194652],[104.39209282768817,16.244208170573216],[104.39207438150751,16.244668782552353],[104.38986653645534,16.244022352430747],[104.38712103949362,16.243647189670327],[104.38621582030973,16.243168402777982],[104.38539008246246,16.243200954861408],[104.3847384982611,16.244581976996898],[104.38656684027481,16.24627604166696],[104.38923231336534,16.246274685330135],[104.38967881944146,16.247684733073328],[104.39149902343476,16.247612575955173],[104.39207790798312,16.247972547743288],[104.39020806206301,16.249705132378693],[104.38845703124699,16.250579969618315],[104.38684380425056,16.249726291232918],[104.38653320312201,16.24874457465316],[104.38491644964975,16.246831597222382],[104.38180013020539,16.246533203125395],[104.3804166666637,16.24617051866346],[104.37900092230612,16.246541612413594],[104.37901502820918,16.248375108507204],[104.37546793619501,16.246498209635604],[104.3733601887993,16.246537814670404],[104.372772623695,16.248393825955162],[104.36948920355624,16.249175889757225],[104.3662562391464,16.252665201823177],[104.36773084852135,16.253361273871718],[104.37085666232346,16.250862358941177],[104.37252088758399,16.251298556857904],[104.37375488280966,16.25097791883705],[104.37467475043118,16.24972384982655],[104.37634901258386,16.25087592230929],[104.37849609374703,16.25012342664965],[104.3790649414033,16.2501459418406],[104.38015706379937,16.25132459852459],[104.38184651692413,16.250882161458577],[104.38347384982356,16.251452365451584],[104.38460937499721,16.252677951389202],[104.38457682291394,16.25349880642382],[104.38315511067404,16.254169650607935],[104.38120008680269,16.25375759548635],[104.37951660155952,16.254915907118388],[104.37842475043104,16.25543131510436],[104.37776746961507,16.25540527343776],[104.37703396267088,16.256883409288463],[104.37418457030972,16.258228081597608],[104.37375542534417,16.25886040581628],[104.37553521050071,16.259424099392632],[104.37656005859102,16.258718804253803],[104.37819986978869,16.25819986979191]]]]},"properties":{"id":"10255"}}]}