{"type":"FeatureCollection","features":[{"type":"Feature","geometry":{"type":"MultiPolygon","coordinates":[[[[72.68028537326407,33.6142150878908],[72.68197428385415,33.61389166937954],[72.68310601128493,33.61447462293857],[72.69142306857643,33.61475680881101],[72.69479410807301,33.61329827202714],[72.69584147135421,33.612208184136605],[72.69857421875005,33.61221449110266],[72.69732774522564,33.609333360460326],[72.69395833333348,33.60886298285608],[72.69361382378466,33.60767571343331],[72.6952124023438,33.60715691460514],[72.69586208767376,33.605155368381276],[72.69583034939254,33.60360839843784],[72.6998882378472,33.60205919053837],[72.70024793836805,33.60083611382406],[72.69675211588552,33.60221944173192],[72.6961005316841,33.60025817871113],[72.69473036024297,33.60028611924919],[72.69277506510431,33.599725002712844],[72.69224093967003,33.59916904025643],[72.69128770616331,33.59885979546469],[72.68738986545154,33.59886115180133],[72.68680555555548,33.5970833333336],[72.68499728732658,33.59721944173202],[72.68441921657993,33.59751715766082],[72.68444769965296,33.59890869140648],[72.68555826822919,33.59888597276493],[72.68688802083338,33.600270114475066],[72.68833875868066,33.60055331760002],[72.68778049045139,33.60169657389356],[72.68945285373277,33.60361375596817],[72.68943576388884,33.604453125000234],[72.69061523437503,33.60445414225282],[72.69229166666665,33.60531772189688],[72.6927316623264,33.60638610839864],[72.69105007595502,33.60551995171457],[72.68916395399302,33.60555847167993],[72.68864474826384,33.605018039279756],[72.68936089409723,33.609917873806594],[72.68750271267365,33.60944166395424],[72.67993381076391,33.60897867838551],[72.67784532335085,33.60813144259998],[72.67651204427082,33.606947224935254],[72.67611382378462,33.60780768500449],[72.67694173177105,33.60987894694033],[72.67602349175345,33.61123338487431],[72.67249159071204,33.61166388617639],[72.67249674479169,33.610257975260694],[72.67053602430573,33.61027452256964],[72.66923990885422,33.60892530653226],[72.66882297092005,33.60721503363749],[72.66830213758672,33.6072256808812],[72.6671061197919,33.60784179687515],[72.66640489366333,33.60639614529103],[72.66603515625022,33.60611389160181],[72.66500271267361,33.60669657389337],[72.6661157226562,33.609167616102624],[72.66553032769107,33.609730224609606],[72.66555853949652,33.61112223307313],[72.66853054470485,33.611846720377855],[72.6688861762153,33.61225212944906],[72.66802463107652,33.61392456054702],[72.66615180121553,33.61483310275649],[72.66583604600706,33.616024373372596],[72.66806098090288,33.61638651529971],[72.66750271267361,33.61752197265638],[72.66964680989597,33.61856214735262],[72.67531846788208,33.6188861083987],[72.67726399739601,33.61822028266096],[72.67922960069453,33.61706108941006],[72.68119927300361,33.61658094618079],[72.6816639539932,33.61545349121114],[72.68026936848977,33.61500088161911],[72.68028537326407,33.6142150878908]]]]},"properties":{"id":"9109"}}]}