{"type":"FeatureCollection","features":[{"type":"Feature","geometry":{"type":"MultiPolygon","coordinates":[[[[77.10321560329905,26.72314968533003],[77.1036067708337,26.72110080295161],[77.10465481228337,26.721655273437747],[77.10535291883704,26.719150390625202],[77.10480821397599,26.717071126302258],[77.10583862304705,26.716116536458387],[77.10621053059927,26.714555121527965],[77.10780083550364,26.715112575955203],[77.10772949218776,26.71691243489603],[77.10808146158897,26.717216796875206],[77.1086359320748,26.71604193793422],[77.10867852105073,26.713159993489796],[77.10924560546906,26.71208848741331],[77.11129638671903,26.711282823350913],[77.11231974283888,26.709542100694676],[77.11392862955748,26.708596191406443],[77.11503309461827,26.70860432942719],[77.11777248806439,26.710283203125215],[77.11906141493077,26.71055013020849],[77.12033352322086,26.70967502170167],[77.12467163085975,26.709696723090445],[77.1249947102867,26.706661241319622],[77.12558281792545,26.706383734809137],[77.12548638237868,26.703948025173815],[77.12441026475713,26.70360731336821],[77.12402777777831,26.70319444444462],[77.12216593424503,26.70363796658009],[77.12167195638054,26.704778103298807],[77.12249471028659,26.706426323784953],[77.12077745225716,26.70693901909746],[77.1190631781686,26.706032172309136],[77.11729085286473,26.7067599826391],[77.1108285861549,26.7063831922745],[77.10976915147589,26.70711208767382],[77.10944973415835,26.709449869791854],[77.10887410481806,26.71002685546904],[77.10757324218773,26.709975314670388],[77.10717895507824,26.708730197482808],[77.10717447916696,26.705877821180906],[77.10784966362874,26.704601779513993],[77.10602444118942,26.70368787977455],[77.10540717230916,26.706921115451607],[77.10428344726583,26.708554416232815],[77.10219468858546,26.708887261284872],[77.10224867079003,26.710252278645967],[77.10152994791693,26.711296929253578],[77.10221693250881,26.713338758680806],[77.10298502604203,26.714790310330088],[77.10243693033888,26.71688178168415],[77.10251627604188,26.718884006076564],[77.10181098090302,26.719599609375138],[77.10050333658873,26.719141167534914],[77.09846204969656,26.71915527343785],[77.09889458550381,26.718337944878613],[77.09886216905412,26.71752088758693],[77.10020331488735,26.715873209635603],[77.0988330078126,26.71556098090295],[77.09706529405432,26.71638346354193],[77.09667195638033,26.71555013020857],[77.09541300455746,26.714956054687704],[77.09142306857663,26.71511420355921],[77.09083862304706,26.715405815972446],[77.09308648003517,26.716857367621728],[77.09304985894138,26.717782389323105],[77.0934019639761,26.718447808159937],[77.09582804361995,26.720005425347523],[77.09722751193593,26.720550130208466],[77.09788587782137,26.72120117187518],[77.0999957953563,26.722196994357873],[77.10028957790817,26.722819281684252],[77.10202080620704,26.72443901909743],[77.10321560329905,26.72314968533003]]]]},"properties":{"id":"9435"}}]}