{"type":"FeatureCollection","features":[{"type":"Feature","geometry":{"type":"MultiPolygon","coordinates":[[[[77.79890435112853,23.27890421549526],[77.80024685329872,23.278520914714008],[77.80125379774316,23.278646104601094],[77.8024845377607,23.278127577040294],[77.80220893012151,23.27648044162369],[77.80029324001745,23.273318006727877],[77.79958333333323,23.272916666667044],[77.79849039713551,23.273053385417228],[77.79751546223949,23.273626437717425],[77.792359483507,23.2745161946619],[77.7913514539932,23.27563680013067],[77.79001546223961,23.276199815538575],[77.79027370876739,23.27786539713584],[77.7910956488715,23.278348659939738],[77.79579454210077,23.279151340061134],[77.79890435112853,23.27890421549526]]]]},"properties":{"id":"19814"}}]}