{"type":"FeatureCollection","features":[{"type":"Feature","geometry":{"type":"MultiPolygon","coordinates":[[[[77.99054768880231,26.22860324435787],[77.99236572265661,26.22598415798619],[77.99434136284745,26.22552463107668],[77.99514160156289,26.225572374132142],[77.99688476562542,26.22651936848966],[78.0009385850698,26.22202175564243],[78.00606472439264,26.21746256510427],[78.00649658203153,26.215607367621615],[78.00561659071198,26.214821234809165],[78.00624484592052,26.21366509331604],[78.00841417100722,26.2133412000871],[78.00946695963566,26.213913302951553],[78.00999728732657,26.213319769965423],[78.01307074652803,26.215023871527947],[78.01436821831615,26.214946560329963],[78.01559326171898,26.215547688802218],[78.01610324435788,26.21443657769109],[78.0189260525178,26.21325900607657],[78.02032606336823,26.213633897569522],[78.02082546658036,26.213017849392514],[78.01969726562518,26.21250000000009],[78.01971164279533,26.211625976562644],[78.01888264973988,26.211675347222382],[78.01805365668426,26.211224772135623],[78.01655517578169,26.209547797309156],[78.01415879991347,26.209174533420466],[78.01221788194462,26.207523328993233],[78.00971435546919,26.20723008897599],[78.00925591362895,26.20671685112866],[78.00889675564267,26.205531141493196],[78.01059977213592,26.20525607638899],[78.01110324435805,26.20415879991336],[78.01209852430591,26.20287462022597],[78.01507514105927,26.20241075303838],[78.01578694661484,26.2008599175348],[78.01665879991347,26.199798448350876],[78.01437445746572,26.19944254557305],[78.01213894314256,26.198341200086958],[78.01082817925393,26.201196831597315],[78.00786322699682,26.20292290581608],[78.00592447916696,26.203812934027923],[78.00214138454905,26.20415879991336],[78.00051893446224,26.203327907986193],[78.00000786675398,26.202214355468882],[77.998558213976,26.201625976562752],[77.99804036458355,26.20049750434042],[77.99697292751782,26.19954372829872],[77.99563530815996,26.20027072482658],[77.99430419921899,26.200547688802246],[77.99101779513936,26.199667426215427],[77.98995849609392,26.198588867187738],[77.98773871527797,26.1988994683162],[77.98712049696204,26.200246310763987],[77.98522922092039,26.200871853298736],[77.98393744574682,26.20079481336812],[77.98185004340294,26.20192925347247],[77.97790228949677,26.199880371093954],[77.97748074001763,26.198515896267494],[77.97747097439279,26.197151963975855],[77.97685085720522,26.196597764757072],[77.97332546658029,26.195841200087045],[77.97098551432319,26.194377441406388],[77.96844265408012,26.194409450954907],[77.96778564453146,26.195841200087045],[77.96720458984416,26.196360134548755],[77.96572292751782,26.196936577691048],[77.96408745659764,26.19634982638901],[77.96355767144124,26.19575710720497],[77.96365207248314,26.19417182074669],[77.96154649522592,26.190765516493173],[77.95988932291695,26.190253906250206],[77.95555582682314,26.188089735243267],[77.95360324435794,26.187785644531374],[77.9518958875872,26.187217339409827],[77.95028266059077,26.185604112413316],[77.9501388888892,26.185138888888986],[77.94943657769139,26.185269911024434],[77.9490464952261,26.186946885850816],[77.9509206814241,26.18830702039945],[77.95375895182335,26.188938259548763],[77.95471435546895,26.190007866753703],[77.95750786675373,26.192214355468906],[77.95837646484435,26.193580457899458],[77.9583148871532,26.194614529080056],[77.9573982747398,26.195035264757024],[77.95485161675393,26.195017089843887],[77.95304768880229,26.196936577691048],[77.9527625868059,26.19755805121534],[77.95170545789952,26.198502332899466],[77.94958007812531,26.19793321397583],[77.94889675564255,26.199803059895984],[77.95031358506984,26.20106906467032],[77.95285861545185,26.202214355468882],[77.95405354817731,26.201565212673714],[77.95513292100716,26.200357259114767],[77.95665907118106,26.199386664496657],[77.95733425564279,26.201573079427277],[77.95897135416712,26.201953938802333],[77.95971435546917,26.202785644531332],[77.96074408637182,26.20344048394115],[77.96398871527813,26.20294677734394],[77.96506239149355,26.203530273437693],[77.96591281467059,26.20486707899319],[77.96725531684055,26.206066623264036],[77.96776991102453,26.207273491753625],[77.96677327473984,26.208164062500018],[77.96726128472264,26.209523654514015],[77.96804036458363,26.21021972656264],[77.96865858289956,26.2115665690106],[77.9686713324655,26.213648817274546],[77.96972222222249,26.21358615451406],[77.96999213324685,26.214174533420277],[77.97306423611147,26.21443657769109],[77.97301242404538,26.215305175781438],[77.97390896267396,26.21525173611124],[77.97680474175397,26.21749565972233],[77.97721435546916,26.21902804904532],[77.97432074652826,26.22064507378485],[77.97014756944472,26.221433648003668],[77.96901991102456,26.224823676215323],[77.96473008897632,26.22667453342025],[77.96187201605929,26.227258843316093],[77.96195665147596,26.2286773003473],[77.96382649739601,26.228277723524386],[77.96443657769126,26.228691948784885],[77.96347032335089,26.23047037760429],[77.96394666883705,26.231798231336953],[77.96533908420159,26.230748155382045],[77.96848822699675,26.229257269965416],[77.96915879991346,26.230007866753695],[77.97108886718794,26.230368109809163],[77.97280978732684,26.22990722656276],[77.97392252604217,26.229130045573058],[77.97673882378493,26.228474663628703],[77.97925265842056,26.228624403211924],[77.98165879991345,26.23139675564248],[77.9839152018233,26.232710232205022],[77.98796875000025,26.233689236111402],[77.99013373480929,26.230383300781384],[77.99054768880231,26.22860324435787]]]]},"properties":{"id":"1748"}}]}