{"type":"FeatureCollection","features":[{"type":"Feature","geometry":{"type":"MultiPolygon","coordinates":[[[[86.92429761166349,24.66710141863426],[86.92361890072598,24.66585236806995],[86.92102544912026,24.66640646556344],[86.92070806630753,24.664034910658984],[86.92126104482347,24.663017285062125],[86.92081847212367,24.661783764554258],[86.92191601986664,24.661356823636353],[86.9235848566723,24.663101615302963],[86.92465310754059,24.663591931058164],[86.92525599925031,24.6635559881329],[86.92648158518793,24.662184358629858],[86.92754413944132,24.66191237919186],[86.92960156674181,24.66360047598009],[86.930290585839,24.66282919505562],[86.92848001183725,24.661062837633793],[86.9295306303267,24.660523490303163],[86.9309654990333,24.661635483033237],[86.93150070953695,24.661603575209753],[86.93235316721925,24.660846162829117],[86.93086594391181,24.658592778768792],[86.92986103397274,24.659138873875165],[86.92926614464986,24.658815557089028],[86.92933111318271,24.657723502510166],[86.93459112294826,24.65163460141413],[86.93598082563929,24.648855297757493],[86.93595925988402,24.648493732273536],[86.93475049252302,24.648023490303018],[86.93235316721925,24.650507892429715],[86.93092060428503,24.652481905016614],[86.9283921212124,24.65272485884691],[86.92764667850369,24.65078567020764],[86.92642990875564,24.64930268545274],[86.92469542524859,24.648506617473288],[86.92346590593448,24.648579893569064],[86.92282978397262,24.64823423113411],[86.92236890072596,24.64710141863422],[86.92307012685487,24.645810796346865],[86.92228006066514,24.64524571252535],[86.92093796539618,24.646747821629035],[86.92102829742751,24.648263663642908],[86.9206429621411,24.648563447985325],[86.91930751292224,24.647068697008905],[86.91916658952803,24.644821246922064],[86.91842887793953,24.644958949016058],[86.91761833106474,24.6458661009801],[86.91769564226249,24.64716275896633],[86.91848001183709,24.648285670207557],[86.91901983388564,24.64965228126441],[86.91699156782661,24.651124313599468],[86.91716422950199,24.652174559096437],[86.9186483332347,24.651368081231936],[86.92375901031821,24.65099864899443],[86.92477287208013,24.65213336036605],[86.92426465267923,24.653068622410302],[86.92309250641173,24.653606579495758],[86.92164515940655,24.65352031647494],[86.92036640506646,24.65282543122116],[86.9189426583217,24.653928811212452],[86.91784904395516,24.65353638906602],[86.91736890072625,24.654207741876434],[86.91798684777453,24.655345132013082],[86.91851229265322,24.655814526273076],[86.91846346452806,24.656633075535225],[86.91881041548297,24.657271401544435],[86.91846197255776,24.658572365899786],[86.91881624773143,24.659559711277424],[86.91839117177634,24.660507892429777],[86.9174032160474,24.659402138849075],[86.91484543609928,24.659003545370325],[86.91395161014432,24.658517841160318],[86.91236971452807,24.658612106568242],[86.91122876400735,24.657992125014502],[86.91065367720162,24.65802640642714],[86.91068243154203,24.659467073473593],[86.90875914595168,24.66034974355817],[86.91016756609062,24.66160808502964],[86.9095022828877,24.662452336874253],[86.90830558692383,24.661802007284436],[86.90764667850394,24.662326773994423],[86.9090363811948,24.66412012251878],[86.90897249773124,24.665191730320387],[86.90949360233193,24.66578567020761],[86.91232481978014,24.66391043284861],[86.9129087227748,24.664792899482777],[86.91154289161145,24.666013297431974],[86.91103155263576,24.66712739248409],[86.91209559885968,24.668848516073425],[86.91145472971911,24.67002781701744],[86.91031839074347,24.670549362427593],[86.91129576704557,24.67377391754917],[86.91122632260098,24.674938943048446],[86.91156852637707,24.675568622410253],[86.91381516266196,24.676599743558185],[86.91929828983203,24.676996065172915],[86.92124558258362,24.676879996650655],[86.923582008365,24.674265081014894],[86.92276264530076,24.67309208703712],[86.92065679677668,24.671563766724418],[86.92070847320869,24.670696694513055],[86.92264667850387,24.6702457125253],[86.92318650055248,24.66984128679826],[86.92194545237552,24.66905189877744],[86.92153556739257,24.66851068648353],[86.92429761166349,24.66710141863426]]]]},"properties":{"id":"4961"}}]}