{"type":"FeatureCollection","features":[{"type":"Feature","geometry":{"type":"MultiPolygon","coordinates":[[[[73.53280859375022,33.07403308105464],[73.53269140625005,33.07156005859369],[73.53244140625017,33.07108764648453],[73.53255859375005,33.07018505859388],[73.53269140625005,33.06993994140626],[73.53280859375022,33.06968505859389],[73.53305859375027,33.069212646484374],[73.5328945312501,33.06865649414064],[73.53241796875002,33.06843212890634],[73.53225,33.06825000000016],[73.53044140624993,33.06831433105478],[73.52994140625006,33.06896520996102],[73.53030859375005,33.06966235351564],[73.53015234374996,33.07051049804696],[73.52981640625003,33.07068994140633],[73.52905859375008,33.07081005859381],[73.52881640625006,33.07093994140641],[73.52855859375026,33.0710600585938],[73.5284414062501,33.07131494140643],[73.52819140624993,33.07178735351569],[73.52830859375021,33.072189941406265],[73.5284414062501,33.07243505859388],[73.52855859375026,33.07268994140625],[73.52878515625022,33.07311596679695],[73.52831640625007,33.07343994140639],[73.52707031250011,33.07358898925797],[73.52705078124998,33.07406005859377],[73.52819140624993,33.07393994140638],[73.52843359375024,33.07381005859369],[73.52944140625007,33.07368994140647],[73.52991406250007,33.07343994140639],[73.53052343750008,33.07362280273435],[73.5306914062501,33.07393505859373],[73.53080859375027,33.074189941406374],[73.53094140624992,33.07443505859381],[73.53116796874988,33.074920776367364],[73.53155859375008,33.075189941406336],[73.53205078124998,33.07542114257822],[73.53219140625006,33.07568505859385],[73.53236718750017,33.0760600585937],[73.53254687500012,33.07576306152356],[73.53219140625006,33.07508764648446],[73.53230859375006,33.074685058593886],[73.53280859375022,33.07403308105464]]]]},"properties":{"id":"16726"}}]}