{"type":"FeatureCollection","features":[{"type":"Feature","geometry":{"type":"MultiPolygon","coordinates":[[[[71.80633043077242,32.66766642252621],[71.80495442708323,32.666705322265855],[71.80363213433176,32.66662651909742],[71.80310696072038,32.667214355468914],[71.80306423611094,32.66638183593764],[71.8026388888891,32.66597222222235],[71.80111897786455,32.66744859483522],[71.80166992187489,32.66815687391497],[71.80526991102451,32.66863837348113],[71.80419813368044,32.67083021375886],[71.8034301757813,32.67118272569459],[71.8025208875869,32.673368869357745],[71.80360324435767,32.67807685004368],[71.80284111870648,32.680460476345615],[71.80158854166658,32.68084716796896],[71.79861897786444,32.68361897786478],[71.79533515082463,32.68519449869805],[71.79473158094615,32.68630506727453],[71.79533067491312,32.688880072699774],[71.7961263020832,32.69061347113727],[71.79723008897557,32.69165879991343],[71.7978385416665,32.693629421658144],[71.79895331488697,32.694877115885646],[71.80017754448775,32.69565578884571],[71.80082546657994,32.69667453342028],[71.80213066948781,32.69707750108529],[71.80362969292517,32.69914293077265],[71.8049409993491,32.69922105577291],[71.80778835720471,32.698126491970555],[71.80915147569445,32.696724582248464],[71.81057210286448,32.69416666666699],[71.81020616319452,32.69383978949659],[71.81031507704003,32.69201212565116],[71.80976440429689,32.68789455837691],[71.80945231119782,32.68721435546887],[71.80869045681422,32.68653374565983],[71.80784030490454,32.68519694010433],[71.8050184461807,32.68378119574676],[71.80524454752597,32.67742580837688],[71.80448337131068,32.676745741102565],[71.80417453342031,32.674436577691054],[71.80370198567718,32.67311998155405],[71.80482204861104,32.671196153428895],[71.80665879991321,32.66955498589422],[71.80633043077242,32.66766642252621]]]]},"properties":{"id":"4614"}}]}