{"type":"FeatureCollection","features":[{"type":"Feature","geometry":{"type":"MultiPolygon","coordinates":[[[[83.1419463433161,24.19157497829889],[83.14384250217049,24.190544501410812],[83.14467502170149,24.190594143337904],[83.14638102213539,24.18858852810358],[83.14601209852427,24.1862634955514],[83.14461046006963,24.185177273220745],[83.14214328342027,24.184716796875335],[83.1415277777779,24.184027777778084],[83.1393183051214,24.18418748643691],[83.13861897786452,24.18547458224853],[83.13937635633695,24.18637851291254],[83.14332546657997,24.187571343316336],[83.14306342230898,24.188063354492485],[83.14194173177091,24.1884096950957],[83.14056342230899,24.189641248915166],[83.1419463433161,24.19157497829889]]]]},"properties":{"id":"19396"}}]}