{"type":"FeatureCollection","features":[{"type":"Feature","geometry":{"type":"MultiPolygon","coordinates":[[[[104.15358751085094,14.521530558268367],[104.15412651909722,14.52041978624139],[104.15940402560787,14.52042487250445],[104.16024793836826,14.519613884819975],[104.16027615017387,14.51823052300358],[104.158454047309,14.516027764214527],[104.15549424913198,14.51347500271288],[104.15390733506953,14.513875393337798],[104.15266276041675,14.514479234483687],[104.15012858072933,14.516524997287462],[104.14967637803821,14.515953911675595],[104.14970404730914,14.514597540961546],[104.14942084418405,14.514302775065318],[104.14434895833344,14.510687221951088],[104.13804660373293,14.509363301595243],[104.13539035373273,14.506666666666916],[104.13496880425365,14.50680341932518],[104.13553222656273,14.50819193522149],[104.13554823133703,14.51121259901285],[104.13483371310767,14.512974107530653],[104.13591824001733,14.514627956814394],[104.1372751193579,14.515326978895601],[104.13981201171876,14.515822211371685],[104.14107042100719,14.517031487359219],[104.13947075737863,14.519669528537435],[104.13886528862852,14.522031656901177],[104.14070041232654,14.526788804796169],[104.144132215712,14.527074991862122],[104.14473578559026,14.527385796441266],[104.14849663628476,14.527379150390885],[104.1500325520835,14.527004733615613],[104.15080430772574,14.525413886176324],[104.15358751085094,14.521530558268367]]]]},"properties":{"id":"10339"}}]}