{"type":"FeatureCollection","features":[{"type":"Feature","geometry":{"type":"MultiPolygon","coordinates":[[[[78.19278564453148,29.97852140055801],[78.193048773872,29.97832465834128],[78.19415879991348,29.97839081472857],[78.19354410807333,29.97758621745683],[78.19234727647611,29.97715681976787],[78.19085801866348,29.977245581415417],[78.19028564453154,29.976192055808568],[78.19054768880247,29.97582552062184],[78.19392225477455,29.975142482652103],[78.2000078667538,29.976103298399593],[78.202081976997,29.976658854220048],[78.20266031901073,29.97592561192029],[78.19600884331643,29.974512854682516],[78.1938888888894,29.97438649760393],[78.18941677517412,29.974653051694645],[78.18861409505237,29.973935946359006],[78.18806342230934,29.971936631732973],[78.18755099826419,29.970993654463456],[78.18735704210096,29.967740836673755],[78.18800075954883,29.966556094487885],[78.18864827474007,29.964138366911612],[78.18770128038224,29.959630288018587],[78.18699734158011,29.95809637493599],[78.18500786675375,29.95721441057036],[78.18323432074678,29.956883405050206],[78.18291666666696,29.95652777777822],[78.18165879991344,29.956658855014936],[78.17892116970515,29.957651331160193],[78.17880018446206,29.959682574802457],[78.18255506727482,29.967301573223963],[78.1831662326392,29.96928038173293],[78.18531602647616,29.97260811752794],[78.18703369140647,29.974142820570634],[78.18984754774348,29.97907617184896],[78.19139675564261,29.9794366319979],[78.19188964843781,29.98051090531922],[78.1938810221358,29.98062959323373],[78.1936189778651,29.979714409775653],[78.19278564453148,29.97852140055801]],[[78.1809266493058,29.959198489719427],[78.18430555555582,29.959027777778303],[78.18512152777825,29.960441368951038],[78.18612711588585,29.96137300279453],[78.18673556857678,29.962662698958084],[78.18538655599016,29.96499470498877],[78.18317274305602,29.963193013933406],[78.18048258463583,29.960465730031757],[78.1809266493058,29.959198489719427]]]]},"properties":{"id":"9328"}}]}