{"type":"FeatureCollection","features":[{"type":"Feature","geometry":{"type":"MultiPolygon","coordinates":[[[[101.70385986328128,14.846808336046166],[101.70282823350684,14.844032185872607],[101.7019209798178,14.84401367187516],[101.70017103407119,14.844915178087149],[101.69699761284724,14.844215952555544],[101.69442559136283,14.842309282091179],[101.69438368055572,14.840259450276847],[101.69537150065113,14.835618116590851],[101.69690524631076,14.83359676784957],[101.69626030815951,14.829183451334842],[101.6968116590713,14.826922047933152],[101.69743326822893,14.82627500746004],[101.6996681043835,14.825173000759747],[101.70080430772546,14.823496941460661],[101.69981228298596,14.821799604628069],[101.69816528320317,14.820683169895048],[101.69637980143213,14.82071960449234],[101.69604912651911,14.820077938503815],[101.69609307183165,14.817930891249077],[101.69400146484358,14.815833333333543],[101.69214680989566,14.816816999647543],[101.69025417751718,14.819071502685844],[101.69053209092866,14.819880150689244],[101.69135959201381,14.820675184462104],[101.68828247070317,14.826853078206597],[101.6883245171442,14.828910200331151],[101.68713894314217,14.831650136312007],[101.68747748480891,14.832639126247997],[101.68682725694444,14.834242248535276],[101.68725002712668,14.835891791449882],[101.68581122504341,14.838684726291504],[101.68586968315955,14.843345574273116],[101.68552775065095,14.845445268419226],[101.68450683593736,14.846426188151426],[101.68577582465255,14.847079857720388],[101.68786607530379,14.846701507568554],[101.68942084418401,14.84708055284301],[101.69047186957457,14.848850894504281],[101.6924763997396,14.849858330620847],[101.69442518446183,14.851431376139587],[101.69963623046877,14.85309012519005],[101.70289672851564,14.850673099094166],[101.70441107855905,14.848677385118478],[101.70385986328128,14.846808336046166]]]]},"properties":{"id":"10315"}}]}