{"type":"FeatureCollection","features":[{"type":"Feature","geometry":{"type":"MultiPolygon","coordinates":[[[[81.28254787868914,24.37745876736146],[81.28247382269936,24.37559095594642],[81.28419854058157,24.37691345214874],[81.28721177842883,24.375959472656547],[81.28713989257793,24.37306003146736],[81.28763495551212,24.371496107313618],[81.28877943250862,24.370708550347487],[81.29291666666663,24.37054456922769],[81.29832804361965,24.370759006076767],[81.29797186957447,24.36899970160613],[81.29720486111106,24.368593817817242],[81.28799194335917,24.369010348850026],[81.28716864691839,24.368574693468204],[81.28558105468753,24.368637627495886],[81.28433919270825,24.367783067491615],[81.28250528971344,24.370620930989944],[81.28439344618053,24.371619194878733],[81.2829193793402,24.371970350477653],[81.28114664713527,24.373883599175613],[81.28061089409712,24.372500067817057],[81.28193915473062,24.370767957899517],[81.28151923285569,24.36998935275632],[81.28002265082446,24.37004862467471],[81.27928426106749,24.368905029297125],[81.2774357096354,24.3685521104603],[81.27611626519078,24.366508856879662],[81.27513888888862,24.367026028103552],[81.27291666666648,24.36625000000035],[81.27232231987827,24.36643819173206],[81.27160291883652,24.36796230740039],[81.27030883789044,24.368573065864027],[81.26981350368922,24.374757351345778],[81.27073811848945,24.37960049099422],[81.27251776801197,24.38276197645422],[81.27396891276041,24.38281948513479],[81.27956339518207,24.380717841254622],[81.28254787868914,24.37745876736146]]]]},"properties":{"id":"4972"}}]}