{"type":"FeatureCollection","features":[{"type":"Feature","geometry":{"type":"MultiPolygon","coordinates":[[[[78.78195312500051,29.381191406250437],[78.78188422309083,29.379449734158385],[78.78278320312543,29.379716932509112],[78.78306749131971,29.38031934950132],[78.78466634114622,29.38193915473127],[78.78468397352461,29.37945149739639],[78.7860262044276,29.37939826117669],[78.78777235243084,29.380560845269414],[78.78917209201447,29.38082804362024],[78.78998860677135,29.38126017252641],[78.79002658420168,29.380299953885],[78.78845784505236,29.37952657063849],[78.78694986979198,29.378328043620158],[78.78557671441004,29.37789333767398],[78.78552870008738,29.37668145073829],[78.78638346354214,29.374994710286884],[78.78715793185793,29.374277140299895],[78.78555013020886,29.373894178602797],[78.78471571180589,29.373080173069056],[78.78473714192748,29.372540486653946],[78.78224663628501,29.372143758138392],[78.78220648871579,29.37113084581202],[78.78329888237894,29.37037923177124],[78.78611653645876,29.370828043620165],[78.78686414930596,29.371986151801607],[78.78806043836843,29.3719387478302],[78.78881998697975,29.372758517795617],[78.78971598307342,29.37279405381979],[78.78973795572946,29.372244533963055],[78.78829942491356,29.37107394748304],[78.78694986979198,29.371127387153336],[78.78721679687524,29.370272488064572],[78.7891612413197,29.369901258681068],[78.78752658420169,29.367228800456132],[78.78527642144141,29.367506713867613],[78.78296766493108,29.36693400065147],[78.78471028645859,29.365319349501178],[78.78502658420203,29.36464965820356],[78.78716145833366,29.36554762098565],[78.78882514105939,29.365613606771277],[78.79040201822946,29.36477918836846],[78.79188856336836,29.36638359917569],[78.79481174045188,29.36528306749169],[78.79596544053871,29.36569458007854],[78.79581732855948,29.36942966037364],[78.79638346354196,29.370499674479575],[78.79514160156273,29.371298692491777],[78.79584038628511,29.373668755425683],[78.79804524739612,29.37571153428864],[78.79806125217053,29.37694864908893],[78.79750542534751,29.37853481716617],[78.79793999565996,29.381378784180058],[78.79907606336852,29.381423814562055],[78.79976372612893,29.38109931098134],[78.80250651041698,29.37863572862456],[78.80248345269129,29.378055555555946],[78.80356472439288,29.377545301649718],[78.80472764757005,29.37611640082521],[78.80542426215331,29.37361640082503],[78.80611653645892,29.373883599175684],[78.80647271050398,29.37463846842492],[78.80796223958382,29.37534145779111],[78.80858534071209,29.376661376953606],[78.80915744357665,29.375652262370153],[78.80926133897626,29.373028293186266],[78.80828613281292,29.371610853407475],[78.80835042317764,29.369985215929148],[78.80695312500038,29.368690524631432],[78.80695746527809,29.367029554579446],[78.805023057726,29.36641710069486],[78.80444986979202,29.36533365885461],[78.80482096354197,29.36293355306033],[78.80554850260475,29.362259318034205],[78.8055815972227,29.36142795138943],[78.80497721354217,29.360775689019448],[78.80215549045161,29.358833957248606],[78.8008563910594,29.358220893012614],[78.80080674913236,29.356971571180935],[78.80204969618083,29.356116400824988],[78.80220920138916,29.357414889865808],[78.80383761935789,29.35793050130256],[78.80437201605949,29.359062771267716],[78.80556098090332,29.359439154731234],[78.80780273437531,29.36138359917571],[78.80809109158011,29.36077453613322],[78.8062784830735,29.359095052083703],[78.80500542534762,29.357434624566352],[78.80612575954919,29.356415812174916],[78.80901638454893,29.356301269531727],[78.80998860677121,29.356815728081884],[78.81003634982667,29.355609063042976],[78.80971408420172,29.355000000000402],[78.81013319227478,29.35420823839017],[78.80834472656298,29.35373962402383],[78.8083496093756,29.354716050890133],[78.80149631076418,29.354811537001325],[78.80054524739617,29.35357299804727],[78.79899658203155,29.353634372287715],[78.79691162109404,29.3530531819665],[78.79652777777832,29.352638888889416],[78.79381212022608,29.353157348633175],[78.79318386501777,29.35373942057325],[78.78721679687524,29.359994710286827],[78.78416124131982,29.363883599175793],[78.78056098090312,29.369171956380654],[78.77921440972264,29.37048082139799],[78.77833875868092,29.372227511936245],[78.77694986979216,29.372667236328525],[78.77743001302113,29.373374633789396],[78.77887179904562,29.37331746419305],[78.77893717447964,29.37497056749183],[78.77667371961851,29.37496175130245],[78.77660807291701,29.37661743164115],[78.77751030816003,29.377238294813765],[78.77883544921926,29.377185804579383],[78.78166124131994,29.37837063259596],[78.78139431423662,29.37917195638053],[78.77764051649334,29.37947191026511],[78.77694986979216,29.38077745225732],[78.77744357638917,29.38191752115918],[78.778716634115,29.3823636881515],[78.78034315321227,29.38111640082502],[78.78083875868103,29.381661376953602],[78.78119493272621,29.38278659396738],[78.7820985243059,29.3840999348962],[78.78330756293431,29.386661376953498],[78.78374565972265,29.385888671875435],[78.78195312500051,29.381191406250437]]]]},"properties":{"id":"9350"}}]}