{"type":"FeatureCollection","features":[{"type":"Feature","geometry":{"type":"MultiPolygon","coordinates":[[[[75.34055859375016,25.52345703124999],[75.34098828125022,25.523413085937534],[75.34131640625017,25.523556640625046],[75.3419492187501,25.524056640625204],[75.34219140625012,25.523943359375053],[75.34268359375014,25.523556640625046],[75.34305859375004,25.523394531249963],[75.34294140625016,25.52330664062505],[75.34246875000005,25.523100585937613],[75.34220703125007,25.522647460937506],[75.34268359375014,25.52230664062509],[75.34380859375014,25.522180664062674],[75.34347656250017,25.52182226562516],[75.34318359375007,25.52169335937505],[75.34294140625016,25.521556640625036],[75.3425937499999,25.521405273437622],[75.34244140625017,25.521056640625048],[75.34230859375,25.520818359375127],[75.34219140625012,25.518806640625044],[75.34205859375007,25.518568359375124],[75.34194140625013,25.51830664062507],[75.3418085937499,25.51806835937505],[75.34169140625002,25.517806640625082],[75.34155859375014,25.517568359375062],[75.34144140624997,25.517306640625108],[75.34130859375003,25.517068359375088],[75.34119140625015,25.51680664062522],[75.34093359375007,25.51669335937497],[75.34049609375015,25.51644335937506],[75.33905859375002,25.51655664062504],[75.33881640625012,25.51669335937497],[75.33785546875023,25.516836914062665],[75.33769140625012,25.517568359375062],[75.33755859375006,25.517806640625082],[75.33735546874996,25.518266601562516],[75.33676171875024,25.518738281250094],[75.33644140625015,25.518556640625064],[75.33578125000005,25.518410156250212],[75.33505859374989,25.517568359375062],[75.33486718750007,25.51713281250015],[75.33426562500014,25.516871093750098],[75.33375000000021,25.51624999999997],[75.33305859375005,25.51630664062506],[75.33285156250017,25.51678125000015],[75.3325664062501,25.516943359375134],[75.33171875000019,25.517070312500124],[75.33212890625,25.517640625000013],[75.33194140624997,25.51806835937505],[75.33169140625014,25.518504882812536],[75.33180859375003,25.518943359374973],[75.33206640625,25.519056640624953],[75.33230859375001,25.519193359375052],[75.33300000000011,25.519347656250062],[75.33330859374999,25.519879882812702],[75.3329804687501,25.5204189453125],[75.33190625000006,25.520579101562532],[75.33169140625014,25.521068359375292],[75.3314414062501,25.521504882812593],[75.33157031250008,25.522264648437584],[75.33193359375005,25.52205664062511],[75.33219140625013,25.52194335937513],[75.33243359375004,25.5218066406252],[75.33269140625012,25.52169335937505],[75.33293359375003,25.521556640625036],[75.33319140625,25.521443359375056],[75.3333945312501,25.52098339843772],[75.33407421875009,25.52044335937518],[75.33431640625,25.520556640625074],[75.33530859375006,25.521443359375056],[75.33556640625014,25.521556640625036],[75.33580859375004,25.52169335937505],[75.3362812500001,25.521899414062673],[75.33644140625015,25.52218164062505],[75.33655859375014,25.522693359375097],[75.33669140625014,25.522931640625202],[75.33680859375002,25.52319335937507],[75.33694140624996,25.52343164062509],[75.33705859375013,25.52369335937506],[75.33769140625012,25.524431640625053],[75.3379101562501,25.52492773437514],[75.33838671875006,25.524976562499972],[75.33868359375006,25.524806640625002],[75.33959375000009,25.52467089843755],[75.33989453125005,25.523983398437608],[75.34055859375016,25.52345703124999]]]]},"properties":{"id":"27051"}}]}