{"type":"FeatureCollection","features":[{"type":"Feature","geometry":{"type":"MultiPolygon","coordinates":[[[[104.16042209201098,17.244727647569732],[104.16125813801781,17.244297146267655],[104.16181939018824,17.244308539496856],[104.16248508029216,17.24568060980934],[104.16296223958048,17.24909884982678],[104.16377604166362,17.24988064236139],[104.16645073784454,17.250766872830226],[104.17341796874709,17.25065863715318],[104.17906195746221,17.249291992187906],[104.17988064235837,17.249308810764305],[104.18157036675066,17.25099690755235],[104.18399902343478,17.250985785590586],[104.185030653209,17.250632595486408],[104.18680284287896,17.245691731771174],[104.18907335069164,17.24314914279546],[104.1895806206567,17.24205349392392],[104.18567382812196,17.23900472005242],[104.18435411241043,17.235658908420405],[104.18403049044858,17.23414876302118],[104.18487901475416,17.232897135417133],[104.18641601562209,17.232928602430846],[104.18891086154215,17.234942491319828],[104.1918842230875,17.233637966580133],[104.19372558593474,17.232151692708683],[104.19485839843455,17.232919379340643],[104.19652506510127,17.23347493489615],[104.20039496527491,17.234140353733082],[104.20225504556996,17.235551757812814],[104.20379530164652,17.23502468533019],[104.20614881727138,17.236810438368337],[104.20654188367755,17.23680230034759],[104.20652398003168,17.235919325087124],[104.2033108181395,17.232500271267867],[104.20203884548314,17.232935655382406],[104.20075792100411,17.232909342448167],[104.19828938801786,17.23141248914962],[104.19736382378173,17.22896511501773],[104.1991807725664,17.22721950954893],[104.20098795572616,17.22763563368089],[104.20248101128178,17.225358886719164],[104.20350585937237,17.22570963541699],[104.20402506510109,17.227423773871905],[104.20314561631645,17.229992675781588],[104.20444227430275,17.23170166015676],[104.20643310546589,17.230894097222546],[104.20887315537928,17.23215087890668],[104.20946777343468,17.23398383246557],[104.21127305772282,17.235691731771112],[104.21347113714998,17.23402370876765],[104.21438802083034,17.234337565104482],[104.2162472873234,17.232053493923942],[104.21564724392087,17.230888671875263],[104.21454589843458,17.22983045789961],[104.21340820312204,17.229278700087278],[104.21077039930256,17.22664957682329],[104.20869466145538,17.22384955512186],[104.20929253471942,17.222688802083553],[104.20708034938937,17.217919108073218],[104.2070594618028,17.215496148003837],[104.20743570963239,17.21402777777817],[104.20704427083032,17.21250000000036],[104.20738064235829,17.211187879774556],[104.20856743706318,17.208883734809334],[104.20778618706296,17.207731119792044],[104.20856391058746,17.20545925564261],[104.21011311848659,17.202452256944838],[104.21052870008398,17.201171332465634],[104.21242187499698,17.19865044487878],[104.21430826822646,17.19514160156288],[104.21560275607342,17.1924734157989],[104.21596950954577,17.190969509548978],[104.21764160155973,17.189030490451685],[104.21959608289657,17.1839775933165],[104.2208561197888,17.182766655816266],[104.22311984591741,17.182324761285074],[104.22466091579562,17.178885091146228],[104.22935167100397,17.176252712673957],[104.23113308376438,17.177170410156492],[104.23655002169843,17.177759060330075],[104.23846950954558,17.179308268229562],[104.23959716796597,17.179580620660033],[104.24016872829563,17.17840250651068],[104.24017306857334,17.17471028645876],[104.23795572916387,17.1717881944448],[104.23764160155949,17.16985839843781],[104.23636691622968,17.16827907986145],[104.23748942057014,17.16662299262184],[104.24014160155949,17.16625271267398],[104.2435207790771,17.16343885633715],[104.24789822048334,17.159127061632233],[104.24849527994493,17.156407335069687],[104.24844835069152,17.154107259114923],[104.24877495659442,17.152832845052387],[104.25097059461527,17.150723198785016],[104.25154676649007,17.14953586154546],[104.25151936848678,17.148199869791966],[104.25215359157707,17.147264268663577],[104.25639431423329,17.146672092014256],[104.25791666666382,17.146151258680916],[104.25928521050056,17.146619466146063],[104.26356743706307,17.15013292100734],[104.26430284287895,17.149264865451727],[104.26202473958031,17.14707600911491],[104.26250189886852,17.144745008681],[104.26069715711523,17.142482096354584],[104.26209174261865,17.14069173177124],[104.26207845051798,17.14003607855952],[104.26033799912895,17.139471299913538],[104.25825737846944,17.13779188368106],[104.25567518445902,17.136513671875406],[104.25456515841742,17.134225531684308],[104.25458685980621,17.13316324869838],[104.25515299478874,17.132064073351017],[104.25700385199357,17.13114366319475],[104.25638888888611,17.12972222222244],[104.25556477864288,17.130211317274643],[104.25386121961506,17.13198459201439],[104.25316867404243,17.134118923611453],[104.25188476562224,17.13661132812534],[104.24968804253186,17.139227973090584],[104.2468028428789,17.13958062066004],[104.24367133246253,17.140611436632256],[104.24106282551801,17.14280110677116],[104.24014160155949,17.149313422309362],[104.24212944878187,17.150969509548972],[104.24396050346931,17.15002631293447],[104.24458062065693,17.150996907552482],[104.24346815320874,17.152638075087154],[104.24402506510117,17.155250108507204],[104.24255588107357,17.15718614366348],[104.24063178168123,17.157913953993358],[104.23825737846923,17.155442708333695],[104.23704264322643,17.154863823785035],[104.23576063367759,17.15619818793435],[104.23626085069154,17.157659776475924],[104.23821614583031,17.15894178602467],[104.23819118923345,17.16016113281283],[104.2358973524276,17.161273871528124],[104.23455213758402,17.161246473524713],[104.23347493489288,17.16069173177111],[104.23225911458061,17.16041937934054],[104.23156168619491,17.162568088108074],[104.22865288628188,17.165875108507294],[104.2246690538166,17.16687500000036],[104.22148030598666,17.168491210937802],[104.22041422525771,17.16846923828166],[104.21902967664667,17.168824055989944],[104.21672390407699,17.170387098524728],[104.21453721787904,17.1693082682294],[104.2123421223931,17.170413953993418],[104.21170600043106,17.16975179036487],[104.21263861761881,17.16794189453148],[104.21291395399001,17.165969509548944],[104.21448893228884,17.16100314670166],[104.22012993706315,17.155583224826714],[104.22098578558726,17.1542778862851],[104.22096869574361,17.153441026476088],[104.22001763237543,17.15154730902799],[104.22048529730623,17.149264051649624],[104.22236382378193,17.147086046007303],[104.22263617621232,17.145792371962173],[104.22055094400756,17.14289306640653],[104.22181993272292,17.140429416232976],[104.2218009440077,17.139493272569766],[104.2204947916637,17.138752712673963],[104.21884277343466,17.140006239149642],[104.21838975694143,17.143251681858004],[104.21652235242757,17.145416937934485],[104.21711452907707,17.145985785590568],[104.21892849392086,17.145984429253843],[104.21930284287899,17.14796847873295],[104.21870307074354,17.15030843098988],[104.21734157985836,17.152102864583682],[104.21617648654231,17.152078993055994],[104.21222113714995,17.149313964844097],[104.20875271267076,17.15180826822953],[104.206805013018,17.15218858506978],[104.20513237846936,17.153202853732964],[104.20428059895559,17.153185492621844],[104.20345865885119,17.151491699219065],[104.20347764756647,17.150563964844054],[104.20985839843453,17.14432617187532],[104.20706542968472,17.141236165365],[104.20556315103889,17.14126681857688],[104.20191596136854,17.142013888889252],[104.19888509114307,17.14323703342042],[104.1967944335909,17.142632107205344],[104.19534206813964,17.143380262587172],[104.19288058810483,17.145157877604575],[104.19175265841713,17.145135091146173],[104.18975938584774,17.14306016710097],[104.18799126518806,17.14248643663224],[104.18653049044858,17.140953233507247],[104.18787434895555,17.13966227213575],[104.18932807074381,17.137213270399585],[104.18930175780966,17.13592393663228],[104.18844753688947,17.134265679253758],[104.18849148220184,17.132108832465562],[104.18815375433749,17.131530490451738],[104.18654649522287,17.133203396267646],[104.184817437063,17.133198242187817],[104.18317735459775,17.13375949435799],[104.18244873046578,17.135261230469098],[104.18374918619517,17.13651068793432],[104.18431396484081,17.138202582465553],[104.1842971462643,17.139019639757322],[104.18459716796585,17.13960205078162],[104.18456190320879,17.14133273654548],[104.18360270181986,17.143194444444703],[104.18458062065699,17.145295681423875],[104.18372233072623,17.14656195746558],[104.18199435763589,17.1474001736115],[104.18041937933728,17.14906846788223],[104.18100287543123,17.150772840712293],[104.18244113497965,17.152154676649616],[104.18415120442401,17.15181098090308],[104.18571804470187,17.15578396267395],[104.18568684895556,17.157310112847554],[104.18430284287896,17.159025065104558],[104.18286376952827,17.162161187066417],[104.18193033853888,17.16305826822955],[104.18059977213264,17.16260281033024],[104.17668077256647,17.15852376302108],[104.17553059895536,17.15911648220512],[104.1770971679658,17.160982801649624],[104.17708007812226,17.161831054687823],[104.17595269096924,17.163493923611455],[104.17402099609083,17.164592556424083],[104.1727487521674,17.163937174479642],[104.1723486328095,17.162296278212153],[104.17123101128172,17.16009141710113],[104.1712432183131,17.158283691406666],[104.16988633897276,17.159203559028114],[104.1715250651014,17.16390679253503],[104.17001573350413,17.166512315538526],[104.16815375433745,17.167358398437813],[104.16592990451093,17.16659722222252],[104.16359347872972,17.168612467448227],[104.16179361978882,17.16819742838574],[104.16060031466733,17.171174587673903],[104.16107611761853,17.173030598958647],[104.16013454860811,17.174583062066233],[104.16078233506656,17.175884331597473],[104.16288330077825,17.17754991319474],[104.16621907551789,17.179441189236385],[104.16652506510135,17.18070855034763],[104.16552273220199,17.180688205295596],[104.15998128254924,17.17689805772602],[104.1578068033825,17.173396267361497],[104.15635877820884,17.171602376302417],[104.15532769096924,17.17213351779543],[104.15598036024014,17.17404106987874],[104.15596625433764,17.174730631510712],[104.15364447699349,17.17529649522598],[104.15100287543103,17.17441677517398],[104.14902506510137,17.174030490451813],[104.14734727647263,17.173197157118366],[104.14651068793117,17.174886338976037],[104.1448000759519,17.174851345486417],[104.14305555555248,17.17425428602482],[104.14189778645553,17.17465060763928],[104.14097303602128,17.174023708767706],[104.14010742187222,17.17431993272622],[104.1395860460041,17.175446506076838],[104.14033881293105,17.17690755208359],[104.13836886935476,17.178800184462048],[104.13894721136862,17.183324110243333],[104.13958062065674,17.184586046007297],[104.14071397569145,17.1859901258683],[104.14068847655957,17.187230631510772],[104.13754177517089,17.187911783854545],[104.13679741753188,17.189047037760716],[104.13680962456303,17.189647352430867],[104.13852701822637,17.19129720052129],[104.14226128471947,17.19310899522604],[104.14409667968462,17.1945903862851],[104.14459716796577,17.194580349392723],[104.14559000650755,17.192588433160054],[104.14711317274006,17.19125271267393],[104.14836452907699,17.191897515191343],[104.14874728732335,17.193494194878753],[104.14708062065691,17.194302842882323],[104.14595838758376,17.195154351128906],[104.14598117404236,17.19627495659759],[104.14679660372965,17.197058376736393],[104.14986382378166,17.197358398437842],[104.15043158636846,17.197650824653167],[104.15158040364295,17.201758083767672],[104.15290825737569,17.204036187066293],[104.15382785372978,17.204919433594043],[104.15566297742774,17.205809733073337],[104.15624728732345,17.207668728298913],[104.15427463107355,17.211296115451688],[104.15373589409424,17.211813693576758],[104.15266764322635,17.211791992187813],[104.15171088324385,17.212119411892758],[104.14931260850406,17.21456027560808],[104.14887830945898,17.215455457899665],[104.14986382378166,17.217080620660028],[104.1501361762125,17.21806315104206],[104.14679172091721,17.219039171007267],[104.14679714626467,17.221245930989923],[104.1484695095456,17.22350206163223],[104.14784912109101,17.22470648871564],[104.14486165364295,17.22597601996563],[104.1439832899276,17.225675455729558],[104.14286838107355,17.22569824218779],[104.1411645507782,17.226576063368327],[104.14041937933749,17.228502061632312],[104.14109374999722,17.22981119791693],[104.14301242404221,17.228822699653065],[104.14346950954561,17.230009494357986],[104.14263617621233,17.230413953993448],[104.14097493489297,17.23180826822943],[104.13928846570897,17.232370605469228],[104.1386979166638,17.23358805338576],[104.13931586371226,17.2359982638892],[104.1400287543373,17.236683213976164],[104.14270751952833,17.237670627170573],[104.1442974175317,17.239325629340627],[104.14722005208054,17.239265950521144],[104.14851291232358,17.239597167969194],[104.1494194878442,17.240540907118415],[104.14900906032679,17.242142469618372],[104.14903157551785,17.243236219618367],[104.15025282117747,17.244409450955246],[104.15202935112566,17.243331976997013],[104.15357476128199,17.244379611545554],[104.15402506510137,17.245589735243513],[104.15232313367758,17.24626112196208],[104.15132134331324,17.247303873698243],[104.1546012369761,17.251558430989874],[104.15520996093457,17.254055718316394],[104.15708062065667,17.256557617187852],[104.15649875216732,17.25768717447947],[104.15739095051796,17.258469509548988],[104.15820827907683,17.257618815104593],[104.15822401258416,17.253554416233],[104.15651285806987,17.251516113281596],[104.15848605685485,17.248180881076777],[104.15846408419847,17.247096625434352],[104.15904622395547,17.245395236545562],[104.16042209201098,17.244727647569732]],[[104.16002251518833,17.216291775173943],[104.16083333333054,17.215833333333634],[104.16122124565689,17.21684244791699],[104.15859619140318,17.21971978081622],[104.15724419487569,17.219551595052337],[104.15738986544861,17.21838080512181],[104.1592586262993,17.21724555121574],[104.16002251518833,17.216291775173943]],[[104.18757649739283,17.205891384549048],[104.18861111110814,17.205000000000297],[104.18952202690676,17.206243218316317],[104.18864501952825,17.209295247396184],[104.18756537543126,17.20869276258712],[104.18757649739283,17.205891384549048]],[[104.1628645833305,17.202071940104503],[104.16130967881654,17.19850097656284],[104.1600941297713,17.199350043403143],[104.15731038411153,17.200209689670473],[104.15581271701089,17.199808485243366],[104.15474175346932,17.197022298177416],[104.15598008897271,17.19542453342038],[104.15652723524019,17.194232042101007],[104.15743896484108,17.193417426215674],[104.15861111110806,17.193055555555844],[104.16177273220185,17.195939398871985],[104.16413004556992,17.19625488281291],[104.1657880316811,17.196849772135778],[104.16624213324368,17.198698187934426],[104.16457845051801,17.201080186632268],[104.16343071831304,17.2021055772573],[104.1628645833305,17.202071940104503]],[[104.16585340711524,17.1933393012156],[104.16666666666382,17.192777777778176],[104.16727322048305,17.193282335069938],[104.16779296874714,17.194035373264143],[104.16745659721917,17.195535753038513],[104.16635633680264,17.194683159722572],[104.16585340711524,17.1933393012156]],[[104.17785834418092,17.193333333333683],[104.17760959201095,17.19207438151072],[104.17822129991035,17.190708279080155],[104.17916666666386,17.190555555555846],[104.18028944227129,17.191517740885928],[104.17943929036178,17.19460557725732],[104.17855685763598,17.19523790147599],[104.17752251518792,17.195033637153117],[104.17785834418092,17.193333333333683]],[[104.18602349175055,17.191797688802325],[104.18457546657689,17.19014675564273],[104.18406684027494,17.189038357205334],[104.18349148220184,17.189004177517717],[104.18125895181984,17.190308430989873],[104.17939154730598,17.189120822483048],[104.1777083333304,17.186444498698236],[104.17760009765337,17.184627278646204],[104.17903157551788,17.18351779513918],[104.18119954426808,17.18409857855947],[104.18179606119489,17.183000488281564],[104.18064344617758,17.178392740885755],[104.1811081271675,17.176888020833644],[104.18166666666386,17.176388888889235],[104.18232204860814,17.177004123264325],[104.18264675563935,17.17790879991348],[104.18375786675054,17.181797688802433],[104.18405761718455,17.184674750434397],[104.18590413411172,17.18596435546924],[104.186065809459,17.18481472439268],[104.18564317491021,17.183636881510708],[104.18565511067433,17.18072889539968],[104.18865044487566,17.179035644531623],[104.18979790581298,17.179489474826752],[104.19067762586499,17.18110839843783],[104.19076199001452,17.18252251519131],[104.18790473090004,17.185075683594135],[104.18796793619501,17.186136881510876],[104.18736897786195,17.1879245334204],[104.18629069010134,17.18931559244828],[104.18624131944145,17.190145128038452],[104.18671739366042,17.191021321614897],[104.18602349175055,17.191797688802325]],[[104.17122884114289,17.17554117838567],[104.17060926649006,17.176651475694698],[104.16978705511858,17.17619249131974],[104.16903808593443,17.174485948351034],[104.1705555555528,17.1736111111114],[104.17130208333052,17.174629991319776],[104.17122884114289,17.17554117838567]],[[104.14206787109114,17.180123426649615],[104.1417420789904,17.18162950303855],[104.14064968532685,17.182067871094006],[104.13959879556998,17.18065565321217],[104.1406163194417,17.17800781250041],[104.14194444444163,17.176944444444757],[104.14272677951098,17.177626410590705],[104.14250976562218,17.179372016059332],[104.14206787109114,17.180123426649615]],[[104.14747721353874,17.181972656250352],[104.14972222221937,17.181388888889146],[104.1504174804659,17.18200113932322],[104.15087158202866,17.184099392361475],[104.15002278645554,17.185261501736434],[104.14669216579566,17.185841200087083],[104.14545979817424,17.184940863715582],[104.14747721353874,17.181972656250352]],[[104.15429524739304,17.1815174696184],[104.15527777777478,17.181388888889146],[104.15743109808736,17.181907552083757],[104.1571310763861,17.1856407335073],[104.15465277777494,17.18706949869818],[104.15209364148998,17.18549126519136],[104.15307535806986,17.184106716580132],[104.15204779730627,17.183221299913484],[104.15210123697622,17.182556152344105],[104.15429524739304,17.1815174696184]],[[104.19311957464996,17.172319607205182],[104.19321289062194,17.171159125434414],[104.19543294270571,17.16847547743086],[104.19805555555277,17.16833333333365],[104.1986973741293,17.16936143663233],[104.19750759548313,17.172564561632228],[104.19471761067436,17.17290635850722],[104.19311957464996,17.172319607205182]],[[104.18622205945874,17.171231282552384],[104.18515814886857,17.172055392795627],[104.18388807508401,17.17173529730934],[104.18337022569156,17.170308702257287],[104.18527777777481,17.16944444444478],[104.18588189018797,17.169939236111432],[104.18622205945874,17.171231282552384]],[[104.18866672091715,17.166149088541957],[104.18932671440692,17.164265679253774],[104.19114963107339,17.163088650173975],[104.19277777777498,17.162777777778146],[104.1943001302055,17.16381890191012],[104.19064290364284,17.16711995442742],[104.18952501084769,17.167075466580144],[104.18866672091715,17.166149088541957]]]]},"properties":{"id":"1904"}}]}