{"type":"FeatureCollection","features":[{"type":"Feature","geometry":{"type":"MultiPolygon","coordinates":[[[[73.77221679687571,24.940000000000836],[73.77229465060836,24.938030904135005],[73.77336154513958,24.938073187934748],[73.77331732855967,24.936954125299124],[73.7749226888026,24.934735539754968],[73.77527235243107,24.92999470181026],[73.77612304687548,24.928291778565082],[73.77670572916722,24.9277518039287],[73.77772162543457,24.927792061700657],[73.77826795789983,24.92971692403232],[73.78047173394171,24.928249562582195],[73.7810780164937,24.926964814928695],[73.78217827691017,24.92584765116453],[73.78027235243107,24.924449742635858],[73.77924587673701,24.922859954834806],[73.78029378255266,24.920818532308672],[73.78026502821265,24.920097342597884],[73.7783167860251,24.919725350274717],[73.77819444444495,24.918472222222903],[73.77750705295213,24.91910901387608],[73.77692220052157,24.920859976875207],[73.77606879340337,24.920826153226173],[73.77509195963606,24.91875654432583],[73.77406494140692,24.9198650953512],[73.77474907769161,24.920859569974127],[73.77269070095562,24.92183102077979],[73.77350151909795,24.923009262085813],[73.77038899739668,24.923914371067355],[73.76997531467075,24.924791259766437],[73.77000623915004,24.92557182312092],[73.77194742838608,24.925494884915608],[73.77226888020911,24.93286300659257],[73.77163113064287,24.93591099209327],[73.77171196831668,24.93794688754683],[73.77060465494858,24.940694444445356],[73.77113905164984,24.941704097324788],[73.77224962022646,24.94166007995682],[73.77221679687571,24.940000000000836]]]]},"properties":{"id":"9522"}}]}