{"type":"FeatureCollection","features":[{"type":"Feature","geometry":{"type":"MultiPolygon","coordinates":[[[[75.84556403266035,23.253891601562927],[75.8445248074,23.252469618055983],[75.84325174967435,23.251606716580284],[75.8416480848521,23.252236056858052],[75.8391699218748,23.25224202474014],[75.83917500813774,23.251397433811135],[75.83808546278212,23.250836046007336],[75.83737074110243,23.252219509549008],[75.8366638861759,23.251669379340697],[75.83421203613258,23.248948838976233],[75.8348666042751,23.24639472113759],[75.83197021484344,23.246408148872064],[75.83141391330278,23.24587375217051],[75.83025851779499,23.24330417209238],[75.83029717339397,23.241410590278093],[75.82945610894078,23.240169813368524],[75.83138610839816,23.23890448676262],[75.82986111111089,23.23763888888928],[75.82804185655371,23.23780069987025],[75.8280686442055,23.23911485460107],[75.8264567057291,23.24476915147622],[75.82611389160141,23.24722493489631],[75.82555664062468,23.24830661349864],[75.82416944715695,23.25467054579036],[75.82489637586778,23.255843912760795],[75.82555820041208,23.255830485026394],[75.82611111111086,23.2564058430995],[75.8269274224173,23.255556233724377],[75.82886074489991,23.255084906684402],[75.82962992350255,23.252427164713893],[75.82726216634083,23.24973551432332],[75.82830837673603,23.249714219835468],[75.83194166395393,23.251669379340697],[75.83305833604581,23.25194173177134],[75.83469306098075,23.253049723307825],[75.83722500271259,23.25388617621573],[75.83776407877596,23.25499728732676],[75.83886990017353,23.253891601562927],[75.83986653645823,23.254889458550807],[75.84109212239551,23.253613823785173],[75.84441955566379,23.254158664279842],[75.84477274576815,23.257770317925775],[75.84555257161455,23.257786187066444],[75.84554423014313,23.254861111111566],[75.84556403266035,23.253891601562927]]]]},"properties":{"id":"9678"}}]}