{"type":"FeatureCollection","features":[{"type":"Feature","geometry":{"type":"MultiPolygon","coordinates":[[[[82.31087103949662,24.78610749986474],[82.3155805121526,24.784149576823268],[82.3195678710936,24.777268642849734],[82.32723931206587,24.77443489922446],[82.32876274956598,24.771397060818487],[82.32833034939236,24.77055811564159],[82.32834174262157,24.77000551011865],[82.32734917534717,24.76854142930803],[82.32647840711789,24.76899005466062],[82.32731987847208,24.7710647922095],[82.3266368272568,24.77166388617647],[82.32538764105882,24.771020406087615],[82.3250027126737,24.769441663954325],[82.32322808159725,24.766441192627283],[82.32172010633687,24.765951826307898],[82.32103407118043,24.764537641737476],[82.32023030598961,24.764147796631235],[82.31859700520832,24.764163547092252],[82.31862603081592,24.762736104329775],[82.31973036024314,24.761652442084866],[82.31971815321188,24.761046956380525],[82.31777506510409,24.760280558268533],[82.31750271267353,24.75818484836195],[82.3188861762151,24.757486284044347],[82.31748291015637,24.756805555556014],[82.31750352647558,24.755797051324166],[82.31691460503455,24.755280558268552],[82.31561740451397,24.756386108398928],[82.31614013671887,24.75229648166264],[82.31597222222209,24.751805555555947],[82.31415256076392,24.752229309082253],[82.31416965060762,24.753063998752523],[82.31472493489585,24.753052673340093],[82.31499728732624,24.753359358046083],[82.31413682725699,24.754163886176414],[82.3119466145832,24.75305248684377],[82.31139160156258,24.75308546278245],[82.31333062065985,24.75695856730178],[82.31194715711811,24.756930321587745],[82.31166937934009,24.757513715956378],[82.31306125217012,24.758189002143354],[82.31305853949632,24.758891601562794],[82.31195909288184,24.759612358941283],[82.31161376953114,24.76173385620146],[82.31052435980885,24.76278045654324],[82.31055908203123,24.76447569105396],[82.31131347656262,24.7659402296281],[82.30984320746538,24.76721944173208],[82.30861382378455,24.76638610839872],[82.30749728732653,24.766113891601975],[82.30694227430538,24.765536244710674],[82.30611382378473,24.765585462782425],[82.3066750759547,24.766674686008443],[82.30664577907967,24.768102773031032],[82.3058132595485,24.76890265570775],[82.30488959418412,24.768883802626164],[82.30444715711795,24.767459208170962],[82.3056410047744,24.766312204997007],[82.30488959418412,24.76445982191329],[82.3040277777778,24.765774417453628],[82.3030471462674,24.76526928371888],[82.30306939019081,24.764185265435472],[82.30249267578122,24.763065931532395],[82.30278428819432,24.76221384684274],[82.30333604600682,24.762225121392476],[82.30360839843755,24.760355970594958],[82.3022051323783,24.758289744059667],[82.30083496093735,24.75697318183083],[82.30014160156239,24.755544162326686],[82.2993473307292,24.755560370551663],[82.30021945529526,24.758108571370727],[82.30060872395816,24.761293877495902],[82.30018798828112,24.762110578749287],[82.29940375434032,24.762774997287607],[82.29734483506948,24.76207026163769],[82.29611382378451,24.763374125163182],[82.29748128255196,24.76468799167246],[82.29582926432298,24.76863142225507],[82.29497612847214,24.76945095486147],[82.29398627387147,24.77149136013493],[82.29361382378457,24.773164994981897],[82.29586100260425,24.776978556315555],[82.29814398871517,24.77808605617973],[82.29770941840277,24.779355163574635],[82.29319552951372,24.781748029921218],[82.29390842013882,24.78279958089223],[82.29500271267355,24.783330552843168],[82.29533420138912,24.785704633925107],[82.3046110026041,24.785567457411318],[82.30911621093733,24.78614332411054],[82.31087103949662,24.78610749986474]]]]},"properties":{"id":"9538"}}]}