{"type":"FeatureCollection","features":[{"type":"Feature","geometry":{"type":"MultiPolygon","coordinates":[[[[76.67160319010449,25.135830078125096],[76.67205796983515,25.133964301215414],[76.67333062066004,25.13334689670141],[76.67227593315985,25.132207031249962],[76.6707113986549,25.13223904079875],[76.67013888888906,25.13097222222231],[76.6687285698786,25.131169162326458],[76.66809448242194,25.132400173611188],[76.66804144965309,25.13499674479165],[76.66888088650185,25.135014105902954],[76.66925767686652,25.134621853298697],[76.67160319010449,25.135830078125096]]]]},"properties":{"id":"19104"}}]}