{"type":"FeatureCollection","features":[{"type":"Feature","geometry":{"type":"MultiPolygon","coordinates":[[[[101.71098578558727,15.622392306857847],[101.70841552734058,15.620419379340404],[101.7073529730873,15.621547851562738],[101.7073697916637,15.622369791666799],[101.70487535264434,15.622380642361364],[101.70456949869472,15.621786838107866],[101.70460327148143,15.620130750868256],[101.70346394856452,15.619036187066087],[101.7030555555526,15.617777777778016],[101.7021510145369,15.618071289062726],[101.70180270724526,15.618747558593938],[101.70183661566543,15.620413953993292],[101.70014634873812,15.620743815104348],[101.70013034396388,15.621526692708514],[101.70296576605577,15.623205837673893],[101.70427341037029,15.624566786024445],[101.70574218749707,15.62552978515643],[101.70642320420691,15.627628309461969],[101.70751085069136,15.62765055338555],[101.70845296223641,15.62570855034744],[101.71012478298294,15.624880371093909],[101.71096842447596,15.623242730034889],[101.71098578558727,15.622392306857847]]]]},"properties":{"id":"22220"}}]}