{"type":"FeatureCollection","features":[{"type":"Feature","geometry":{"type":"MultiPolygon","coordinates":[[[[72.63166395399358,29.875830552843553],[72.63255018446259,29.87554292466983],[72.633666178386,29.874381383260825],[72.63638617621584,29.870121036106468],[72.63500271267449,29.868003870646902],[72.63642632378546,29.866636115180853],[72.63750271267415,29.86611389160234],[72.63938178168453,29.864536514283003],[72.64383544921944,29.86306267632449],[72.64780788845556,29.862165451050586],[72.64777126736166,29.86037722269772],[72.6467876519105,29.860002780491143],[72.6455582682299,29.860836113824604],[72.64384467230971,29.86111509535128],[72.64176242404605,29.861827774048578],[72.6408916558166,29.862734010485312],[72.63842475043455,29.86307840135447],[72.63580512152836,29.86473449707104],[72.63455186632004,29.866038860745704],[72.63416937934076,29.86916944715776],[72.63302544487911,29.871989661323525],[72.63167426215333,29.873287879096807],[72.63099365234453,29.875219887628177],[72.63012939453202,29.875552775065884],[72.62958062066045,29.87442182752902],[72.62664116753555,29.8744410875117],[72.62412570529571,29.872736112807345],[72.6214116753479,29.867013227675514],[72.6211138237853,29.859778349135425],[72.6222526041673,29.8548835839173],[72.62387641059101,29.85173148261245],[72.62445827908041,29.849692535401203],[72.62514431423679,29.849033330282268],[72.62555284288263,29.8477749972881],[72.62611382378546,29.84694722493566],[72.6269409179695,29.844487720066383],[72.62721950954918,29.842726084391984],[72.62665256076448,29.840514119467073],[72.62503906250069,29.83813388400678],[72.61994222005276,29.83888610839915],[72.61093668619847,29.83710659451029],[72.60849446614642,29.837523125543328],[72.6069471571187,29.837491556804153],[72.60627143012229,29.83819486830039],[72.60208523220561,29.839399770101664],[72.59874755859434,29.841932254368132],[72.5974194335943,29.84461878458731],[72.5969471571187,29.84682340833949],[72.59779730902827,29.848077367147567],[72.60027506510485,29.849447224935574],[72.602752007379,29.849749891493786],[72.60448242187559,29.851146731907164],[72.60595269097306,29.853780254788717],[72.60674614800402,29.85703564114111],[72.60600775824727,29.858856447008606],[72.6045098198791,29.859163886176958],[72.60149820963622,29.856878645156],[72.59719129774359,29.853090074328108],[72.58901340060837,29.84879896375945],[72.58696207682348,29.84740849812917],[72.58373725043455,29.84334084404921],[72.58296603732694,29.84175169203087],[72.58250271267443,29.838858981663094],[72.58360839843809,29.83777489556283],[72.58403889974025,29.837783677843774],[72.58444444444493,29.838619622125307],[72.58510281033037,29.838606177436745],[72.58580376519157,29.836445939806552],[72.58443033854243,29.836111111111904],[72.58444905599012,29.835195549859677],[72.58861382378527,29.8344472249356],[72.59069444444523,29.833472222222994],[72.58888617621577,29.8336083306215],[72.58719238281324,29.834441663954678],[72.58597222222309,29.833813137479112],[72.5850911458339,29.834267086453607],[72.58470838758754,29.833868899876023],[72.5847414822056,29.832257232666834],[72.58331108941027,29.828951449924787],[72.57807725694502,29.826530507406517],[72.57944715711866,29.82472500271338],[72.57971950954922,29.823732147217612],[72.57888617621595,29.822502780491234],[72.57861382378545,29.819675988092143],[72.57978624132008,29.817400495741865],[72.58085937500076,29.81636944241062],[72.58471950954927,29.814997219510417],[72.59139729817767,29.81416863335589],[72.59138481987898,29.813551669651403],[72.58587782118124,29.813926645915487],[72.58221327039999,29.81390891181171],[72.58225857204937,29.811689351400418],[72.5818657769104,29.811391669380143],[72.58139160156307,29.81333611382462],[72.58083604600753,29.81444722493565],[72.57957790798665,29.8148555501309],[72.57902832031309,29.816549157037443],[72.5772157118063,29.818290693495783],[72.57776638454928,29.82476036919566],[72.57653483072991,29.825943688287524],[72.5631117079001,29.826941663954784],[72.5573689778652,29.825605502659144],[72.55666937934078,29.824163886177033],[72.54964002821234,29.823891669380117],[72.54972601996585,29.828107554118574],[72.55153727213596,29.82860833062142],[72.55282958984455,29.82666944715787],[72.56466742621589,29.82950508965459],[72.56808973524377,29.82943523830926],[72.57007297092062,29.828090972901293],[72.57423339843805,29.82862277560841],[72.57967475043475,29.830330488417616],[72.58136555989634,29.831476508247405],[72.58173339843827,29.83411103990423],[72.58084716796938,29.83930555555625],[72.58140652126806,29.8425840759285],[72.58207411024384,29.84453465779697],[72.58506618923693,29.847845280965913],[72.58862304687565,29.850851567586986],[72.5913878038202,29.852192882962456],[72.5924915907124,29.85334166632832],[72.59361382378543,29.853886108399124],[72.59414957682347,29.854443757799828],[72.59528049045187,29.85471944173257],[72.59679226345557,29.855636113485474],[72.59924804687572,29.857499542237136],[72.60165147569509,29.860001271566517],[72.60389160156328,29.86027499728816],[72.6062559678825,29.861589813233167],[72.60808458116392,29.861946801080364],[72.60919596354225,29.862519243029226],[72.61040120442792,29.862494650947525],[72.61151584201443,29.859668112861627],[72.61098578559105,29.853961122301584],[72.60916910807347,29.85086241828155],[72.60889160156299,29.84944166395492],[72.60818495008735,29.848613891602298],[72.6076071506084,29.849804433187614],[72.60572753906322,29.849419445462445],[72.60269585503553,29.848381703695523],[72.59971950954915,29.848058336046776],[72.59907118055608,29.847724414402308],[72.59972846137211,29.84387095133536],[72.60139160156317,29.84278055826904],[72.6019417317714,29.84194166395467],[72.60356146918448,29.840740898980812],[72.6066590711811,29.83973571777419],[72.61202962239636,29.839426489936713],[72.61372965494846,29.8388445875389],[72.61670328776106,29.839585333930856],[72.6186138237853,29.840552775065873],[72.61971191406295,29.841629621718525],[72.62291937934103,29.84193305121606],[72.62409613715354,29.844358851115857],[72.6235470920146,29.847577726576787],[72.62305284288274,29.848052775065867],[72.6222639973964,29.84967885335361],[72.62194091796951,29.851992051867157],[72.62083604600772,29.854169447157886],[72.61971950954941,29.85555277506593],[72.61888536241375,29.85996800740638],[72.61885226779603,29.863039109972675],[72.61922417534791,29.866311509874848],[72.61979166666728,29.86796976725337],[72.62106038411517,29.870432637533355],[72.62424994574732,29.87394166734559],[72.62707031250059,29.875799772475162],[72.62950358072968,29.876407521566577],[72.63058675130307,29.876385413276623],[72.63166395399358,29.875830552843553]]]]},"properties":{"id":"4744"}}]}