{"type":"FeatureCollection","features":[{"type":"Feature","geometry":{"type":"MultiPolygon","coordinates":[[[[77.79956434461852,30.503482801649426],[77.80206895616365,30.503076714409772],[77.80434841579918,30.504348687066127],[77.80471191406312,30.50376193576392],[77.8035780164935,30.50305148654526],[77.80364691840319,30.500802680121694],[77.8049028862853,30.500903591579913],[77.80635443793469,30.50009358723969],[77.8053789605041,30.499658203125065],[77.80413953993119,30.499757758246545],[77.80430555555628,30.49930555555551],[77.8036008029521,30.499434136284776],[77.80167697482702,30.500843641493148],[77.79815945095535,30.501202528211977],[77.79677110460128,30.50028808593754],[77.79637125651092,30.501183810763948],[77.79582302517426,30.50165635850702],[77.79556586371572,30.506466200086876],[77.79864312066044,30.50621880425355],[77.7999896918407,30.505706380208395],[77.79875515408051,30.504932996961884],[77.79956434461852,30.503482801649426]]]]},"properties":{"id":"17628"}}]}