{"type":"FeatureCollection","features":[{"type":"Feature","geometry":{"type":"MultiPolygon","coordinates":[[[[76.29555026584174,23.395946587457033],[76.29528306749128,23.394994710286795],[76.29417195638015,23.39354573567752],[76.29465128580708,23.392656792535135],[76.29666137695293,23.391708170573438],[76.2955117458765,23.3909670681429],[76.2956632486977,23.38714396158899],[76.29333862304688,23.385438910590736],[76.29421142578141,23.384727511936163],[76.29528306749128,23.38499471028682],[76.29648328993031,23.385820583767796],[76.29832451714404,23.385806206597678],[76.29905612521682,23.386939154731294],[76.30027248806417,23.385951877170527],[76.29909844292527,23.385086805555915],[76.29694973415772,23.384676513672247],[76.29749077690948,23.383070882161917],[76.2985191514754,23.38236328125045],[76.3003625488279,23.38300930447089],[76.30304768880208,23.383115776910287],[76.30307169596338,23.382510443793763],[76.30237358940965,23.381495903863296],[76.30332804361959,23.380611436632464],[76.30278306749116,23.380272488064676],[76.30019436306426,23.379778238932744],[76.29806084526902,23.378490261502165],[76.29860582139733,23.37777248806468],[76.30027248806417,23.37655002170179],[76.29972751193557,23.376105821398042],[76.29835991753455,23.3756728786897],[76.29796997070295,23.373432752821515],[76.3009334309896,23.368704291450086],[76.30436496310736,23.365286458333742],[76.30582668728275,23.36530504014813],[76.30569444444447,23.364305555555887],[76.30401557074637,23.364626057943184],[76.3025123426647,23.365660536024876],[76.30078423394102,23.3662076822921],[76.29914794921845,23.3677236599396],[76.29919148763,23.368819851346046],[76.29721693250863,23.37138359917573],[76.2963835991753,23.37305026584245],[76.2955920410154,23.37555026584235],[76.29504733615423,23.375094943576954],[76.29401489257808,23.373338623047232],[76.29359212239561,23.373614773221064],[76.29258477105012,23.379225124783417],[76.2944391547309,23.381075575087237],[76.2934370930989,23.38166137695363],[76.29218967013887,23.381307644314717],[76.29097601996526,23.380183241102856],[76.2919391547309,23.378783637153134],[76.29135240342876,23.377783067491876],[76.28925048828106,23.378972710503803],[76.28839043511263,23.38079508463575],[76.2872781032984,23.38138359917579],[76.28721313476566,23.380804714627132],[76.28802381727425,23.37927246093797],[76.28811319986951,23.3770176866323],[76.28634765624977,23.37573445638064],[76.28498819986979,23.373569607205255],[76.28340223524313,23.371963704427557],[76.28250610351543,23.371928168403215],[76.28248291015606,23.372514784071527],[76.28386678059874,23.3737969292539],[76.28425048828117,23.37500881618959],[76.2858280436196,23.377721896701843],[76.28556084526915,23.37917195638066],[76.28416137695316,23.38166137695363],[76.28305026584187,23.384439154731382],[76.28278306749112,23.386116400825046],[76.28138359917531,23.387772488064655],[76.28085978190106,23.389426947700073],[76.28027316623255,23.389450141059484],[76.27811143663192,23.388338623047375],[76.27746066623249,23.388620605469228],[76.27670084635409,23.38944064670183],[76.27460164388,23.390349663628896],[76.27392510308133,23.38891615125911],[76.27283365885418,23.388338623047375],[76.27279391818556,23.38999186197961],[76.27139417860238,23.391711968316358],[76.27184488932286,23.393050265842575],[76.27412000868057,23.39167195638055],[76.27638359917532,23.391974962022985],[76.2752830674913,23.3937163628476],[76.27582804361955,23.39417195638063],[76.27670084635409,23.394448242187835],[76.27723524305529,23.395025092231393],[76.28317681206593,23.39591105143269],[76.28614149305545,23.395793592665356],[76.29167195637999,23.396105821397995],[76.29325697157108,23.396661376953517],[76.29555026584174,23.395946587457033]]]]},"properties":{"id":"5007"}}]}