{"type":"FeatureCollection","features":[{"type":"Feature","geometry":{"type":"MultiPolygon","coordinates":[[[[83.36970431857654,23.38918457031268],[83.36898627387146,23.388751356337053],[83.36861653645829,23.386575792100913],[83.36791666666667,23.385972222222478],[83.36638075086822,23.38608940972253],[83.36427680121542,23.38668036566858],[83.36335123697913,23.387241889106107],[83.36421603732654,23.38922092013911],[83.36473307291689,23.38914455837687],[83.36525987413208,23.389462348090518],[83.36763427734391,23.389865722656353],[83.36899603949675,23.392545708550543],[83.36961317274293,23.392454562717177],[83.36914442274323,23.391677517361288],[83.36930555555554,23.390587158203388],[83.37081542968738,23.38963935004361],[83.36970431857654,23.38918457031268]]]]},"properties":{"id":"19742"}}]}