{"type":"FeatureCollection","features":[{"type":"Feature","geometry":{"type":"MultiPolygon","coordinates":[[[[82.59026394314222,27.598241373698485],[82.58806342230903,27.59369194878525],[82.58905436197918,27.593247884115243],[82.58945231119807,27.593603244358164],[82.58997667100678,27.595301106771487],[82.5905634223092,27.595825466580393],[82.59107340494799,27.596936577691693],[82.59310818142373,27.59556342230958],[82.59361897786451,27.595825466580393],[82.5939238823785,27.598105740018028],[82.59502495659709,27.59861111111188],[82.59496283637142,27.599652235243596],[82.59641899956605,27.60165879991375],[82.59781060112849,27.60139187283046],[82.59915879991328,27.599076877170674],[82.59811794704873,27.598523763021348],[82.59750786675332,27.596936577691693],[82.59642659505207,27.59660264757001],[82.5963156467013,27.59279893663249],[82.59777289496529,27.591496853299248],[82.59888102213532,27.58991021050406],[82.59761067708317,27.589174533420803],[82.59665879991329,27.589436577691615],[82.5952251519096,27.590547688802744],[82.59445231119813,27.59015109592073],[82.59508382161457,27.58931532118119],[82.59758029513884,27.587848849827054],[82.59861897786462,27.588325466580415],[82.60026991102418,27.589859754774864],[82.60000786675337,27.591396755642947],[82.59859402126736,27.59333821614642],[82.60019992404509,27.593834092882545],[82.60082166883691,27.594389648438053],[82.6008110894098,27.59579182942778],[82.60133761935796,27.596381022136],[82.60281032986134,27.596114366319995],[82.60412896050357,27.593341200087337],[82.60633761935756,27.59554768880264],[82.6080634223089,27.595285644531828],[82.6087272135417,27.594924858941525],[82.61275743272577,27.594311794705348],[82.61189724392344,27.597189127604764],[82.61084120008692,27.59870090060825],[82.61154242621544,27.599967719184605],[82.61331814236112,27.599976128472804],[82.61453423394099,27.600825466580645],[82.61547661675357,27.60030381944503],[82.61698866102435,27.598952907986686],[82.6166636827256,27.59686794704919],[82.61363199869814,27.594040527344333],[82.61444580078117,27.593598361545688],[82.61556857638871,27.59446858724013],[82.61634738498267,27.594422200521393],[82.61667453342025,27.594714355469364],[82.61733615451399,27.596435546875654],[82.62081081814236,27.599128417969325],[82.62086859809031,27.598157280816494],[82.62056342230912,27.597492133247115],[82.61627197265634,27.59271104600758],[82.6141251627607,27.59195529513947],[82.60620605468776,27.586901312934643],[82.60547173394107,27.583945855035253],[82.60425265842011,27.581501736111647],[82.60041666666669,27.57791666666722],[82.59752577039919,27.57805989583389],[82.59127631293384,27.581255967882598],[82.590603298611,27.581857638889474],[82.58625271267348,27.58741780599017],[82.58502007378465,27.588519151476262],[82.58385308159731,27.59035400390688],[82.58244520399305,27.5916118706603],[82.58117485894113,27.594380154080497],[82.58026991102432,27.59554768880264],[82.57963053385427,27.59772569444506],[82.58007731119793,27.599172634549234],[82.58158582899287,27.599992133247028],[82.58195231119774,27.5997300889763],[82.58229410807289,27.597537163629212],[82.58309054904501,27.597489691840934],[82.58519829644106,27.5999869791672],[82.58571207682289,27.601651204427725],[82.58611735026025,27.60167534722278],[82.58832275390617,27.600594618056263],[82.58825900607653,27.598615722656902],[82.59026394314222,27.598241373698485]]]]},"properties":{"id":"9411"}}]}