{"type":"FeatureCollection","features":[{"type":"Feature","geometry":{"type":"MultiPolygon","coordinates":[[[[77.96865559895863,25.07215223524308],[77.97166124131982,25.070887044270833],[77.97096896701422,25.070014105902928],[77.9678540039067,25.071105685764095],[77.96606960720518,25.068542209201425],[77.96511718750023,25.067659505208326],[77.96570665147598,25.065978732638854],[77.96221733941022,25.066117078993045],[77.95882975260454,25.062892252604186],[77.95625000000021,25.061250000000143],[77.9553567165801,25.061532660590373],[77.95445366753486,25.06323947482636],[77.95442084418451,25.064070095486088],[77.95527235243102,25.066394314236078],[77.95636854383716,25.06833984375001],[77.9566834852433,25.068327365451438],[77.9566392686634,25.06943956163211],[77.95724962022618,25.069727105034787],[77.95718587239608,25.071335177951397],[77.95875515408031,25.07519911024312],[77.95963460286478,25.07566406250008],[77.96161566840325,25.075036892361155],[77.96223253038252,25.074422200521056],[77.96721679687519,25.072494574652794],[77.96865559895863,25.07215223524308]]]]},"properties":{"id":"9505"}}]}