{"type":"FeatureCollection","features":[{"type":"Feature","geometry":{"type":"MultiPolygon","coordinates":[[[[86.48994531250005,27.849058593750073],[86.4897500000001,27.848749999999953],[86.48780468750002,27.84880859375008],[86.48707031250021,27.849441406250165],[86.4868046875001,27.84955859374996],[86.48657031250005,27.849691406250244],[86.48613281250007,27.849886718750014],[86.48585156250019,27.850519531250114],[86.4848203125002,27.85144140625009],[86.4845546875001,27.851558593750056],[86.48357031250018,27.852441406250136],[86.48330468750001,27.852558593750118],[86.48307031250002,27.852691406250045],[86.48230468750009,27.852808593750197],[86.48207031250021,27.85294140625021],[86.48155468750011,27.853058593750006],[86.48032031250003,27.85419140624998],[86.48005468750009,27.854308593750048],[86.47982031250021,27.85444140625016],[86.4795546875001,27.854558593750042],[86.47832031250007,27.855691406250102],[86.47765625000008,27.85584374999999],[86.4765546875,27.857058593750125],[86.4764453125002,27.857316406250092],[86.47405468750011,27.859808593750017],[86.47384375000021,27.86028906249996],[86.47357031250002,27.860441406250104],[86.47309375000006,27.86065234375002],[86.47280468750009,27.86105859375006],[86.47269531250006,27.86131640625021],[86.4723046875001,27.861808593750112],[86.47210156250006,27.862277343750094],[86.47157031250006,27.862691406250107],[86.47130468750012,27.862808593750074],[86.46907031250001,27.86494140625011],[86.46880468750007,27.865058593750078],[86.46832031250003,27.8654414062501],[86.46805468750009,27.865558593750066],[86.46782031250004,27.86569140625018],[86.4675546875001,27.86580859374996],[86.46707031250017,27.866191406250067],[86.46630468750024,27.86630859374995],[86.46557031250003,27.86694140625022],[86.4653046875001,27.867058593750002],[86.46482031250017,27.86744140625011],[86.46435937500016,27.86764453125012],[86.46294531250001,27.869183593749966],[86.46307031250004,27.870582031249995],[86.46394531250016,27.87130859374993],[86.46594531250017,27.87119140625005],[86.4661796875001,27.87105859375012],[86.46644531250004,27.87094140625007],[86.46667968750009,27.870808593749956],[86.46719531250002,27.87069140624999],[86.46742968750024,27.870558593750047],[86.4679453125,27.870441406249995],[86.46917968750009,27.869308593750006],[86.46969531250019,27.869191406250224],[86.47017968750012,27.868808593750117],[86.47044531250017,27.868691406250065],[86.47067968750011,27.868558593749952],[86.47169531250003,27.86844140625007],[86.47192968750025,27.868308593750044],[86.47244531250001,27.86819140624999],[86.4726796875,27.868058593749964],[86.47408593750023,27.867929687500023],[86.47439843750013,27.86723437500001],[86.4759296875001,27.86580859374996],[86.47639062500005,27.86560156250013],[86.47744531250018,27.864441406250037],[86.47764843750011,27.863972656249985],[86.4781796875001,27.863558593749957],[86.47885156250007,27.863406250000168],[86.47944531250008,27.862691406250107],[86.4795546875001,27.862433593749955],[86.47994531250018,27.86194140625014],[86.48015625000008,27.861460937500013],[86.4804296875001,27.861308593749953],[86.48090625000006,27.861097656250138],[86.4810937500001,27.860269531250182],[86.48167968750002,27.859808593750017],[86.48211718750028,27.859613281249977],[86.48240625000008,27.858960937500115],[86.4826796875,27.858808593750055],[86.483140625,27.858601562499956],[86.48394531250008,27.857691406250026],[86.4840546875001,27.857183593750065],[86.48419531250002,27.856941406250144],[86.48439843750012,27.85647265625009],[86.4849296875,27.856058593750063],[86.48539062500006,27.855855468750136],[86.48669531250019,27.85444140625016],[86.4868046875001,27.854183593750008],[86.48719531250023,27.853691406250093],[86.48730468750003,27.853433593750125],[86.48769531250005,27.85294140625021],[86.48780468750002,27.852683593750058],[86.48794531250005,27.852441406250136],[86.48805468750012,27.85218359375017],[86.48894531250008,27.851191406250095],[86.4890546875001,27.850933593750042],[86.48919531250019,27.850691406250206],[86.48930468750027,27.850433593750054],[86.48944531250024,27.850191406250133],[86.48955468750015,27.84993359375008],[86.49005468750002,27.849292968750092],[86.48994531250005,27.849058593750073]]]]},"properties":{"id":"9405"}}]}