{"type":"FeatureCollection","features":[{"type":"Feature","geometry":{"type":"MultiPolygon","coordinates":[[[[103.1068549262113,21.4665223524311],[103.10677354600276,21.464467502170663],[103.10843749999574,21.465050726996964],[103.10985568575987,21.46430013020877],[103.11127441405827,21.46396240234425],[103.11180013020439,21.46241183810814],[103.11025960286062,21.462088758681006],[103.10984917534304,21.462958170573444],[103.10888834635014,21.463848470052568],[103.10538791232219,21.462621527778296],[103.10431098089887,21.45985568576438],[103.10237006292985,21.45755913628527],[103.10400173610711,21.456047363281684],[103.10529215494373,21.45569986979214],[103.10568901909309,21.45736653645878],[103.106275770395,21.458189019097844],[103.10685682508287,21.456958279080297],[103.10909586588124,21.456249186198463],[103.10897189669734,21.45514431423655],[103.10733615450968,21.4560096571186],[103.10622260199264,21.455965711805973],[103.10625705294726,21.455101725260903],[103.1074991861939,21.453845757379028],[103.10706217447492,21.45259901258727],[103.10541124131552,21.451533203125607],[103.10458794487451,21.450257975260882],[103.10403320312074,21.451089409722698],[103.1066650390583,21.453653428820004],[103.1057009548571,21.45454671224003],[103.10267333983958,21.451787651910408],[103.10204508463144,21.451812608507552],[103.1020898437458,21.45294325086853],[103.10330837673203,21.45351833767417],[103.10457709417986,21.45488742404565],[103.1033601887979,21.455461697049202],[103.10202256944038,21.455408799913727],[103.10097764756526,21.4548556857644],[103.09841634114176,21.454588758681027],[103.0968386501693,21.455423448351212],[103.09650472004816,21.45541015625045],[103.09597764756543,21.45374457465337],[103.09541097004816,21.452921278212386],[103.09543348523911,21.45235487196223],[103.09447129990903,21.452351074219393],[103.09412462022178,21.451255425347668],[103.09624620225273,21.451811252170558],[103.09654405381539,21.451799316406706],[103.09651882595065,21.45116210937566],[103.09439914279088,21.45065728081643],[103.09340359157565,21.448291015625443],[103.09380588107237,21.44764431423674],[103.09518744574243,21.44837510850735],[103.09596679687084,21.447792154948417],[103.09361409504791,21.447047254774873],[103.09407280815574,21.446180284288715],[103.0960205078085,21.446257324219147],[103.09769883897152,21.448856336805974],[103.09823269313816,21.44930013020881],[103.09818169487434,21.448011067708777],[103.09684244791251,21.446064995660194],[103.09759358723542,21.444866536458804],[103.09930013020423,21.446255425347687],[103.09985568575965,21.44631537543445],[103.09847764756549,21.444270019531757],[103.09941026475272,21.443405761719234],[103.09808403862442,21.442644314236574],[103.09763373480504,21.444066026476236],[103.09623291015205,21.44401068793458],[103.0962787543364,21.44516764322961],[103.09489529079448,21.445112847222774],[103.09427137586388,21.445442708333914],[103.09334526909325,21.445406087240016],[103.0929245334161,21.442300889757405],[103.09678276909315,21.442398817274793],[103.09707790798197,21.44205756293462],[103.09593397352015,21.441517469618518],[103.09598144530824,21.44032362196222],[103.09683132595072,21.43958875868097],[103.09754503037769,21.441100531684555],[103.09846679687078,21.4407996961812],[103.0976228841104,21.439573025174127],[103.09767198350292,21.43833333333383],[103.09622205945786,21.43764919704914],[103.09626030815573,21.436682128906767],[103.09741699218333,21.43597764757004],[103.09888888888483,21.43675645616365],[103.10115261501343,21.435834147135836],[103.10239935980482,21.437077907986506],[103.10232231987456,21.435131835938023],[103.10387451171451,21.433755425347712],[103.10568901909309,21.434866536458927],[103.10769558376316,21.435186089410223],[103.10986653645418,21.438189019097805],[103.11013346353744,21.43911431206662],[103.10917426214857,21.440927463108196],[103.10997151692297,21.44124457465331],[103.11041124131557,21.439855685764343],[103.11153591579435,21.43881401909765],[103.11151367187105,21.438257649740123],[103.1096530490411,21.4368476019972],[103.10921847872854,21.435023871528244],[103.10943006727038,21.434588758681073],[103.11338840060384,21.436889377170743],[103.11377902560346,21.437716742622],[103.1151098632773,21.43894992404556],[103.11543131509998,21.439630805121965],[103.1153789604995,21.440949435764338],[103.11572021483957,21.44124457465331],[103.11626464843349,21.4400914171012],[103.11623074001338,21.439238823785246],[103.11488715277383,21.43728597005257],[103.11630588107224,21.43597764757004],[103.11735568575969,21.43653320312555],[103.11880777994381,21.43687879774346],[103.11873969183628,21.43859130859427],[103.11963921440557,21.439300130208835],[103.12097222221817,21.43859483506982],[103.12232801648886,21.43931233724021],[103.12341878254799,21.439269205729673],[103.12530734591596,21.44013346354228],[103.12425401475289,21.438142903646252],[103.12618435329435,21.438219401042133],[103.12651692707922,21.4361132812505],[103.12320421006544,21.433508300781753],[103.12013346353743,21.432922092014437],[103.11794759114181,21.431968044705286],[103.11678168402378,21.432376573351135],[103.11592447916254,21.432342664931056],[103.11512695312106,21.43065294053865],[103.11457790798212,21.430144314236685],[103.11419406466595,21.42893174913246],[103.11300455728767,21.429561089410214],[103.11097710503046,21.427910970052523],[103.11036783853766,21.42793511284775],[103.11044406466621,21.429855957031904],[103.10926839192311,21.430131835937942],[103.10875542534305,21.429577907986527],[103.10792209200972,21.429361436632433],[103.10873209635011,21.43089274088588],[103.10624782985698,21.431288519965705],[103.1050895182249,21.43124267578179],[103.10515218098558,21.42966417100743],[103.10374457464857,21.42875542534763],[103.10344862195788,21.427819824219327],[103.10350531683636,21.426388888889377],[103.10257921006556,21.425951877170647],[103.10268771700996,21.42320909288233],[103.10181098089876,21.422355685764387],[103.10084255641968,21.421898871528256],[103.10042209201,21.420133463542143],[103.09916666666246,21.41861111111163],[103.09873643662795,21.41900960286509],[103.0998725043361,21.422700466580366],[103.10084771049932,21.423604058160237],[103.10039252386755,21.425779351129023],[103.10042751735708,21.426663140191394],[103.10263563367656,21.42954264322981],[103.10362358940554,21.432731662326873],[103.10259304470068,21.43407552083383],[103.10109510633274,21.4340161132818],[103.10069986978763,21.43235568576445],[103.09983696831196,21.430378960504],[103.09772705077714,21.43046278211854],[103.09510091145435,21.429316677517804],[103.09514594183614,21.430453830295605],[103.09627468532565,21.431565212674087],[103.09816948784314,21.431490342882483],[103.0994455295099,21.43216552734424],[103.09985568575965,21.433507758247103],[103.09925509982222,21.434064398871996],[103.09709825303403,21.434043782552493],[103.09597764756543,21.4336447482643],[103.09682156032582,21.434871419271474],[103.09679714626319,21.435488009983118],[103.09481174044728,21.435409342448324],[103.09489691839858,21.433263346354607],[103.09408257378058,21.431281195747133],[103.09160346136755,21.429588758681092],[103.09097764756527,21.43005479600741],[103.09295383029118,21.432393663194986],[103.09290500216596,21.433627115885898],[103.09097764756527,21.434098578559514],[103.09292209200984,21.43485568576436],[103.09397162542993,21.436481391059445],[103.09234483506529,21.438480360243503],[103.09243136935365,21.44065863715319],[103.08985568575994,21.440966796875458],[103.08847764756527,21.442328016493462],[103.09032850477027,21.444518229167087],[103.08984510633255,21.44543158637198],[103.08988688150626,21.446481662326875],[103.08766493055148,21.445899522569945],[103.0856998697877,21.444300130208816],[103.08438693575997,21.444033203125542],[103.085144314232,21.445133463542092],[103.08545111761751,21.446422254774845],[103.08661783853748,21.448627115885955],[103.08803548176664,21.4499405924485],[103.08919704860685,21.45048882378518],[103.08959120008276,21.452144368490053],[103.09079210069032,21.454413791233122],[103.09014431423205,21.455721842448554],[103.09149359808632,21.455668402778258],[103.09251003688817,21.45596082899351],[103.09177110459663,21.454564344618518],[103.09271430121132,21.453690321180986],[103.09449707030845,21.454157443577046],[103.09688693575984,21.456552191840814],[103.09936523437099,21.45654676649353],[103.0992681206557,21.458996582031702],[103.09977945963138,21.459577907986713],[103.1001793077215,21.45706841362889],[103.10079454209651,21.457092827691568],[103.1023556857597,21.459866536458776],[103.10404975042988,21.46194769965335],[103.10402208115917,21.46264377170189],[103.1053632269923,21.46439263237896],[103.105906032982,21.466107042101143],[103.1068549262113,21.4665223524311]]]]},"properties":{"id":"9859"}}]}