{"type":"FeatureCollection","features":[{"type":"Feature","geometry":{"type":"MultiPolygon","coordinates":[[[[80.35525041368268,24.633428243001518],[80.3493055555555,24.63097222222241],[80.34835496690513,24.63125840928855],[80.34828392876503,24.63408701578807],[80.34903238932267,24.63495571560371],[80.35074137369762,24.634973924425267],[80.35192911783847,24.635503913031954],[80.3518426852755,24.637794053819718],[80.35256086561381,24.639403483073238],[80.35342376708948,24.640405069987352],[80.3552881198456,24.641656324598827],[80.35594299316372,24.642701924642267],[80.358311699761,24.64348063151077],[80.35842644585497,24.644908650716403],[80.35795271131698,24.64708051893483],[80.35834231906446,24.6475327555342],[80.3597604370116,24.647558865017658],[80.359710354275,24.646935458713486],[80.36030877007366,24.646419881185253],[80.36137854682053,24.643322991265464],[80.36356831868463,24.64206051296685],[80.3636335245765,24.639304300944417],[80.3625867377385,24.638089294433897],[80.3609671359591,24.63715549045176],[80.35986619737392,24.635622287326683],[80.35824659559452,24.634688483344448],[80.3576257324219,24.633967895508206],[80.35525041368268,24.633428243001518]]]]},"properties":{"id":"9557"}}]}