{"type":"FeatureCollection","features":[{"type":"Feature","geometry":{"type":"MultiPolygon","coordinates":[[[[86.40320467546573,24.822364327569773],[86.40830504438938,24.82207302033241],[86.40924485016163,24.822597414049753],[86.41079012468444,24.820803794258126],[86.41248323991866,24.821731121732142],[86.41293584951077,24.820716886977465],[86.41403543175889,24.82080525232024],[86.4147593087122,24.820401352173675],[86.41818405914611,24.823581572035977],[86.41975605350373,24.824394255141314],[86.42001579200192,24.823189777195395],[86.41901739247939,24.821914905369255],[86.41863097212351,24.8206316242549],[86.41618291982317,24.81926569136641],[86.41630132802621,24.81779204838135],[86.41531174469318,24.817090347535128],[86.41078917524842,24.817297494073713],[86.40802211253171,24.816540200372458],[86.40602924686303,24.81670033288664],[86.40562329525736,24.815972607327893],[86.40596183692381,24.814116477363584],[86.40654451921549,24.812529868476915],[86.40641837989287,24.810960586792845],[86.40701788076083,24.80988613068405],[86.40545510949332,24.809188787069544],[86.40544561513585,24.807793879436147],[86.40361103397268,24.805932358033076],[86.40241040463238,24.806151372518826],[86.4024249174362,24.80867229401403],[86.40188251834772,24.809887826104912],[86.40025627051753,24.811040915840167],[86.39864345042227,24.811652979777833],[86.39932229699323,24.813501514256032],[86.39929354265294,24.816358010431003],[86.39959519195881,24.81661781674613],[86.4001152114898,24.82011491079453],[86.40056605784392,24.82161242530745],[86.4019857355785,24.82283548506777],[86.40404655372075,24.82522758847476],[86.4050256932608,24.823933151490138],[86.40320467546573,24.822364327569773]]]]},"properties":{"id":"9533"}}]}