{"type":"FeatureCollection","features":[{"type":"Feature","geometry":{"type":"MultiPolygon","coordinates":[[[[78.49352728949665,24.969464285109296],[78.49431504991313,24.969433059692903],[78.49634223090268,24.970828037262535],[78.4977414279513,24.97050661934803],[78.49722574869784,24.96887761010116],[78.4962540690104,24.96954621632959],[78.49526312934026,24.968628264533862],[78.49659586588538,24.965283071730468],[78.49756076388891,24.966011543274448],[78.49710449218745,24.966874008179275],[78.49821641710062,24.96746246761805],[78.4986154513891,24.965787718031663],[78.50046820746539,24.964279899597827],[78.50284315321178,24.965828039381748],[78.50368896484369,24.96270139058481],[78.50550971137167,24.961525641547837],[78.50661756727433,24.959027777778417],[78.5060574001736,24.95796939002213],[78.50638346354165,24.956939150492886],[78.50724962022562,24.955777244568438],[78.51021294487865,24.95309241400878],[78.51342990451397,24.95164296468164],[78.51507514105893,24.95170817905057],[78.51719862196202,24.951338407728926],[78.51906982421892,24.951412573920862],[78.5208034939237,24.950863694085598],[78.521678059896,24.949592768351778],[78.52166097005218,24.948606893751872],[78.52221679687503,24.94693915049291],[78.52415391710068,24.943516769409754],[78.5241723632814,24.943050999112145],[78.52361653645832,24.94200035942977],[78.52491482204866,24.941957583957716],[78.52564643012178,24.939761212667364],[78.52360568576401,24.93917196061932],[78.52084201388911,24.93780527326848],[78.5205419921875,24.934925838047107],[78.52064887152798,24.9322314198819],[78.52003390842006,24.93220705668182],[78.51969102647567,24.934716928270603],[78.51882649739596,24.934280861749045],[78.51816677517357,24.933033828735844],[78.51745469835092,24.931002443102187],[78.51746419270822,24.928127110799707],[78.51805284288216,24.927491904365226],[78.51943115234363,24.9279749806729],[78.51945312500007,24.92742306179518],[78.51784478081609,24.926243438721215],[78.5183279079861,24.92471692403207],[78.51943901909723,24.922555914985423],[78.5188850911459,24.92249368455741],[78.51774848090301,24.92327570597392],[78.51694390190968,24.92253008524628],[78.51661729600701,24.920818778144564],[78.51479546440967,24.920890986125315],[78.51433675130212,24.92046597798729],[78.51483235677105,24.919529223972404],[78.51372965494804,24.918770353529652],[78.51284803602428,24.9209325408941],[78.51334526909707,24.92198599921379],[78.51405110677106,24.922640118069666],[78.51452256944467,24.924439146254315],[78.51283365885425,24.922783075968965],[78.5127715386287,24.923336775038663],[78.51306125217027,24.92388432820681],[78.51302788628468,24.924727138943737],[78.51387044270834,24.9255078972715],[78.51391493055567,24.926627621121412],[78.51311387803813,24.927492184109724],[78.51027235243052,24.92722752041344],[78.50810167100693,24.926171807183792],[78.5072805447048,24.92528559366913],[78.50584771050362,24.925315746731755],[78.50547254774338,24.92352304246735],[78.50601508246544,24.92068228827644],[78.50693901909713,24.91933923509444],[78.5059391276042,24.91901282416505],[78.50443874782988,24.92166194491972],[78.50449381510438,24.92304809570365],[78.50370795355892,24.92307924058774],[78.50264621310762,24.9227430809875],[78.50222764756941,24.920550257365434],[78.5009242078996,24.917887479994747],[78.49923855251748,24.91735382927851],[78.49833875868055,24.913965208266106],[78.49890516493045,24.913050638835244],[78.49887288411466,24.912237023248082],[78.50058295355902,24.908605422974148],[78.5005498589409,24.90777387831001],[78.50110107421872,24.90567045423775],[78.5010956488716,24.90224987453942],[78.50217963324675,24.901201697456074],[78.50338161892361,24.899066162110003],[78.50573811848975,24.90025161743226],[78.50610541449655,24.898606550429108],[78.5071207682291,24.89619488186355],[78.50777235243052,24.895591066149052],[78.50746582031243,24.892993231879842],[78.50653157552077,24.892127702501625],[78.50749457465295,24.890728123983294],[78.50689290364605,24.888450868395196],[78.50465901692715,24.88963300069223],[78.50416124131951,24.889171964857923],[78.50347222222231,24.88736111111176],[78.50251464843754,24.88754390292749],[78.50254937065986,24.889994803535117],[78.50111653645828,24.890336125692315],[78.50258382161459,24.892416229248568],[78.50416124131951,24.893160764906753],[78.50382324218745,24.89549538506448],[78.50248426649304,24.895919274224795],[78.50110975477426,24.897192993164623],[78.50080702039921,24.89909181382977],[78.49999457465267,24.900272479587642],[78.49972737630222,24.901394602458268],[78.49763319227432,24.901311594645733],[78.49639431423603,24.902111689250248],[78.49669297960068,24.90317270914761],[78.49819037543406,24.90364684210931],[78.49867160373284,24.905483271281412],[78.49833875868055,24.907227520413386],[78.49778320312495,24.90861640930244],[78.49558213975692,24.912959611681345],[78.49522596571174,24.91466205173117],[78.49532280815967,24.917665693495536],[78.49500515407979,24.91833903842557],[78.49446099175341,24.918317472670353],[78.49389431423614,24.919388529460193],[78.494564344618,24.920238672892722],[78.49658013237863,24.919171964857853],[78.49729356553817,24.919466417101233],[78.4997167968751,24.92194974263569],[78.5007348632814,24.922607116699766],[78.50136908637151,24.92380552503846],[78.50140353732652,24.924674708048997],[78.50111653645828,24.92528307596895],[78.50000542534744,24.925807452732215],[78.50163655598973,24.927222781711734],[78.5030856662328,24.92749944051161],[78.5043682183161,24.928883590698874],[78.50528320312517,24.928616409302307],[78.50622911241331,24.92796545240664],[78.50866400824654,24.929468570285863],[78.51019504123255,24.931281678942057],[78.51054985894118,24.93528233422235],[78.51102186414951,24.936174371507988],[78.51029324001743,24.93696074591803],[78.5095893012153,24.936588181390263],[78.50869330512151,24.938486612108576],[78.50764567057288,24.93991480509503],[78.50644965277795,24.9405476379401],[78.50584825303818,24.940571484036397],[78.50341715494804,24.939545860291176],[78.50082790798623,24.93694973839709],[78.50045681423617,24.9350052939527],[78.49912027994796,24.935356216431146],[78.499232042101,24.938178206550333],[78.49880018446177,24.93909322526767],[78.49702067057316,24.939716928270684],[78.49471679687494,24.939449738397087],[78.49138780381932,24.93807841406975],[78.4906670464409,24.935052193536293],[78.48968912760407,24.93414629618387],[78.48876519097243,24.932188585070122],[78.485263671875,24.932239295112325],[78.48353949652798,24.931052839491727],[78.48235704210063,24.93142717997293],[78.4818400065104,24.932404429118534],[78.48228190104166,24.93409122043235],[78.47934543185758,24.936784422133215],[78.47863688151054,24.935283071730368],[78.47775526258673,24.9356845516634],[78.4778152126735,24.937194319831477],[78.47720730251743,24.937515928480977],[78.47540635850706,24.937766363356303],[78.47470621744807,24.939181467692592],[78.4747379557293,24.93998023563016],[78.4738633897571,24.940582067702152],[78.47279758029512,24.940539822049132],[78.47220621744796,24.9413992987743],[78.47222791883692,24.941949161954],[78.47088243272569,24.944423264398083],[78.46873670789924,24.945051430596777],[78.4680501302083,24.944727516174822],[78.46752577039948,24.943616405063707],[78.4650355360242,24.945828039381794],[78.46430392795136,24.943978589376556],[78.46302246093742,24.944583333333966],[78.4630612521702,24.945560476515624],[78.4615380859374,24.947116364373542],[78.46061143663232,24.94611640506379],[78.4588943142364,24.94716259426609],[78.45916124131944,24.948894182841542],[78.45989040798631,24.949953710768355],[78.45834337022583,24.950443547567303],[78.45826633029529,24.952382867601642],[78.45905626085064,24.953605817159527],[78.4596655273439,24.953192121718246],[78.46002902560767,24.952422188653387],[78.46162950303815,24.950840305752806],[78.46329427083353,24.950859311422207],[78.46475640190974,24.949696049160934],[78.46570475260424,24.949733636644723],[78.46610568576378,24.9488835949373],[78.4674644639758,24.947505293952673],[78.46852756076387,24.947981580099096],[78.46791720920154,24.949134919908886],[78.46947102864587,24.95196998172389],[78.46939507378468,24.953881433275598],[78.46999511718766,24.953905207316637],[78.47244113498263,24.951941083272885],[78.47281195746521,24.9503850004414],[78.47388400607653,24.949716521369666],[78.4747566731771,24.949704344008225],[78.47613796657984,24.95112586975148],[78.47607530381944,24.9527088377217],[78.4767597113715,24.953768785265382],[78.4785755750867,24.955550261604017],[78.47957248263904,24.95492881351103],[78.48123399522584,24.951788575914676],[78.48178955078137,24.949456083510114],[78.48310980902798,24.949463102553153],[78.48440728081587,24.94806252797497],[78.48635226779507,24.94866202460446],[78.48637505425367,24.95048962487168],[78.48667534722213,24.951438094245646],[78.4883184136286,24.951372960409103],[78.48888427734394,24.951672350566128],[78.48968315972226,24.951640688578877],[78.49054768880214,24.952441753811954],[78.49053005642381,24.953836012946766],[78.49151448567696,24.955360459222206],[78.4927406141492,24.95593912336618],[78.49124864366311,24.9573216798576],[78.49200764973952,24.95991432613856],[78.491672092014,24.96167196061927],[78.49083875868072,24.96306084950824],[78.48976128472222,24.963756535848503],[78.48917209201383,24.965005293952544],[78.48750542534745,24.96540229373572],[78.48777235243054,24.966394182841597],[78.48806125217007,24.966661745707853],[78.48800726996544,24.968021948073172],[78.48860839843738,24.968340017531148],[78.49057427300383,24.967997695075695],[78.4908487955731,24.969698219299886],[78.49050292968766,24.97068521075832],[78.49212890625003,24.971452600691606],[78.4926207139757,24.972494703929172],[78.49371256510406,24.97128776126496],[78.4930609809027,24.97005591498531],[78.49352728949665,24.969464285109296]],[[78.52064860026061,24.9416609234286],[78.52002278645827,24.940382173326796],[78.52097222222241,24.93986111111164],[78.5221514214409,24.941286710103924],[78.52351182725712,24.940727594164244],[78.52386610243056,24.94096778445821],[78.52301106770827,24.941580513848635],[78.52312364366341,24.942150010003488],[78.52064860026061,24.9416609234286]]]]},"properties":{"id":"1775"}}]}