{"type":"FeatureCollection","features":[{"type":"Feature","geometry":{"type":"MultiPolygon","coordinates":[[[[105.78520189073211,12.32485324435791],[105.78792677137474,12.324271104600967],[105.7894005669477,12.324358995226063],[105.79042697482552,12.323801269531728],[105.79255086262893,12.321424153646163],[105.79246839735109,12.320040147569756],[105.7949089219824,12.318487955729537],[105.7958531358494,12.316430664062736],[105.7961355251725,12.314019911024573],[105.79668762206896,12.312481282552383],[105.798539293076,12.311137424045413],[105.79802164713416,12.306264648437875],[105.79964680989477,12.304654134114898],[105.8001755777984,12.301821017795405],[105.80147108289819,12.299727376302343],[105.8013902452245,12.298370768229447],[105.80054619683048,12.2976166449656],[105.79985453287625,12.297657877604422],[105.79943929036327,12.30076226128503],[105.79831420898304,12.301242133246845],[105.7977720811621,12.300635579427407],[105.79781860351434,12.299855143229507],[105.79719007703878,12.298344184028025],[105.79807996961691,12.295534396701754],[105.79641330295019,12.295146755642676],[105.79600443522028,12.294444444444679],[105.79471279568017,12.29457899305578],[105.79461432562803,12.295686577691342],[105.7925358751074,12.295129937066278],[105.78921841091451,12.295450032552395],[105.78756551106656,12.296731228298952],[105.7877965630415,12.301613769531514],[105.7869688585059,12.302353244357874],[105.78645616319338,12.303470323350993],[105.78569586859695,12.303742133246928],[105.78296888563241,12.302368977864987],[105.78180019802406,12.303892957899606],[105.77979492187396,12.304663628472554],[105.77948445637904,12.30588243272608],[105.78119676377926,12.30882622612873],[105.78112616644833,12.310009494358084],[105.77897962781984,12.311927354601139],[105.77826795789824,12.31510335286508],[105.77508999294596,12.315408799913627],[105.7742013210707,12.314011501736374],[105.77275553385292,12.315197753906546],[105.77281968858395,12.316274142795507],[105.77473381890061,12.31616021050381],[105.77726223415672,12.31679768880241],[105.77823621961701,12.317887912326839],[105.7789466010187,12.319435763889231],[105.78063998752074,12.320512695312829],[105.78066263834515,12.322922905816355],[105.78154418945203,12.324185112847516],[105.78520189073211,12.32485324435791]]]]},"properties":{"id":"10487"}}]}