{"type":"FeatureCollection","features":[{"type":"Feature","geometry":{"type":"MultiPolygon","coordinates":[[[[72.78686813040386,34.602711343277704],[72.79271754164571,34.598988990669426],[72.79856695288785,34.598988990669426],[72.80601165810478,34.59579840271897],[72.81026577537139,34.58941722681901],[72.81451989263857,34.58409958023523],[72.81983753922171,34.57984546296869],[72.82196459785521,34.57665487501832],[72.82036930388031,34.56708311116799],[72.82036930388031,34.55910664129263],[72.81664695127168,34.55432075936747],[72.81132930468803,34.550066642100575],[72.80707518742165,34.54421723085888],[72.8022893054962,34.539963113592165],[72.79112224767064,34.536772525641695],[72.78048695450374,34.53251840837507],[72.77304224928687,34.52826429110816],[72.76931989667818,34.525605467816405],[72.76931989667818,34.52188311520813],[72.7741057786034,34.51177958669918],[72.78048695450374,34.506461940115756],[72.7863363657456,34.499548999557106],[72.79112224767064,34.50008076421537],[72.80016224686264,34.50486664614044],[72.81398812798002,34.50912076340761],[72.82143283319684,34.51284311601589],[72.82834577375561,34.51284311601589],[72.83259989102234,34.5069937047742],[72.84270341953092,34.49795370558222],[72.84642577213938,34.4883819417319],[72.84802106611451,34.47827841322287],[72.84748930145653,34.4713654726643],[72.84376694884796,34.4633890027893],[72.83525871431411,34.45594429757212],[72.82675047978037,34.4495631216719],[72.82409165648889,34.4431819457715],[72.82196459785521,34.43733253452963],[72.82143283319684,34.427229006021136],[72.82409165648889,34.40329959639506],[72.82621871512222,34.391600773911335],[72.82994106773069,34.3767113634774],[72.83844930226408,34.35969489441007],[72.84589400748101,34.35437724782656],[72.84483047816448,34.359163129751636],[72.84536224282286,34.365012540993945],[72.84908459543138,34.36607607031064],[72.8501481247479,34.36129018838504],[72.85493400667318,34.35863136509346],[72.86131518257346,34.35650430646032],[72.86450577052378,34.35331371850985],[72.85971988859833,34.34640077795129],[72.8607834179152,34.34161489602613],[72.86503753518204,34.33736077875932],[72.86875988779073,34.33310666149251],[72.86875988779073,34.3288525442256],[72.8676963584737,34.31874901571675],[72.86503753518204,34.30970901652486],[72.86025165325671,34.30066901733281],[72.84855283077306,34.292160782799186],[72.84429871350599,34.28205725429068],[72.84110812555613,34.27195372578166],[72.84004459623944,34.266104314539874],[72.84323518418947,34.26291372658959],[72.83844930226408,34.25334196273927],[72.83738577294756,34.24908784547263],[72.83472694965573,34.24217490491398],[72.8331316556806,34.232603141063734],[72.83472694965573,34.22834902379684],[72.84057636089759,34.22728549447996],[72.84695753679827,34.228880788455186],[72.85493400667318,34.23047608243016],[72.84855283077306,34.22409490653011],[72.84855283077306,34.220372553921564],[72.85387047735631,34.21292784870447],[72.85333871269822,34.20761020212113],[72.84908459543138,34.20601490814582],[72.84642577213938,34.20707843746287],[72.84642577213938,34.214523142679795],[72.84429871350599,34.2182454952879],[72.84004459623944,34.22090431857983],[72.83472694965573,34.2193090246046],[72.8336634203392,34.20495137882911],[72.83632224363069,34.203356084854065],[72.84004459623944,34.200165496904134],[72.84589400748112,34.19272079168704],[72.84323518418947,34.19218902702886],[72.83738577294756,34.195911379637224],[72.83153636170582,34.19537961497879],[72.83047283238929,34.18261726317853],[72.83206812636413,34.1703866760361],[72.83472694965573,34.15868785355255],[72.83844930226408,34.1453937370935],[72.84376694884796,34.135290208584905],[72.84163989021445,34.13050432665975],[72.84057636089759,34.12625020939285],[72.84589400748112,34.125186680076325],[72.85067988940645,34.12305962144292],[72.85333871269822,34.12040079815098],[72.85599753598999,34.11508315156746],[72.85836184347133,34.1079902291243],[72.86344224120663,34.10710668169229],[72.86397400586523,34.103916093741915],[72.8655692998403,34.10178903510851],[72.8676963584737,34.102852564425206],[72.87035518176552,34.10497962305861],[72.87035518176552,34.10763844635072],[72.8676963584737,34.109765504983955],[72.86982341710726,34.111892563617445],[72.87301400505729,34.11455138690894],[72.8740775343741,34.117210210200966],[72.87460929903207,34.120932562809415],[72.87673635766558,34.12571844473459],[72.88205400424911,34.127845503367894],[72.88045871027421,34.12359138610118],[72.87886341629897,34.117210210200966],[72.87992694561589,34.11508315156746],[72.88737165083276,34.11508315156746],[72.89960223797479,34.115614916225994],[72.9065151785338,34.11827373951749],[72.91183282511705,34.12252785678439],[72.91715047170035,34.12944079734304],[72.92087282430899,34.13369491460995],[72.92884929418429,34.13848079653502],[72.93469870542631,34.14113961982686],[72.94320693995977,34.14007609051016],[72.94639752791008,34.141671384485306],[72.95118340983512,34.1453937370935],[72.95384223312695,34.14486197243524],[72.95543752710213,34.14273491380192],[72.95171517449356,34.14060785516851],[72.94958811586,34.135290208584735],[72.94480223393501,34.128377268026256],[72.94799282188521,34.12252785678439],[72.94373870461814,34.12146432746778],[72.93735752871774,34.121996092125855],[72.93203988213449,34.12146432746778],[72.92778576486776,34.116678445542604],[72.92565870623415,34.11348785759223],[72.92193635362597,34.110829034300565],[72.91661870704209,34.11029726964213],[72.90970576648354,34.110829034300565],[72.90279282592499,34.10923374032561],[72.90385635524152,34.10551138771706],[72.90864223716702,34.10125727045025],[72.91502341306725,34.09913021181684],[72.92140458896736,34.10125727045025],[72.92884929418429,34.0975349178417],[72.93044458815942,34.09381256523315],[72.93097635281796,34.08796315399137],[72.92991282350081,34.084772566041266],[72.92672223555078,34.07839139014105],[72.92672223555078,34.06935139094898],[72.92565870623415,34.06350197970703],[72.92087282430899,34.0592478624404],[72.91289635443357,34.054993745173405],[72.90491988455867,34.05393021585671],[72.89960223797479,34.05020786324833],[72.898006944,34.04435845200638],[72.89268929741641,34.04010433473984],[72.89003047412453,34.035318452814494],[72.87992694561589,34.022556101013976],[72.8740775343741,34.022556101013976],[72.87195047574076,34.02361963033077],[72.86822812313213,34.0310643355476],[72.86716459381515,34.03638198213102],[72.86450577052378,34.03957257008122],[72.86875988779073,34.04169962871471],[72.86716459381515,34.05073962790695],[72.86875988779073,34.056057274490115],[72.87035518176552,34.064033744365645],[72.86929165244865,34.06775609697402],[72.86450577052378,34.068287861632285],[72.87035518176552,34.07147844958247],[72.8740775343741,34.07466903753267],[72.87939518095763,34.07573256684947],[72.88152223959108,34.07839139014105],[72.87620459300732,34.0789231547994],[72.87567282834894,34.08317727206638],[72.8740775343741,34.08583609535796],[72.87088694642355,34.088494918649715],[72.86344224120663,34.09062197728322],[72.86025165325671,34.09062197728322],[72.85652930064859,34.09221727125836],[72.85440224201491,34.094876094550116],[72.84961636008958,34.095407859208294],[72.8499026949057,34.099416546632966],[72.84057636089759,34.10497962305861],[72.83047283238929,34.09966197647536],[72.83632224363069,34.10710668169229],[72.82940930307214,34.11029726964213],[72.82515518580541,34.11348785759223],[72.8219645978555,34.11827373951749],[72.82036930388031,34.116678445542604],[72.81505165729689,34.112956092934056],[72.80973401071313,34.11029726964213],[72.80122577617968,34.10551138771706],[72.79643989425418,34.10551138771706],[72.7900587183544,34.106574917034024],[72.78474107177053,34.10497962305861],[72.77570107257847,34.10125727045025],[72.76506577941169,34.09859844715875],[72.752303427611,34.09593962386681],[72.74698578102723,34.09328080057489],[72.74539048705233,34.089558447966425],[72.74858107500265,34.08796315399137],[72.75283519226926,34.08689962467484],[72.76081166214473,34.0821137427496],[72.76134342680305,34.07945491945783],[72.75921636816955,34.07520080219102],[72.75655754487784,34.07254197889918],[72.752303427611,34.074137272874324],[72.75549401556103,34.0778596254826],[72.75655754487784,34.080518448774455],[72.75177166295273,34.0810502134328],[72.74858107500265,34.07945491945783],[72.74539048705233,34.07679609616591],[72.74432695773581,34.07679609616591],[72.74698578102723,34.08317727206638],[72.74485872239384,34.084240801383004],[72.7421998991023,34.084772566041266],[72.73847754649378,34.08264550740812],[72.73369166456851,34.0821137427496],[72.72890578264347,34.08317727206638],[72.72305637140167,34.08370903672474],[72.71720696015981,34.08317727206638],[72.71029401960098,34.07998668411609],[72.68530108065838,34.094344329891584],[72.68795990394997,34.0991302118171],[72.71933401879315,34.115614916225994],[72.7283740179852,34.120932562809415],[72.74326342841894,34.12678197405111],[72.74698578102723,34.12944079734304],[72.74911283966091,34.12678197405111],[72.752303427611,34.127845503367894],[72.75602578021963,34.128377268026256],[72.76293872077824,34.13263138529324],[72.7703834259951,34.14113961982686],[72.77729636655354,34.14805256038561],[72.78101871916206,34.15496550094382],[72.78367754245383,34.162941970819176],[72.78420930711226,34.15709255957741],[72.78899518903754,34.15868785355255],[72.79218577698762,34.16506902945285],[72.79537636493765,34.169854911377925],[72.8001622468627,34.18049020454504],[72.8038845994711,34.19059373305389],[72.8038845994711,34.19857020292899],[72.80441636412937,34.20495137882911],[72.80441636412937,34.211332554729594],[72.80867048139649,34.22409490653011],[72.80813871673789,34.22941255311345],[72.80601165810478,34.235793729013665],[72.80973401071313,34.23738902298881],[72.81079754003,34.24483372820565],[72.80920224605475,34.2485560808142],[72.80813871673789,34.25227843342256],[72.80867048139649,34.25440549205605],[72.81186106934652,34.263445491248035],[72.8177104805882,34.275676078390205],[72.81451989263857,34.281525489632244],[72.8123928340049,34.29269254745745],[72.8155834219551,34.29960548801628],[72.81930577456345,34.305986663916585],[72.82090106853835,34.30066901733281],[72.8187740099053,34.29269254745745],[72.82036930388031,34.286843136215666],[72.82409165648889,34.28046196031528],[72.82940930307214,34.290033724165866],[72.8331316556806,34.29428784143259],[72.83791753760593,34.296414900066],[72.84536224282286,34.311836075158354],[72.84855283077306,34.32300313298383],[72.8480210661148,34.33204313217588],[72.82409165648889,34.34852783658478],[72.82036930388031,34.355972541801705],[72.81930577456345,34.371393716893806],[72.81664695127168,34.37990195142743],[72.81345636332142,34.39745018515329],[72.81398812798002,34.415530183537314],[72.81348567959705,34.42152861917832],[72.81186106934652,34.430951358629684],[72.81186106934652,34.4463725337217],[72.81398812798002,34.45488076825532],[72.82090106853835,34.458603120863785],[72.83259989102234,34.46551606142279],[72.84004459623944,34.4745560606145],[72.84057636089759,34.485191353781616],[72.83579047897254,34.49369958831524],[72.83100459704727,34.50008076421537],[72.82462342114721,34.50220782284886],[72.81398812798002,34.50273958750721],[72.79963048220444,34.49635841160682],[72.78739989506212,34.494231352973415],[72.7778281312118,34.49795370558222],[72.7698516613365,34.50805723409073],[72.76400225009448,34.5202878212328],[72.76347048543639,34.52773252644981],[72.76878813201998,34.531454879058444],[72.78208224847893,34.53836781961711],[72.79271754164571,34.542090172225386],[72.80282107015458,34.551130171417356],[72.81079754003,34.55644781800105],[72.81451989263857,34.56548781719303],[72.8155834219551,34.57133722843507],[72.8123928340049,34.577718404335016],[72.80601165810478,34.58409958023523],[72.8012257761795,34.58941722681901],[72.79643989425418,34.59313957942739],[72.78846342437888,34.59420310874408],[72.7826140131373,34.59739369669428],[72.77835989587041,34.605901931227905],[72.77516930791992,34.617068989053195],[72.77889166052896,34.61760075371146],[72.78208224847893,34.60962428383628],[72.78686813040386,34.602711343277704]]]]},"properties":{"id":"311"}}]}