{"type":"FeatureCollection","features":[{"type":"Feature","geometry":{"type":"MultiPolygon","coordinates":[[[[84.09743299696177,28.18507473415852],[84.09776746961828,28.18239501953188],[84.09719102647571,28.18136162651966],[84.09721055772573,28.18054782443633],[84.09764024522573,28.179777425130922],[84.09826633029527,28.179454752604798],[84.0988435872396,28.181372612847852],[84.09921603732633,28.18165635850754],[84.10054524739601,28.178668484158536],[84.09982123480907,28.175348849827017],[84.1018405490453,28.174980468750718],[84.10321044921889,28.175023600260985],[84.10445475260437,28.17637858072979],[84.10483262803845,28.178042127821783],[84.10699164496546,28.176837700738375],[84.10696641710078,28.17542127821254],[84.10882812499997,28.174255235460663],[84.11041558159744,28.173777262370407],[84.11219509548633,28.173920220269707],[84.11328803168439,28.173310275608344],[84.11367513020835,28.17160712348172],[84.11528808593746,28.17112141927136],[84.11582302517357,28.17067938910654],[84.11360080295142,28.17001030816033],[84.11260606553819,28.169455295139457],[84.11223253038222,28.168561740451977],[84.11363498263913,28.167935926649946],[84.113592122396,28.167401123047483],[84.1093055555555,28.167589246962507],[84.10651177300352,28.167364773221124],[84.10417073567734,28.167789306641282],[84.10228000217015,28.167637396918963],[84.09979899088566,28.166726209853167],[84.09693684895845,28.16695624457529],[84.09638888888892,28.166650526259374],[84.09513427734399,28.16721191406309],[84.09430555555556,28.166250000000545],[84.09330349392363,28.166432834202013],[84.09335096571183,28.16702446831661],[84.09244791666671,28.17032389322989],[84.0925442165798,28.1715231662332],[84.09366753472224,28.172491048177747],[84.09359375,28.173410101997106],[84.09212320963573,28.173352457683066],[84.09231309678833,28.17571384006132],[84.08913574218766,28.176977674696843],[84.08923990885424,28.178272026910264],[84.08748806423606,28.180269232856574],[84.08752794053825,28.18076348198842],[84.09058648003466,28.179753146702055],[84.09194444444464,28.178995632596113],[84.09297743055552,28.17957194010485],[84.0920404730904,28.182123345269858],[84.0934136284724,28.18330634223159],[84.09331949869815,28.184476860894733],[84.09273274739601,28.184429660373823],[84.0920708550349,28.18519816080787],[84.09225260416676,28.18745985243119],[84.09463921440968,28.189737548828717],[84.09758056640644,28.190623101129106],[84.09804524739585,28.189872911241906],[84.09665635850715,28.18945475260486],[84.09520480685771,28.18743476020032],[84.09531873914975,28.18601820204057],[84.09743299696177,28.18507473415852]]]]},"properties":{"id":"9397"}}]}