{"type":"FeatureCollection","features":[{"type":"Feature","geometry":{"type":"MultiPolygon","coordinates":[[[[72.93951090494787,33.44134290907135],[72.93893202039945,33.439514295790204],[72.9370456271703,33.43906500922331],[72.93639431423614,33.43783365885436],[72.93703667534717,33.436123996311],[72.93802652994785,33.43608473036042],[72.94015489366345,33.437387966580076],[72.94082790798623,33.43666137695338],[72.94248833550367,33.43626586914084],[72.94251627604163,33.43556172688834],[72.93983940972245,33.43562249077711],[72.93825764973954,33.43460110134576],[72.93699788411473,33.43343377007402],[72.93805013020867,33.43144476996558],[72.93741482204862,33.43063869900183],[72.9364089626736,33.430163913303076],[72.93611653645857,33.428328043619956],[72.93569444444441,33.42763888888916],[72.93500542534727,33.42827745225712],[72.93527235243053,33.430005289713705],[72.93623643663207,33.431262207031395],[72.93553059895842,33.433673299153796],[72.93552951388907,33.435521375868205],[72.93610568576415,33.43661078559056],[72.93495876736151,33.43824503580757],[72.93306206597222,33.439140218099155],[72.93302815755206,33.439993421766786],[72.93386121961825,33.43998460557749],[72.93418294270836,33.4402827284073],[72.93415093315983,33.44109463161925],[72.93633300781275,33.442216932508984],[72.936936577691,33.4417411973744],[72.9372680664064,33.44000528971368],[72.9378352864583,33.44131510416685],[72.93916124131951,33.442227511936],[72.94042724609378,33.442628309461924],[72.94159044053842,33.44388359917552],[72.94185953776062,33.44208645290834],[72.93951090494787,33.44134290907135]]]]},"properties":{"id":"16710"}}]}