{"type":"FeatureCollection","features":[{"type":"Feature","geometry":{"type":"MultiPolygon","coordinates":[[[[83.81832058376736,24.068129272461178],[83.8183664279517,24.064028998481106],[83.81797498914946,24.06276123046902],[83.81622829861126,24.061541205512313],[83.81332546657993,24.06084113227037],[83.81230305989598,24.060285576714676],[83.81020155164956,24.06116455078154],[83.80870713975716,24.061075439453532],[83.8068706597222,24.06156738281274],[83.80415879991338,24.059452243381315],[83.80316596137172,24.058341132270186],[83.80193657769124,24.05860331217464],[83.80099229600685,24.059116482205113],[83.79980305989594,24.05778557671468],[83.79811387803827,24.05808525933189],[83.79657687717034,24.059158867730247],[83.79549886067727,24.05856221516956],[83.79492051866319,24.05730177137613],[83.79415879991339,24.056952243381403],[83.79376573350694,24.056095513238134],[83.79131754557292,24.05446499294726],[83.78852322048627,24.05429850260441],[83.7871324327256,24.05526997884138],[83.7863810221356,24.054730021159074],[83.78551730685754,24.05183634440131],[83.78458333333347,24.05097222222244],[83.78361897786462,24.051270005968192],[83.78498670789932,24.05269185384141],[83.78505913628467,24.053909979926388],[83.78361897786462,24.05519680447081],[83.78415879991317,24.055563354492435],[83.78731526692727,24.056369154188744],[83.79124620225693,24.056981675890015],[83.79242757161464,24.05936116536489],[83.79526991102423,24.061168891059268],[83.79484239366312,24.06244622124605],[83.79196397569459,24.063146362305048],[83.7918891059027,24.064402262370052],[83.79249213324661,24.06473002115905],[83.79748101128499,24.065006103515856],[83.7996261935763,24.065340372721593],[83.80117458767367,24.066181844075786],[83.80387559678817,24.066020846896905],[83.81000623914932,24.06639756944473],[83.81103027343741,24.06584113227018],[83.81224256727424,24.066185845269302],[83.81218288845483,24.06718878852024],[83.812852376302,24.06755255805153],[83.81544514973959,24.06667446560354],[83.81682725694444,24.068040296766725],[83.81832058376736,24.068129272461178]]]]},"properties":{"id":"9602"}}]}