{"type":"FeatureCollection","features":[{"type":"Feature","geometry":{"type":"MultiPolygon","coordinates":[[[[72.35712754991314,32.79684583875884],[72.35833075629361,32.79360772026932],[72.36223063151053,32.793885904947984],[72.36221801757804,32.793268364800525],[72.35971950954868,32.79278049045152],[72.35885484483524,32.792194417317944],[72.35777615017375,32.789971245659885],[72.35667168511301,32.788910047743144],[72.36010430230036,32.788604871961965],[72.36107137044266,32.787129855685905],[72.36125000000013,32.784027777777936],[72.36035834418416,32.784201795790125],[72.3588916015627,32.78722493489602],[72.35686184353321,32.78802558051231],[72.35527492947048,32.78720811631953],[72.35436523437497,32.787226698133836],[72.35387030707457,32.78925713433168],[72.35238362630204,32.79035915798623],[72.35110310872412,32.791692030165166],[72.35112060546888,32.79254801432313],[72.35364230685755,32.79249647352438],[72.3553814019098,32.79162055121539],[72.35694173177072,32.79171291775185],[72.35549723307284,32.794516872830016],[72.35444715711813,32.79555826822936],[72.35243869357632,32.79588528103312],[72.35283501519089,32.797432183159785],[72.35411716037325,32.7978481716581],[72.35588473849819,32.7974861653648],[72.35712754991314,32.79684583875884]]]]},"properties":{"id":"16759"}}]}