{"type":"FeatureCollection","features":[{"type":"Feature","geometry":{"type":"MultiPolygon","coordinates":[[[[104.55630316840004,16.366487087673917],[104.55702745225435,16.36490858289956],[104.55875759548329,16.36292453342037],[104.56008463541397,16.360550672743358],[104.5621961805526,16.35866400824682],[104.56337239583038,16.35812418619824],[104.56570475260125,16.357581651476025],[104.56708821614282,16.357664116753753],[104.56939236110807,16.35967366536491],[104.57292317708053,16.35817898220509],[104.57374240451097,16.356617567274498],[104.57290907117752,16.35542453342039],[104.57264648437197,16.353887532552378],[104.57558593749721,16.351261393229407],[104.57486219617758,16.349552951389143],[104.57247884114318,16.348817003038434],[104.57209092881655,16.34777642144128],[104.57684950086528,16.343790961371752],[104.5773535156221,16.343143174913408],[104.57638346353886,16.342276475694888],[104.57390570746233,16.343622775607855],[104.57167154947624,16.34167399088564],[104.5712185329833,16.338768717448175],[104.5733013237818,16.336424153646135],[104.57264648437197,16.334575466580134],[104.57165093315675,16.333685709635645],[104.57084255642067,16.332415364583568],[104.56999999999712,16.329166666666936],[104.56932400173335,16.329375542534905],[104.56840060763611,16.330827365451725],[104.56787109374702,16.33254150390647],[104.5685932074625,16.33473090277799],[104.56695475260128,16.336728244357943],[104.56719129774004,16.340700954861262],[104.56666829426788,16.342159288194736],[104.567701280379,16.34383083767392],[104.56733940971927,16.345183105468905],[104.5655224609346,16.34607774522594],[104.56636121961529,16.34841498480924],[104.56619086371225,16.351266547309322],[104.56472113715003,16.352075466580175],[104.56186089409428,16.351309407552407],[104.56017198350432,16.349924045139176],[104.55643880208052,16.348210449219167],[104.55537217881667,16.347017144097606],[104.55467122395558,16.344002549913554],[104.5527001953096,16.342241482205097],[104.55236870659425,16.34151991102459],[104.55063774956304,16.33953504774331],[104.5482625325491,16.3386241319446],[104.54761664496223,16.3393470594621],[104.54765218098683,16.339947102864883],[104.54894829643817,16.34110514322937],[104.55198296440685,16.345319281684368],[104.55242078992754,16.349054633246737],[104.55506727430267,16.351419542101084],[104.55728949652499,16.352832845052376],[104.56013129340013,16.355556911892663],[104.55848741319167,16.35702528211833],[104.5560465494764,16.3617182074656],[104.55497016058726,16.363259006076603],[104.55374348958057,16.363185763889177],[104.5514832899278,16.364764539930817],[104.54870849609088,16.36513563368085],[104.54796549478888,16.365967339409934],[104.5501510959173,16.36723985460094],[104.55236328124724,16.366365831163407],[104.55414442274011,16.36733398437522],[104.55630316840004,16.366487087673917]]]]},"properties":{"id":"10251"}}]}