{"type":"FeatureCollection","features":[{"type":"Feature","geometry":{"type":"MultiPolygon","coordinates":[[[[104.21403021918107,17.405387098524614],[104.2152273220457,17.404236924913604],[104.21624755859077,17.404586317274692],[104.21713758680258,17.40456814236147],[104.21939371744517,17.403731825087107],[104.22143744574365,17.403773600260735],[104.22402506510119,17.405419650607953],[104.22581651475426,17.405411241319754],[104.22763617621248,17.404286566840696],[104.22617268879927,17.402880588107976],[104.22376817491013,17.40210015190999],[104.22291937933747,17.401525065104437],[104.21901936848676,17.400980631510762],[104.21717529296595,17.400349392361463],[104.2165196397543,17.397342936198243],[104.21650824652491,17.394596896701728],[104.2170977105005,17.393452690972637],[104.21913140190699,17.393467339410208],[104.21985839843475,17.3917035590282],[104.21804144964975,17.390512424045454],[104.21499999999716,17.3863888888892],[104.21387776692413,17.387522786458717],[104.2134749348929,17.389586046007352],[104.21283908419841,17.390524088542122],[104.21193901909427,17.390060221354517],[104.2108702256916,17.39169053819481],[104.21264160155974,17.394025065104543],[104.21291395399001,17.395457356771246],[104.21207845051802,17.39822835286506],[104.21150472004902,17.399341905382286],[104.20800808376433,17.399270562066235],[104.20673149956323,17.399707573785037],[104.205697157115,17.400462782118424],[104.20654215494491,17.40210286458364],[104.2085552300318,17.402093641493437],[104.20985839843453,17.403512912326647],[104.20921332465,17.405397677951726],[104.21116970485812,17.40587456597254],[104.209663357202,17.40888861762187],[104.21071397569145,17.410438368055893],[104.21183051214976,17.410980088976018],[104.21237304687199,17.410969238281538],[104.21403021918107,17.405387098524614]]]]},"properties":{"id":"10197"}}]}