{"type":"FeatureCollection","features":[{"type":"Feature","geometry":{"type":"MultiPolygon","coordinates":[[[[108.06197665744273,12.616299641927483],[108.06293043348441,12.614278428819745],[108.06427510579337,12.613477647569724],[108.06614332410916,12.61413221571226],[108.06812493218209,12.613437771267641],[108.06807474772043,12.612170138889198],[108.0669820827899,12.612922092014216],[108.06610182020304,12.61318901909749],[108.06467712402267,12.610170355903065],[108.06186625162692,12.609310980903103],[108.06111592610583,12.610472819010695],[108.05989902072386,12.611600206163573],[108.06050313313713,12.61390570746552],[108.05992180718246,12.614300130208704],[108.05920783148773,12.61204535590312],[108.05570712619274,12.610510796441318],[108.05381557888361,12.611006673177428],[108.05249450683496,12.610954318576688],[108.05251892089743,12.608552517361446],[108.05030456542883,12.608199869791989],[108.0462610541438,12.606157226562843],[108.04754848903966,12.604575195313018],[108.04752516004689,12.60398952908018],[108.04465379502929,12.604103461371949],[108.04367777506403,12.605156792535041],[108.04283603244247,12.605123426649612],[108.0419820827897,12.602878417969151],[108.0441842312276,12.602965494792059],[108.04549580891833,12.60155002170167],[108.04649624294629,12.601233181423922],[108.04598544650494,12.599284396701705],[108.04430765787649,12.59935085720521],[108.04155999077605,12.598333333333642],[108.0376407199424,12.599048665364862],[108.0364053683804,12.599034016927376],[108.03448208278988,12.600949707031603],[108.03988301594941,12.60914415147603],[108.0423133002378,12.609900444878775],[108.0422639295779,12.61190619574684],[108.04376539442191,12.613297254774622],[108.04669426811952,12.614589029948306],[108.04798739963005,12.614537760417008],[108.0517813449425,12.615985514323285],[108.05234422471702,12.615963270399604],[108.05354702419598,12.614323187934303],[108.05482767740781,12.613136664496835],[108.05663567436974,12.613208550347537],[108.05769090440455,12.614842664930919],[108.05923794216469,12.616276041666978],[108.06197665744273,12.616299641927483]]]]},"properties":{"id":"10466"}}]}