{"type":"FeatureCollection","features":[{"type":"Feature","geometry":{"type":"MultiPolygon","coordinates":[[[[83.0521914062501,24.140310546875085],[83.05200000000005,24.140000000000114],[83.05067578125019,24.140067382812603],[83.05044140625014,24.140564453125066],[83.05019140625026,24.14103710937512],[83.05030859374997,24.141439453124903],[83.05069140625014,24.141935546875075],[83.05086718750013,24.142682617187532],[83.05130078125003,24.14269921875014],[83.05169140625011,24.14218945312514],[83.05180859375017,24.141435546875087],[83.05230859375004,24.14078320312514],[83.0521914062501,24.140310546875085]]]]},"properties":{"id":"31127"}}]}