{"type":"FeatureCollection","features":[{"type":"Feature","geometry":{"type":"MultiPolygon","coordinates":[[[[75.85613884819904,27.595923122830058],[75.85513888888894,27.59458333333356],[75.85441989474836,27.59470540364609],[75.85482028537334,27.596787923177388],[75.85400302463117,27.598834906684274],[75.85609320746536,27.599189995659913],[75.85561462402379,27.599728732639207],[75.85390679253484,27.60020426432328],[75.85430046929267,27.6008048502608],[75.85612901475716,27.600295681423844],[75.85831542968779,27.599249674479395],[75.85746005588115,27.597651909722458],[75.85692654079881,27.597240125868325],[75.85613884819904,27.595923122830058]]]]},"properties":{"id":"18560"}}]}