{"type":"FeatureCollection","features":[{"type":"Feature","geometry":{"type":"MultiPolygon","coordinates":[[[[82.18335381401923,25.073259006076825],[82.1832538519964,25.071583116319815],[82.18236111111108,25.070138888889275],[82.18165879991327,25.070270182292006],[82.1801205783419,25.07134440104204],[82.17599419487837,25.071896158854457],[82.17505615234379,25.070846354167102],[82.1744034830729,25.070563151042066],[82.17442979600676,25.072051323785047],[82.17142293294253,25.071967230903155],[82.17023559570325,25.071541341146357],[82.169452311198,25.071718207465636],[82.1707754177518,25.073040364583647],[82.17139756944428,25.07332573784751],[82.17223008897557,25.074992404514404],[82.17282647026897,25.07654351128508],[82.17267103407121,25.07915201822948],[82.17214219835071,25.080124782986488],[82.17325317382793,25.080634765625277],[82.17481404622382,25.080541992187904],[82.17653795030375,25.07960503472269],[82.17835083007824,25.0776752387157],[82.17973008897573,25.076674262153162],[82.18335381401923,25.073259006076825]]]]},"properties":{"id":"19124"}}]}