{"type":"FeatureCollection","features":[{"type":"Feature","geometry":{"type":"MultiPolygon","coordinates":[[[[77.12136867947052,23.23462226020021],[77.1218439398871,23.23201687283037],[77.11887858072922,23.23167697482684],[77.11713541666668,23.230184326172306],[77.11558973524288,23.23030856662365],[77.11471828884541,23.23169976128517],[77.11124308268214,23.231420627170593],[77.10992770724815,23.229893798828513],[77.10958333333323,23.228750000000517],[77.10732218424485,23.228938937717444],[77.10603000217023,23.230438910590564],[77.104732530382,23.2325103081602],[77.10407470703112,23.23280381944491],[77.10314276801236,23.232728949653293],[77.10271009657103,23.231759304471012],[77.10201158311637,23.231399197049],[77.10156995985236,23.23286566840322],[77.10028428819427,23.233439398871866],[77.09917697482624,23.23643825954906],[77.10334364149296,23.238323025174154],[77.1052674696181,23.239454752604587],[77.11303466796878,23.242175564236675],[77.11332302517346,23.242510308160178],[77.11457153320313,23.242767469618443],[77.11543240017343,23.24058512369838],[77.11929945203983,23.24019056532157],[77.12020589192687,23.239286295573322],[77.11939086914046,23.23858412000905],[77.1194706217448,23.237591145833633],[77.12032090928827,23.235089789496996],[77.12136867947052,23.23462226020021]]]]},"properties":{"id":"9681"}}]}