{"type":"FeatureCollection","features":[{"type":"Feature","geometry":{"type":"MultiPolygon","coordinates":[[[[75.62312249900017,35.19362250100009],[75.62512025500027,35.19323249800007],[75.62513115500022,35.19269839500002],[75.62316171600023,35.1933725010002],[75.62242442100015,35.19303749800018],[75.62234713000018,35.1927993180002],[75.62219761600014,35.191851049000164],[75.62156667200006,35.19120639900021],[75.62172099400024,35.18994816600011],[75.62109529900013,35.1895898060002],[75.61995948300014,35.1897055740001],[75.61911134900024,35.18863392600008],[75.61923849100006,35.18738656600007],[75.6184824750002,35.18875814800023],[75.61900253500008,35.18995729100024],[75.62087323100016,35.19050624800009],[75.62136343800003,35.19163656600027],[75.62212250000024,35.19262249800005],[75.62185077300032,35.193182590000205],[75.62061750000024,35.19436750000027],[75.62011460500017,35.195917236000156],[75.61955681800012,35.197000000000045],[75.62012250000012,35.198098087000034],[75.61987750000011,35.19887749900022],[75.61937790800008,35.199357498000055],[75.61936258700021,35.200108257000096],[75.61962750000012,35.20062250100018],[75.62010127400006,35.2020825000001],[75.62062250000011,35.20287749900007],[75.62162750000013,35.20412250100006],[75.62187250000025,35.20587749900014],[75.62213722600009,35.206650917000175],[75.6221026200001,35.20834660300024],[75.6224950010002,35.208755001000014],[75.62335750000008,35.209583675000005],[75.62375671200007,35.21075000000023],[75.62316792900012,35.212470169000184],[75.62487209100007,35.21410749800012],[75.62489204000022,35.215085017999996],[75.62462164500025,35.21587500000017],[75.62511079800018,35.217304096000106],[75.62514030600036,35.2187500000002],[75.62511780500009,35.2198525160002],[75.62560191000014,35.22085036500016],[75.62662249900015,35.22219538100025],[75.62637750100012,35.22387749900017],[75.62612249899999,35.22437250100009],[75.62587750100013,35.227127501000126],[75.62545050400033,35.22837500000006],[75.62612249899999,35.230338284000226],[75.62586959500018,35.23089489900009],[75.62512790900021,35.231607500000166],[75.6251031170003,35.23282224300023],[75.62539031800023,35.23341422700018],[75.62685772500006,35.23482408900021],[75.62537750100014,35.236774851000234],[75.62575816900019,35.23848809400015],[75.62638586400001,35.2391414090002],[75.62778538500018,35.23982038500016],[75.62862750100012,35.24037249900019],[75.63043356100016,35.24159674300023],[75.63232436800021,35.241904549000125],[75.63271191000027,35.2434942620002],[75.63425499900009,35.24399500000024],[75.6356596220003,35.24447577700023],[75.63687219400006,35.24388750000014],[75.63688241200023,35.243386848000114],[75.6366216450003,35.24262500000013],[75.63687835500005,35.24187500000008],[75.63649762700035,35.24076267400005],[75.63687249900019,35.24037249900019],[75.63737249900018,35.23989210700023],[75.63712750100015,35.239372499000226],[75.6366172050003,35.23838192700016],[75.63663704700033,35.237409748000275],[75.63637249900032,35.23637750100005],[75.63612750100017,35.23537249900002],[75.63586438000019,35.23460377300019],[75.63537631000023,35.230111553000114],[75.63423737300027,35.22901728100017],[75.63463722600008,35.227849085000145],[75.63461989800024,35.22700000000023],[75.63464640400005,35.22570116600015],[75.63414872600006,35.22416750000009],[75.633627501,35.22337250100021],[75.63313750100022,35.22290171400016],[75.6326314090002,35.221423138000034],[75.63237750100026,35.22012250100025],[75.63212249900019,35.21937749900016],[75.63187750100028,35.21862250100004],[75.63012892900011,35.21694250100012],[75.63011758800022,35.21638684800024],[75.63062797400019,35.21489572100023],[75.63062245000017,35.214625000000126],[75.63062760000005,35.21437259700021],[75.63037249900006,35.21412749900017],[75.63012750100026,35.21387250100021],[75.62934600800023,35.2133601300001],[75.62887750100018,35.21287250100025],[75.62862249900016,35.21262749900005],[75.62780977200023,35.21125840800019],[75.62594510100021,35.2094668620002],[75.62637878800032,35.20862500000018],[75.62562750100025,35.207166618000215],[75.62587249900034,35.20662250100014],[75.62612956000001,35.206123501000064],[75.62533325000007,35.20573717100025],[75.62587249900034,35.204161716000016],[75.62462750100028,35.203122501000095],[75.62334879300019,35.202284142000096],[75.6233973790003,35.199903397000284],[75.62312750100014,35.19962250100005],[75.62235459100017,35.19887990200024],[75.62313260100021,35.198132404000205],[75.6226172050003,35.197131927000214],[75.6226421700002,35.19590866900025],[75.62187750000012,35.19402349100024],[75.62312249900017,35.19362250100009]]]]},"properties":{"id":"4524"}}]}