{"type":"FeatureCollection","features":[{"type":"Feature","geometry":{"type":"MultiPolygon","coordinates":[[[[108.10265862358833,12.544694010416961],[108.10550014919593,12.542256944444816],[108.1062705485015,12.540426974826843],[108.10453091091463,12.541353081597492],[108.10295349121,12.54318413628502],[108.10176913791136,12.54254231770868],[108.10157192653978,12.540087076823326],[108.10196634928312,12.53707302517391],[108.10241394042882,12.536270616319698],[108.1028647867827,12.534286024306041],[108.10484802246012,12.532577582465692],[108.10461554633136,12.531944444444832],[108.10351582844962,12.532631022135718],[108.10136494954318,12.532912326389209],[108.10148349338007,12.534387207031614],[108.10005418565444,12.5352823893232],[108.10000101725163,12.535945095486397],[108.1005774603938,12.536978352864978],[108.10030754936972,12.54059977213575],[108.09955152723413,12.542293565538529],[108.0975425211578,12.542750108507292],[108.09800448947377,12.544565429687779],[108.10265862358833,12.544694010416961]]]]},"properties":{"id":"22892"}}]}