{"type":"FeatureCollection","features":[{"type":"Feature","geometry":{"type":"MultiPolygon","coordinates":[[[[79.52216015625024,23.834224609375084],[79.52283593750005,23.833689453125004],[79.52339062499996,23.83398339843764],[79.52355859374998,23.834689453124966],[79.52496093750025,23.834810546875104],[79.52543359375014,23.834560546875124],[79.52569140624999,23.834439453125157],[79.52580859375016,23.83418554687509],[79.5259414062501,23.833939453125083],[79.52605859375004,23.833435546875123],[79.52619140625026,23.833189453125115],[79.52630859374997,23.83243554687506],[79.52644140625009,23.832189453125153],[79.52655859375014,23.831935546875087],[79.52669140625008,23.83168945312508],[79.52680859375013,23.8314355468751],[79.52694140625007,23.83118945312519],[79.52705859375001,23.830685546875046],[79.52723046875005,23.830361328125065],[79.52717968750008,23.829098632812574],[79.52617578125003,23.828938476562442],[79.52600000000004,23.828750000000085],[79.52555859375016,23.828810546875076],[79.52544140625011,23.829064453124957],[79.52530859375017,23.829310546874964],[79.52519140625,23.829564453125116],[79.5250234375001,23.829876953125137],[79.52441406250014,23.830060546875117],[79.52394140625026,23.829810546875123],[79.52318359375013,23.829689453124985],[79.52269140625023,23.829310546874964],[79.52244140625007,23.8292978515627],[79.5232304687502,23.83023535156255],[79.52301562500011,23.83064160156259],[79.52230859375013,23.830810546875085],[79.5218281250001,23.831141601562663],[79.52169140625026,23.83238281250007],[79.5220664062501,23.8325605468751],[79.52255859375,23.832908203125115],[79.52204296875024,23.83358203125006],[79.52155859375003,23.83381054687497],[79.52131640625007,23.833939453125083],[79.52060937500025,23.834108398437678],[79.52044140625023,23.834814453125006],[79.52030859375,23.835060546875013],[79.52019140625006,23.835344726562525],[79.52046093750008,23.835560546875087],[79.52093359375013,23.835310546875093],[79.52144140625009,23.835189453125125],[79.52183203125006,23.83492089843749],[79.52216015625024,23.834224609375084]]]]},"properties":{"id":"19511"}}]}