{"type":"FeatureCollection","features":[{"type":"Feature","geometry":{"type":"MultiPolygon","coordinates":[[[[76.17997273763027,25.714197862413243],[76.18065266927104,25.713818630642464],[76.1819112141931,25.71391981336822],[76.18240939670167,25.713026801215364],[76.18141004774324,25.711235622829932],[76.18145874023472,25.70982557508701],[76.17961439344626,25.707684733073037],[76.17820977105063,25.707058105468832],[76.17717054579029,25.706162651909793],[76.17541666666702,25.704027777777824],[76.17306722005233,25.704172092014034],[76.17268771701393,25.70555853949672],[76.17345079210102,25.707569444444616],[76.17387858072928,25.708065863715277],[76.17495035807323,25.708388671875042],[76.17619262695317,25.710771755642426],[76.17734049479199,25.71210394965283],[76.17862141927091,25.712489691840346],[76.17911499023475,25.714128960503558],[76.17997273763027,25.714197862413243]]]]},"properties":{"id":"18919"}}]}