{"type":"FeatureCollection","features":[{"type":"Feature","geometry":{"type":"MultiPolygon","coordinates":[[[[108.12446070340192,12.85058075628072],[108.12634692966381,12.850580732214809],[108.12715845648043,12.850580782798971],[108.12742598033284,12.850848308726157],[108.12823307682893,12.851659835686547],[108.12931222447114,12.852734515584686],[108.12985179968442,12.853006491532142],[108.13011932583632,12.853006544703476],[108.13011932583632,12.852734524495958],[108.12985179968442,12.852194983795755],[108.12957975016471,12.851927446324993],[108.12904469901085,12.851659868645967],[108.12742598033284,12.84896214885876],[108.12607940673692,12.848155027443184],[108.12580736049588,12.847883017655874],[108.12553983802738,12.847347945894839],[108.12553983802738,12.846808389725581],[108.12580736049588,12.846536361037835],[108.12607940673692,12.846268816955657],[108.12661888591148,12.845996794583115],[108.1276935948787,12.845189730372098],[108.12796555229423,12.844650194100709],[108.12823307682893,12.844382640487396],[108.12850512518995,12.844110636665093],[108.12904469901085,12.843843082440799],[108.13011932583632,12.843843104754768],[108.13065890244215,12.844110610551041],[108.13173796796931,12.844922172662422],[108.13200549572898,12.845189680641298],[108.13227754735979,12.845457288602873],[108.13416373024202,12.845457244783077],[108.13416373024202,12.845189715046843],[108.13497084411179,12.844922204804178],[108.1368570431907,12.844922141490912],[108.13820366310378,12.845189718083262],[108.14009431489794,12.845457252778019],[108.14170848472313,12.84599683912144],[108.14278758824892,12.846536403276573],[108.14332718663874,12.846808328343755],[108.14359472428029,12.847075894102275],[108.14467383428288,12.848694557552136],[108.14548088467765,12.85004117587512],[108.14575294798644,12.850580750872865],[108.14602048769379,12.850848315032493],[108.14656000114806,12.85084832304537],[108.14656000114806,12.85058079548314],[108.14629246099153,12.849769246002012],[108.14602048769379,12.84896214512193],[108.14575294798644,12.848694583163109],[108.14494137306505,12.847883007289497],[108.14467383428288,12.847615443920262],[108.14467383428288,12.846808327975424],[108.14494137306505,12.846536382848825],[108.14575294798644,12.846536376785409],[108.14575294798644,12.845996789516505],[108.14521334542835,12.845457272316338],[108.14494137306505,12.845189690244283],[108.14386669547562,12.844650164492208],[108.14224808126247,12.844650161015792],[108.14198054476216,12.844382594754208],[108.14198054476216,12.843571025141529],[108.13982234695428,12.843303530008555],[108.13955472205046,12.843303483826304],[108.1376685972264,12.843035946355457],[108.13712900855629,12.842496395765025],[108.13416373024202,12.84249641554591],[108.13389167697633,12.84222443283383],[108.13362414760851,12.841956848713636],[108.13335661846523,12.841684881398834],[108.13335661846523,12.840610246901889],[108.13335661846523,12.84033817636157],[108.13335661846523,12.839259087712023],[108.13362414760851,12.838724038130223],[108.13389167697633,12.838452038466983],[108.1355103385936,12.836833348049723],[108.13578239326048,12.836565838220153],[108.13793613005262,12.83629822947725],[108.13901522061573,12.836026296855408],[108.13955472205046,12.83575868960358],[108.14009431489794,12.835486694018684],[108.1406293848984,12.834947185415473],[108.14090144401203,12.834679597719912],[108.14170848472313,12.834412055389492],[108.14332718663874,12.834140088254372],[108.14494137306505,12.833872479646118],[108.14521334542835,12.833872474992774],[108.14521334542835,12.833332947210323],[108.14467383428288,12.833060938294665],[108.14386669547562,12.833060997511467],[108.14332718663874,12.833332979873347],[108.14305512543208,12.833600478617484],[108.14036184978144,12.834679626501952],[108.13739654092436,12.834947171967556],[108.13631745592195,12.83494712086248],[108.13524280784239,12.834679583454786],[108.13497084411179,12.834679576268186],[108.13470322334038,12.834947186134187],[108.13416373024202,12.835486671552033],[108.13389167697633,12.835758728518584],[108.13362414760851,12.836298226997812],[108.13335661846523,12.836565836181165],[108.13254507558676,12.836833353484579],[108.13119838950391,12.83683339076454],[108.13093086242682,12.837105384454063],[108.13065890244215,12.837644871830165],[108.13011932583632,12.838184467013107],[108.12985179968442,12.838451998482967],[108.12904469901085,12.838452020752086],[108.12715845648043,12.838452049848641],[108.12661888591148,12.838184446261877],[108.12661888591148,12.8379124575942],[108.12526779225348,12.837912440903551],[108.12500027025183,12.83818443828497],[108.12473274847477,12.838724046044334],[108.12392113748595,12.840610219997359],[108.12446070340192,12.84168489643676],[108.12473274847477,12.841956902235538],[108.12500027025183,12.842224424084208],[108.12500027025183,12.842763959583152],[108.12473274847477,12.843035974553786],[108.12419318209189,12.843035982422961],[108.12365361663419,12.843303526226606],[108.12311405211082,12.843571070596369],[108.12203492585755,12.84465018023971],[108.12203492585755,12.847882993329648],[108.12230696881957,12.84815501261194],[108.12230696881957,12.849501625607985],[108.12203492585755,12.84976918104472],[108.12176740662258,12.850580802175656],[108.12176740662258,12.851927447483988],[108.1212278453514,12.852734539039702],[108.12096032680816,12.853006505725588],[108.12068828502308,12.853546106801403],[108.12068828502308,12.854353189966858],[108.12096032680816,12.855160272916663],[108.1212278453514,12.855699857185229],[108.12203492585755,12.85597183921439],[108.12311405211082,12.855971854377998],[108.12392113748595,12.856239358637978],[108.12446070340192,12.856506887017602],[108.12500027025183,12.856778881245816],[108.12526779225348,12.85704650405657],[108.12607940673692,12.858125570508847],[108.12688649976567,12.859204704676216],[108.12742598033284,12.859204656939554],[108.12742598033284,12.858932702749271],[108.12715845648043,12.85866508308267],[108.12634692966381,12.857858052989599],[108.12580736049588,12.857046459293443],[108.12526779225348,12.855971852150262],[108.12500027025183,12.855699847043198],[108.12473274847477,12.855432225148874],[108.12446070340192,12.855160287622056],[108.12392113748595,12.854892759161515],[108.12365361663419,12.854353187765952],[108.12311405211082,12.852734525511053],[108.12311405211082,12.851927378493386],[108.12365361663419,12.851387853280087],[108.12392113748595,12.851120360051453],[108.12419318209189,12.850848331911706],[108.12446070340192,12.85058075628072]]]]},"properties":{"id":"40285"}}]}