{"type":"FeatureCollection","features":[{"type":"Feature","geometry":{"type":"MultiPolygon","coordinates":[[[[107.88994726562512,13.863300781250118],[107.88975000000013,13.86300000000007],[107.88855273437517,13.863050781249939],[107.88832226562513,13.863199218750097],[107.88759374999998,13.863343749999999],[107.88744726562507,13.864074218750119],[107.88720507812505,13.86445312500004],[107.88780273437513,13.864949218749942],[107.88845312500004,13.865078125000153],[107.88905273437516,13.865804687500003],[107.88894726562526,13.866324218750123],[107.88794726562523,13.867417968750104],[107.88805273437512,13.867699218750104],[107.888197265625,13.867925781250165],[107.888302734375,13.868199218750092],[107.88857226562507,13.868300781250099],[107.88896679687522,13.868550781250093],[107.88961523437516,13.868410156250178],[107.88980273437514,13.867925781250165],[107.88994726562512,13.867699218750104],[107.89005273437513,13.86617578125005],[107.890552734375,13.865570312500068],[107.890447265625,13.865300781249942],[107.89005273437513,13.864824218750087],[107.88994726562512,13.863300781250118]]]]},"properties":{"id":"22443"}}]}