{"type":"FeatureCollection","features":[{"type":"Feature","geometry":{"type":"MultiPolygon","coordinates":[[[[107.94643945312512,14.06619140625017],[107.94687500000018,14.065960937500122],[107.947310546875,14.06619140625017],[107.94756445312512,14.066308593750222],[107.94792578125018,14.06650000000009],[107.94806054687504,14.065953124999965],[107.947310546875,14.065066406250168],[107.94718945312522,14.064808593750016],[107.94706054687506,14.06456640625018],[107.94693945312511,14.064308593750027],[107.9468105468749,14.064066406250106],[107.94668945312495,14.062664062500005],[107.94693945312511,14.06219140625005],[107.94706054687506,14.061933593750084],[107.9474394531251,14.061441406249983],[107.94756054687505,14.060683593750127],[107.94805859375012,14.060035156249981],[107.94781054687516,14.059566406250099],[107.94768945312521,14.059058593750237],[107.94756054687505,14.05881640625013],[107.9474394531251,14.058558593750078],[107.94700000000003,14.058000000000149],[107.94656054687513,14.058058593750005],[107.94643945312512,14.060316406249981],[107.94631054687503,14.060558593750088],[107.94616601562515,14.061164062500069],[107.94566210937509,14.06155859375005],[107.94509179687518,14.061257812500003],[107.94493945312522,14.060308593750008],[107.94481054687506,14.060066406250172],[107.94468945312511,14.05980859375002],[107.94450390625022,14.05945703125002],[107.9440644531251,14.059691406250138],[107.94381054687514,14.05980859375002],[107.9435644531251,14.059941406250132],[107.94331054687515,14.060058593750199],[107.94306445312512,14.060191406250212],[107.942810546875,14.060308593750008],[107.94251171875007,14.060468750000041],[107.94256640625011,14.06182421875009],[107.94306445312512,14.062058593750024],[107.94331054687515,14.06219140625005],[107.9435644531251,14.062308593750203],[107.94381054687514,14.062441406250215],[107.9440644531251,14.062558593750012],[107.94431054687513,14.062691406250025],[107.94456445312508,14.062808593750177],[107.94482812500027,14.062949218750092],[107.945060546875,14.063441406250178],[107.9454394531252,14.063933593750178],[107.94556054687516,14.064335937500147],[107.94530078125004,14.064828125000147],[107.94481054687506,14.06505859375018],[107.9443144531252,14.065441406250017],[107.942162109375,14.065558593750069],[107.94168945312495,14.065308593750089],[107.94134570312505,14.065191406250108],[107.94118945312508,14.065710937500128],[107.94143945312518,14.066183593750182],[107.94156054687514,14.067085937500124],[107.94126757812504,14.067640625000053],[107.94131835937517,14.068906250000154],[107.94246289062497,14.069058593750114],[107.94293554687502,14.068808593750035],[107.9431894531252,14.068691406250068],[107.9434355468749,14.068558593750225],[107.94391796875007,14.068332031250094],[107.94406054687502,14.067433593750224],[107.94445703125015,14.066917968750019],[107.94493945312522,14.066691406250058],[107.94518554687502,14.066558593750031],[107.94568945312508,14.066441406250064],[107.94593554687506,14.066308593750222],[107.94643945312512,14.06619140625017]]]]},"properties":{"id":"22393"}}]}