{"type":"FeatureCollection","features":[{"type":"Feature","geometry":{"type":"MultiPolygon","coordinates":[[[[80.12195477803536,29.07334364149372],[80.12221755981412,29.07133524576888],[80.1230823771156,29.070590142144837],[80.1225832960341,29.06923109266566],[80.12247194078239,29.06784518771788],[80.1229760318329,29.063447943794145],[80.12448817782902,29.062459513347136],[80.12618694729238,29.062845458985166],[80.12801332261816,29.065421278212497],[80.12832299974221,29.067788085938304],[80.12885449727347,29.069235432943316],[80.12687642415332,29.070784573025918],[80.12528811136852,29.071493259006758],[80.12560855441595,29.07241461859884],[80.12752550760891,29.073395860460835],[80.12904682583266,29.07293782552152],[80.12887695312466,29.070823703342782],[80.1299615393742,29.07033976237051],[80.13007030910885,29.068986070421744],[80.129632398817,29.068201158312476],[80.12984257168225,29.065585530599577],[80.12945477803518,29.06387858072985],[80.12618819342705,29.057850070530193],[80.12403138054711,29.056621229384376],[80.12347222222186,29.055972222222934],[80.12088862101214,29.056235758464297],[80.1180658891465,29.05700412326462],[80.11890061272501,29.0597151692716],[80.1188185797794,29.060736151801848],[80.11939721001508,29.061773274740318],[80.11943255954307,29.06278679741827],[80.11994188944462,29.06322557237482],[80.12093820359942,29.067896457248906],[80.12054522196436,29.06860080295209],[80.12028811136858,29.070010308160278],[80.11940299140056,29.07142842610753],[80.11983340793162,29.073323025174318],[80.12028811136858,29.072788085938214],[80.12060363769504,29.07139919704933],[80.12123035007019,29.0717104085293],[80.1210565609401,29.07387335883314],[80.12163338555197,29.073919677735006],[80.12195477803536,29.07334364149372]]]]},"properties":{"id":"38906"}}]}