{"type":"FeatureCollection","features":[{"type":"Feature","geometry":{"type":"MultiPolygon","coordinates":[[[[79.43586328125022,23.782478515625073],[79.43642578125005,23.782188476562524],[79.43681250000012,23.782311523437713],[79.43730078125006,23.782561523437522],[79.43718750000008,23.782311523437713],[79.4369375000002,23.78182617187504],[79.43712890625008,23.781219726562583],[79.43743750000024,23.78106152343767],[79.43838671875025,23.780906250000186],[79.43856250000007,23.78018652343765],[79.43881249999995,23.779701171875075],[79.43790234375004,23.778665039062545],[79.43743750000024,23.778438476562584],[79.43493750000007,23.77606152343759],[79.4346875000002,23.775938476562587],[79.43443750000009,23.77581152343751],[79.4340859375001,23.77563964843759],[79.43275000000003,23.774250000000023],[79.43206249999994,23.77431152343766],[79.43181250000018,23.77443847656265],[79.43156250000007,23.77456152343764],[79.4308125000002,23.775188476562704],[79.43034765625,23.77541503906258],[79.43013671875005,23.776271484375116],[79.42981250000005,23.776438476562475],[79.42881640625015,23.77660156250012],[79.42879687500013,23.777423828124952],[79.42956250000017,23.778332031250102],[79.42906250000019,23.77868847656248],[79.42881250000008,23.778811523437668],[79.4285625000002,23.778938476562658],[79.42768750000008,23.77908105468751],[79.4278125000001,23.779438476562547],[79.42831250000009,23.779561523437636],[79.42881250000008,23.77993847656252],[79.42952343750008,23.780112304687663],[79.4296875000002,23.780436523437558],[79.42983984374999,23.78106152343767],[79.43018750000019,23.780938476562483],[79.43068750000018,23.780561523437598],[79.43093749999994,23.780438476562594],[79.43142578125006,23.7801884765627],[79.43231250000011,23.78031152343752],[79.4330625000002,23.780938476562483],[79.43355468749999,23.781178710937724],[79.43368750000005,23.78143652343752],[79.43382421875023,23.7828115234376],[79.4341875000002,23.782688476562598],[79.43467187500013,23.78243945312508],[79.43505859375003,23.782431640625106],[79.43518750000018,23.782686523437647],[79.43542968750009,23.783186523437536],[79.43568750000011,23.783191406250097],[79.43586328125022,23.782478515625073]]]]},"properties":{"id":"19536"}}]}