{"type":"FeatureCollection","features":[{"type":"Feature","geometry":{"type":"MultiPolygon","coordinates":[[[[79.41346761067743,23.353244357639355],[79.41526041666677,23.35190199110285],[79.41612711588547,23.352907850477834],[79.41887858072946,23.35211724175383],[79.41814778645849,23.35080729166704],[79.41954291449676,23.350505235460503],[79.41998969184047,23.34933946397608],[79.41875000000019,23.3481944444449],[79.41776746961816,23.348323025174153],[79.4162757703995,23.349491102430946],[79.41503906250003,23.349391818576734],[79.41334364149307,23.35084364149347],[79.41193413628471,23.351100802951734],[79.41129584418437,23.351456841363373],[79.41005289713544,23.353441297743487],[79.4094547526042,23.354948459201793],[79.41032714843774,23.356100802951715],[79.41157063802095,23.353314480252138],[79.41346761067743,23.353244357639355]]]]},"properties":{"id":"19760"}}]}