{"type":"FeatureCollection","features":[{"type":"Feature","geometry":{"type":"MultiPolygon","coordinates":[[[[81.257850687144,32.09536528296567],[81.257850687144,32.095824605783],[81.25811820755843,32.096212488913615],[81.25811820755843,32.09717120107602],[81.25839026411325,32.0975591356414],[81.25850621133401,32.09826812798962],[81.25911703185683,32.098896905956195],[81.25973692151874,32.099177847533774],[81.25973692151874,32.101148791881066],[81.25946932270314,32.101572372150706],[81.25884060886352,32.101991507558694],[81.25865778265526,32.1023660851582],[81.25865778265526,32.103908895813895],[81.25892975328667,32.10429688889664],[81.25895210239074,32.104823076077594],[81.25911703185683,32.10509504871232],[81.25973692151874,32.10537598121996],[81.25976363934006,32.10590212225684],[81.26027640126739,32.10646396514662],[81.26046376058326,32.10697679810751],[81.26100777215923,32.107520847110656],[81.26169443951244,32.10782401658594],[81.26200655901411,32.108506277251095],[81.262621888617,32.109139433344176],[81.26324175008965,32.109415956551295],[81.26362519131268,32.11039249278241],[81.26404887316197,32.11077590674319],[81.26423613929283,32.111288712096716],[81.26492731456251,32.11159638465089],[81.2656674625585,32.11239017486426],[81.26585035614924,32.1129073989874],[81.26647456021944,32.11331765395189],[81.26674213470882,32.113727830569864],[81.26674213470882,32.115765690365436],[81.26701416081934,32.11615363849332],[81.26701416081934,32.11677788471172],[81.26674213470882,32.11719259940676],[81.26674213470882,32.11792388840289],[81.26713009506493,32.118748816814666],[81.26755367362951,32.1191278057314],[81.26766515455037,32.11955588324381],[81.26809326666995,32.11978333815792],[81.2677320262235,32.120050862713605],[81.26755367362951,32.120822331779145],[81.26728164942428,32.12123703078861],[81.26728164942428,32.12250334558558],[81.26755367362951,32.1228913579843],[81.26728164942428,32.12405518013597],[81.26686252192317,32.1245099851341],[81.2661401958149,32.12447428550073],[81.26557832592901,32.12490235575493],[81.2653955157046,32.12567381814351],[81.26512793653791,32.12607959793833],[81.26512793653791,32.12674840649516],[81.26485590376682,32.127163158150225],[81.26485590376682,32.12870150733107],[81.26512793653791,32.129089504907256],[81.2652840314991,32.129834178408764],[81.26485590376682,32.1303914911337],[81.26485590376682,32.13133237522467],[81.26458840673904,32.13174260578539],[81.26458840673904,32.13220195244466],[81.26512793653791,32.132870749359526],[81.26515019983214,32.13446712724738],[81.26577894620912,32.13572461117638],[81.26647456021944,32.136099169992086],[81.26659049527714,32.13653617515709],[81.26701416081934,32.13691520904076],[81.26713009506493,32.13734327029373],[81.26747344423094,32.13770445007997],[81.26788366340794,32.13787837537748],[81.26875760863074,32.13787840227757],[81.26923032292235,32.138145880992525],[81.26983677406186,32.138145879173706],[81.27017120642616,32.13852044686501],[81.27111207843419,32.13895303252775],[81.27145095755387,32.138953000492265],[81.27331039786866,32.13995629843902],[81.27414866440598,32.140032138842365],[81.27448316204355,32.140406696790905],[81.27789433332553,32.14211001656496],[81.27872818206336,32.14219033673097],[81.27926778078258,32.142457840329335],[81.27952640715843,32.14300190572958],[81.28021752917418,32.14365287640327],[81.28024432388669,32.144165701544],[81.28048950767203,32.144459963089865],[81.28051185052009,32.144972820904435],[81.28075711744823,32.14526708596488],[81.28085967575038,32.14579330505501],[81.28172918994869,32.14587349326961],[81.28320512412165,32.14557924222937],[81.28358418231669,32.14542318058304],[81.28365104016038,32.14493264483109],[81.28322746618096,32.14470524089219],[81.28322746618096,32.14414337568671],[81.28304016224975,32.14376439928287],[81.28234007827106,32.14342100892666],[81.28253183556015,32.142997377842995],[81.28304461387313,32.1428234698803],[81.28322746618096,32.14244452379142],[81.28311147218585,32.14169539467921],[81.28268789523497,32.14146789859536],[81.28268789523497,32.140812484587975],[81.28304906549626,32.14066532328254],[81.28322746618096,32.140286319379726],[81.28311147218585,32.13954164616937],[81.28234898159862,32.13914476350218],[81.2816890406494,32.13836887229481],[81.28043155062987,32.13773566851387],[81.27966458166028,32.13739236053811],[81.27905820794366,32.1373923312624],[81.2777382639269,32.13665660633878],[81.27717194270818,32.13658075984266],[81.27691330841887,32.13603674796411],[81.2764896973431,32.13565774295949],[81.27630246100856,32.13487295545005],[81.27533930808961,32.13429322055518],[81.27441176010832,32.13324979815456],[81.27372512211754,32.132946562646296],[81.27298488355008,32.13215284020783],[81.27298488355008,32.13093554404849],[81.2727173307506,32.13054761595791],[81.2727173307506,32.12932136097657],[81.27244532478497,32.128928906817485],[81.27244532478497,32.12803716731563],[81.27298488355008,32.12735484830218],[81.27298488355008,32.126686034015215],[81.27325688760939,32.12628028181843],[81.27325688760939,32.125611374606336],[81.27352443853373,32.125196711393066],[81.27352443853373,32.12453226808912],[81.27379644068667,32.124117563215165],[81.27379644068667,32.12339077757525],[81.27340851391459,32.12256133774716],[81.27298488355008,32.12218228489078],[81.27298488355008,32.121838963299915],[81.27352443853373,32.121152296933786],[81.27352443853373,32.11806215928709],[81.27379644068667,32.117656368924756],[81.27379644068667,32.11671543716829],[81.27406398973581,32.116300733998536],[81.27406398973581,32.11503441742628],[81.2738053450028,32.11456175849799],[81.27433598998229,32.113344390389564],[81.27433598998229,32.11278701519296],[81.27469274734146,32.1126353921461],[81.27487108340009,32.1122653236301],[81.27480421792676,32.11153400889114],[81.2754998344131,32.11102116315517],[81.27568262065114,32.11064219342607],[81.27568262065114,32.10802917550246],[81.27515198495499,32.107101629543614],[81.27541062516319,32.106602250042826],[81.27538836483518,32.105224378591224],[81.27495575718245,32.104417269016864],[81.27444746108422,32.10418986443826],[81.27460353715615,32.10390448044928],[81.27457674047953,32.10334262528533],[81.27441621223093,32.10306167855853],[81.27406398973581,32.102932426611915],[81.27403719287138,32.10226350112017],[81.27375183508758,32.10196033864613],[81.2737696437291,32.10154112980213],[81.27351553418512,32.10117554037314],[81.27282435198197,32.10101047842789],[81.27241407511897,32.10117991993363],[81.27203504590216,32.10206288441508],[81.27157578969454,32.10181761437174],[81.27050563733805,32.10196474329549],[81.27002402612224,32.1017106130174],[81.26990809623274,32.101273561937134],[81.26956030551716,32.100912411748446],[81.26894494732336,32.10063148675872],[81.26891814867733,32.10010978007212],[81.26856144856957,32.099382947411854],[81.26803530029383,32.099124351329884],[81.26719251466257,32.09929818688591],[81.26674213470882,32.10062700564426],[81.26641659262516,32.100274781122216],[81.26571207284046,32.10019896942361],[81.26571207284046,32.098598123747145],[81.26551590502339,32.09821020604407],[81.26465528108304,32.09804524882423],[81.26422723387027,32.09821464208134],[81.2637812893184,32.09886120179976],[81.2637812893184,32.099382948863045],[81.26355386332428,32.09928483110197],[81.26344682921074,32.098901359711],[81.26286721253932,32.0990351494029],[81.26247477790407,32.09886567372353],[81.26219828293726,32.09815219814061],[81.26246587227794,32.0977018486907],[81.26337550105724,32.09727828157135],[81.26355386332428,32.09650235050273],[81.26382144795764,32.09609215102237],[81.26363863356458,32.09525381718458],[81.26301432250307,32.09507991060813],[81.26301432250307,32.09448684877484],[81.2636341808189,32.094317388948035],[81.26409340036757,32.09365296906131],[81.26445012116515,32.09350142317002],[81.26463301764582,32.09312680444695],[81.26460621749963,32.09175346199195],[81.26331753113121,32.09103547269757],[81.26196639942904,32.0908571238687],[81.26101667795386,32.09096858672486],[81.2604547707072,32.091209391784766],[81.26008912551401,32.0919540758351],[81.25938017890397,32.092288502555895],[81.25884060886352,32.09283253553645],[81.25839026411325,32.09374660837771],[81.25839026411325,32.09483915893303],[81.25802906219681,32.09498624463387],[81.257850687144,32.09536528296567]]]]},"properties":{"id":"36991"}}]}