{"type":"FeatureCollection","features":[{"type":"Feature","geometry":{"type":"MultiPolygon","coordinates":[[[[77.20883203125007,26.678510253906282],[77.20937109375004,26.67819433593752],[77.21032031250004,26.67830566406255],[77.21094531249994,26.678805664062537],[77.21119531250011,26.678694335937593],[77.21139062500018,26.67822509765638],[77.21167968750015,26.678055664062654],[77.21305468750015,26.6779345703126],[77.21294531250018,26.677555664062496],[77.21242968749996,26.677444335937636],[77.21219531250009,26.677305664062587],[77.21167968750015,26.677194335937557],[77.21144531250005,26.677055664062507],[77.21099609375003,26.676866699218735],[77.21041406250023,26.676176757812513],[77.21048437500016,26.675625000000096],[77.21040234375008,26.674969238281477],[77.21067968750017,26.674805664062504],[77.21105468750002,26.674647460937692],[77.21094531249994,26.67430566406253],[77.21064453125021,26.674178710937625],[77.21050000000011,26.674000000000106],[77.2098046875,26.67405566406272],[77.20957031250018,26.674194335937585],[77.20905468750013,26.67430566406253],[77.2085703125002,26.674694335937474],[77.20812890625015,26.67488037109392],[77.20705468750012,26.676055664062545],[77.20694531250004,26.67631933593755],[77.20680468750018,26.676555664062533],[77.2066953125001,26.676819335937537],[77.20630468749997,26.677305664062587],[77.20619531250023,26.677819335937585],[77.20544531250007,26.678683593750094],[77.20555468750015,26.67919433593748],[77.20569531250018,26.67943066406255],[77.20580468750015,26.67969433593747],[77.20644531249994,26.680430664062513],[77.20655468750002,26.68119433593759],[77.2074453125002,26.682180664062543],[77.2075546875,26.682694335937526],[77.20769531250008,26.682930664062596],[77.20780468750016,26.683194335937515],[77.20794531250019,26.68343066406267],[77.20813671875013,26.683889160156298],[77.20855468749997,26.684194335937477],[77.2105703125001,26.684305664062506],[77.21119531250011,26.68480566406258],[77.21155468750013,26.684645019531303],[77.21144531250005,26.68380566406252],[77.21130468749996,26.68356933593755],[77.21119531250011,26.683055664062636],[77.21105468750002,26.682819335937566],[77.21092187500014,26.681901367187578],[77.2102265625002,26.68160791015619],[77.21005468750016,26.681319335937545],[77.20992187500016,26.6804047851563],[77.2094453125001,26.680055664062664],[77.20897656250006,26.679857910156343],[77.20869531249994,26.679380371093927],[77.20883203125007,26.678510253906282]]]]},"properties":{"id":"18741"}}]}