{"type":"FeatureCollection","features":[{"type":"Feature","geometry":{"type":"MultiPolygon","coordinates":[[[[75.65860358344153,22.671145562066357],[75.65888610839832,22.670275065104548],[75.65944166395391,22.6697412109379],[75.65814907497796,22.66963785807333],[75.65696343315946,22.67083062066007],[75.65500278049015,22.67045220269138],[75.65528130425318,22.669702419705274],[75.65610833062064,22.66890787760454],[75.65570773654488,22.6680582682296],[75.65454040527337,22.668505588107976],[75.65390787760415,22.669163953993433],[75.65249721950946,22.668891601562876],[75.65222500271241,22.667219509549042],[75.65138610839816,22.666947157118486],[75.65124999999975,22.666527777778157],[75.64943834092853,22.666688910590764],[75.64780144585498,22.66870144314275],[75.64776075575074,22.670694444444877],[75.64981940375426,22.67192545572952],[75.65222500271241,22.672219509549038],[75.65477077907983,22.673320855035044],[75.65765774197033,22.672054307726057],[75.65860358344153,22.671145562066357]]]]},"properties":{"id":"20131"}}]}