{"type":"FeatureCollection","features":[{"type":"Feature","geometry":{"type":"MultiPolygon","coordinates":[[[[99.40981652896389,19.661786306682032],[99.41170278219309,19.660167593115105],[99.41197027746117,19.659900089502074],[99.4133169179365,19.658553459231754],[99.41385649543153,19.658281464949283],[99.41385649543153,19.657474352319312],[99.41385649543153,19.65639526702911],[99.41385649543153,19.65531609400999],[99.41358899401925,19.655048548975415],[99.4133169179365,19.65478106377769],[99.41277742872782,19.654781072527314],[99.41277742872782,19.65531611908176],[99.41250984609886,19.655588118583253],[99.41224234907932,19.655855708102337],[99.41170278219309,19.656127693680034],[99.41089123554181,19.656127687517497],[99.41062365905728,19.65558816482867],[99.41035608345314,19.654781072069014],[99.41008410281634,19.654781054552103],[99.4087374306304,19.654781075249318],[99.40846545534751,19.655048535617397],[99.408197886777,19.655316124354968],[99.40604415254532,19.656127664349896],[99.40496510379879,19.656395214828294],[99.40469305630032,19.65666726238949],[99.40469305630032,19.656934746212755],[99.40496510379879,19.656934767466865],[99.40604415254532,19.65693478843356],[99.40765834648138,19.656395217828475],[99.4087374306304,19.655588102736914],[99.4090050009614,19.65531610752052],[99.40927697802314,19.65504855631461],[99.40954455011448,19.65504853664146],[99.41008410281634,19.655316104187804],[99.41035608345314,19.656314346154133],[99.41143079709192,19.656934794083966],[99.41170278219309,19.65720228794143],[99.41224234907932,19.65774191063072],[99.41250984609886,19.65801386411144],[99.41250984609886,19.65882097988583],[99.41170278219309,19.65990011168148],[99.41143079709192,19.660167581086867],[99.41089123554181,19.660439661409583],[99.41028588599781,19.660439620581442],[99.40954455011448,19.661514313298127],[99.40954455011448,19.661786292300107],[99.40981652896389,19.661786306682032]]]]},"properties":{"id":"39350"}}]}