{"type":"FeatureCollection","features":[{"type":"Feature","geometry":{"type":"MultiPolygon","coordinates":[[[[72.3345788574218,33.47288696289084],[72.33526991102443,33.4713810899525],[72.33813652886298,33.469730021159165],[72.33933132595482,33.470379367404746],[72.34025512695328,33.47141323513492],[72.34125000000009,33.470872599284164],[72.34221598307298,33.47139756944466],[72.34296237521724,33.471353081597485],[72.3448608398439,33.47017944335968],[72.34362182617204,33.46840555826843],[72.34508707682309,33.467953152126896],[72.34703043619803,33.46806898329014],[72.3480243598091,33.46918138292122],[72.34993557400188,33.46884175618506],[72.35072536892349,33.469271036784036],[72.35165879991334,33.46849222819043],[72.34996378580749,33.46796881781698],[72.35002278645825,33.46697801378065],[72.349811876085,33.46639668782572],[72.34853759765613,33.46728685167129],[72.34529120551227,33.4662834337024],[72.34500786675366,33.464085693359536],[72.34582546658001,33.462419026692984],[72.34430555555568,33.46097222222245],[72.34360324435758,33.46110331217467],[72.34334120008677,33.46171800401504],[72.3441769748263,33.4624648708769],[72.3442647298177,33.46511671278243],[72.34181070963533,33.46643886990044],[72.34038709852447,33.46635403103322],[72.33938490125857,33.468698594835345],[72.33735514322908,33.46857767740906],[72.33796671549479,33.46745232476154],[72.33700222439225,33.46695224338124],[72.33611897786463,33.4683411322702],[72.33544745551214,33.46864935980925],[72.33439534505223,33.46982693142387],[72.33160291883675,33.469660508897704],[72.32972724066829,33.469158121745025],[72.32606553819451,33.47002210829018],[72.32388129340293,33.470008748372564],[72.32351942274326,33.468836398654645],[72.32245930989578,33.468899603949865],[72.32250868055544,33.46972846137176],[72.32180230034734,33.471028442383044],[72.32339898003474,33.47245510525195],[72.32860337999145,33.47141811794721],[72.33248684353319,33.47224785698806],[72.33331217447906,33.472198621961965],[72.3345788574218,33.47288696289084]]]]},"properties":{"id":"16708"}}]}