{"type":"FeatureCollection","features":[{"type":"Feature","geometry":{"type":"MultiPolygon","coordinates":[[[[76.47610080295155,26.909711914062825],[76.47847479926244,26.90839463975719],[76.48003255208349,26.904414876302397],[76.4786214192712,26.90295057508692],[76.47948947482647,26.901254611545397],[76.4793055555559,26.898472222222367],[76.47672960069454,26.89851562500027],[76.47626817491326,26.899051378038394],[76.47669555664086,26.90061306423644],[76.47655381944472,26.902377115885642],[76.47610080295155,26.902767469618354],[76.47584364149353,26.90403238932315],[76.47655992296038,26.905983072916825],[76.47591796875034,26.906536187066152],[76.47437730577278,26.9059703233509],[76.4744563802087,26.906953667534935],[76.47350843641541,26.907547471788348],[76.47235093858538,26.907454427083508],[76.47063747829876,26.904938151041932],[76.46904364691866,26.90557915581617],[76.46837700737862,26.905525716145974],[76.46772840711836,26.903621419270948],[76.46698933919302,26.90527777777791],[76.4656624348959,26.905677083333643],[76.46515543619816,26.90399332682307],[76.46379109700533,26.90449435763911],[76.46418402777786,26.905564236111417],[76.46304524739597,26.905823025173945],[76.46075249565982,26.906905924479375],[76.46093831380242,26.907767469618335],[76.46193671332495,26.907210557725918],[76.46234673394125,26.907243381076526],[76.46420437282998,26.90827989366349],[76.46419189453135,26.90934109158006],[76.46588867187509,26.908282063802233],[76.4670787217884,26.90837754991334],[76.46827772352444,26.90976942274331],[76.46902099609386,26.90935465494809],[76.4706688096791,26.909487033420362],[76.47110080295155,26.910728895399558],[76.46978759765645,26.911314832899592],[76.4703468153215,26.91231716579877],[76.47166883680572,26.912210828993267],[76.47610080295155,26.909711914062825]]]]},"properties":{"id":"18699"}}]}