{"type":"FeatureCollection","features":[{"type":"Feature","geometry":{"type":"MultiPolygon","coordinates":[[[[76.25794140625018,25.375941406250192],[76.25805859375006,25.37202636718756],[76.25780859375024,25.371566406249954],[76.25775000000002,25.370500000000078],[76.2573359374999,25.37062792968763],[76.25719140625009,25.371566406249954],[76.25705859375009,25.37180859375006],[76.25694140625004,25.372566406250186],[76.25655859375021,25.373058593750102],[76.25644140625005,25.37356640625015],[76.25630859375005,25.373808593750155],[76.25619140625017,25.374066406250037],[76.25580859375012,25.374558593750137],[76.25569140625018,25.37481640625019],[76.25523046875011,25.375412109375148],[76.25440234375006,25.37555859375],[76.25394140625016,25.375308593750106],[76.25357421875029,25.37519140625004],[76.25344140625018,25.376223632812582],[76.25369140625006,25.376683593750002],[76.25380859375005,25.377164062500214],[76.25330859375023,25.377808593750004],[76.25319140625007,25.378066406250156],[76.25305859375007,25.378308593749992],[76.2529414062499,25.378816406250124],[76.25280859375007,25.379058593750045],[76.25269140625008,25.379316406250197],[76.25250390625004,25.379662109375175],[76.25132421875017,25.379845703125156],[76.25119140625017,25.3815664062502],[76.25080859375007,25.382058593750116],[76.2506914062499,25.382422851562737],[76.25156640625008,25.38255859375019],[76.25180859375021,25.382691406250203],[76.25206640625007,25.38280859375],[76.2523085937502,25.38294140625011],[76.25381640625008,25.383058593750164],[76.2540976562502,25.3832119140627],[76.25465234375011,25.383178710937557],[76.25480859375008,25.382183593750156],[76.25494140625008,25.38194140625015],[76.25505859375008,25.380683593750035],[76.25519140625002,25.3804414062502],[76.25530859375007,25.380183593750047],[76.25547656250009,25.379875000000126],[76.25530859375007,25.379566406250106],[76.25519140625002,25.379308593750224],[76.25476562500003,25.378761718750084],[76.25495703125009,25.378414062499985],[76.25544140625007,25.378191406250195],[76.25668359375024,25.37705859375022],[76.25719140625009,25.376941406250154],[76.2575898437502,25.376663085937494],[76.25780859375024,25.376183593750028],[76.25794140625018,25.375941406250192]]]]},"properties":{"id":"27040"}}]}