{"type":"FeatureCollection","features":[{"type":"Feature","geometry":{"type":"MultiPolygon","coordinates":[[[[81.08940836588536,28.307520616320204],[81.09109110514319,28.30748630099886],[81.09165181477843,28.308024902344428],[81.09368421766467,28.311233723959077],[81.0966517469615,28.309391004774994],[81.09443868001293,28.30542195638087],[81.0944529215495,28.304724934896427],[81.09416388617618,28.30444715711876],[81.09334350585917,28.30119154188438],[81.09327270507802,28.29522298177139],[81.09398125542523,28.29163492838613],[81.09527499728742,28.288052842882536],[81.09583041720899,28.286941731771506],[81.09637410481744,28.2864194064677],[81.0963804117836,28.285002712674228],[81.0974194335935,28.28400444878534],[81.0993876817491,28.28018364800407],[81.10027499728713,28.277117648655178],[81.09953172471765,28.27500271267425],[81.09806267632362,28.275622151693355],[81.09803615993926,28.276922743056318],[81.09888610839815,28.27817654079918],[81.09805277506499,28.279441731771527],[81.09751573350664,28.28164455837728],[81.09611545138873,28.28310207790865],[81.09557868109803,28.27980495876801],[81.09501946343298,28.278081461589167],[81.09446343315969,28.27750271267425],[81.09329989963103,28.277782389323733],[81.09145562065973,28.278732503255796],[81.09083441840264,28.277526719835663],[81.09036248101111,28.27462754991383],[81.08973361545114,28.27333129882888],[81.08625000000004,28.2729166666672],[81.08360833062059,28.273052842882578],[81.08277499728715,28.274719509549215],[81.0819472249348,28.277780490452002],[81.08046759711348,28.28048461914132],[81.0787845865884,28.281148410373973],[81.07966946072023,28.282972276476386],[81.08081434461789,28.28416395399367],[81.08139166937937,28.283891601563198],[81.08229573567704,28.282512749566706],[81.08278062608505,28.285831298828754],[81.08282470703105,28.288826497396414],[81.08221381293387,28.289727783203915],[81.08130276150152,28.295866292318266],[81.08001071506047,28.30019192165858],[81.07889166937932,28.305651855469335],[81.07916388617625,28.306947157118657],[81.08028069390164,28.309442003038825],[81.08028110080281,28.31141194661518],[81.07954915364579,28.313550347222787],[81.08361300998249,28.314726291233313],[81.08455817328539,28.313507215712605],[81.08555277506511,28.310830620660425],[81.0866694471571,28.31000271267426],[81.08777499728726,28.30860839843818],[81.08887681749113,28.308073730469445],[81.08940836588536,28.307520616320204]],[[81.08250528971345,28.295096706814846],[81.08325920952669,28.294808892144886],[81.08423204210058,28.297772488064936],[81.08499471028622,28.29582804362063],[81.08611640082464,28.29556084526972],[81.08644314236088,28.29350979275239],[81.08749471028617,28.29221693250925],[81.08791666666676,28.292083333333977],[81.0880624050562,28.29249918619857],[81.08750528971356,28.295283067491965],[81.0868161349824,28.29709391276107],[81.0856302897133,28.298285725912095],[81.0834819200301,28.2994224717889],[81.08250528971345,28.295096706814846]],[[81.08411268446153,28.283911404080513],[81.08569444444416,28.283750000000722],[81.08652662489138,28.286370713976325],[81.08598171657965,28.28886867947105],[81.0846788194444,28.28915635850764],[81.08401977539032,28.286967366537027],[81.08411268446153,28.283911404080513]]]]},"properties":{"id":"38905"}}]}