{"type":"FeatureCollection","features":[{"type":"Feature","geometry":{"type":"MultiPolygon","coordinates":[[[[83.55156765407989,24.122474500868464],[83.55062717013905,24.114802110460317],[83.54992892795153,24.112900526258926],[83.54432454427106,24.11340542263474],[83.54181857638898,24.112698771159188],[83.54041666666663,24.111250000000226],[83.5391563585072,24.111378580729408],[83.53755723741315,24.112052069770215],[83.53723253038194,24.11282118055584],[83.53925916883694,24.11343139648457],[83.53915120442699,24.11477674696208],[83.53723524305568,24.114622870551443],[83.53622965494807,24.11406168619814],[83.5355658637155,24.11454949273029],[83.53623399522567,24.115746799045354],[83.53541829427073,24.11644944932749],[83.53637858072918,24.118621419271037],[83.53742540147587,24.119711914062748],[83.54004557291668,24.11785413954017],[83.54270317925355,24.118600802951633],[83.54410698784736,24.117605590820617],[83.54655436197916,24.11780225965738],[83.54636176215266,24.120199381510673],[83.55006076388887,24.12177286783883],[83.55110297309037,24.12251180013054],[83.55156765407989,24.122474500868464]]]]},"properties":{"id":"9598"}}]}