{"type":"FeatureCollection","features":[{"type":"Feature","geometry":{"type":"MultiPolygon","coordinates":[[[[108.47797654893563,12.716160753038494],[108.47711554633136,12.715000000000373],[108.47617940266835,12.715267740885736],[108.47588100857118,12.717654351128957],[108.47421434190429,12.718666449653057],[108.47459465874468,12.720101725260747],[108.47504469129663,12.72015760633731],[108.4777486843524,12.717992350260744],[108.47797654893563,12.716160753038494]]]]},"properties":{"id":"22818"}}]}