{"type":"FeatureCollection","features":[{"type":"Feature","geometry":{"type":"MultiPolygon","coordinates":[[[[72.26066008685942,33.29794028527837],[72.2614716354332,33.2974051503835],[72.2614716354332,33.29659364480298],[72.26093204895503,33.29659364544061],[72.26066008685942,33.2963260721005],[72.26066008685942,33.29605404838033],[72.26173916946343,33.29524699273934],[72.26281824791712,33.29497941098161],[72.26443247577348,33.295246995937234],[72.26578359162866,33.29524696340023],[72.26659069818626,33.29443990021329],[72.26659069818626,33.29390030835427],[72.26470443421297,33.293900287791956],[72.2641649443037,33.29390032432629],[72.26362536300869,33.29390034472695],[72.26281824791712,33.29390032821607],[72.2625462876542,33.29363275351021],[72.2625462876542,33.29336080342509],[72.26281824791712,33.29309318552828],[72.2641649443037,33.29309317761415],[72.26497205552349,33.29309318096482],[72.26578135504602,33.29282123243827],[72.26551154387866,33.29228166836832],[72.26551154387866,33.2920141073531],[72.26578359162866,33.29174209101707],[72.26713018342443,33.29147454247925],[72.26793728611008,33.29120703466194],[72.26955600200361,33.29174209623636],[72.27144214298849,33.29201412732246],[72.27251684734753,33.29201408979985],[72.27323938408736,33.29174212938939],[72.27386792423383,33.291474562259964],[72.27467500750689,33.29147456623963],[72.27575412651973,33.291742133399524],[72.2768287239791,33.29228165975351],[72.2771007607337,33.29255362165158],[72.27736827985197,33.292553616549085],[72.27817987038603,33.29228162583318],[72.27817987038603,33.29201413522769],[72.2771007607337,33.29147453836495],[72.2752145675299,33.2912069921626],[72.27494252894277,33.291206993968174],[72.27421607931333,33.29120699182474],[72.27386792423383,33.29120699079721],[72.27332836161466,33.291206985425234],[72.27224923325068,33.29093499954226],[72.27117019107979,33.29039544581647],[72.2706306232595,33.29012793943659],[72.2698235283352,33.289855940150815],[72.26928395791882,33.289320772566256],[72.26928395791882,33.28878123037481],[72.26955600200361,33.288509270893286],[72.2698235283352,33.288509281753846],[72.2698235283352,33.28878125249133],[72.27152132440077,33.28878124330642],[72.27251684734753,33.28878123792059],[72.27251684734753,33.2885092644794],[72.27144214298849,33.28796968207034],[72.27090257568923,33.287702175160376],[72.2698235283352,33.28743018342938],[72.26713018342443,33.28743013969947],[72.26659069818626,33.28716262692362],[72.26659069818626,33.28689505100496],[72.26443247577348,33.2868950704534],[72.26227875438761,33.28716261488606],[72.26119958350606,33.28743014649075],[72.25958100011414,33.28796974702762],[72.25823428174587,33.28904876556365],[72.25769477941273,33.28904877725972],[72.25769477941273,33.289588377787794],[72.25877049545042,33.28958839050483],[72.25958100011414,33.28932084045178],[72.25985296325186,33.28932078189062],[72.26012049882715,33.289588382180554],[72.26039255179617,33.29012793868199],[72.26039255179617,33.2903954997154],[72.26012049882715,33.29066750117525],[72.2603892382892,33.29120700181363],[72.26119958350606,33.29174210163515],[72.26173916946343,33.29174208987621],[72.26200670324201,33.29147456562865],[72.26227875438761,33.2914745989023],[72.2625462876542,33.291742108552114],[72.2625462876542,33.292281621162076],[72.26227875438761,33.292553705958454],[72.26200670324201,33.29282122768163],[72.2614716354332,33.29309318875325],[72.25985293910722,33.29309320864188],[72.25985296325186,33.29390035010789],[72.25985296325186,33.29416781748316],[72.25958100011414,33.29443989898263],[72.25742724151993,33.29443987413539],[72.25742724151993,33.29470742058004],[72.25958100011414,33.29470744756564],[72.26012049882715,33.29524692870727],[72.26039255179617,33.295518996525686],[72.26039255179617,33.29578654298862],[72.25985296325186,33.2963260246692],[72.25958100011414,33.29659361965909],[72.25796674437404,33.296865601966786],[72.25742724151993,33.29686559662191],[72.25688764728031,33.29632609880723],[72.2566201086328,33.296054026317705],[72.2566201086328,33.29551894158483],[72.25634814236011,33.295246963606914],[72.25580854605406,33.29497939620454],[72.25446189997339,33.29497937957652],[72.25446189997339,33.295246921628674],[72.25500149886633,33.295518973070756],[72.2555410063737,33.295786530340166],[72.2560806032005,33.29578655686747],[72.25634814236011,33.29605406940075],[72.25634814236011,33.29686564695436],[72.25580854605406,33.29740517385645],[72.25500149886633,33.29767271668105],[72.25419435901713,33.29767270297265],[72.25419435901713,33.29847978254489],[72.25500149886633,33.29847979866959],[72.2566201086328,33.29821224947594],[72.25688764728031,33.297940289437534],[72.25688764728031,33.2976726693399],[72.25742724151993,33.29767269243547],[72.25796674437404,33.297940237640745],[72.25931337366532,33.29875179332021],[72.25985296325186,33.29901934281921],[72.26066008685942,33.299019398299365],[72.26066008685942,33.29794028527837]]]]},"properties":{"id":"37024"}}]}