{"type":"FeatureCollection","features":[{"type":"Feature","geometry":{"type":"MultiPolygon","coordinates":[[[[75.74299302842886,26.44613145616333],[75.74618957519559,26.44556342230915],[75.74832553439674,26.44639675564251],[75.75139668782575,26.446658799913422],[75.75280225965739,26.447243381076632],[75.7534458414714,26.445841200087003],[75.7538966878258,26.44610324435773],[75.75460333930144,26.447214355469015],[75.75554253472237,26.44647108289948],[75.75408732096363,26.44429958767371],[75.75167853461394,26.442320421007068],[75.75249220106363,26.44054768880231],[75.7537816704644,26.439514702691085],[75.75531365288677,26.438756239149512],[75.75621873643692,26.436962890625168],[75.75691046820751,26.436921657986346],[75.75850056966178,26.437492133246707],[75.75996046278217,26.436322428385566],[75.76030910915816,26.43482394748274],[75.76134263780389,26.43434950086821],[75.7619829644099,26.432729220920393],[75.76189412434925,26.431238878038315],[75.76346143934464,26.429216308594036],[75.7630327690974,26.42802164713565],[75.76310675726998,26.426779785156526],[75.76250332302519,26.423847384982736],[75.76193664550792,26.423341200087137],[75.76096252441445,26.421750759548843],[75.76078660753072,26.418799370659926],[75.76230434841605,26.417974717882117],[75.76405612521708,26.418603244357882],[75.76481594509576,26.418100314670298],[75.76471360948366,26.41638319227455],[75.7655477566191,26.41405870225711],[75.76507785373272,26.412744683159843],[75.7628306749132,26.41084282769117],[75.76138108995232,26.41028564453147],[75.75979037814702,26.40917453342027],[75.75943576388923,26.40971571180566],[75.75946811252189,26.410258789062695],[75.75861891004806,26.41056342230914],[75.75610331217447,26.41082546658005],[75.75416069878477,26.41168050130227],[75.75341925727017,26.409279513889118],[75.75276570638042,26.408615180121743],[75.752916666667,26.408194444444604],[75.75226392957907,26.408395996093844],[75.751856825087,26.411072319878556],[75.753594631619,26.412084147135474],[75.75366455078145,26.413257107205],[75.75306932237422,26.414352484809257],[75.75303114149327,26.414992947048773],[75.75359592013896,26.41549750434045],[75.75445312500048,26.41693793402797],[75.75441087510879,26.41959065755229],[75.75599439832908,26.420377332899463],[75.75763678656702,26.419484863281426],[75.75822835286485,26.420573459201506],[75.75806423611121,26.42389512803838],[75.75776997884137,26.42443657769131],[75.75731492784305,26.428803168402908],[75.75607503255239,26.42976399739598],[75.75167446560332,26.431184353298747],[75.75330573187958,26.432175292969063],[75.75335252549931,26.432960340712143],[75.75297370062938,26.434187011719047],[75.74945163302974,26.438342013889013],[75.7489908176,26.438314615885602],[75.74827562120262,26.439872775607824],[75.74700215657575,26.440682779948048],[75.74642795138894,26.441933865017546],[75.74536024305556,26.44154839409738],[75.7449801974827,26.443181966145943],[75.74135565863733,26.445508355034946],[75.73970614963119,26.445892198350833],[75.73797309027796,26.447440592448217],[75.73667446560333,26.449919162326438],[75.73743408203134,26.450825466580042],[75.73881944444466,26.448639322916875],[75.74137586805583,26.44702392578135],[75.74250779893671,26.446674533420264],[75.74299302842886,26.44613145616333]]]]},"properties":{"id":"9443"}}]}