{"type":"FeatureCollection","features":[{"type":"Feature","geometry":{"type":"MultiPolygon","coordinates":[[[[78.66904242621573,25.135276692708416],[78.66917534722248,25.13304850260417],[78.66845865885463,25.132408311631934],[78.67024088541697,25.131590169270964],[78.67033257378509,25.130052625868146],[78.66897054036488,25.12829535590278],[78.67013047960111,25.1249435763891],[78.6706431749138,25.12205891927087],[78.67005126953174,25.121396484375126],[78.66383029513926,25.123623046875096],[78.66392523871579,25.122031250000077],[78.66230523003517,25.121531032986226],[78.66221354166717,25.119993489583322],[78.6625135633686,25.11944173177099],[78.66208333333381,25.11902777777786],[78.66008924696231,25.119399956597263],[78.65861897786507,25.123748914930545],[78.65906901041708,25.12781792534733],[78.66089463975752,25.131368815104224],[78.66435899522597,25.13183213975701],[78.66580213758712,25.133231336805636],[78.66462673611144,25.133771158854287],[78.66528645833361,25.13471571180561],[78.66525146484409,25.13530436197928],[78.66637586805578,25.1352370876736],[78.66757839626771,25.137140299479185],[78.66926079644148,25.13774359809051],[78.67001329210106,25.136666666666827],[78.66904242621573,25.135276692708416]]]]},"properties":{"id":"9499"}}]}