{"type":"FeatureCollection","features":[{"type":"Feature","geometry":{"type":"MultiPolygon","coordinates":[[[[76.59710020095807,24.367970575085693],[76.59790725133493,24.367163444543195],[76.59790725133493,24.3663519641333],[76.59736769014435,24.36554480079323],[76.59710020095807,24.365272788419006],[76.59682812668095,24.36527278518497],[76.59656063636285,24.3644657121976],[76.59628864910545,24.363386615418193],[76.59628864910545,24.362311957367197],[76.59656063636285,24.36069333434172],[76.59656063636285,24.359886201849676],[76.59682812668095,24.3588071215364],[76.59710020095807,24.35826760568378],[76.59736769014435,24.358000013290024],[76.598174827002,24.35772800653922],[76.598174827002,24.357188489599466],[76.59790725133493,24.35718845311905],[76.5960210694947,24.357728030721916],[76.59548150035405,24.358000064844347],[76.59521400722409,24.35826756285209],[76.59494192893138,24.35880716056829],[76.59467443467875,24.359074655890097],[76.59413485985166,24.359074703276093],[76.59278820518298,24.358807130834023],[76.59170912553432,24.35800000268118],[76.59143712796427,24.357728025978872],[76.59116953821169,24.35664896258973],[76.59116953821169,24.35611381207312],[76.59143712796427,24.355841796258275],[76.59224862241476,24.355302235696527],[76.59063003678583,24.3550347537506],[76.59009044491782,24.355574297055924],[76.58901583918467,24.355841857289903],[76.5887438358923,24.35557432285556],[76.5879367277449,24.35557430217628],[76.58739712453107,24.355841854675717],[76.58712511779791,24.356381347064527],[76.586857607214,24.356648912005753],[76.58631808762428,24.356648937859205],[76.58577847759224,24.356381338144374],[76.584703835684,24.35638141863332],[76.582813227027,24.356648968877863],[76.5820060815274,24.356920965486736],[76.58173856025346,24.357188514824273],[76.58039195163232,24.35799999763269],[76.57958038209185,24.358267576749057],[76.57742657647967,24.358267571781397],[76.57688701721142,24.358267554893033],[76.57634754384006,24.358000025561097],[76.57607992258355,24.35772797904174],[76.5758079800261,24.357188471175192],[76.57446130914295,24.356648955681663],[76.57392173739689,24.35638141163537],[76.57257513490234,24.355302321809162],[76.57230309672846,24.35503476515926],[76.57230309672846,24.354762714166412],[76.57257513490234,24.354495147653296],[76.57311462412915,24.354227651217528],[76.57311462412915,24.35368808098096],[76.57176801316328,24.352876506966737],[76.57149597328251,24.352608949697157],[76.57122843009867,24.35234143985869],[76.57095647725575,24.351801927042317],[76.57068893293987,24.35018322413842],[76.56987739021415,24.349104106428484],[76.56960984365244,24.348836595098774],[76.56960984365244,24.34856454246173],[76.56987739021415,24.34802949730866],[76.57014934533854,24.347757475196616],[76.57068893293987,24.347757504041454],[76.57122843009867,24.346950337952734],[76.57149597328251,24.3461387825876],[76.57149597328251,24.345871261035043],[76.57095647725575,24.345331758441333],[76.57014934533854,24.34533174566738],[76.57014934533854,24.345603711823372],[76.57041689077741,24.34587131074764],[76.57068893293987,24.345871258322106],[76.57068893293987,24.34613886814317],[76.57068893293987,24.346950409503407],[76.57068893293987,24.347217929762422],[76.56960984365244,24.347217968309096],[76.56907025151472,24.34721793572716],[76.56826319592764,24.3466783432752],[76.5679911486267,24.346678389843902],[76.5679911486267,24.348297032115767],[76.56745604709542,24.349104101891754],[76.56745604709542,24.34964366871506],[76.56745604709542,24.350183234882365],[76.56745604709542,24.350722800384958],[76.56826319592764,24.35126232040588],[76.56853074530099,24.351262318007258],[76.56880270327329,24.35152987111759],[76.56907025151472,24.351801918185046],[76.56934229653385,24.35260895588651],[76.56934229653385,24.35341603688694],[76.56960984365244,24.354227648226058],[76.56987739021415,24.3544951605531],[76.56987739021415,24.355034724645265],[76.56987739021415,24.35530223937066],[76.56987739021415,24.356113850862627],[76.56960984365244,24.356381366135764],[76.56880270327329,24.357460437933014],[76.56853074530099,24.357727997097882],[76.56826319592764,24.357727994385115],[76.56691653409021,24.357460462286426],[76.56664448393289,24.35718845234642],[76.56637693064286,24.356920935258472],[76.5661049675231,24.356648932613],[76.5661049675231,24.355574264923234],[76.56583741311024,24.35530230222571],[76.56503033721222,24.35449517371333],[76.5644907258326,24.354495198928987],[76.5644907258326,24.355302264909696],[76.56395120038596,24.355841848118217],[76.56367923213693,24.35611384046011],[76.56206504816308,24.356113859261683],[76.56206504816308,24.355841817162087],[76.5617929877379,24.355841843051593],[76.56152542434191,24.356113869259914],[76.56152542434191,24.35638137673591],[76.5617929877379,24.356648900138893],[76.56206504816308,24.356920916492683],[76.56260458153307,24.35718849430681],[76.56260458153307,24.3577280435139],[76.56233252224874,24.358000021294202],[76.5617929877379,24.358000037338087],[76.56098588644463,24.357727992723156],[76.56071832136857,24.357460468062598],[76.55909969071641,24.35611380824632],[76.55802059229299,24.356113816519965],[76.55802059229299,24.356381410126176],[76.55883212171497,24.358267604803416],[76.55909969071641,24.35880717016221],[76.55909969071641,24.359074674080787],[76.55883212171497,24.359346687883644],[76.55829257251682,24.35934668687743],[76.55802059229299,24.35907467291301],[76.55775302104567,24.35853955215775],[76.55613444126473,24.358539629116365],[76.55505531796726,24.359074694894716],[76.55478774055749,24.35880716214045],[76.55344111394331,24.358539598519684],[76.55316912346078,24.358539611635152],[76.55316912346078,24.359074699152814],[76.55316912346078,24.35934664320125],[76.55316912346078,24.359886263617867],[76.55370869415574,24.35988619841838],[76.55398068348816,24.3601537733485],[76.55452025077855,24.360960914751814],[76.55452025077855,24.362039977475973],[76.55532730446126,24.3620399360548],[76.5555948807482,24.36177247015293],[76.55613444126473,24.361772397631825],[76.55667399951827,24.361772411699505],[76.55694598258955,24.362039982973798],[76.55721346732005,24.3623119505491],[76.56071832136857,24.362312000935546],[76.56125794857635,24.36231200425938],[76.56341167266649,24.362312011535877],[76.5644907258326,24.362311977103232],[76.56664448393289,24.36231193731693],[76.56664448393289,24.361772387283295],[76.56691653409021,24.36150040214578],[76.5679911486267,24.361500384080855],[76.56880270327329,24.361772444308258],[76.56907025151472,24.362039959078416],[76.56987739021415,24.36123286317516],[76.57014934533854,24.360960859810874],[76.57122843009867,24.36042574668214],[76.57203555522429,24.36042578856153],[76.57257513490234,24.360693343145172],[76.57284267528357,24.360960852723125],[76.57311462412915,24.361232847122224],[76.57392173739689,24.362312002822037],[76.57392173739689,24.36365863693746],[76.57392173739689,24.366084381594334],[76.57446130914295,24.366623891859504],[76.57526841393982,24.36716348572199],[76.5758079800261,24.367431035723968],[76.57688701721142,24.36769861041188],[76.57823375080628,24.367698581036976],[76.57958038209185,24.367970578265627],[76.58039195163232,24.36823814768931],[76.5820060815274,24.368777713290754],[76.58497143893831,24.36904970551595],[76.58739712453107,24.369856763753162],[76.59063003678583,24.369856745894737],[76.59063003678583,24.36958477826525],[76.59386286743771,24.369584764188687],[76.59413485985166,24.369317244163454],[76.59440244340598,24.369049683713826],[76.59467443467875,24.36877771592279],[76.59494192893138,24.368510145250497],[76.5960210694947,24.368238098524557],[76.59710020095807,24.367970575085693]]]]},"properties":{"id":"38991"}}]}