{"type":"FeatureCollection","features":[{"type":"Feature","geometry":{"type":"MultiPolygon","coordinates":[[[[103.27195312499711,16.176092393663552],[103.27087700737539,16.173328993055932],[103.26947808159414,16.17236653645857],[103.26763617621216,16.173696560330143],[103.2658203124972,16.17201416015648],[103.26514431423308,16.170966796875135],[103.26416666666378,16.170555555555907],[103.26327338324339,16.170838487413405],[103.26257758246257,16.172153049045406],[103.26332628037906,16.17558512369814],[103.26596544053515,16.17733072916694],[103.265895453556,16.17999403211836],[103.26723795572607,16.182277560764277],[103.26838406032678,16.18333957248292],[103.26969509548306,16.185126681857895],[103.2706469726534,16.185164659288517],[103.27218478732331,16.184036729601004],[103.27300971136864,16.182759060330085],[103.2747710503443,16.1811271158858],[103.27567762586492,16.179413791232804],[103.2729863823757,16.17743977864599],[103.27195312499711,16.176092393663552]]]]},"properties":{"id":"10257"}}]}