{"type":"FeatureCollection","features":[{"type":"Feature","geometry":{"type":"MultiPolygon","coordinates":[[[[78.78233984375007,23.6177421875001],[78.78287500000008,23.617459960937452],[78.7833085937502,23.61768945312511],[78.78356640625,23.617810546875063],[78.78380859375002,23.61793945312509],[78.78406640625022,23.618060546875057],[78.78450390625014,23.618291992187665],[78.78480859375006,23.61771289062513],[78.78469140625,23.616560546875107],[78.78430859375018,23.61606445312512],[78.78408593750001,23.61558886718764],[78.78219140625006,23.613810546875214],[78.78185546875002,23.613651367187657],[78.78125000000009,23.613000000000085],[78.78019140625,23.61306738281266],[78.78030859375005,23.613439453125082],[78.78055859375021,23.61391210937505],[78.78040234375018,23.6147607421876],[78.78006640625014,23.614939453125118],[78.77980859375018,23.615060546874986],[78.77931640625005,23.615439453125006],[78.77855859375003,23.61556054687506],[78.77831640625013,23.615689453125086],[78.77769140625006,23.61583886718755],[78.77780859375005,23.61618945312516],[78.77830859375021,23.616425781250058],[78.7783203125002,23.616683593750025],[78.77769140625006,23.617458007812502],[78.77780859375005,23.61768945312511],[78.77999609375004,23.617821289062647],[78.78030859375005,23.618412109375058],[78.78012890625016,23.619024414062537],[78.77981640625003,23.61918945312496],[78.77894140625014,23.61932910156257],[78.77905859375008,23.619689453124934],[78.77955859375018,23.62033984375003],[78.77919140625002,23.621037109374996],[78.77934765625017,23.621560546875273],[78.7796914062499,23.621439453124964],[78.7799335937502,23.621310546875108],[78.78042187500003,23.62108105468772],[78.78069140625016,23.620689453125166],[78.78083593750003,23.619778320312506],[78.78168359375005,23.619060546875104],[78.78216796875026,23.618833007812583],[78.78233984375007,23.6177421875001]]]]},"properties":{"id":"19625"}}]}