{"type":"FeatureCollection","features":[{"type":"Feature","geometry":{"type":"MultiPolygon","coordinates":[[[[74.56010371590858,31.017958545222044],[74.56116795949666,31.01623938250266],[74.5613726217251,31.01497047668633],[74.56043117547446,31.010467907660626],[74.55969439145221,31.00862594760477],[74.55998091857148,31.00858501515907],[74.56067677014838,31.009403664072792],[74.5624777977587,31.010140448095385],[74.56337831156364,31.0100585832038],[74.56423789292333,31.010345110323527],[74.56497467694592,31.011327489020132],[74.56538400140246,31.011327489020132],[74.56542493384816,31.010918164563137],[74.56436069026043,31.0099767183124],[74.5622731355302,31.00948552896419],[74.56116795949666,31.008789677387384],[74.56100422971386,31.008134758256375],[74.55973532389791,31.0069477173317],[74.55957159411511,31.006210933309106],[74.55899853987532,31.005433216841],[74.55768870161299,31.001299039826577],[74.55743165383396,30.999621444486962],[74.55780490451426,30.99941324869799],[74.55857774522607,30.999475368923854],[74.55890570746564,30.998887532552004],[74.55824164496565,30.99795111762161],[74.5588785807295,30.997211914062703],[74.5596641710072,30.996389431423736],[74.56084364149322,30.99612141927109],[74.56110080295153,30.99554524739598],[74.56329644667224,30.994913578299048],[74.56452442004317,30.994135861830927],[74.56472908227167,30.99290788846021],[74.5645396592885,30.992563476562637],[74.56386950091232,30.99204830710096],[74.56174101373645,30.99122965818715],[74.56186381107355,30.99061567150183],[74.56313271688973,30.989223968348313],[74.56522027161967,30.988159724760564],[74.56718502901302,30.9875866705206],[74.57013216510248,30.9875866705206],[74.5771725457611,30.9889374412285],[74.58134765522126,30.990124482153433],[74.58200257435206,30.99057473905613],[74.58380360196261,30.990902198621725],[74.58384453440831,30.989305833239627],[74.58142952011266,30.98799599497768],[74.57628513720792,30.9859422900536],[74.56838517518977,30.9859422900536],[74.56543803910037,30.986474411847524],[74.56138572697742,30.988561966577663],[74.56036241583521,30.990444859079403],[74.55999402382375,30.992368684026758],[74.56060801050947,30.992982670712337],[74.56044428072661,30.99318733294065],[74.55954376692094,30.992982670712337],[74.55957905291527,30.99397067854602],[74.55837917751754,30.993882921007184],[74.55387858072939,30.990565863715318],[74.55359347873289,30.98992730034736],[74.55303550805658,30.989585277719797],[74.55025210174998,30.99371945473466],[74.55044189453147,30.99414632161472],[74.55176595052129,30.994147406684093],[74.5533230251738,30.9955658637153],[74.55447536892373,30.99608018663183],[74.55498969184069,30.99667697482633],[74.55664876302106,30.997417263454864],[74.55671847873273,30.99828504774311],[74.55595594618106,30.999360622829983],[74.55629360965125,31.001211260175566],[74.55617420112267,31.002445148305995],[74.55695191759068,31.00469643281876],[74.55932599944092,31.009608326301205],[74.56043117547446,31.015175138914827],[74.55985812123438,31.01722176119945],[74.55908040476672,31.01722176119945],[74.55846641808128,31.018286004787385],[74.55719751226505,31.018695329243926],[74.55392291660988,31.018777194135424],[74.55343172726148,31.019022788809522],[74.55470063307772,31.01930931592942],[74.55678818780788,31.01930931592942],[74.56014464835428,31.018408802124483],[74.56010371590858,31.017958545222044]]]]},"properties":{"id":"4693"}}]}