{"type":"FeatureCollection","features":[{"type":"Feature","geometry":{"type":"MultiPolygon","coordinates":[[[[79.92806098090293,23.709449734158454],[79.92846137152785,23.708600531684425],[79.9297276475697,23.707783067491732],[79.92999457465302,23.706631130642805],[79.92930555555577,23.705972222222712],[79.92860568576438,23.706105821397983],[79.92833875868055,23.706671956380703],[79.92531792534734,23.708887532552467],[79.92369466145843,23.709197455512566],[79.92222764756949,23.708778347439605],[79.92334798177106,23.70805474175401],[79.92137261284742,23.70694973415837],[79.92137478298625,23.708554958767778],[79.91879611545173,23.709197591146207],[79.91833875868062,23.709778103299044],[79.91900282118061,23.71103312174519],[79.92083875868079,23.711383599175733],[79.92188368055557,23.711936442057777],[79.92306098090293,23.71221693250918],[79.92416558159746,23.71306410047785],[79.9275596788195,23.712203369141065],[79.9274929470487,23.710522460937952],[79.92806098090293,23.709449734158454]]]]},"properties":{"id":"19569"}}]}