{"type":"FeatureCollection","features":[{"type":"Feature","geometry":{"type":"MultiPolygon","coordinates":[[[[75.53223914252382,24.28851094563845],[75.53360833062041,24.28666388617671],[75.53471852620422,24.285597195096088],[75.53474199083101,24.28444722493539],[75.53388610839843,24.284719441732236],[75.5314405653211,24.28721944173232],[75.53054409450922,24.285506388346946],[75.52902777777743,24.28402777777829],[75.52738599989121,24.284206136068207],[75.52683980305963,24.285889417860744],[75.52555833604575,24.287578192817335],[75.52595357259108,24.288678656684567],[75.5286138916014,24.290274997287824],[75.53032402886274,24.291655476888593],[75.53333055284273,24.290341389974373],[75.53223914252382,24.28851094563845]]]]},"properties":{"id":"19357"}}]}