{"type":"FeatureCollection","features":[{"type":"Feature","geometry":{"type":"MultiPolygon","coordinates":[[[[68.10995062933992,25.0383589032962],[68.11166286892322,25.034497618675985],[68.11219848632786,25.031691944335122],[68.11343858506942,25.03083862834579],[68.11520602756045,25.031140037113417],[68.11555935329844,25.032256389724665],[68.1161164008245,25.032772482766745],[68.11650973849814,25.03360581610019],[68.1169391547306,25.032898691496072],[68.11637301974812,25.031374088923798],[68.11641506618903,25.030311934683866],[68.11528306749105,25.027833690644016],[68.1166567654079,25.025608970854734],[68.11702379014721,25.024449739456927],[68.11889458550317,25.02471698655107],[68.11885131835916,25.02580873383485],[68.11917195637986,25.026105816100127],[68.11952379014727,25.027216927211327],[68.12058308919259,25.02694401741097],[68.12053927951357,25.025838253233857],[68.12109266493033,25.02532543394389],[68.12116997612807,25.0233776134922],[68.12082763671836,25.023060475456106],[68.12084920247386,25.022514799966515],[68.12028306749104,25.021444801755152],[68.12090060763867,25.019171962738866],[68.12217936197877,25.019614916908125],[68.12362019856758,25.022410028246497],[68.12359619140616,25.0230158392595],[68.124908582899,25.025248201159016],[68.12827460394934,25.025570742289887],[68.1286710611976,25.028883593877964],[68.13211480034707,25.028507316378224],[68.13306084526894,25.02806085056804],[68.13443915473064,25.02693914943349],[68.13572618272556,25.02653168890292],[68.13649929470452,25.025408011543234],[68.13524481879327,25.024146295124424],[68.13447089301187,25.022506554922217],[68.13390367295986,25.02248407152041],[68.13230875651013,25.023328038322546],[68.13080851236967,25.02224350081626],[68.12862101236968,25.01955556869582],[68.12855088975661,25.01778566996336],[68.12890923394062,25.017771464454583],[68.12943915473099,25.018894184961113],[68.13049967447884,25.019994703929513],[68.13070380316807,25.01910351435413],[68.12847208658829,25.016229784224535],[68.12915974934899,25.015592621698232],[68.1292027452254,25.014506162008374],[68.12829196506064,25.013264359368904],[68.1269468858504,25.012018074460215],[68.12639417860206,25.010272481707204],[68.12534179687472,25.00810850779291],[68.12406141493025,25.007227518294314],[68.12296874999961,25.007816407946294],[68.1216912163625,25.00919516669454],[68.12012993706591,25.009133281708515],[68.11774617513007,25.011007836660482],[68.1178038194441,25.012460952335644],[68.1170003255207,25.01332803726271],[68.11586018880197,25.012834127214916],[68.11470336914047,25.00852962493967],[68.11380506727428,25.006750433180855],[68.11269178602416,25.006225030687887],[68.11051283094608,25.002687191434333],[68.10949205186606,25.00174142625677],[68.10889675564218,25.000616425409007],[68.10884073893217,24.999201104906703],[68.1094285753035,24.99865643395391],[68.1098126898872,24.996820297241996],[68.10822279188343,24.994358168708672],[68.1069497341579,24.993050261604196],[68.10573676215247,24.992266977098936],[68.10438693576376,24.98997101254011],[68.10332804361948,24.988894182841804],[68.10227091471339,24.987257130941543],[68.09869059244781,24.983715307448392],[68.09776597764753,24.981902893914906],[68.09485460069433,24.979062550863304],[68.09359524197035,24.976682552762313],[68.09222751193559,24.97249470604872],[68.09193874782974,24.97222714318255],[68.09196872287308,24.97147019280399],[68.09040337456557,24.96758268568324],[68.08897230360222,24.96244839986248],[68.08805026584187,24.96056085374707],[68.08752427842867,24.958352839152795],[68.08666137695306,24.957227520413625],[68.08556084526899,24.952216924032356],[68.08493855794248,24.95033927917561],[68.08364542643201,24.94822747124637],[68.08362548828089,24.946722310384914],[68.08195244683148,24.942838728163764],[68.08061075846334,24.937648891873536],[68.07943915473075,24.93500529819144],[68.07806084526882,24.92971692403232],[68.07527248806397,24.92389418708025],[68.07360541449614,24.91944866604355],[68.07335706922734,24.917041278415994],[68.07288519965246,24.915551172892933],[68.07110622829842,24.914150348240298],[68.07055040147534,24.914172380236252],[68.07004665798596,24.912581380209062],[68.06682440863702,24.910876278348212],[68.06333780924453,24.90943876478474],[68.06047037760405,24.909519382053688],[68.05949435763884,24.906436547174124],[68.0583386230467,24.905550257365647],[68.05583862304681,24.90515201144825],[68.05611924913168,24.90469501919293],[68.05832804361953,24.904782570733786],[68.05798516167508,24.904341837565866],[68.05583862304681,24.903830540975733],[68.05610582139744,24.903050257365663],[68.05735866970466,24.9027518378371],[68.05805026584184,24.901444803874526],[68.0576350911455,24.899623302884308],[68.05499471028614,24.89694974263584],[68.05460449218717,24.896122962104684],[68.05358656141479,24.896082611084736],[68.05230170355875,24.897469329834706],[68.05116672091995,24.89751430935401],[68.0491861979165,24.89674307929215],[68.04921332465264,24.894517313640094],[68.04831909179669,24.892479604086034],[68.04916137695281,24.89007631090024],[68.04775010850662,24.88945985582214],[68.0464165581594,24.88945985582214],[68.04527248806383,24.888338623047602],[68.0444158257375,24.88601370917499],[68.04178059895813,24.884537167020042],[68.03796725802917,24.881095598009637],[68.0361494954424,24.87835232204938],[68.03425198025158,24.87670372857059],[68.0283280436195,24.87444973415876],[68.02633884006062,24.8730344984273],[68.0244849989148,24.87124053955155],[68.02364813910552,24.8678508165156],[68.02283298068554,24.86697092692134],[68.01837795681425,24.86560748630191],[68.01747816297731,24.86429985894165],[68.0175260416664,24.863094601102162],[68.01672254774272,24.86222751193654],[68.01471693250832,24.862494710287194],[68.01371934678778,24.86375796847946],[68.01467976888003,24.865793033176757],[68.01833862304656,24.87055026584268],[68.01924045138847,24.87208418104457],[68.0219357638887,24.874642791748855],[68.02190294053801,24.877853715685447],[68.0245140245224,24.878475680881863],[68.02750528971322,24.880550265842757],[68.02916137695277,24.88361640082546],[68.02971693250836,24.88413116455159],[68.0291982693141,24.88582804362059],[68.02632202148405,24.88383397420327],[68.0251274956594,24.883270178901526],[68.02364813910552,24.881673634847772],[68.02175130208312,24.88159845988028],[68.02085259331565,24.88243116590796],[68.02078816731759,24.884054582384593],[68.02193915473052,24.885938551161743],[68.02167195637989,24.88639417860321],[68.02077026367166,24.88667965359228],[68.02000528971345,24.887505289714426],[68.0189622667099,24.887997521295247],[68.01852525499092,24.88983237372578],[68.01778469509529,24.890518493653133],[68.01775078667524,24.8913741217727],[68.01915744357623,24.89379494561159],[68.01921332465244,24.895204908583565],[68.01861640082458,24.89633297390482],[68.01889200846315,24.89725572374215],[68.01971693250849,24.898060853746955],[68.02072943793368,24.89853869120367],[68.02221693250854,24.90250529819143],[68.02327514648411,24.90437056647481],[68.02481865776915,24.906036571927345],[68.02763224283822,24.906456120809636],[68.02975680881062,24.90558346218606],[68.0325112575953,24.9062395816386],[68.03411376953093,24.909267866347292],[68.03468627929672,24.911452755398926],[68.03477199978263,24.914727138943945],[68.03365234375005,24.91576449924125],[68.03347222222206,24.91708333333402],[68.03388359917508,24.917505298191386],[68.03586507161427,24.917883589003495],[68.036658799913,24.91938357883103],[68.0366394042965,24.92082764519654],[68.03723171657956,24.92194703843927],[68.03602810329826,24.922724304200003],[68.03366699218745,24.925272479587846],[68.03193915473068,24.925005298191465],[68.03075602213508,24.924191123115392],[68.02974622938333,24.924151102702538],[68.0288897026908,24.924451327854484],[68.02763563368043,24.924122755263298],[68.02388848198777,24.92427127414352],[68.02040608723937,24.921816143460504],[68.0189006890187,24.92031933254742],[68.01840576171841,24.91927057054386],[68.01589328342001,24.91847512139296],[68.01333862304674,24.91582803514339],[68.00999471028635,24.913616409302435],[68.00922254774295,24.91278307596916],[68.00694973415776,24.91500529819149],[68.00583862304646,24.915357072618946],[68.00658081054675,24.91627874586395],[68.00700697157092,24.91806805080914],[68.00872599283818,24.91979810926715],[68.0078186035154,24.921629604764277],[68.00556084526889,24.92306085374699],[68.00389343261688,24.9236167992495],[68.00021030002134,24.92324022928949],[67.99971693250845,24.922783075969136],[67.9994497341576,24.92138359069898],[67.99841145833327,24.91968782213074],[67.99750528971313,24.91582803514339],[67.99622199164494,24.912582965427774],[67.99336059570274,24.91114736769012],[67.993019137912,24.910502039592217],[67.99307142469584,24.90918315463675],[67.99250528971348,24.908883590699006],[67.98915188259522,24.90776184929817],[67.98832878960471,24.907772089641142],[67.98740078396227,24.908263134427315],[67.98564032660576,24.9073897806811],[67.98496310763872,24.908373998006965],[67.98500678168372,24.90947747124632],[67.98445014105872,24.910838250055164],[67.9833534071179,24.911854426066768],[67.98341071234799,24.914869054159254],[67.98277099609359,24.916078084310627],[67.98282443576389,24.917427130805848],[67.98249192979566,24.918055555556393],[67.98305026584168,24.91911075168261],[67.98214565700945,24.92039974636569],[67.98059848361507,24.921833250258516],[67.98046691894498,24.92515258789136],[67.98249742295971,24.9263958316386],[67.98508999294691,24.925853407118723],[67.98682291666657,24.927614186605567],[67.98777248806405,24.928994098240295],[67.98750528971343,24.929727520413607],[67.98490763346322,24.931701261732968],[67.98528347439228,24.93277355618025],[67.98530259874096,24.933820173476363],[67.98360405815944,24.935830137465572],[67.98416300455713,24.94086052788694],[67.98825663248684,24.94517612881218],[67.987783067491,24.946671964858055],[67.98721421983473,24.94749866061825],[67.98805026584162,24.94953407287673],[67.98775777180973,24.950962134468014],[67.98502373589392,24.951484112210466],[67.98497287326356,24.952767647638012],[67.98794264051637,24.953210483127805],[67.98885335286437,24.952227520413643],[67.98944973415783,24.95249470181011],[67.99022189670123,24.95332803514347],[67.99082804361947,24.952353532580034],[67.98996310763849,24.951625866360928],[67.98867784288186,24.95101929558723],[67.98954962836333,24.94917196485804],[67.9927830674911,24.94943914625452],[67.99563286675314,24.950050430298617],[67.99659783257366,24.951091868083424],[67.997459513346,24.95112602233965],[67.99783223470038,24.948786451552323],[68.0013938395181,24.948883192275048],[68.00190890842006,24.94943914625452],[68.00232489691811,24.949090287951122],[68.00305026584161,24.947020763821982],[68.00269151475678,24.94616517808781],[68.00139417860211,24.945272479587885],[67.9995912679033,24.94484303792406],[67.99889417860211,24.942854097155177],[68.001045193142,24.942763875326236],[68.0019497341577,24.94305025736574],[68.00246290418826,24.94413767496819],[68.00519924587641,24.944246131049994],[68.00587863498228,24.941394187080306],[68.007364095052,24.941764721341357],[68.00805026584189,24.94250529819142],[68.00944973415787,24.9427724795879],[68.01245795355888,24.944008136326246],[68.01443427191819,24.943315446642416],[68.01609157986078,24.94466423882453],[68.02083862304661,24.945272479587885],[68.02124918619776,24.948703384400147],[68.02168918185757,24.95009320577057],[68.02360582139741,24.951231909858663],[68.02330078124979,24.95205157809862],[68.0207009548607,24.95423825581946],[68.02138359917504,24.956394187080264],[68.0231392415362,24.957601275974625],[68.02583835177924,24.957494294909097],[68.0271468098957,24.9591581726081],[68.0277728949649,24.95918298509457],[68.02829779730862,24.958616409302593],[68.02917955186595,24.959422107273426],[68.02983995225688,24.960821482341245],[68.03056043836793,24.960827636719586],[68.03281399197013,24.962517411974417],[68.03167195638005,24.96357560051885],[68.03234646267336,24.96465756734281],[68.03332804361966,24.965120798747506],[68.03250528971321,24.965838631524733],[68.03166137695277,24.9661058129212],[68.03132175021668,24.967178607517653],[68.02951944986958,24.967607913547837],[68.02367255316832,24.970200390286635],[68.02212972005177,24.972393862407202],[68.01889417860215,24.974287469652694],[68.01916137695295,24.975283071730715],[68.0198772515187,24.97632349226275],[68.01916137695295,24.976661372715355],[68.01863321940087,24.97887859344557],[68.01751180012982,24.97995844947043],[68.01722751193566,24.98056084950838],[68.01611640082447,24.98108523051019],[68.01693535698772,24.98190536499105],[68.01728691948753,24.98595742119754],[68.0166206868486,24.987369266086986],[68.01575697157111,24.987826309204905],[68.01334377712638,24.98751610226185],[68.01170789930532,24.98639045715406],[68.01027248806392,24.986116405064053],[68.00869764539911,24.985283071730606],[68.00857299804679,24.9860227923931],[68.00891615125832,24.987001741198142],[68.00585639105887,24.988445748223924],[68.00577813042534,24.990421952142384],[68.00610582139737,24.99111640506395],[68.00754597981748,24.992282918295032],[68.00917195637984,24.993050261604196],[68.00966701931421,24.993584637112832],[68.01213216145814,24.99439503139989],[68.01329155815952,24.995143648784236],[68.01393405490413,24.997717009651126],[68.01530395507771,25.000867491828757],[68.01526394314206,25.0018785137607],[68.01555935329841,25.002811944750363],[68.01611680772547,25.003328412374586],[68.01608561197904,25.004114443461916],[68.0163964843749,25.005001074473896],[68.01583862304662,25.006055198246344],[68.01610582139725,25.007227518294314],[68.01667344835053,25.008300304413552],[68.01693915473052,25.010005296072066],[68.01804728190095,25.012909259796942],[68.01739189995632,25.016041567061436],[68.01928670247358,25.017962451511693],[68.02112155490428,25.019147277408905],[68.02081841362812,25.02059619055926],[68.02086642795106,25.021805555556284],[68.01972751193543,25.022343024148583],[68.0205632866753,25.02301784303522],[68.0213879394532,25.022253698773667],[68.02223809136271,25.01942964553912],[68.02221544053785,25.018855859969122],[68.02293280707451,25.017500000000823],[68.02249430338523,25.016671223111402],[68.02251586914028,25.016125910017962],[68.02167195637989,25.014530961779244],[68.0227486165364,25.013683834076673],[68.02495252821157,25.01359647962856],[68.02556084526876,25.013883592818317],[68.02673244900163,25.015148086548564],[68.02806084526875,25.014727518294308],[68.02860582139724,25.012772481707287],[68.02999471028627,25.010754099952578],[68.02778469509511,25.008092621698083],[68.02768188476526,25.005497470432644],[68.02837809244758,25.004413174524018],[68.02925496419257,25.001643664042987],[68.03295722113708,24.99933732774602],[68.03432169596326,24.99638888888967],[68.03333862304649,24.99453096177919],[68.03388359917508,24.993050261604196],[68.03555026584164,24.992732060751052],[68.03471693250853,24.992227516175078],[68.03422485351544,24.99118498484367],[68.03314737955694,24.9901360363438],[68.03426133897531,24.986139776442485],[68.03645521375833,24.985720918444244],[68.03764987521689,24.984549407959804],[68.03833862304649,24.985550261604203],[68.03862521701362,24.98913664499989],[68.04237684461813,24.989842198690567],[68.04367418077229,24.989431457520325],[68.04468668619765,24.98833862728611],[68.04569295247362,24.988789482117454],[68.0466391330294,24.98966613345759],[68.0473821343314,24.9908166758227],[68.04928073459158,24.991712705824895],[68.05273017035555,24.995203018189272],[68.05358506944432,24.99802867465621],[68.05489705403605,24.998931503296774],[68.05613566080697,24.99888240814279],[68.05690890841973,24.999716928270985],[68.05733317057255,24.999361101787073],[68.05693467881909,24.998607932197444],[68.06027560763872,24.99699687957839],[68.0606370713974,24.99472751617506],[68.06246175130181,24.995744624668404],[68.06280327690942,24.99671888987301],[68.06274034288182,24.998304324680618],[68.06522365993905,24.998402752347346],[68.0674441189233,24.996116405063944],[68.06889417860211,24.99638359493754],[68.06958591037326,24.997130139669537],[68.07124755859346,24.99752593994218],[68.07173936631918,24.998455522326054],[68.07011474609348,25.000208939447234],[68.06781833224787,25.001179233127928],[68.06625691731776,25.00321540196822],[68.0657516818575,25.004657077789957],[68.0681918674043,25.005913537344142],[68.07437717013855,25.004410557217824],[68.07606296115412,25.00317407820026],[68.07643486870646,25.00238593207544],[68.07805026584171,25.00088924831887],[68.07769585503442,24.998966017829872],[68.07698811848942,24.997628343370934],[68.07692952473948,24.992818412781475],[68.07749471028629,24.990117119683916],[68.07680636935751,24.989326705933365],[68.07746446397559,24.988616405063865],[68.0781907823347,24.989225480822057],[68.07917195638012,24.990828039381952],[68.07943915473075,24.993894182841885],[68.0812101236975,24.998390108745014],[68.08222751193571,24.999716928270985],[68.08249471028611,25.00083862728617],[68.08444932725675,25.001660965814295],[68.08497138129329,25.002224324545153],[68.087356770833,25.002550337050508],[68.08792765299441,25.005540021261282],[68.08939005533827,25.00950597763152],[68.08853190104159,25.012216849857595],[68.08741183810744,25.013743765089984],[68.08596015082455,25.015088810391603],[68.08906724717869,25.018552947574932],[68.08950588650148,25.019938498603693],[68.09127034505187,25.02049712075197],[68.09358303493914,25.021798937056502],[68.09413045247382,25.024097021951405],[68.09528306749112,25.02582803832236],[68.09675130208299,25.028939127393173],[68.10102335611973,25.033724155426796],[68.10229153103282,25.03432265626138],[68.10414211697028,25.03611759106394],[68.104528130425,25.03610229094899],[68.10622422960037,25.03793295714665],[68.1079199218747,25.038377246724934],[68.10995062933992,25.0383589032962]],[[68.02973008897547,24.970285589430816],[68.03013888888879,24.970138888889593],[68.0310622829858,24.972203937107437],[68.0322143554686,24.973098869324488],[68.03011393229147,24.97443471272865],[68.02871270073766,24.970599738227662],[68.02973008897547,24.970285589430816]],[[68.03777018229133,24.928681547377593],[68.03652777777737,24.92846764458629],[68.03533460828979,24.928673061795493],[68.0346931966142,24.92722319709023],[68.0350303819441,24.92638455708895],[68.03447631835931,24.925489306980424],[68.03569444444409,24.925416666667374],[68.0355225965711,24.925844345093637],[68.03585991753451,24.926095343696517],[68.03580661349835,24.926405529446853],[68.03776448567677,24.927803980510248],[68.03831298828086,24.927709554037207],[68.03777018229133,24.928681547377593]]]]},"properties":{"id":"324"}}]}