{"type":"FeatureCollection","features":[{"type":"Feature","geometry":{"type":"MultiPolygon","coordinates":[[[[80.43973002115874,23.72445231119815],[80.44057081434428,23.723865017361305],[80.44190833197669,23.72394463433183],[80.44316277397994,23.72326307508706],[80.44391330295107,23.72249294704882],[80.4438746473522,23.721844482422114],[80.44240804036431,23.720780029297188],[80.4414638943139,23.71972344292554],[80.4394366455077,23.719452311198253],[80.43837958441807,23.71887790256106],[80.43796427408833,23.718902587890938],[80.43672461615634,23.717515190972435],[80.43528727213513,23.716786566840554],[80.43187411838076,23.71691541883709],[80.43000779893643,23.712974582248393],[80.4309206136065,23.712159016927245],[80.43079366048144,23.71002875434057],[80.42672719319657,23.710751410590518],[80.42549279106973,23.71008070204013],[80.42559336344371,23.70839369032136],[80.4251388888886,23.70736111111141],[80.42404093424452,23.707566053602648],[80.42457017686596,23.711045057508855],[80.42245351155591,23.7114401584204],[80.42173834906649,23.71375610351592],[80.4155881076388,23.71338948567734],[80.41209231906439,23.71285780164952],[80.41139668782526,23.714054226345723],[80.41280120849589,23.714698757595684],[80.41353478325718,23.71551974826403],[80.41639668782526,23.71749213324675],[80.4174388631184,23.71848253038216],[80.42092898898628,23.718891330295364],[80.42422542995857,23.719775797526196],[80.42526997884082,23.722230088975834],[80.42733276367156,23.723603244357847],[80.4290882703992,23.72297336154527],[80.42943664550754,23.722214355468978],[80.43171013726132,23.721910400390982],[80.43278886583087,23.72311767578148],[80.4345462375214,23.723924153645967],[80.4352847968207,23.723880208333696],[80.43639712863481,23.724933403863062],[80.43758093939866,23.725269911024483],[80.43860331217448,23.72471435546906],[80.43973002115874,23.72445231119815]]]]},"properties":{"id":"9623"}}]}