{"type":"FeatureCollection","features":[{"type":"Feature","geometry":{"type":"MultiPolygon","coordinates":[[[[86.57210861969307,24.851616833401977],[86.57207905155084,24.85017375885785],[86.56936312273129,24.84910250709447],[86.56903041331296,24.847722298761155],[86.5706970799794,24.84662958296802],[86.57126185862538,24.845500805569984],[86.57347865550028,24.84478143843674],[86.57492071279191,24.84380389259256],[86.57602490658573,24.842654634508833],[86.57661857520512,24.84143091353441],[86.57604945628148,24.840884106351325],[86.57375263553521,24.842185138523547],[86.57197298601253,24.842798965699117],[86.57025898319117,24.84221229916804],[86.56815950945,24.842750357978872],[86.56651902008386,24.846063549710593],[86.56654099273979,24.847140175958486],[86.56450716570012,24.847457355320373],[86.56375263553494,24.846596895250954],[86.56512185754016,24.84528150286279],[86.56542459191533,24.844657384481636],[86.5653970582782,24.84330694774124],[86.56597485775737,24.842185138523547],[86.56624721018775,24.840235133098233],[86.56736374664624,24.83885180519019],[86.5687592815855,24.836390460789275],[86.56874680328693,24.8357793632416],[86.5676165678266,24.83579018002756],[86.56653204091688,24.83355463179622],[86.5688946439985,24.832005576484647],[86.57013609907662,24.830332908027657],[86.56910596127275,24.829962916301326],[86.56763420020528,24.831079656210235],[86.56706942155935,24.831068127347308],[86.56651074642932,24.829916546536865],[86.56555547841711,24.82898791358872],[86.56403041331296,24.829283544149547],[86.56514464399848,24.83092711918225],[86.56487229156792,24.834818364706265],[86.56402295346041,24.836071399509834],[86.5650240656565,24.83739079309177],[86.56399786122952,24.838290688653757],[86.56276956261863,24.837657940579902],[86.56152770063918,24.838297673788276],[86.56095288510116,24.838001585463658],[86.56027770063915,24.83660979740499],[86.55929706912875,24.836629803372716],[86.55932446713214,24.837971271336087],[86.55901929135106,24.83886280847257],[86.55704975467577,24.839501914375347],[86.55461675771394,24.84125169057971],[86.55318772125563,24.84171543908785],[86.55319748688046,24.84219439552227],[86.55495841895512,24.84276583717262],[86.55618061405053,24.844414498468367],[86.55815978071726,24.8443741135399],[86.55953320736657,24.845081680542847],[86.55896001943276,24.84619436839546],[86.55734313032687,24.84671908424295],[86.55736456044835,24.847769160197842],[86.55853318023995,24.850348234633728],[86.55738911014461,24.852936684747448],[86.55879074859948,24.854124021987076],[86.56200499556113,24.853296249634724],[86.56361103397265,24.854514850437667],[86.56500833214963,24.853454635865177],[86.56569165463216,24.85226790897704],[86.56391295454566,24.85156351241133],[86.56439770931976,24.85062251984401],[86.56600198449351,24.85024069407922],[86.5670972264638,24.85080486237335],[86.5670646743807,24.852401033434532],[86.56788525814775,24.85495735532035],[86.56939635298292,24.852292187405993],[86.57210861969307,24.851616833401977]]]]},"properties":{"id":"9526"}}]}