{"type":"FeatureCollection","features":[{"type":"Feature","geometry":{"type":"MultiPolygon","coordinates":[[[[106.50102687974558,15.353643625831978],[106.50102687974558,15.352297018890653],[106.50156640121273,15.351489894555556],[106.50183400509579,15.351217878471132],[106.50291305354577,15.351217916038777],[106.50318065913578,15.351757447333526],[106.50345257983693,15.352029480072531],[106.50399219739691,15.352297004149463],[106.50479924419867,15.352569031839977],[106.50506685217792,15.352569026198523],[106.50506685217792,15.35229701151566],[106.50479924419867,15.3520294133817],[106.50425971446683,15.351757474588254],[106.50318065913578,15.350950311221354],[106.50318065913578,15.34987125301555],[106.50372018610963,15.349331659764132],[106.50399219739691,15.349064159079504],[106.50533877530475,15.34906411107346],[106.50722498761573,15.349331652038487],[106.50749259866754,15.349871249907451],[106.50776461481465,15.350143263575404],[106.50803213665463,15.350410773359854],[106.50830415349364,15.350410777968264],[106.50830415349364,15.350143267842384],[106.50803213665463,15.349420866001466],[106.50803213665463,15.349064144481858],[106.50830415349364,15.348796556175401],[106.50991828310131,15.34879656215817],[106.50991828310131,15.34906415481234],[106.51019030236577,15.349331664372443],[106.5107298472341,15.349603666730602],[106.51099746272334,15.349603655510506],[106.51099746272334,15.349331652254136],[106.5107298472341,15.348796565643838],[106.51045782727786,15.348257055755866],[106.51019030236577,15.347985056083573],[106.50991828310131,15.34771746082437],[106.50911121675236,15.347717456162144],[106.50884369354688,15.347177948771659],[106.50884369354688,15.346638357074013],[106.50911121675236,15.346370855607887],[106.51099746272334,15.34637086813946],[106.51315565869876,15.346098874135691],[106.51315565869876,15.345019718310112],[106.51234408525013,15.34501971346802],[106.51180453626759,15.344752212765371],[106.51126498865071,15.344212628955205],[106.51126498865071,15.34313356415582],[106.51153700965776,15.342865990734623],[106.51369071635625,15.34286600997656],[106.51423027015372,15.342598434524987],[106.51450229496092,15.342326450681284],[106.51476982532589,15.34205887218458],[106.51530938187207,15.341247327455392],[106.51557691325232,15.34097975157296],[106.51611647185584,15.340979752318404],[106.51692805976703,15.3412473255419],[106.51746312695579,15.34151929844441],[106.517735155922,15.341786870778748],[106.51827463012879,15.342865982317363],[106.51988883577903,15.342866024295603],[106.52124000979077,15.343405536294583],[106.52150754866304,15.343673094345675],[106.52204703247284,15.344212631892589],[106.52231466226331,15.344484678582646],[106.52231466226331,15.34501973709375],[106.52258660755157,15.345291716383244],[106.52285414812135,15.345559272143447],[106.52312618401365,15.34555925980061],[106.52312618401365,15.34529177352509],[106.52285414812135,15.344484658595178],[106.52258660755157,15.343945121865573],[106.52231466226331,15.342598453677141],[106.52231466226331,15.341786841547545],[106.52312618401365,15.340979797072563],[106.523393725266,15.340707808332851],[106.523393725266,15.34044024393964],[106.52312618401365,15.340172692617116],[106.52231466226331,15.340172709846627],[106.52177508786733,15.339633098871431],[106.52177508786733,15.3388215864547],[106.52150754866304,15.338286469184823],[106.52124000979077,15.338014503990024],[106.52124000979077,15.337474969676876],[106.52150754866304,15.337207401681383],[106.52204703247284,15.336935342927191],[106.52366576184099,15.336935395262927],[106.52393330376734,15.33747491201403],[106.52474033670799,15.338014503819394],[106.52474033670799,15.337746945346069],[106.52447279375755,15.337207430894736],[106.52447279375755,15.33693537672167],[106.52474033670799,15.33666780888801],[106.52527991864073,15.336667878166097],[106.5263589967262,15.336935400715632],[106.52743808030036,15.337207411724549],[106.52770562698774,15.337207395914263],[106.52770562698774,15.336935345244896],[106.52716612878677,15.336395845453836],[106.52689858278231,15.33612830613292],[106.52662654205719,15.335860760577162],[106.52608704659607,15.335860773234586],[106.52581950194784,15.33558873480014],[106.52581950194784,15.334781666088546],[106.52608704659607,15.334509606930155],[106.52716612878677,15.33450966549131],[106.52824521646633,15.335321187358161],[106.52851276416882,15.3355887227806],[106.52878480731053,15.335860759993366],[106.52932430963457,15.336667802195578],[106.52959185869358,15.336935422167457],[106.52986390321851,15.337207370941002],[106.53093850947246,15.337474940876803],[106.53121055571322,15.337474925192282],[106.53228966395514,15.337207391063387],[106.53228966395514,15.336935345352629],[106.53175006419988,15.33666783473258],[106.53067095870674,15.336667812660991],[106.53039900305194,15.336395859494601],[106.53013145296896,15.33612824190314],[106.53013145296896,15.335321184339776],[106.53039900305194,15.3350492084911],[106.53121055571322,15.33450966879711],[106.53175006419988,15.332895472992433],[106.53282467998505,15.33154880417527],[106.53309672865132,15.33100921851431],[106.53282467998505,15.330737195396154],[106.53282467998505,15.329390604894115],[106.53336428247113,15.328851013600868],[106.5336362419259,15.328583476723153],[106.53444340164558,15.32831149169354],[106.53525047452521,15.328311453030068],[106.53740864759348,15.327771961656353],[106.53848778729437,15.327236842473084],[106.53848778729437,15.326964820397023],[106.53767620683945,15.326964863498091],[106.53694989007252,15.327236800840609],[106.53606204571864,15.327236801878172],[106.53578999326166,15.326964875185098],[106.53552243638731,15.326697276952558],[106.53552243638731,15.326157724915632],[106.53578999326166,15.323999521313667],[106.53632960327568,15.3234599573383],[106.53686912475197,15.323459940953015],[106.53794826171301,15.323192462905922],[106.53794826171301,15.322113308229987],[106.53821573172908,15.321845782257768],[106.53848778729437,15.321573759705558],[106.53956243714364,15.32157379465005],[106.54010196682148,15.321845783901878],[106.54037393489094,15.322113293542543],[106.54037393489094,15.322385305342024],[106.5417206539689,15.32265291183019],[106.54252775446278,15.322652859081103],[106.54333485801098,15.321845769016633],[106.54414637014023,15.320227091580094],[106.54387660051773,15.319420022073672],[106.54360683021255,15.319420015502402],[106.54333485801098,15.319148019791726],[106.54333485801098,15.318612919437129],[106.54360683021255,15.318340910584169],[106.54387439725579,15.318073385851676],[106.5446859114331,15.317801350884679],[106.54549302316505,15.315915217813966],[106.54576059257985,15.315375617995812],[106.54603256787155,15.31510811292749],[106.54657211394371,15.314836093016098],[106.54711166139018,15.314568568867486],[106.5481863547628,15.314568496436351],[106.54845833315389,15.314836067548995],[106.54872590628767,15.315108121506313],[106.54872590628767,15.315647607912268],[106.54845833315389,15.315647631654784],[106.54845833315389,15.316994282092438],[106.54845833315389,15.318073357051873],[106.54845833315389,15.318340943866886],[106.54872590628767,15.319420000132297],[106.54926545917786,15.319959541901326],[106.54980501343354,15.319959581130746],[106.55034456906375,15.319687535437936],[106.55034456906375,15.31942003484319],[106.55007249835282,15.319420059573716],[106.54980501343354,15.31914799952581],[106.54953294341422,15.318340940569968],[106.54953294341422,15.317261868431302],[106.54980501343354,15.3169942632817],[106.55007249835282,15.316726746544049],[106.54980501343354,15.31510804954219],[106.54953294341422,15.3145684994726],[106.54953294341422,15.313221875220933],[106.54980501343354,15.312949872036327],[106.55034456906375,15.31241477363092],[106.55034456906375,15.31106367630801],[106.55115161231694,15.310256592837291],[106.55249830960182,15.309717043737933],[106.55384492548117,15.30837039427044],[106.5549240585257,15.307563310125857],[106.5565426784161,15.306751703305267],[106.55708225107836,15.306216633403466],[106.55734974511543,15.305944647978706],[106.55734974511543,15.305677091400824],[106.55708225107836,15.305677110364144],[106.55627068971253,15.30621659901604],[106.55465647762142,15.307291276793919],[106.55303778212865,15.30810279953208],[106.55249830960182,15.308102824011158],[106.55142359448993,15.308637942116633],[106.55061205464764,15.309449502458321],[106.55034456906375,15.30971699947797],[106.54953294341422,15.309717039641654],[106.54899788537048,15.309449497823095],[106.54872590628767,15.309177435709188],[106.54872590628767,15.308370400837106],[106.54845833315389,15.307830867925418],[106.5481863547628,15.307563300927],[106.54791878231165,15.307563315246213],[106.54764680460337,15.308370350944656],[106.54791878231165,15.309177472566901],[106.54791878231165,15.310528567024193],[106.54764680460337,15.312414747651701],[106.54737923282622,15.312682344860448],[106.54711166139018,15.312949856234923],[106.54522545410069,15.314300994404363],[106.54441393785717,15.3143010197726],[106.54387439725579,15.314028958116822],[106.54360683021255,15.31376147467094],[106.54333485801098,15.313489395991795],[106.54333485801098,15.313221898271735],[106.54360683021255,15.313221897148807],[106.54360683021255,15.311335681253425],[106.54306729165054,15.310528541098805],[106.54279972563151,15.31025656204308],[106.5417206539689,15.310256571592149],[106.54144859427109,15.309989079163145],[106.54118103028227,15.309717009862453],[106.54118103028227,15.309177440766561],[106.54091355652926,15.308637958322251],[106.54064149786475,15.308370378325336],[106.53929487552634,15.30729132054185],[106.53875534789657,15.307291309348855],[106.53848778729437,15.3078307915776],[106.53848778729437,15.308102867597455],[106.53929487552634,15.308909939893198],[106.54010196682148,15.309177436077434],[106.5417206539689,15.311063638542848],[106.54226018911746,15.311063717462204],[106.54252775446278,15.311335700234778],[106.54252775446278,15.312414762545842],[106.54252775446278,15.312949843901237],[106.54252775446278,15.31402900356251],[106.54306729165054,15.314300984217397],[106.54360683021255,15.314568553236782],[106.54387439725579,15.314836037167794],[106.54414637014023,15.315375615291927],[106.54414637014023,15.315915198913359],[106.54387439725579,15.316726701709158],[106.54360683021255,15.316994309212603],[106.54252775446278,15.316994266084436],[106.5417206539689,15.317533808455394],[106.54144859427109,15.318073414939164],[106.54118103028227,15.318340938692529],[106.53983440452149,15.318340900900452],[106.53956243714364,15.318073392086063],[106.53875534789657,15.318073416942454],[106.53740864759348,15.318880486821826],[106.53525047452521,15.32022709223584],[106.53471095715437,15.321038646334344],[106.53444340164558,15.321845799954545],[106.53417584646914,15.322113331199887],[106.53336428247113,15.322113339365615],[106.53201761632195,15.321573813092627],[106.53175006419988,15.321306208535717],[106.53175006419988,15.319687590740543],[106.53175006419988,15.319148051475366],[106.53175006419988,15.318612926408079],[106.53121055571322,15.318073383111908],[106.53067095870674,15.318073377937566],[106.53039900305194,15.318340971067968],[106.52959185869358,15.318340962938123],[106.52824521646633,15.318073410716934],[106.52770562698774,15.317801378543791],[106.52743808030036,15.317533851799126],[106.52743808030036,15.316454776516395],[106.52689858278231,15.316187143213497],[106.52662654205719,15.316454736325795],[106.5263589967262,15.316726745816453],[106.5263589967262,15.31699426748581],[106.5263589967262,15.318073351042003],[106.52743808030036,15.318612934358256],[106.52797766909632,15.318880471056303],[106.52878480731053,15.31888048462092],[106.52959185869358,15.319148023223391],[106.53067095870674,15.319687579410399],[106.53093850947246,15.319959595422958],[106.53093850947246,15.320766659535039],[106.53067095870674,15.321306206891691],[106.53039900305194,15.321306197441473],[106.53039900305194,15.321573808924413],[106.53067095870674,15.321845753026665],[106.53121055571322,15.322113361608004],[106.53201761632195,15.32211335722404],[106.53255721675109,15.322385369993782],[106.53309672865132,15.322924911655079],[106.53336428247113,15.323731973988671],[106.53336428247113,15.324271522503949],[106.53309672865132,15.324539059947796],[106.53282467998505,15.324811088527639],[106.53201761632195,15.324811105164457],[106.52770562698774,15.325078673222663],[106.52770562698774,15.325350617316033],[106.52932430963457,15.325618147204949],[106.53116848693398,15.325618176680564],[106.53201761632195,15.325618190252385],[106.53228966395514,15.325885716008855],[106.53228966395514,15.326697301961616],[106.53175006419988,15.327236880489778],[106.53147810716158,15.327504412849066],[106.53093850947246,15.327504342277436],[106.53067095870674,15.327771887581477],[106.53013145296896,15.32831146391753],[106.52905235569554,15.329662580940592],[106.52851276416882,15.330737257380079],[106.52797766909632,15.331276774391497],[106.52770562698774,15.331548819599192],[106.52716612878677,15.331548826192858],[106.52689858278231,15.331009248275663],[106.5263589967262,15.331009258121028],[106.52474033670799,15.331548776300593],[106.523393725266,15.332083880517786],[106.523393725266,15.333162991948754],[106.52312618401365,15.333434959874538],[106.52231466226331,15.333974560231823],[106.52070043813492,15.33424212563996],[106.51935376245459,15.334242121579564],[106.51854225514924,15.334242102795926],[106.51827463012879,15.334242108760662],[106.51800269036548,15.334509654594513],[106.51800269036548,15.33558871901677],[106.517735155922,15.335860778013611],[106.51692805976703,15.336395811263941],[106.51611647185584,15.336395795417857],[106.51584893979302,15.336128314541128],[106.51530938187207,15.335860737203149],[106.51369071635625,15.33639582464896],[106.51315565869876,15.33666779192788],[106.5128836356163,15.336935349017608],[106.5128836356163,15.337207415749063],[106.50965075887169,15.337207380454274],[106.50884369354688,15.337474915364766],[106.50749259866754,15.338014484954755],[106.50722498761573,15.338286466867032],[106.50722498761573,15.339633182765212],[106.50695297216024,15.340979807052847],[106.50668545168568,15.341519373669385],[106.50641793155253,15.341786860915079],[106.50479924419867,15.342058863174458],[106.50425971446683,15.342326418611464],[106.50264104364183,15.34313350248648],[106.50129439305138,15.343133505540749],[106.5004873596528,15.342865941524835],[106.50021975747657,15.342598423915874],[106.49994775104895,15.342326395389946],[106.49940823370511,15.341786840352682],[106.49860111763442,15.340979762469402],[106.4975220013346,15.340172648464886],[106.49725449281672,15.339633116442442],[106.49725449281672,15.338286520119283],[106.4975220013346,15.338014462406832],[106.49806160374007,15.337474932244064],[106.49860111763442,15.337207407107357],[106.5004873596528,15.336667841541711],[106.50129439305138,15.336395841618142],[106.50183400509579,15.336128307641928],[106.50210601395762,15.335860757541099],[106.50210601395762,15.335588767912057],[106.50237352862919,15.335321212861317],[106.50345257983693,15.335049155211934],[106.50479924419867,15.335049179466395],[106.50560638396686,15.334781663240875],[106.50641793155253,15.333702535999706],[106.50668545168568,15.333434984335597],[106.50776461481465,15.332623449793445],[106.50803213665463,15.332355900527858],[106.50803213665463,15.331816356872238],[106.50776461481465,15.331548771764034],[106.50749259866754,15.331548745946463],[106.50722498761573,15.331276756003007],[106.50722498761573,15.329662633015914],[106.50722498761573,15.32912301020086],[106.50749259866754,15.328043959882251],[106.50776461481465,15.32750437327823],[106.50803213665463,15.327236838008389],[106.50830415349364,15.32696481290506],[106.50884369354688,15.326697308348685],[106.50965075887169,15.326697295206301],[106.50991828310131,15.326425264649998],[106.51019030236577,15.325618219555253],[106.51019030236577,15.32535066625627],[106.50991828310131,15.32561819095288],[106.50911121675236,15.325885756702533],[106.50830415349364,15.32588576484126],[106.50695297216024,15.32588571108613],[106.50668545168568,15.325618213303002],[106.50668545168568,15.324811046809899],[106.50641793155253,15.324271496749262],[106.50614591713904,15.32373202700714],[106.50587839768869,15.32345994529176],[106.50560638396686,15.323459994375796],[106.50560638396686,15.323731959651425],[106.50587839768869,15.324458401219388],[106.50614591713904,15.325350680458683],[106.50614591713904,15.326964853454925],[106.50614591713904,15.327236824093745],[106.50614591713904,15.327771946043597],[106.50587839768869,15.32804389237404],[106.50560638396686,15.328851046173739],[106.50533877530475,15.330197674216507],[106.50533877530475,15.330469651206243],[106.50506685217792,15.331276813971215],[106.50453172644595,15.33208389219591],[106.50425971446683,15.332355843475895],[106.50372018610963,15.33262344737689],[106.50129439305138,15.332623461345804],[106.50102687974558,15.332355858675385],[106.5004873596528,15.332083895672511],[106.49940823370511,15.332083854898016],[106.49914063290313,15.332623394035025],[106.49886862786812,15.332895431059043],[106.49806160374007,15.332895416245833],[106.4975220013346,15.331816303593357],[106.49725449281672,15.33127679075885],[106.49698249020693,15.33073727166314],[106.49671489247729,15.33073724216247],[106.49671489247729,15.331276806479437],[106.49671489247729,15.332083864554733],[106.49671489247729,15.333163004049212],[106.49536827970596,15.335049139653094],[106.49509627953077,15.335321181851455],[106.49374958720446,15.335321180458976],[106.493210085725,15.335049189329794],[106.49294249278333,15.334781657967753],[106.49294249278333,15.334509660262952],[106.49267049573436,15.33450961547291],[106.4924029933699,15.33478166162385],[106.4924029933699,15.335049163099043],[106.49267049573436,15.335321200060449],[106.49348208346586,15.336128319553652],[106.49348208346586,15.336935412384975],[106.493210085725,15.33720737254923],[106.49294249278333,15.337207430858854],[106.4924029933699,15.337474945233765],[106.4924029933699,15.337746948544037],[106.49267049573436,15.338014489841427],[106.49348208346586,15.338554021091412],[106.49374958720446,15.340707782084081],[106.49401718117039,15.342326448606045],[106.4942891799532,15.343673042494885],[106.49455668471634,15.344752208723179],[106.49455668471634,15.34529173824815],[106.49348208346586,15.346370880868662],[106.49267049573436,15.346370799301454],[106.49267049573436,15.346098868170955],[106.4924029933699,15.345831322013368],[106.49186340545421,15.345559250475986],[106.49105631825537,15.345291731573582],[106.48997724058316,15.345019759246156],[106.48943765887489,15.34501969634617],[106.48943765887489,15.345559324236802],[106.49024473986643,15.345831262769565],[106.49159590410468,15.346370866270817],[106.49213099702146,15.346638348046042],[106.4924029933699,15.346905901740257],[106.49294249278333,15.347445498800624],[106.493210085725,15.347717448894713],[106.493210085725,15.349871218017228],[106.49294249278333,15.350410753471238],[106.49267049573436,15.351757448240804],[106.4924029933699,15.353643638686947],[106.4924029933699,15.354183202644464],[106.49294249278333,15.354183157396292],[106.49348208346586,15.353915658086038],[106.49455668471634,15.353643605898412],[106.49536827970596,15.353915596542464],[106.4959077867014,15.35418315912105],[106.49644289056826,15.354722734127947],[106.49644289056826,15.35552982428203],[106.4961753834069,15.356069375744127],[106.49732245015903,15.356341389146948],[106.49860111763442,15.356608935758032],[106.49886862786812,15.356608941758651],[106.5004873596528,15.356341358617584],[106.50075487227608,15.356069422896539],[106.50102687974558,15.35472271856004],[106.50102687974558,15.353643625831978]]]]},"properties":{"id":"39224"}}]}