{"type":"FeatureCollection","features":[{"type":"Feature","geometry":{"type":"MultiPolygon","coordinates":[[[[107.34686952200022,15.506518341000117],[107.3469025960002,15.504897900000074],[107.34612749900012,15.504372500000116],[107.34387750100021,15.50405839700015],[107.3442234730002,15.502030721000068],[107.34636974300017,15.50150750000003],[107.34638265200024,15.500875000000107],[107.34635248200007,15.499396652000001],[107.34720139700025,15.497748762000072],[107.34546016300024,15.496607159000206],[107.34487749900015,15.493622498999997],[107.34437249900012,15.492877501000166],[107.34403972400023,15.491172871000174],[107.3410253770002,15.490804535000066],[107.34033350600023,15.488783186000063],[107.34038520400017,15.486250000000169],[107.34035311700009,15.484677757000114],[107.34086278900017,15.483627211000226],[107.34289320800028,15.482642159000264],[107.34284934600029,15.480492985000254],[107.34320520800023,15.47903323400017],[107.3438564210002,15.4784075580001],[107.34420249900026,15.473809643000067],[107.34533750200026,15.472628315000208],[107.34650000000019,15.472604591000021],[107.34787229500014,15.472632599000207],[107.34787759800011,15.47237264600028],[107.34737171200018,15.471626339000082],[107.34774030300022,15.469826763000043],[107.34687812400031,15.468153126000203],[107.3468637350002,15.467448009000222],[107.3471225010002,15.466122501000243],[107.34774022700023,15.46521120100006],[107.34662790700011,15.464142502000016],[107.34661734800014,15.463625000000008],[107.34663773700012,15.462625824000028],[107.34470918300028,15.462000000000202],[107.34630489700001,15.460466862000175],[107.3456221120002,15.45914145700003],[107.34563770300016,15.458377499000235],[107.34428593400034,15.459020321000125],[107.34338750100014,15.460872192000139],[107.34311298000009,15.460877796000247],[107.34238250000013,15.460117500000052],[107.34120416600032,15.459545833999996],[107.34064230000027,15.458387699000184],[107.33925300000001,15.45767200100012],[107.33741613600014,15.456947498000218],[107.33662750100021,15.455416618000115],[107.3373198530002,15.45290719600014],[107.33812000100025,15.452494999000237],[107.34011461600008,15.452008751000236],[107.34015597300012,15.449982338000169],[107.33862249900025,15.449377502000132],[107.33810825700024,15.449112587000144],[107.33716573700022,15.449131821000137],[107.33463038300025,15.448513748000067],[107.33461479600012,15.447750000000113],[107.33465583600022,15.44573902100008],[107.33330043000015,15.444820259000181],[107.33137780600023,15.44388749700019],[107.33135883700007,15.442958061000198],[107.33430593300014,15.442001717000124],[107.33482197000004,15.441000000000102],[107.33362750100005,15.4386813200001],[107.3345558510002,15.43716441300009],[107.33559808700002,15.436627501999993],[107.33726705900008,15.436894859000262],[107.33785770000028,15.438112297000004],[107.33884882200024,15.43862287900015],[107.34012750100024,15.438872498000109],[107.34123393600012,15.439622498000176],[107.34187750100008,15.438877501999997],[107.34230600500021,15.437994255000007],[107.34469065700003,15.437178032000062],[107.34535789100019,15.437872498000246],[107.34612749900012,15.437377502000231],[107.34684750000017,15.436628113000125],[107.34808920300017,15.436602768000071],[107.34931343800028,15.437233437000117],[107.34862812400016,15.435903122000099],[107.34860210400021,15.434628021000194],[107.34889145700018,15.434622116000156],[107.34987678500008,15.435129707000229],[107.35019665100018,15.434143990000209],[107.35262201300029,15.433847618000286],[107.35112831500007,15.432412498000119],[107.35112240200013,15.432122742000118],[107.35180500000021,15.430439903000064],[107.35137749900028,15.429122498000211],[107.35103756000004,15.428129333000285],[107.35161778300025,15.428117493000201],[107.35260100200034,15.428624001000088],[107.35413912200013,15.428874390000118],[107.3548578910002,15.4296224980002],[107.35487758300022,15.429376488000088],[107.35487244800024,15.42912500000024],[107.3548775520002,15.42887500000026],[107.35486261400033,15.428142998000169],[107.35533250000023,15.427653931000208],[107.35824264500022,15.427594536000086],[107.35838460900024,15.427887154000231],[107.35806253600006,15.428375171000113],[107.35782319200021,15.429123120000185],[107.35782319200021,15.429781316000188],[107.35818220800027,15.429512054000114],[107.35851130600022,15.428674351000268],[107.35912914200011,15.428119080000243],[107.35959808700025,15.427877502000229],[107.36012749900019,15.428122498000079],[107.36101603300008,15.428724792000168],[107.36137749900033,15.428377502000032],[107.36162250100008,15.428122498000079],[107.36269982100012,15.427687058000103],[107.36272973900023,15.42439608100004],[107.36275965700011,15.422271906000233],[107.3618964670001,15.422932768000294],[107.36092884100023,15.422551117000154],[107.36048581300034,15.421185875000262],[107.35957671000008,15.420717545000144],[107.35913958300014,15.420476828000034],[107.35896079000022,15.421184903000182],[107.35837082300017,15.421632568000092],[107.35782364600007,15.421621400000234],[107.35746417700003,15.421224777000276],[107.35692565300039,15.421015351000179],[107.35734666800025,15.421611664000224],[107.35735771900019,15.422153185000084],[107.35704532500009,15.422541167000219],[107.35704532500009,15.42275059300023],[107.35738273000018,15.423378701000061],[107.35739279900022,15.423872086000287],[107.35688992300018,15.42388234700016],[107.35562250100011,15.422877502000063],[107.35496686900015,15.4218775020001],[107.3544675100002,15.422232765000189],[107.35384410300034,15.422451413000076],[107.35366459500014,15.422601003000281],[107.3539936930002,15.42284034700019],[107.35417871400003,15.423417426000157],[107.35406435800027,15.423886520000238],[107.35351647400014,15.423875338000201],[107.3527670560002,15.423498542000203],[107.35252771200012,15.423408788000145],[107.35222853200034,15.423558378000095],[107.35195927100025,15.423618214000072],[107.35175500100016,15.424504997000255],[107.35137250100004,15.424872498000113],[107.35103181400027,15.424276409000257],[107.35109165000014,15.425054277000143],[107.35051003400017,15.425688665000052],[107.3502473980001,15.4263902510001],[107.34886722600012,15.426362083000257],[107.34912863500026,15.427125824000214],[107.34853120400012,15.428007187000219],[107.34830927900006,15.428345253000117],[107.34884780200028,15.429033366000127],[107.34947607900014,15.429841151000076],[107.34941624300009,15.430319839000077],[107.34888887100013,15.431424085000131],[107.34739749900004,15.431715233000062],[107.34562250100018,15.43312249800006],[107.34514250200024,15.434601685000146],[107.34416171600006,15.435622498000242],[107.34237249900016,15.435127502000228],[107.34094693600028,15.434393120000038],[107.34046750100012,15.435870560000069],[107.33988684800013,15.435882408000253],[107.33831131900016,15.435343140000128],[107.3359081880001,15.435392181000182],[107.3353724990001,15.434877502000148],[107.33512750100007,15.43462249800028],[107.33409465000014,15.433945335000203],[107.33423334200026,15.431092638000251],[107.33479841600004,15.430609262000132],[107.33510211000012,15.430531326000079],[107.33474430300018,15.429341286000195],[107.33445726000033,15.428764105000226],[107.33376914700014,15.427687058000103],[107.33329045900021,15.426729683000204],[107.33278185400016,15.426161241000074],[107.33230316600023,15.425263702000152],[107.33179456100007,15.424725179000092],[107.33089702200036,15.424455917000017],[107.33008923700012,15.424425999000206],[107.32946095900016,15.424126820000055],[107.32862325600033,15.424186656000202],[107.32847366600012,15.42478501500024],[107.32838391200008,15.425293620000133],[107.32811465100016,15.424994440999981],[107.32772571700005,15.42478501500024],[107.32730686600021,15.424725179000092],[107.32718719400023,15.42478501500024],[107.32679826000006,15.4246653430002],[107.32640932700028,15.424695261000096],[107.32611014700032,15.42496452300017],[107.32584088500008,15.425233784000255],[107.32602039300016,15.42550304600033],[107.32625973700019,15.42538337400019],[107.32652899800016,15.424934605000004],[107.32688801400022,15.424934605000004],[107.32718719400023,15.42538337400019],[107.32760604500018,15.425682554000161],[107.32853350200017,15.426131323000078],[107.32892243600023,15.426101406],[107.32928145100024,15.425443210000168],[107.32931136900007,15.424874769000027],[107.32964046700002,15.4246653430002],[107.33020890800006,15.424874769000027],[107.33050808800024,15.424904687000193],[107.33110644700028,15.424755097000258],[107.33158513500032,15.424874769000027],[107.33185439700006,15.425413292000087],[107.33191423300005,15.42607148800019],[107.33212365800014,15.426789519000181],[107.33248267400009,15.427148534000139],[107.33317078700017,15.427417796000029],[107.33338021300008,15.427776812000076],[107.33344004900007,15.42843500700026],[107.33361955700028,15.429003448000131],[107.33391873600024,15.429601808000172],[107.33425000000014,15.430319839000077],[107.33367939300015,15.43079852600016],[107.33349988500007,15.431157542000022],[107.33362069500012,15.43215541800025],[107.33302119700014,15.432623521999986],[107.33275193600034,15.432862866000079],[107.33254251000008,15.43358089700007],[107.33299127900025,15.434448518000266],[107.33412485500017,15.435110156000036],[107.33462249900023,15.435588287000073],[107.33409358000026,15.435897316000236],[107.33270476900017,15.435868973000026],[107.33231625000028,15.437066254000229],[107.33044762400019,15.43767262300004],[107.3297358780002,15.439752037000147],[107.33212042400007,15.440525833000038],[107.33213258200018,15.441121468000205],[107.32929060700022,15.441411934000087],[107.32787437200025,15.44112185700024],[107.32692822800024,15.44144570900012],[107.32629307500028,15.440784630000053],[107.32561764700014,15.441132576000058],[107.32415191200019,15.440377502000118],[107.32437458300004,15.441639305000152],[107.3248775000001,15.442122498000074],[107.32512250000033,15.442377502000042],[107.32562250000004,15.442857895000088],[107.32537750000026,15.443627502000083],[107.32509468200013,15.443899231000188],[107.32437750000022,15.445377502000198],[107.32362811200014,15.446097503999994],[107.32361245400014,15.44686474600023],[107.32412250000019,15.447127502000129],[107.32512219400027,15.447612503000286],[107.32513769800013,15.448372192000079],[107.32487500000016,15.448377548000167],[107.32381163900013,15.448355850000155],[107.3228775000002,15.449733932000228],[107.32322276000005,15.4502885590002],[107.32329785800025,15.450634139000186],[107.32349819100031,15.451555885000161],[107.3243180330002,15.451978230000194],[107.32465704300009,15.451320152000108],[107.32461897500005,15.449454773000213],[107.32612250000025,15.448966873000344],[107.32587750000008,15.447372498000234],[107.32562250000004,15.447127502000129],[107.32537750000026,15.446872498000161],[107.32487790800033,15.446392502000066],[107.32487240100014,15.446122643000024],[107.32537750000026,15.445377502000198],[107.32610522300016,15.443877502000163],[107.32720503800013,15.44422641000007],[107.3278775000002,15.444872498000066],[107.32824500000018,15.445254997000276],[107.3293775010001,15.44562249800012],[107.3304283260002,15.446334800999992],[107.33134808700007,15.445377502000198],[107.33311578000016,15.445798210000092],[107.33314030600033,15.44700000000006],[107.33311261200006,15.448357002000066],[107.33386249900022,15.44913749700008],[107.33462750100026,15.449872498000047],[107.335064528,15.450327362000024],[107.33837226100033,15.45086583700018],[107.3383803520002,15.451262253000024],[107.33661750000019,15.45211750000017],[107.33563701999995,15.453138000000052],[107.33487500000032,15.453122448000286],[107.33462259700022,15.45312760200008],[107.33414210700025,15.452627499000187],[107.33373610100026,15.452996449000153],[107.3343764420002,15.453611679000076],[107.33467361100017,15.45665008500012],[107.33619659000018,15.458235226000184],[107.33737917900012,15.459132568000186],[107.34011600900018,15.45907671400009],[107.34045481900014,15.461727409000119],[107.34012029300007,15.462376785000018],[107.34131458500022,15.46276433600029],[107.34037750100023,15.464583382000072],[107.34087482300018,15.464878880000185],[107.34233338200013,15.4641274990001],[107.34361845000015,15.46442903900001],[107.34363010200016,15.465000000000174],[107.34361479600031,15.465750000000142],[107.34363265200008,15.466625000000164],[107.34359218000029,15.468608173000106],[107.34437209100028,15.469357498000207],[107.34441216300021,15.471321014000225],[107.34387750100021,15.471877499000072],[107.34269347600016,15.472653782000265],[107.34237750100024,15.473627499000187],[107.34212249900011,15.47437250100019],[107.34187750100008,15.475877499000191],[107.34162249900001,15.47612250100012],[107.34137750100027,15.477627499000121],[107.34111277400015,15.478400917000258],[107.34118000600009,15.48169529000026],[107.34087750100005,15.482627499000202],[107.33993588400008,15.484016615000115],[107.33980827000019,15.490269831000063],[107.34111139100011,15.491626143000104],[107.34359612500018,15.491929764000275],[107.34392263600003,15.493935472000047],[107.34461688800016,15.494602501000173],[107.34464761500013,15.496108173000223],[107.34387811300022,15.4968475000002],[107.34385801300019,15.497832335000155],[107.34424500100013,15.498629999000244],[107.34512250100019,15.50033338300014],[107.34451763200033,15.501059516000097],[107.34337780600006,15.501612500000192],[107.34332264500009,15.504315406000018],[107.34409750000017,15.505121888000218],[107.34437721800006,15.505127596000165],[107.34583828400017,15.504627500000169],[107.34597636000021,15.50637038000005],[107.34550000000033,15.506380102000136],[107.34387750100021,15.506346990000239],[107.34527319000014,15.506872500000199],[107.34686952200022,15.506518341000117]]]]},"properties":{"id":"6962"}}]}