{"type":"FeatureCollection","features":[{"type":"Feature","geometry":{"type":"MultiPolygon","coordinates":[[[[75.32392547607444,25.38044379340299],[75.32375000000022,25.37986111111124],[75.32220062255865,25.380830078125058],[75.3234468926324,25.38233669704873],[75.32321963840084,25.38516493055559],[75.3267007785374,25.387657877604198],[75.32914103190112,25.386569010416764],[75.32921936035157,25.385594075520928],[75.32688178168408,25.385237630208465],[75.3260730319553,25.383425564236248],[75.32526743570966,25.38306586371533],[75.32501034206817,25.381378580729205],[75.32392547607444,25.38044379340299]]]]},"properties":{"id":"19006"}}]}