{"type":"FeatureCollection","features":[{"type":"Feature","geometry":{"type":"MultiPolygon","coordinates":[[[[82.66241563585075,27.621406792535268],[82.66307861328133,27.621353624132524],[82.6641937934028,27.62197564019162],[82.66525092230901,27.62189073350754],[82.66802490234383,27.624638129341037],[82.66929904513873,27.626934136285342],[82.66959798177075,27.626440700955413],[82.66847629123268,27.623777669271362],[82.66900960286452,27.621829427083952],[82.6680452473959,27.621399197049158],[82.66598524305553,27.619592556424237],[82.66373453776052,27.61908121744854],[82.66302029079858,27.617800835503985],[82.66312255859376,27.616527777778344],[82.66133734809026,27.61573106553878],[82.65912841796879,27.613455132379073],[82.65736111111104,27.612361111111724],[82.65486436631923,27.6128165690112],[82.65413113064253,27.615252007379155],[82.6521039496528,27.61738172743111],[82.64950385199668,27.618164605035375],[82.64889919704845,27.62037353515686],[82.65121880425332,27.621122775608313],[82.65255995008684,27.621871202257495],[82.65373887803835,27.621965874566513],[82.65501030815997,27.62167697482691],[82.65623372395842,27.620718858507473],[82.65700168185757,27.6213804796013],[82.65797553168395,27.62275390625051],[82.65801432291667,27.62565049913259],[82.66025309244802,27.627052408854766],[82.66024631076411,27.628307562934737],[82.66180094401025,27.628878580729733],[82.66360080295144,27.628512641059615],[82.66302435980893,27.627195095486613],[82.66278808593736,27.622767469618722],[82.66241563585075,27.621406792535268]]]]},"properties":{"id":"9409"}}]}