{"type":"FeatureCollection","features":[{"type":"Feature","geometry":{"type":"MultiPolygon","coordinates":[[[[79.55407063802144,25.19099175347222],[79.55499511718804,25.189994032118236],[79.55689941406294,25.19006998697931],[79.55749457465342,25.18894476996543],[79.55721299913259,25.188293728298632],[79.55636691623326,25.18751030815983],[79.55688042534771,25.187034505208473],[79.55698269314271,25.184451497395855],[79.55498833550413,25.184877387152824],[79.55502766927142,25.183884006076582],[79.55443413628544,25.183333875868087],[79.5569178602436,25.180282118055587],[79.55601671006983,25.179309353298578],[79.55426757812555,25.18051323784742],[79.55251464843795,25.180582682291842],[79.55185248480959,25.17986762152782],[79.55123996310803,25.181165907118228],[79.54980550130242,25.1819243706598],[79.54854573567744,25.18197482638891],[79.54695448133734,25.18094672309033],[79.54691758897624,25.180017361111226],[79.54860460069474,25.18002712673615],[79.54863579644146,25.179235568576516],[79.54808213975738,25.17806206597227],[79.54699788411514,25.17801920572927],[79.54583658854202,25.17863389756954],[79.54414279513944,25.17803982204859],[79.54333957248312,25.17807183159728],[79.54331732855943,25.17751464843758],[79.54388102213571,25.176449652777833],[79.54390462239613,25.17584960937505],[79.54283854166718,25.17528591579861],[79.54194986979203,25.175294053819627],[79.54247450086868,25.174705946180765],[79.54360161675382,25.175100911458316],[79.543669976129,25.17337239583337],[79.5430609809031,25.17305013020834],[79.54095513237903,25.172714843750015],[79.54054985894132,25.171948784722332],[79.54057183159776,25.171393771701375],[79.53984592013924,25.170212131076468],[79.53727566189295,25.17031412760423],[79.53553955078164,25.16946017795145],[79.5351388888894,25.169027777777828],[79.53443901909762,25.169161241319472],[79.53408284505244,25.16991644965286],[79.53222764756984,25.17079210069467],[79.5331939019101,25.172745768229163],[79.53255832248297,25.174092881944674],[79.52918267144136,25.176293945312608],[79.52889431423657,25.177505425347377],[79.52667995876791,25.17825249565975],[79.52664198133718,25.177291124132026],[79.5269390190978,25.17666124131945],[79.52805013020892,25.1756320529515],[79.52703694661491,25.17548014322928],[79.52528320312555,25.177105034722373],[79.52558105468782,25.178171115451406],[79.52697129991353,25.17945909288207],[79.52689507378525,25.181381293402865],[79.53157307942749,25.18150065104183],[79.53199462890663,25.181046006944626],[79.53307210286513,25.181387261284783],[79.53303982204906,25.18220269097229],[79.53427191840316,25.183050130208414],[79.53534423828168,25.182766927083463],[79.53688856336859,25.18194986979168],[79.53862847222283,25.182758789062532],[79.53860541449686,25.183338216145913],[79.53973036024345,25.18527777777784],[79.53929551866364,25.186099717882],[79.54023328993114,25.186136610243167],[79.54168674045181,25.185539822048653],[79.54333007812536,25.185528428819538],[79.54471679687535,25.189172092014076],[79.54573432074707,25.190498589409742],[79.54636583116357,25.192493489583413],[79.55164388020867,25.192702907986117],[79.55407063802144,25.19099175347222]]]]},"properties":{"id":"4931"}}]}