{"type":"FeatureCollection","features":[{"type":"Feature","geometry":{"type":"MultiPolygon","coordinates":[[[[76.78973063151076,26.328221028646027],[76.79054768880238,26.32594373914941],[76.78999674479192,26.325823025173875],[76.78925469292543,26.32622612847244],[76.78863376193593,26.325531141493187],[76.78760620117211,26.32608968098971],[76.78709811740478,26.32498263888914],[76.78665988498292,26.32500868055574],[76.78473008897603,26.323325466580158],[76.78375000000008,26.32291666666687],[76.78278564453157,26.323214518229392],[76.78344835069473,26.324236924913322],[76.78624240451418,26.32641628689248],[76.78733045789963,26.32812689887166],[76.78866061740464,26.329549424913324],[76.78971435546893,26.3302856445314],[76.7924868435334,26.33091417100715],[76.79253350151956,26.330131564670353],[76.79165879991339,26.329730088975964],[76.79071384006099,26.32867241753496],[76.78973063151076,26.328221028646027]]]]},"properties":{"id":"18800"}}]}