{"type":"FeatureCollection","features":[{"type":"Feature","geometry":{"type":"MultiPolygon","coordinates":[[[[103.86183783636844,16.719510091146248],[103.86257459852143,16.718851725260706],[103.86514485676801,16.71954020182322],[103.86568657768814,16.720146755642574],[103.86746961805258,16.720832248264088],[103.86818657768814,16.720306260850904],[103.8674061414903,16.718131239149756],[103.8655908203095,16.71650906033014],[103.86651991102141,16.71318657769116],[103.8675192599799,16.711756184896288],[103.86790879991011,16.710233561198237],[103.86624213324373,16.708202311198292],[103.86598008897263,16.707498643663385],[103.86757785372978,16.706071234809343],[103.8670298936602,16.70506266276071],[103.86709608289644,16.703953993055862],[103.86958957247961,16.704102647569727],[103.87114312065691,16.705187717014326],[103.87226372612551,16.704785698785045],[103.87050889756685,16.70264702691007],[103.86880343966712,16.701864420573173],[103.86838867187217,16.699641655816393],[103.86352322048302,16.700288628472634],[103.86130967881647,16.699494357639182],[103.86098008897287,16.6958913845489],[103.86158121744492,16.69478488498298],[103.86151638454558,16.69369927300373],[103.85744791666363,16.692752549913493],[103.85722222221935,16.69250000000025],[103.85499674478874,16.693277180989853],[103.854591200084,16.694591200087117],[103.85312038845186,16.696319986979603],[103.85046549478872,16.69627197265669],[103.8493212890597,16.69807128906278],[103.84679768879923,16.698464355469042],[103.84621066622972,16.698783365885703],[103.84626166449371,16.699640570746936],[103.84893147786156,16.69948133680579],[103.85158013237563,16.698315700955106],[103.85364122178535,16.700622558593977],[103.854297688799,16.7025490993926],[103.85345974392064,16.703748914930813],[103.85388373480609,16.704529622396066],[103.85556694878173,16.703353949653078],[103.85545735676786,16.699037543403136],[103.85668782551781,16.697646755642623],[103.85718017577844,16.69976345486137],[103.85700005425045,16.702785644531545],[103.8575786675319,16.70385036892384],[103.85792588975406,16.707551269531592],[103.86055962456297,16.71214192708372],[103.86002197265341,16.714149576823246],[103.86016655815686,16.716576877170453],[103.85870795355598,16.71788031684052],[103.85991156683727,16.719433322482914],[103.85980767143795,16.721173773871882],[103.86028157551786,16.722046169705237],[103.86183783636844,16.719510091146248]],[[103.86117513020534,16.70240261501766],[103.86333333333036,16.70222222222256],[103.86466525607355,16.70297851562539],[103.86512858072618,16.704688313802293],[103.86444878471931,16.70590684678845],[103.86142279730606,16.706239691840693],[103.8603645833305,16.705649142795465],[103.86047146267052,16.704318847656538],[103.86117513020534,16.70240261501766]]]]},"properties":{"id":"10242"}}]}