{"type":"FeatureCollection","features":[{"type":"Feature","geometry":{"type":"MultiPolygon","coordinates":[[[[83.26812608506933,23.124906819661618],[83.26804009331599,23.123834364149488],[83.26695339626755,23.123921712239763],[83.26657036675348,23.123477105034937],[83.26703531901038,23.122643500434123],[83.26977674696187,23.12222574869807],[83.27026746961806,23.121656358507067],[83.27389702690968,23.1200118001303],[83.27479871961796,23.119372422960254],[83.27613796657985,23.11948011610265],[83.27687174479163,23.11862860785608],[83.28056586371528,23.116954752604343],[83.28186252170141,23.11603542751753],[83.28276746961805,23.116676974826575],[83.28503228081601,23.11693074544293],[83.28497829861132,23.11625840928835],[83.282982042101,23.115498453776226],[83.28312038845482,23.11377522786475],[83.2840500217014,23.11297444661473],[83.2860780164934,23.114105767144437],[83.28663981119806,23.114757893880338],[83.28738009982632,23.114698350694667],[83.28636284722236,23.112875162760616],[83.28553602430574,23.112506239149496],[83.2858468967016,23.111949055989797],[83.28572835286471,23.11139919704884],[83.28302110460075,23.112690294054048],[83.28115234374994,23.111365017361308],[83.28350124782972,23.108316107855998],[83.28616753472224,23.106120062934266],[83.2859830729166,23.10382432725706],[83.28541666666669,23.102916666666815],[83.28496446397585,23.103306342231164],[83.2849688042534,23.104972737630348],[83.28534016927088,23.105638699001915],[83.28386203342038,23.105519883897756],[83.28179036458326,23.10761366102446],[83.280558810764,23.108163113064407],[83.27997395833344,23.106852484809323],[83.28005126953113,23.10588812934043],[83.27967285156242,23.10528808593773],[83.27912163628466,23.10652316623292],[83.27928493923608,23.108553873698042],[83.27789143880219,23.10942654079875],[83.2752799479168,23.108318413628638],[83.27276746961812,23.10887858072934],[83.2725103081597,23.109119737413394],[83.27398274739576,23.110042046441293],[83.2748703342015,23.111072319878616],[83.27470187717026,23.113169216579962],[83.2712272135415,23.114719645182433],[83.26900987413208,23.114989691840535],[83.26862141927083,23.114229465060973],[83.27043592664924,23.11175306532138],[83.26859564887158,23.11133490668425],[83.26705295138905,23.110126681857835],[83.26776855468742,23.109510226779648],[83.26804524739592,23.108730468750224],[83.26745062934023,23.107788085937628],[83.26612141927072,23.11028808593771],[83.26431667751748,23.112345920139063],[83.26334364149298,23.113899197048738],[83.26188639322905,23.114945610894182],[83.26232720269107,23.115545247396057],[83.26348551432304,23.114898952908078],[83.26415635850705,23.123343641493207],[83.26449924045139,23.12395806206611],[83.26564751519086,23.124470486111264],[83.26633138020847,23.124415554470602],[83.26812608506933,23.124906819661618]],[[83.26665283203138,23.115830620659835],[83.26609212239586,23.114674750434247],[83.26612114800358,23.113257785373406],[83.26763888888908,23.11208333333353],[83.26832682291675,23.113217773437697],[83.26749728732639,23.114441731770953],[83.26721544053808,23.115310329861387],[83.26665283203138,23.115830620659835]]]]},"properties":{"id":"9699"}}]}