{"type":"FeatureCollection","features":[{"type":"Feature","geometry":{"type":"MultiPolygon","coordinates":[[[[78.8052305772571,23.640997450087184],[78.80562255859374,23.640067003038624],[78.8065871853299,23.63966050889806],[78.80745361328124,23.639768202040372],[78.8079245334201,23.641415879991698],[78.80868299696195,23.641929117839027],[78.80963216145867,23.640000000000484],[78.8091512044272,23.63918199327297],[78.80890435112869,23.637762451172392],[78.80813937717008,23.636461181641067],[78.80920735677088,23.635606011285205],[78.80902777777803,23.635138888889415],[78.8076497395833,23.635625949436246],[78.80664849175346,23.635501437717537],[78.80404296875017,23.6358683268233],[78.80362657335084,23.637793104384272],[78.80321343315964,23.638123914931143],[78.80103732638904,23.637457275390958],[78.79983045789956,23.63760742187536],[78.79934217664962,23.63931599934935],[78.79947211371544,23.640360785590687],[78.80036078559036,23.640250244141],[78.80022623697928,23.639169786241766],[78.80074462890641,23.638904215495216],[78.80145887586801,23.640355495877216],[78.80242187500019,23.64023573133734],[78.80384412977466,23.640641818576995],[78.80331217447937,23.642504611545576],[78.80359456380208,23.643040228950056],[78.8052305772571,23.640997450087184]]]]},"properties":{"id":"19613"}}]}