{"type":"FeatureCollection","features":[{"type":"Feature","geometry":{"type":"MultiPolygon","coordinates":[[[[100.54962750100012,22.550377500000153],[100.55101107200008,22.549903929000052],[100.55287750100032,22.549377500000276],[100.55367872600007,22.5488343870002],[100.55436750000004,22.548117500000117],[100.55537749900023,22.547627501000164],[100.55631855400028,22.546989605000235],[100.55662250100002,22.54512249900003],[100.55687749900008,22.5443775010002],[100.55712250100012,22.543622499000264],[100.55737749900035,22.542877501000262],[100.5577041660002,22.541870832000185],[100.55953675100031,22.538592628000018],[100.56100500100021,22.537629999000217],[100.5616085890002,22.536385864000223],[100.56187749900008,22.53612750100025],[100.562122501,22.535122499000224],[100.56237749900023,22.53437750100005],[100.56262930700021,22.53334458400029],[100.5631274990001,22.532377501000127],[100.56337250100003,22.531372501000106],[100.56437749900019,22.529127499000154],[100.56469861600019,22.527810272000238],[100.56810641100006,22.52413030600023],[100.56871931800023,22.523832954000227],[100.57012250100004,22.522372501000092],[100.57050500100016,22.522005001000053],[100.57095416600023,22.520620834000013],[100.57166561500011,22.519571274000214],[100.57231507100019,22.51894728500001],[100.57268728300008,22.517040648999995],[100.57388092000016,22.515893822000237],[100.57460192100021,22.51072908800012],[100.5756274990002,22.50937749900011],[100.57588140900006,22.508076862000223],[100.57647305300023,22.506348335000027],[100.5781450920002,22.504356541000163],[100.57874499900018,22.503119999000162],[100.57912749900024,22.50237749900002],[100.57937452300021,22.500103863000007],[100.57989749900017,22.499088676000127],[100.58061395600012,22.49840032200028],[100.58137250100017,22.497122498000152],[100.58218240700032,22.496055138000216],[100.58263428900003,22.49562097900018],[100.58212250100021,22.494627502000228],[100.58187749900023,22.49058338200028],[100.58322801600005,22.487961792000263],[100.58287241000019,22.485876968000156],[100.5828775520001,22.485625000000184],[100.5828724480003,22.48537500000019],[100.5828775520001,22.48512500000011],[100.58286647800034,22.484582497000076],[100.58187250100005,22.48362750200002],[100.58137749900024,22.482872498000077],[100.5811225010003,22.482627502000057],[100.58087749900025,22.48237249800009],[100.58062250100002,22.482127502000168],[100.57991182700013,22.48138781700007],[100.57862749900025,22.479122498000223],[100.57837250100002,22.478877502000103],[100.57805567900019,22.478547745000085],[100.5783112410002,22.47787750200014],[100.57896842700009,22.47816184200022],[100.57926484300023,22.478825283000234],[100.5799191940001,22.479152459000034],[100.58157481700019,22.47881640800003],[100.58297863800001,22.478673317000272],[100.58363656200018,22.479363434000163],[100.58395148800028,22.47974256100018],[100.58461343800016,22.479363434000163],[100.58644531200034,22.478825867000182],[100.58761343400008,22.47734989900019],[100.58724374400023,22.476149841000193],[100.58669260000008,22.476093666000253],[100.58626313000028,22.477557190000113],[100.58484580600023,22.478089752000116],[100.5839951400001,22.478176460000185],[100.58168478800016,22.477476578000008],[100.58088475800022,22.478439697000027],[100.58011836999995,22.478361580000055],[100.57958799100024,22.477975346000065],[100.57941220100017,22.477406067000217],[100.5784789050002,22.47689890300009],[100.57557733200022,22.47645753500025],[100.57446324500015,22.477452957000096],[100.57321293300024,22.480209816000027],[100.57279082500011,22.48202404000004],[100.57213203000035,22.482382034000167],[100.57161797000006,22.48261796600015],[100.57068828200013,22.484079758000135],[100.56968501300017,22.48462494700003],[100.56786797000021,22.484867966000152],[100.56619059000016,22.485166054000132],[100.56436797000018,22.48488203400025],[100.56363906100015,22.484485939000166],[100.56190112300007,22.483688278000074],[100.56181297300023,22.482209320000095],[100.56220889300013,22.481766205000113],[100.56336797000003,22.480867966000133],[100.56388203000009,22.480632034000237],[100.56461797000034,22.480117966000165],[100.56538906100022,22.479764061000182],[100.56652545900025,22.479146538000165],[100.56747454100028,22.478853462000345],[100.56836797000008,22.47836796600005],[100.56963203000018,22.47813203400024],[100.5709247210003,22.477071404000057],[100.57233662800027,22.476423386000263],[100.57274466300024,22.47380493900006],[100.57391682800014,22.47164787300011],[100.57506160700026,22.468903815999994],[100.5758820300002,22.46838203400017],[100.57623593900027,22.467985939000258],[100.57710932200015,22.46720557400026],[100.57757578300036,22.465694984000066],[100.57786797000009,22.465367966000187],[100.5781320300002,22.465132034000206],[100.57860390500016,22.46410390500013],[100.5793117180003,22.463471481000298],[100.57984588600007,22.46248848700006],[100.57995941900023,22.460583649000014],[100.57961724900022,22.459630028000063],[100.57966225100026,22.45887500000012],[100.5795909120001,22.457678055000216],[100.57986797000004,22.45736796599995],[100.58046101400018,22.456838089000073],[100.58010447300015,22.455844414000282],[100.58018702700016,22.454459320000254],[100.57967421700025,22.453885384000202],[100.57890512100013,22.453839546000225],[100.5781900440002,22.455155457000117],[100.57782238000024,22.4575148160002],[100.57622454100019,22.456646538000214],[100.57370773300013,22.45586936200013],[100.57263203000022,22.45511796600013],[100.57120148100026,22.454285103000046],[100.57019620100019,22.453159988000124],[100.56775137300028,22.452832999999984],[100.56611797000008,22.451882034000178],[100.56588203000021,22.451617966000086],[100.56372109200029,22.450950684000205],[100.56211797000017,22.448882034000192],[100.56188155000015,22.44736487600008],[100.56038203000034,22.444617965999996],[100.55895546700006,22.44334334600005],[100.55714005300004,22.44000255600021],[100.55709290700023,22.439211540000215],[100.55745009600005,22.437877899000185],[100.55786797000022,22.433867966000136],[100.55867432000005,22.432827469000102],[100.55860639600021,22.431687881000144],[100.55929143500018,22.430195313000198],[100.5602892650002,22.42949832200017],[100.56250217400017,22.428482666000065],[100.56361797000002,22.4276179660002],[100.5641320300002,22.427382034000217],[100.56486797000005,22.426867966000216],[100.56575537900014,22.42630358900024],[100.56800687000018,22.423783707000197],[100.5688820300002,22.4233820340001],[100.56985390500014,22.422853912000193],[100.57121225700027,22.422230469000212],[100.57227812600027,22.421278122000103],[100.57329505500027,22.42013996900016],[100.5757049450003,22.418110031000168],[100.57679442200018,22.416890686000258],[100.57771235300018,22.41660722400016],[100.58042719300002,22.414391083000027],[100.58111797000007,22.41361796600019],[100.58216564600016,22.41337420700009],[100.58357149100024,22.41180078100011],[100.58436797000005,22.411367966000185],[100.58551406100017,22.411014069000032],[100.58586797000007,22.410617966000032],[100.58613203000036,22.41038203400005],[100.58636797000023,22.41011796600006],[100.58760720100028,22.409010727000194],[100.58861796600033,22.407617966000245],[100.59002404000015,22.407290833000175],[100.59148919700013,22.404594574000285],[100.59200865200032,22.40291238400019],[100.59288203400027,22.40213203400019],[100.59361796600021,22.400867966000234],[100.59438203400029,22.39988203400027],[100.59504062700026,22.398168839000007],[100.59586796600021,22.396867966000116],[100.5966320340003,22.395882034000337],[100.59752291900011,22.394481247000172],[100.59938203400012,22.39313203400009],[100.60072901900006,22.39208816500023],[100.60211796600007,22.391117966000067],[100.60350217400028,22.390482666000167],[100.60576950800024,22.388725571000094],[100.60688203400028,22.388382034000273],[100.60984890700004,22.386648911000037],[100.61137755600024,22.38655780000005],[100.61238203400015,22.386867966000224],[100.61422226700026,22.387867966000186],[100.61464144100032,22.387370880000176],[100.61348593900007,22.38701406900006],[100.61313203400019,22.38661796600006],[100.61248835000006,22.386042847000255],[100.6129859390002,22.38548593100019],[100.61364609500012,22.384896088000048],[100.61411796600018,22.384367966000326],[100.61496414900009,22.383979599000256],[100.61613203400017,22.383132034000113],[100.61779886600007,22.38176442000011],[100.61992910000012,22.38078671300012],[100.62109796900009,22.379742355000218],[100.62136796600012,22.378867966000172],[100.62163203400016,22.378132034000217],[100.62186796600011,22.375867966000015],[100.62213203400015,22.37513203400023],[100.62256048600031,22.373744537000192],[100.6231179660002,22.37286796600013],[100.62431770300006,22.371405731000024],[100.62550511900022,22.369705826000157],[100.62663203400015,22.367632034000252],[100.62722734100001,22.36633496100022],[100.62786796600008,22.365617966000144],[100.62826900500002,22.365259644000247],[100.62911796600011,22.364044266000136],[100.62888203400016,22.362867966000152],[100.62797516600025,22.360807587000124],[100.62836796600024,22.360367966000254],[100.62932578300016,22.35992836000021],[100.62988203400008,22.359132034000126],[100.63036796600014,22.358367966000245],[100.63129219100026,22.35754219100012],[100.63235390500026,22.356353912000216],[100.63327812200023,22.35552812200028],[100.63407877300014,22.35463203400012],[100.63446937600011,22.354935928000046],[100.63507877300012,22.355617966000167],[100.63488203400007,22.354617966000205],[100.63456980100025,22.35374778700006],[100.63637113200022,22.350397049000108],[100.6372278980003,22.34921649200021],[100.63788203400023,22.348632034000175],[100.6396119230001,22.34566073600027],[100.64086796600012,22.34386796600016],[100.6413960950002,22.34339608800029],[100.64186796600009,22.3428679660002],[100.64281861900011,22.34243165600016],[100.6436320340002,22.341382034000176],[100.64447417400007,22.340221619000175],[100.64611150400017,22.340809113000205],[100.64802437600028,22.339239639000112],[100.64977552000013,22.339867966000227],[100.65063203400021,22.338882034000193],[100.65095867200003,22.337132034000078],[100.65213203400006,22.33736796600006],[100.65343423500022,22.337835220000173],[100.65573126200033,22.337300781000096],[100.65611796600015,22.33686796600007],[100.65685931400023,22.336205582000247],[100.65700000000024,22.335750000000218],[100.65637023900015,22.335870239000215],[100.65513136300004,22.33682025100012],[100.65339660600026,22.336889008000213],[100.65181666600009,22.336335250999966],[100.65060443100023,22.33662399300023],[100.64989882700027,22.33811909500021],[100.6493750000001,22.338139862000148],[100.64797164900025,22.338084244000257],[100.64608429000023,22.339620239000155],[100.64585172300028,22.339087341000123],[100.64589977300014,22.337875000000082],[100.64586248800018,22.336934341000145],[100.64620039400026,22.335867050000303],[100.64687976800016,22.334879761000238],[100.64780970000007,22.3329093320001],[100.64890405300022,22.332202652000063],[100.65055771600018,22.330417892000284],[100.65112023900011,22.330120239000166],[100.65207904100012,22.32966774000012],[100.65362976100025,22.327879761000332],[100.65414151000024,22.326795441000044],[100.6558584900001,22.325204559000227],[100.65658375500024,22.323667801000084],[100.65741035500034,22.32258989000016],[100.65696371500022,22.32025047300013],[100.65637976100007,22.3196202390002],[100.65562023900011,22.319129761000212],[100.65447871400008,22.318254395000267],[100.65151976000018,22.316963135000094],[100.65007014500034,22.316617828000304],[100.6490163420003,22.316060211000163],[100.6474749220001,22.316693375000156],[100.64415599800012,22.316561813000106],[100.64280036200003,22.31802491800019],[100.64212976800016,22.31837976100006],[100.64012023200027,22.31862023900007],[100.63913929700018,22.319139297000206],[100.63712023200017,22.3196202390002],[100.63638452900014,22.320009537000175],[100.63562023200026,22.320370239000184],[100.63533356500014,22.3206796260002],[100.63387023200019,22.321370239000046],[100.63306486500008,22.32192442300007],[100.63212023200018,22.322370239000193],[100.63028577400021,22.32334094200013],[100.62703461500016,22.3227202300001],[100.62612023200026,22.322129761000184],[100.62563929700005,22.321610703000047],[100.62486070300022,22.32088929700005],[100.62394503000021,22.31990103100017],[100.62268346400012,22.319305649000114],[100.62087023200016,22.31787976100017],[100.61958873000017,22.31683683800003],[100.6185549700003,22.316348969000074],[100.61722766100016,22.314916428000217],[100.61588391100017,22.314282272000327],[100.61437023200025,22.31287976100019],[100.61412976800025,22.31262023900011],[100.61327500200022,22.312068268000274],[100.61212976800013,22.310120239000213],[100.61141642000027,22.309083572000233],[100.61031044000006,22.30645550500003],[100.6091440660002,22.30590502900006],[100.60843011500017,22.304166901000215],[100.60862995100021,22.299125000000046],[100.60862004900017,22.298875000000137],[100.60863008100031,22.298621765000235],[100.60834938800016,22.29728012100007],[100.6086801910001,22.294743011000122],[100.60788040900016,22.29279589800022],[100.6088734890001,22.290919159000097],[100.60916605400021,22.289082611000296],[100.60986070300007,22.28761071800001],[100.6106241530002,22.286903320000093],[100.61107685100015,22.28500280800023],[100.61222910300026,22.28350021400007],[100.61352453600026,22.28149414100018],[100.61666780900018,22.279083740000047],[100.61762976800011,22.27862976100006],[100.61812023200017,22.278370239000168],[100.61937976800013,22.278129761000073],[100.62011547100016,22.2777404790002],[100.62162976800013,22.27737976100002],[100.62212023200024,22.27712023900031],[100.62487976800011,22.276879761000302],[100.62562023200027,22.276620239000053],[100.62737976800011,22.276379761000058],[100.62884446000012,22.275371887000148],[100.63262976800027,22.275129761000287],[100.63587023200014,22.27462023900013],[100.64299783300024,22.274164337000244],[100.64461547100032,22.273740478999997],[100.64612976800012,22.273379761000257],[100.64768132800023,22.27211706500023],[100.6490530620002,22.27139120500013],[100.65415942400031,22.27062976100028],[100.65678898600007,22.270885742000132],[100.65811705000019,22.271799622000074],[100.65912976100023,22.272120239000046],[100.66061070300029,22.2726392820001],[100.66262976100009,22.273120239000008],[100.66437023900019,22.273879760999975],[100.66765036000018,22.27446276900025],[100.66862976100023,22.275370239000196],[100.66909869400021,22.275876343000235],[100.67062976100013,22.276120239000164],[100.67350123600013,22.276620239000053],[100.67426236000026,22.276026306000205],[100.67506292700003,22.275162262000123],[100.67612976100011,22.27437976100022],[100.67751539600002,22.272884308000215],[100.67905909700019,22.272823120000297],[100.67937976100026,22.273120239000008],[100.6799855800003,22.273774078000017],[100.67937976100026,22.27146203600003],[100.67997656200018,22.270741943000047],[100.68187976100026,22.26912976100006],[100.68237023900022,22.26837023900019],[100.68297766100014,22.268083557000182],[100.68445916700014,22.266484619000053],[100.6856202390002,22.265870239000193],[100.68644833400035,22.265608063000172],[100.68737023900022,22.26512023900014],[100.68787976100012,22.26487976100023],[100.68887023900007,22.264120239000263],[100.6898365170002,22.26366421500019],[100.69062976100034,22.262629761000227],[100.69109164400024,22.26117089800013],[100.69202233900032,22.26016644300006],[100.69284433000038,22.25977850300012],[100.69334721400006,22.25766735800015],[100.69525288400027,22.255467072000172],[100.69612023900018,22.254870239000084],[100.69662976100025,22.254629761000174],[100.69712023900004,22.254370239000096],[100.69848257400034,22.253938904000208],[100.70233137500028,22.24939532500005],[100.70312976100016,22.24887976100021],[100.70337023900018,22.248620239000232],[100.70362976100003,22.248379761000052],[100.70458117700005,22.246906402999997],[100.70487976100017,22.246629761000207],[100.70662023900033,22.24437023900022],[100.70762976100016,22.243629761000136],[100.70932392900019,22.241629761000212],[100.7106297610002,22.241870239000036],[100.71137023900022,22.242129761000015],[100.71200000000019,22.242250000000197],[100.71174231000018,22.24104385400014],[100.71388203400002,22.239132019000138],[100.7142359310001,22.238735931000235],[100.71463203400018,22.238382019000085],[100.71618652300018,22.2366422420002],[100.7182529910003,22.236365845000066],[100.71946980300024,22.23500399800018],[100.7227247770002,22.23519799800016],[100.72473362700012,22.234075256000253],[100.72560118100014,22.232478729000135],[100.72488203400022,22.230474487000308],[100.72555952500008,22.22962887600015],[100.72784605400014,22.22920208700019],[100.72878574800009,22.229034625000097],[100.72892587300007,22.228133087000117],[100.72883053600006,22.22694668600009],[100.72917147800032,22.22655096400021],[100.73036570700017,22.225615692000105],[100.73148522900001,22.225278625000186],[100.7323678590001,22.223300598000222],[100.7338657070002,22.222365692000224],[100.73659869400004,22.221146179000044],[100.73707756000013,22.220287903000084],[100.73609387200011,22.22064913900013],[100.7352673030002,22.219689728000063],[100.7344202270003,22.22067294300014],[100.73362275700018,22.220107513000073],[100.73280299400014,22.2210590210002],[100.73211570700019,22.221365692000262],[100.73163429300016,22.22213430800018],[100.73061570700028,22.2233656920001],[100.73012757900008,22.2244595950001],[100.72791105700028,22.226051178000162],[100.72786074800004,22.226677338000187],[100.72838429300029,22.2276156920002],[100.72850000000008,22.22850000000018],[100.72760105800015,22.228805399000137],[100.72686796600007,22.228867981000164],[100.72603511000008,22.22916680900002],[100.72295864900016,22.22974102800019],[100.72214610300026,22.231236328000108],[100.72411573800017,22.231844543000165],[100.7241743770002,22.232828552000313],[100.72308403000014,22.233590179000174],[100.72190966800017,22.233660187000012],[100.71720251500014,22.23320587200017],[100.71586796600027,22.23361798100025],[100.71519123800007,22.234375366000123],[100.71373242200016,22.2350449220001],[100.71276435900009,22.236567047000193],[100.71186796600009,22.237367981000205],[100.71097447200006,22.238367981000167],[100.71029063400007,22.237915405000024],[100.71042431600009,22.23567254600016],[100.70961796600008,22.23463201900013],[100.70928427100003,22.232844238000183],[100.70736796600008,22.231132019000185],[100.70713203400001,22.230867981000088],[100.70668827800014,22.230471497000238],[100.70636796600004,22.22988201900023],[100.70613203400003,22.227617981000222],[100.7056411900002,22.226250000000178],[100.70636796600004,22.224224487000285],[100.70613203400003,22.222117981000153],[100.70567411800008,22.220841766000163],[100.70626406900013,22.21863906900026],[100.70661796600021,22.216367981000104],[100.70688584900026,22.21587500000018],[100.70661492900032,22.21537643400022],[100.70711796600008,22.21397448700023],[100.7068273470002,22.213227386000042],[100.70628807100027,22.212234985000094],[100.70661796600021,22.21011798100008],[100.70732089200001,22.209111664000034],[100.70600360100028,22.207411865000168],[100.70658319100025,22.206149048000043],[100.70688807700017,22.205876617000158],[100.70615812700001,22.20483163500002],[100.70661796600021,22.20236798100011],[100.70713203400001,22.201132019000255],[100.7074918980002,22.199203979000146],[100.70836131300021,22.198427155000175],[100.7089645840002,22.19711276200023],[100.71055189500018,22.194925568000187],[100.71111796600022,22.19461798100022],[100.7121429750002,22.19430145300005],[100.71209291100016,22.1934615480002],[100.71238391100022,22.192375000000183],[100.7119615780002,22.190798126000175],[100.71274140900036,22.189099030000108],[100.71361796600027,22.188117981000204],[100.71406172200014,22.187721497000084],[100.71549140900007,22.18509051500017],[100.7158820340002,22.183632019000115],[100.7162757570002,22.18193978900007],[100.71686796600025,22.181617981000088],[100.71777352900014,22.18120233200007],[100.7181320340002,22.180882019000123],[100.71848593100012,22.180485931000035],[100.7195421910001,22.179542175000208],[100.72049035600028,22.178480988000246],[100.72136796600009,22.177867981000148],[100.72213203400023,22.177382019000078],[100.72236796600006,22.17711798100008],[100.7231320340002,22.176632019000024],[100.72374462900027,22.175946411000226],[100.72463203400005,22.175382019000153],[100.72511796600023,22.174617980999997],[100.72628532400009,22.173195190000143],[100.72682577500021,22.171444977000192],[100.72711796600007,22.171117981000137],[100.72741111800033,22.17085604900022],[100.72727780200032,22.168619263000153],[100.72763203400021,22.16763201900018],[100.72789653000027,22.166775452000095],[100.7283820340003,22.165882019000165],[100.72861796600026,22.1648679810002],[100.72916230800016,22.163559234999994],[100.72965583800018,22.160915070000158],[100.73141587800032,22.160371582000124],[100.73038203400009,22.15944784500026],[100.73067073100017,22.15904418900017],[100.7315905910003,22.158222321000196],[100.73207141100025,22.157174713000202],[100.73313281300014,22.155881073000103],[100.73309710700025,22.155282104000023],[100.73350355500028,22.153535217000254],[100.7346551970002,22.153006653000133],[100.73453282200009,22.15095333900024],[100.73486796600011,22.149867981000142],[100.73515963700007,22.14933120700023],[100.7351107330002,22.14851062000018],[100.73561796600026,22.14686798100007],[100.73588203400018,22.146132019000106],[100.73611796600008,22.143617981000105],[100.73643910200028,22.142722992000046],[100.73605474900015,22.142015686000136],[100.73586755400024,22.138875000000255],[100.7359230650001,22.137943695000104],[100.73563203400025,22.137617981000247],[100.7353679660001,22.13738201900017],[100.73513203400003,22.137117981000173],[100.73366557300008,22.136185303000104],[100.73298555000022,22.13542422500028],[100.73161549400012,22.13493261700029],[100.72902162200009,22.13458569300026],[100.7268147740003,22.133352295000265],[100.72626406900028,22.132735931000155],[100.72447598300013,22.132183777000122],[100.72233319100039,22.130682495000173],[100.72138203400007,22.129617981000024],[100.7211179660001,22.12938201900012],[100.72088203400014,22.12911798100022],[100.71966288800016,22.128233215000108],[100.71913203400018,22.126251099000243],[100.71986796600007,22.124867981000023],[100.72013203400004,22.124632019000217],[100.72036796600028,22.12436798100022],[100.72254196200024,22.122536713000216],[100.72353674300021,22.120828094000245],[100.72461796600007,22.119617981000133],[100.72514608800023,22.119146088000164],[100.72637324500008,22.117772644000127],[100.72711796600007,22.11736798100013],[100.72788203400003,22.117132019000238],[100.72851928700007,22.116130035000012],[100.73080358900009,22.115424652000186],[100.73195692400012,22.114797943000113],[100.73400000000024,22.114919708000244],[100.73534532200026,22.114839508000088],[100.73636796600013,22.115632019000202],[100.73834643600034,22.115896637000063],[100.73969693000018,22.116943237000157],[100.74195558200026,22.117640686000044],[100.74262500000012,22.118389893000128],[100.74330215500012,22.117632019000126],[100.7466320340001,22.117867981000202],[100.74903628500002,22.118867981000065],[100.75113203400011,22.11863201900009],[100.75269017000019,22.11829913300008],[100.75407817100037,22.118797150000162],[100.75486796600015,22.11836798100009],[100.75588203400005,22.1181320190001],[100.75672680700032,22.117828918000257],[100.75816091900012,22.11791439800031],[100.75888203400021,22.116882019000244],[100.75936796600016,22.116117981000087],[100.76088203400028,22.115882019000097],[100.76195573400034,22.115132019000043],[100.7654528960002,22.115511169000143],[100.7661320340001,22.116117981000087],[100.76704995700018,22.118117981000182],[100.76738203400012,22.117632019000126],[100.7677277370004,22.11614617900011],[100.77138203400025,22.115882019000097],[100.77202485700016,22.115532715000242],[100.77514404300021,22.114569519000213],[100.77510670500013,22.113943115000083],[100.77638203400025,22.11313201900012],[100.77684500100028,22.11212332200023],[100.77811651600021,22.111827484000088],[100.77713203400012,22.110947845000226],[100.77836796600016,22.109867980999965],[100.77952542100016,22.10913183600016],[100.77911456300026,22.108375732000127],[100.77988278200016,22.10663034100004],[100.77986755400016,22.106375000000142],[100.7798905330001,22.10598947100023],[100.7791142880001,22.10412323000017],[100.7797456050001,22.103219452000275],[100.77888360600016,22.10244924900013],[100.77863203400025,22.101367981000195],[100.77816140700028,22.099610779000116],[100.77809520000025,22.09850000000013],[100.7781763610001,22.097138306000176],[100.77721530200009,22.096697205000183],[100.77677265900004,22.095263763000148],[100.77613203400026,22.09386798100013],[100.77586796600016,22.09363201900014],[100.7756320340001,22.09336798100024],[100.7746390990001,22.0927364810003],[100.77461755400029,22.092375000000146],[100.7746596370001,22.091668793000068],[100.77413203400025,22.090697845000292],[100.77446568300022,22.08987780800011],[100.77554223600029,22.088672943000162],[100.7768010410002,22.087759369000167],[100.77736796600013,22.08686798100004],[100.77836796600016,22.08557757600012],[100.77892327900028,22.08442327900009],[100.77935891700017,22.083858917000114],[100.77960653700015,22.08337500000013],[100.7796780400001,22.08289108300032],[100.77870269800022,22.083556793000255],[100.77812419100022,22.085360992000133],[100.7777596440001,22.085769012000142],[100.77688203400012,22.086382019000155],[100.77604441800011,22.086640686000152],[100.77535095200008,22.087416809000146],[100.77436796600014,22.087867981000173],[100.77324873400008,22.089790405000173],[100.76934933500021,22.088168518000174],[100.76811796600029,22.08788201900009],[100.76738203400012,22.087367981000284],[100.76661796600015,22.086882019000228],[100.76638203400009,22.08661798100023],[100.76611796600028,22.086382019000155],[100.76588203400027,22.086117981000157],[100.76523255900028,22.085819885000006],[100.76438203400025,22.084867981000116],[100.76411796600016,22.084632019000225],[100.76364608800012,22.084103912000216],[100.76147874500012,22.08272549400003],[100.76113203400021,22.080867981000182],[100.76063539100025,22.080424225000144],[100.76061755400028,22.08012500000025],[100.76063276700009,22.079869720000005],[100.76011723300016,22.078630280000127],[100.76014360000013,22.078187897000205],[100.75988203400024,22.077617981000117],[100.75909767200008,22.07617456100033],[100.75947425800015,22.07512500000017],[100.75888203400021,22.073474487000126],[100.76011796600014,22.071117981000285],[100.76063203400011,22.07038201900005],[100.76111796600028,22.069617981000064],[100.76189691200025,22.069122559000107],[100.76071485900033,22.068757538000014],[100.76057891800028,22.066476807000043],[100.76088275100025,22.065630035000154],[100.76086755400004,22.065375000000103],[100.76088272100017,22.06512051400027],[100.76051818800013,22.063759460000014],[100.76086796600012,22.063367981000212],[100.76138433800011,22.06290661600015],[100.7613352510003,22.062083099000134],[100.76161796600016,22.06086798100013],[100.76193910200018,22.05997299200007],[100.76113203400021,22.058487793000197],[100.76136796600028,22.055867981000148],[100.7616936650002,22.054651947000167],[100.76160487400026,22.053162415000102],[100.7620787810001,22.0526320190001],[100.76316532900032,22.05287542700016],[100.76469674700016,22.054589417000045],[100.76555215500034,22.053632019000233],[100.76736796600014,22.05063201899999],[100.76695234700011,22.049726440000214],[100.7658743740001,22.048520020000225],[100.76461796600015,22.048132019000093],[100.76366482500023,22.047466248000163],[100.7633167570003,22.048593384000156],[100.76152545200026,22.049146545000283],[100.76063203400011,22.0496320190003],[100.75917881800032,22.050190674000163],[100.75844722000002,22.05178472900016],[100.75733787500022,22.052127258000255],[100.75740963700034,22.053331207000042],[100.75697105400016,22.054138306000112],[100.75685237100024,22.056129608000035],[100.75880111700016,22.056433289000196],[100.75735765100026,22.05813009600017],[100.75911796600028,22.058458679000097],[100.75888203400021,22.060632019000238],[100.75825476100007,22.061530029000195],[100.7578062440002,22.063457733000277],[100.75716101100019,22.064863617000157],[100.7561320340001,22.06551803600003],[100.75636796600028,22.065632019000134],[100.75743685900008,22.065962097000096],[100.75734169,22.06755880700031],[100.75786796600013,22.06902551300017],[100.75738203400013,22.069632019000252],[100.75683737200015,22.070118683000103],[100.75691474900012,22.07141693100006],[100.75651959200027,22.074014709000053],[100.75711796600015,22.07624890100017],[100.75688203400009,22.07688201900025],[100.7566128230001,22.07737744100011],[100.75735591100002,22.078041382000066],[100.75771492000027,22.080741364000176],[100.75760122700026,22.082648773000173],[100.75899334700026,22.08256579600024],[100.75936796600016,22.083382019000183],[100.76013203400024,22.084367981000227],[100.7603679660003,22.085882019000266],[100.76173126200021,22.08619921900022],[100.76211796600015,22.08663201900005],[100.7624168090002,22.086899048000205],[100.76286796600013,22.08788201900009],[100.76434393300022,22.088337799000243],[100.76463203400024,22.088867981000234],[100.7650053250002,22.09086798100016],[100.76563203400022,22.090632019000083],[100.76655215500031,22.090132019000094],[100.76796110500018,22.09064685100006],[100.76880629000013,22.091592804000086],[100.7698571780002,22.092261169000224],[100.77012158200031,22.093397552000198],[100.77165762300015,22.093306000000254],[100.7733093410001,22.094064087000007],[100.77401406900017,22.0953609310002],[100.77448593100021,22.096389069000182],[100.77512068200022,22.09755712900001],[100.77536796600018,22.09888201900003],[100.7758117220001,22.09927850300025],[100.77654606600024,22.100629883000238],[100.7763675540003,22.103625000000164],[100.7765981900001,22.10749456800005],[100.77561796600017,22.108117981000206],[100.77509280400014,22.108943695000235],[100.77461796600019,22.109367981000076],[100.77413203400025,22.110132019000048],[100.77361796600016,22.110867981000283],[100.77325495900024,22.11204351800002],[100.77263203400028,22.11238201900005],[100.77158435100031,22.11262579300015],[100.77069784500011,22.113617981000175],[100.76949714700018,22.113276611000174],[100.76892422500012,22.112635376000142],[100.76862500000024,22.112617554000096],[100.76751242100025,22.112683868000076],[100.76647299200013,22.11231091300003],[100.76564248700018,22.112762207000074],[100.76318240400022,22.11290884400003],[100.76187551900014,22.112365265000093],[100.76113203400021,22.11263201900023],[100.75961796600015,22.112867981000292],[100.75842694100018,22.113790955000198],[100.75736796600015,22.11411798100025],[100.75563099700022,22.114840424000164],[100.75511796600014,22.11438201900016],[100.75475000000026,22.113970184000095],[100.7543820340002,22.11438201900016],[100.75361796600012,22.114867981000216],[100.75226121500012,22.115815674000203],[100.74887127700012,22.116266418000194],[100.74399751300027,22.115850403000238],[100.74286796600026,22.115132019000043],[100.74241066000016,22.11462020900015],[100.73936796600012,22.11438201900016],[100.73839192200009,22.113851654000058],[100.73700399800029,22.113934357000247],[100.7348820340001,22.113117981000286],[100.73363203400007,22.112731964000147],[100.73397750900025,22.1114668580001],[100.73463203400033,22.110882019000115],[100.73486796600011,22.110617981000203],[100.73556741300015,22.109993011000185],[100.73600000000025,22.10924999999999],[100.73532463100005,22.109373199000146],[100.73465289300017,22.110152893000276],[100.73350697300023,22.111140137000334],[100.73273976100015,22.112365051000168],[100.72945655800018,22.11296395900007],[100.72761586000004,22.111936981],[100.72713429300015,22.112281036000226],[100.72788429300013,22.112615692000205],[100.72818783600022,22.11296801800013],[100.72811122100026,22.11392147800015],[100.7271157070002,22.114365692000135],[100.72504396100013,22.11565881300011],[100.72463429300015,22.1161343080001],[100.72399604800032,22.116684174000213],[100.72313429300013,22.117884308000043],[100.72165426600023,22.119029266],[100.72129173300036,22.119841736000254],[100.7197749480001,22.120930878000138],[100.71897586100013,22.121858368000133],[100.7175928960003,22.12135049400021],[100.7176551360001,22.122125000000167],[100.7176078030001,22.12271402000023],[100.7163345340002,22.122611694000113],[100.71556512500021,22.12350476100002],[100.71570465100021,22.125241333000176],[100.7148556820002,22.12562017800026],[100.71538429300008,22.126365692000036],[100.71561570700001,22.126934937000243],[100.71484291100003,22.127600708000173],[100.71490513600023,22.128375000000204],[100.71485267600016,22.129027893000128],[100.71333808900013,22.129371979],[100.71396156300014,22.1296501770001],[100.71436570700027,22.13073934900025],[100.71311570700024,22.131115692000222],[100.71243434100015,22.131495850000235],[100.71168103000028,22.132370239000196],[100.71086570700024,22.132615692000073],[100.71013240100004,22.133135651000188],[100.70987500000021,22.133114960000256],[100.70959587100012,22.133137390000243],[100.70968257100017,22.13421646100018],[100.7094958500002,22.134865692000076],[100.70808607500024,22.13434799200023],[100.70731921400002,22.134409607000265],[100.70688429300029,22.13538430800017],[100.70658432000019,22.135921936000074],[100.70423020900009,22.135732788000226],[100.70365289300011,22.136402893000167],[100.70293974300014,22.13701730300002],[100.70363429300008,22.13761569200024],[100.70411570700023,22.138469543000184],[100.70352265900019,22.13953247100021],[100.70061570700014,22.139865692000242],[100.69883354200024,22.1401421810002],[100.69838429300026,22.141634308000206],[100.69695422400017,22.142704224000084],[100.69664788800023,22.14314788800003],[100.69564788800025,22.143838318000135],[100.69630641200021,22.14403039600022],[100.69660211200025,22.143602112000124],[100.69734156800021,22.14309155300016],[100.69836906200007,22.14244495200022],[100.69921785000022,22.1423694760001],[100.6997157750001,22.14083505200024],[100.70190191700019,22.140127502000226],[100.70262416100033,22.14087921100017],[100.70312249800028,22.140622498000155],[100.70548587000033,22.140333710000235],[100.70587249800016,22.139088287000135],[100.70537240600018,22.137627228000127],[100.7053810730001,22.13720257600025],[100.70687500000017,22.13771392800001],[100.70791632100023,22.137357513000197],[100.70892822300013,22.136304291000172],[100.71020805400022,22.13674237100001],[100.71124348400022,22.136040497000195],[100.7116633300001,22.13474667400017],[100.71313655100025,22.13211132800008],[100.71462750200018,22.131627502000285],[100.7151799320001,22.131342926000187],[100.71633097800023,22.128631409000192],[100.71751606800032,22.128377502000234],[100.71863948100028,22.12913900800018],[100.71917883300014,22.130801117000118],[100.7206275020001,22.13137249800006],[100.72159741200025,22.1320299380001],[100.7235332340002,22.134044800000012],[100.72487750200023,22.134372498000218],[100.72561999500002,22.13475500500006],[100.72675538600006,22.13530584700017],[100.72869125400038,22.13568374600017],[100.73087249800008,22.13662750200018],[100.7316702420002,22.136886383000203],[100.73265249600033,22.137908722000233],[100.73322522000026,22.139089233000036],[100.73310063200009,22.14519436600024],[100.73237930300016,22.146594574000105],[100.73197000100024,22.148273560000206],[100.73155749500009,22.150807495000166],[100.73021032700004,22.15342260700018],[100.72987750200022,22.155127502000283],[100.72937249800017,22.155872498000193],[100.72818991100027,22.1579583740003],[100.72787750200027,22.1598775020001],[100.72712521400004,22.16060028100013],[100.72681625400023,22.16312875400017],[100.72587240600004,22.164372620000236],[100.72589285300032,22.16537500000004],[100.72585736100021,22.16711401400005],[100.72444213900016,22.170275391000047],[100.7233703000002,22.17062323000023],[100.72363742100018,22.17114175400006],[100.72361671400009,22.17215579200021],[100.72206033300009,22.174451843000114],[100.7214949950002,22.174994995000205],[100.72088250700025,22.175632507000188],[100.71790576200013,22.17849249300022],[100.71686999500017,22.17899499500014],[100.71585499600022,22.17951788300006],[100.71511013800003,22.180653992000174],[100.71462249800013,22.18112249800022],[100.71387750200037,22.182377502000136],[100.71362249800015,22.182622498000256],[100.7130543060002,22.183213898000062],[100.71210769700022,22.18465771500007],[100.71146417200023,22.187297485000258],[100.71062249800016,22.189372498000168],[100.71037750200034,22.19012750200021],[100.70984701500012,22.1906371770001],[100.70861198400027,22.190611969000145],[100.7091275020002,22.191372498000092],[100.7093724980003,22.192416626000252],[100.7086079860002,22.1939006650002],[100.70640989700016,22.19553009000019],[100.70581750500034,22.196751160000147],[100.70481494100014,22.19984069800016],[100.70358454900011,22.200647369000023],[100.70312750200034,22.201132599000204],[100.7040103150002,22.20111459400023],[100.70437249800031,22.201911713000285],[100.70387249800015,22.203372498000178],[100.70362750200022,22.2091275020001],[100.70336346400015,22.210934387000222],[100.70338246200018,22.211865295000052],[100.70283354200015,22.213218536000028],[100.70288374300023,22.21567874100019],[100.70377478000003,22.217408417000215],[100.70333512900012,22.219554962000103],[100.70362750200022,22.22012249799998],[100.7038809510004,22.22943795800026],[100.70682501200011,22.23285150100017],[100.70712249800013,22.234387360000056],[100.70612249800016,22.234872498000044],[100.70562750200017,22.235142792000204],[100.70726013200024,22.235109497000025],[100.70762249800018,22.23592150900025],[100.70630874600019,22.23718374600024],[100.70511959800021,22.2399850460002],[100.70514685100025,22.24132095300007],[100.70487249800013,22.242122498000043],[100.70462750200019,22.243127502000235],[100.70404174800021,22.243991638000153],[100.70177049300034,22.245870514000174],[100.70000590500004,22.248096191000215],[100.69881840500003,22.248385681000272],[100.6973775020002,22.250127502000154],[100.69674961900026,22.250730743000062],[100.69631625400021,22.252066254000155],[100.6953724980003,22.2523724980001],[100.69477436800011,22.252680634000185],[100.69337750200017,22.2536275020002],[100.6926224980003,22.25387249800022],[100.69206926000018,22.25415750100008],[100.69137750200034,22.254877502000056],[100.6901919710003,22.25601654100025],[100.6896275020002,22.256877502000165],[100.68800753800022,22.258884308000205],[100.68687750200033,22.260877502000014],[100.68597500600006,22.262208923000216],[100.68510414100004,22.26263140900018],[100.68438250700032,22.263382507000244],[100.68330004900028,22.264422485000225],[100.68186749300023,22.265117493000176],[100.68077328500001,22.266786438000068],[100.67878611800026,22.268695679000203],[100.67731289700012,22.269661591000187],[100.67485444600018,22.271646118000163],[100.67369445800014,22.272208893000098],[100.67312750200014,22.273377502000244],[100.67283621200019,22.273657379000042],[100.66872343400027,22.273573425000208],[100.66687750200012,22.272622498000217],[100.66612249800025,22.27237750200011],[100.66537750200015,22.272122498000144],[100.6627573700001,22.271837830000223],[100.6592141420002,22.270400604000145],[100.65833276400028,22.270114594000106],[100.65671044900026,22.26927887000005],[100.65071134900009,22.269401306000063],[100.65037584700022,22.26836740100022],[100.64973312400005,22.26934771700016],[100.64787249800023,22.26987249800014],[100.64572307600011,22.27111041300016],[100.64263030200019,22.271864380000196],[100.64237750200013,22.272127502000203],[100.64197938500016,22.272510010000232],[100.64012249800007,22.272872498000027],[100.63960825300015,22.273137421000186],[100.63887500000007,22.273122437000197],[100.6378750000001,22.27314285300011],[100.63482682800012,22.273080658000026],[100.63319504500012,22.27341485600023],[100.63245453600015,22.273033386000193],[100.62837750200006,22.274127502000127],[100.62637249800005,22.274372498000147],[100.62530630500012,22.275095215000178],[100.62162249800022,22.27537249800011],[100.62089595000018,22.27612869300016],[100.61737249800015,22.27712249800031],[100.61687750200011,22.277377502000093],[100.61587249800019,22.277622498000213],[100.61509828200028,22.27788751200019],[100.6146275020001,22.278377502000055],[100.61337249800002,22.279122498000234],[100.61254315900024,22.279684662000037],[100.61141423000007,22.28085968000009],[100.61087249800019,22.281122498000258],[100.61012750200021,22.28162750200002],[100.60905755600024,22.282146576000258],[100.6070506290001,22.282105621000056],[100.60516723599997,22.28113540600016],[100.60441548900027,22.27982827800001],[100.6037468110002,22.278497162000278],[100.60241601600032,22.277833984000026],[100.60150000000002,22.277750000000182],[100.60178593400022,22.278214050000216],[100.60365468600023,22.279345306000025],[100.60403593400022,22.28046405000022],[100.60523600800033,22.28181869500021],[100.60826538800015,22.28328842200014],[100.60912249800018,22.283931335000133],[100.60837249800014,22.286122498000154],[100.60812750200026,22.28687750200018],[100.60729354100002,22.288496368000196],[100.60687750200023,22.29062750200022],[100.6063036040002,22.292042358000216],[100.60585134900018,22.300358337000034],[100.6061779560001,22.304514557000203],[100.60687750200023,22.3058724980002],[100.60718374600017,22.306816254000125],[100.60812750200026,22.30837249800028],[100.60837249800014,22.309377502000302],[100.60937036100026,22.309861618000042],[100.60987249800027,22.310627502000173],[100.61123731200021,22.31231823700027],[100.61209638200032,22.31408895900013],[100.61272748600024,22.315020004000345],[100.61387750200024,22.315872498000004],[100.61412249800017,22.316127502000228],[100.61437750200005,22.316372498000163],[100.61462249800005,22.316627502000117],[100.61487750200027,22.316872498000137],[100.61512249800015,22.31712750200019],[100.6155783460002,22.317565460000097],[100.61688684800012,22.317117584000258],[100.61739250200017,22.31712791400014],[100.61810202000018,22.317866379000222],[100.62087750200024,22.31937249800005],[100.62112249800029,22.319627502000273],[100.62137750200012,22.31987249800021],[100.62252831300012,22.32132402000022],[100.62418710300025,22.32241157500023],[100.6267211300001,22.324457123000016],[100.62893460800015,22.325396744000045],[100.63096469100023,22.32535531600027],[100.63291132400028,22.324352493000063],[100.63360914600028,22.3236261900001],[100.63450781300028,22.323377502000127],[100.63487249800019,22.32488574200005],[100.63337249800023,22.325372498000178],[100.63312750200012,22.32571278400009],[100.63516307100016,22.325365585000227],[100.63512245200027,22.323375000000283],[100.6351281130002,22.32309750400006],[100.63619494600007,22.32207249500007],[100.63793153400005,22.321229996000085],[100.63937750200026,22.320877502000045],[100.64070414000017,22.320339386000114],[100.64216723600018,22.319864608999993],[100.64312249800034,22.31937249800005],[100.64394572400013,22.318973114000045],[100.64541171300019,22.318627502000226],[100.64697309100015,22.319161926000305],[100.65087611400023,22.31882962000016],[100.65290762300017,22.319176132000138],[100.6554024660002,22.3214042660002],[100.65537208600026,22.322892502000144],[100.65474499500019,22.323494995000175],[100.6543775020003,22.32462750200017],[100.6530288390002,22.32650273100026],[100.65175625600031,22.328443756000098],[100.65038586400019,22.32910859700013],[100.64965898900007,22.329865128000193],[100.64812249800005,22.330872498000147],[100.64737750200013,22.33137750200028],[100.64687249800008,22.33162249800003],[100.64631926700022,22.331907501000074],[100.64546649900021,22.33279507400023],[100.64502295700018,22.335519669000163],[100.64353459200024,22.33662298600005],[100.64288712300012,22.338618256000217],[100.64234181200018,22.339142181000042],[100.64065485400008,22.339107758000125],[100.6403278270001,22.341784027000315],[100.63912249800003,22.343372498000022],[100.63837750200028,22.344377502000228],[100.63812249800034,22.344622498000064],[100.63787750200024,22.34487750200003],[100.63749500300017,22.345244995000144],[100.63625559200014,22.347332870000244],[100.63562750200023,22.34862750200024],[100.63475624800017,22.350318756000107],[100.63381533100019,22.351706833000122],[100.63273999800023,22.352740005000157],[100.63180430600025,22.35371388200018],[100.63087750200012,22.355127502000258],[100.6304950030001,22.3554949950002],[100.62872005500006,22.35734239200029],[100.62784276600021,22.358680481000164],[100.6271224980002,22.359372498000226],[100.62642597200002,22.360434875000195],[100.62612750200006,22.36287750200023],[100.62587249800018,22.363622498000055],[100.62561588300017,22.36598440600018],[100.62456552100005,22.36771646100013],[100.62349500300022,22.36874499500024],[100.62263749700028,22.369637497000184],[100.62187249800016,22.370372498000066],[100.62062750200025,22.372627502000128],[100.62012249800003,22.373372498000222],[100.6194075010001,22.375907501],[100.61912750200011,22.377627502000124],[100.61781680300024,22.380171798999967],[100.61637249800017,22.3808724980002],[100.61587750200025,22.381127501999984],[100.61462249800005,22.381622498000084],[100.61383896600015,22.382153625000072],[100.61225338700004,22.38292286700012],[100.61132025900022,22.384346115000113],[100.60945891600002,22.38464912400005],[100.60762750200004,22.38612750200015],[100.60333902000022,22.388558868000246],[100.60234400900023,22.38888174400013],[100.6009569700004,22.39032539400003],[100.59923682400009,22.391453170999995],[100.59837249800003,22.39187249800024],[100.5970805210001,22.39265599100004],[100.59638250000015,22.393382507000112],[100.59466704600007,22.395030685000236],[100.59437750200007,22.395627502000238],[100.59387249800002,22.396372498000247],[100.59337750200021,22.39712750200009],[100.59237249800017,22.39837249800007],[100.59212750200007,22.399377502000092],[100.59174500300023,22.400119995000253],[100.59116463500007,22.40131626900019],[100.58999500300021,22.403244995000264],[100.5896275020003,22.404377502000088],[100.58862249800026,22.40562249800007],[100.58699303400007,22.40767776500003],[100.58544538900017,22.408179977000017],[100.58362749900024,22.410377502000216],[100.58329316700028,22.41069871500015],[100.58137250100017,22.412122498000173],[100.58030513800023,22.412932404000045],[100.57987749900028,22.413377502000102],[100.57887250100029,22.414122498000197],[100.57762749900027,22.415127502000217],[100.57664963500028,22.415601913000202],[100.5756274990002,22.41637750200026],[100.57462250100016,22.417122497999983],[100.57329784000027,22.418501236000196],[100.57212250100028,22.419372497999987],[100.57079013100017,22.42044802900007],[100.57037749900022,22.420877502000266],[100.56962250100017,22.42137249800018],[100.5688774990002,22.42187750200013],[100.56819481700026,22.422208710000277],[100.56604013100034,22.423948029000115],[100.56518048100017,22.424842758000253],[100.56404789700017,22.425585312000138],[100.56262749900011,22.424622498000232],[100.56212749900018,22.42440191700028],[100.56264232300012,22.425401276000187],[100.56262056000017,22.42646749900021],[100.56113539100002,22.426949448000215],[100.55812749900011,22.429377502000293],[100.55762250100028,22.429622498000043],[100.55731750100037,22.429939941000114],[100.55635801300011,22.431917664000153],[100.55643575300016,22.435726913000025],[100.55587250100027,22.4373724980002],[100.5556186870003,22.439190636000177],[100.55563406400015,22.439944061000247],[100.5566274990002,22.441872498000293],[100.55756072600022,22.443796089000116],[100.55837749900022,22.444872498000095],[100.55887250100002,22.445627502000306],[100.55987749900018,22.44687249800019],[100.56067405300016,22.4496966400001],[100.5613774990002,22.450372498000064],[100.56174499900013,22.450754997000175],[100.56441191100018,22.45264691200022],[100.56587749900021,22.45312249800004],[100.56667250100017,22.453394615000093],[100.56816103400033,22.45440361800017],[100.57013750100018,22.455362503000018],[100.57179904600022,22.457091866000198],[100.57237749900023,22.45737249800024],[100.57329118000021,22.45799183700015],[100.57462250100016,22.459377502000137],[100.57657790400029,22.460538277000254],[100.57687250100017,22.462523491000198],[100.57609643600026,22.464436760000225],[100.57512250100004,22.465372498000022],[100.57462749900023,22.46612750200015],[100.57287250100003,22.468122498000184],[100.57212749900012,22.469127502000205],[100.57120332700023,22.47001542700005],[100.57062749900021,22.47237750200027],[100.57011500200016,22.47364099100018],[100.56879518500003,22.47428129600013],[100.5670401310002,22.47569802900003],[100.56616422700009,22.476609680000053],[100.56562250100004,22.47687249800022],[100.56505531300027,22.477164688000144],[100.56215963700006,22.479361908000044],[100.56142050200017,22.47972049700023],[100.56026815800007,22.48127500200023],[100.5598384740002,22.483037590000052],[100.56063782500038,22.4851497880003],[100.56218259000016,22.485899231000218],[100.56312250100027,22.486877502000155],[100.56389999000018,22.487387245000235],[100.56527355200004,22.487359215000225],[100.56850352100034,22.487772064000197],[100.56912250100018,22.488273491000115],[100.56837250100014,22.490122498000247],[100.56812749900021,22.490758636000123],[100.56891422700019,22.491140320000085],[100.57001887900012,22.492290053999994],[100.57137250100018,22.491372498000104],[100.57237749900023,22.491127502000182],[100.57262250100021,22.49103312700001],[100.57111390700013,22.490543587000175],[100.57112831500015,22.489837502000114],[100.57212749900012,22.48887750200018],[100.57275245300016,22.487589333000173],[100.57493005400002,22.4876337740002],[100.57637250100007,22.488127502000026],[100.57732365000018,22.488436150000155],[100.57787250100031,22.49012750200022],[100.57812749900009,22.49087249800013],[100.57837250100002,22.493470543000058],[100.57783437300017,22.498208153000192],[100.57638311400027,22.499602501000183],[100.57305982200026,22.499927536000072],[100.57260749800034,22.50039831500004],[100.57206625000012,22.502066250000112],[100.57109456600008,22.502381565000263],[100.57140786000016,22.505139797000226],[100.57136990000024,22.50700000000012],[100.57140733300022,22.508834297000107],[100.57063539500021,22.510332764000182],[100.57036460500004,22.511167236000134],[100.56961844600019,22.512615662000073],[100.56987749900011,22.513372501000077],[100.57012250100004,22.514441128000115],[100.56962250100017,22.517372501000096],[100.56937749900013,22.518877499000197],[100.56911583300027,22.51989851400012],[100.56862250100019,22.520372501000253],[100.56708631500001,22.523154907000162],[100.56612250100014,22.52362250100022],[100.56559276200008,22.524430481000195],[100.56430686200028,22.525665955000093],[100.56239141100033,22.52961413600019],[100.562122501,22.529872501000256],[100.56187749900008,22.530127499000116],[100.56160013200011,22.53039399000005],[100.56044960800014,22.532148829000306],[100.56012749900023,22.534127501000242],[100.55987250100029,22.534872499000144],[100.5596182560001,22.53565599100014],[100.55862712100028,22.53660825500006],[100.55837287900019,22.53739174500005],[100.55787250100016,22.53787249900003],[100.55736013000003,22.53865399200022],[100.5568585890002,22.53913586400003],[100.555905319,22.541100773000153],[100.55549499900027,22.541495001000087],[100.55505125000016,22.5419568610002],[100.55462750100028,22.54412750100012],[100.55377063000034,22.546239985000213],[100.55324500100008,22.546745001000247],[100.55273387900027,22.547276983000216],[100.55062249900018,22.547872499000192],[100.54966723600009,22.54836460500023],[100.54887249900005,22.548622500000164],[100.54787750100016,22.549377500000276],[100.54487249900032,22.549622500000126],[100.54349113100014,22.54990543100017],[100.54041191700017,22.54984259000004],[100.53882086400026,22.551049872000092],[100.53815191200013,22.552377500000162],[100.53967523000026,22.553162240000077],[100.54166078200015,22.5531217180002],[100.54387249900006,22.55162250000005],[100.5458825000002,22.55113250000018],[100.54737249900015,22.550622500000088],[100.54962750100012,22.550377500000153]]]]},"properties":{"id":"7111"}}]}