{"type":"FeatureCollection","features":[{"type":"Feature","geometry":{"type":"MultiPolygon","coordinates":[[[[102.75202708400016,18.997353872000105],[102.75152615400029,18.99581017700028],[102.74952349100013,18.99662249900007],[102.74912249800016,18.996127501000245],[102.74862750200006,18.994872501000046],[102.74788906100017,18.993439064000015],[102.74784832800006,18.99144311900025],[102.74837249800012,18.989911716000023],[102.74812750200024,18.987872501000226],[102.74760782600006,18.98659133100027],[102.74764204400034,18.98491498200012],[102.74737249800015,18.984127499000067],[102.74700499700029,18.982244999000187],[102.74660314200017,18.98107095000003],[102.7466278840001,18.97985854299999],[102.74609786200008,18.978829678000224],[102.74613769500021,18.976877811000108],[102.74575000000019,18.976869900000068],[102.74465126800024,18.976892323000058],[102.74412295500011,18.976620159000106],[102.74383049800011,18.97811825600016],[102.74288525400013,18.97813754700006],[102.74262239800007,18.97762730800021],[102.74262760200023,18.97737263100001],[102.74162750200006,18.97605461900021],[102.74216949500013,18.975307739000044],[102.7431220930001,18.974392502000086],[102.74313800000007,18.97361298000007],[102.7421271210001,18.972641747000083],[102.74187750200022,18.971872501000206],[102.74156799300002,18.970968262000085],[102.74212249800027,18.970122501000006],[102.74264245600031,18.96935543400005],[102.7426132200001,18.96792297000019],[102.74362249800018,18.96687250100004],[102.7443718870002,18.966152500000064],[102.74437754800013,18.965875000000196],[102.74437245200025,18.965625000000117],[102.74437754800013,18.965375000000037],[102.74435761300018,18.964398197000307],[102.74485405000016,18.9638815000001],[102.74678444700024,18.963552235000122],[102.74839305900005,18.963881710000123],[102.74928323400005,18.962955208000196],[102.75080318500014,18.962584671000272],[102.7525281220002,18.960153122000165],[102.75362249800017,18.95979799700018],[102.75297158800007,18.959238480000252],[102.75062750200019,18.958780869000222],[102.75089221200031,18.958069527000262],[102.7517857890002,18.956334946000183],[102.75137240600017,18.955127220000264],[102.75139259300013,18.954137856000017],[102.75077052300017,18.95381739000024],[102.75037750200025,18.954627502000207],[102.74987136100006,18.955374176000262],[102.75019601400007,18.956322670000233],[102.74937750200033,18.95687750200021],[102.74881740600014,18.95714923100023],[102.74669151300012,18.95936189300025],[102.74562249800002,18.95962249800023],[102.74460868800017,18.95988231700005],[102.74387500000014,18.959867348000145],[102.74122821800026,18.959921363999996],[102.73963664200008,18.95914921600024],[102.73934832800015,18.958306885000084],[102.73937759400016,18.956872871000186],[102.73911295300022,18.955840256000187],[102.73912754800025,18.95512500000025],[102.73912245200009,18.954875000000087],[102.73912754800025,18.954625000000178],[102.73911720300029,18.954118073000245],[102.73964231900013,18.9530987320002],[102.73962245200019,18.952125000000095],[102.73962754800007,18.951875000000285],[102.73962245200019,18.95162500000012],[102.73962754800007,18.95137500000004],[102.73960041000001,18.950045288000155],[102.73989959000019,18.947704712000117],[102.73985720100015,18.945627914000227],[102.7402549060001,18.945619797000177],[102.74086264800022,18.946872498000275],[102.74137750200023,18.94662750200034],[102.74206774100017,18.94487750200014],[102.74337750200019,18.94512249800016],[102.74412594600031,18.94537867700022],[102.7452592770002,18.9445187150002],[102.74562750200019,18.94487249800008],[102.74587249800018,18.94512750200022],[102.74612750200018,18.945372498000054],[102.74643688200021,18.94632589700025],[102.74754985000018,18.945167503000064],[102.74812249800019,18.94487249800008],[102.74866423000029,18.944609680000184],[102.74937249800027,18.94387249800029],[102.74962750200021,18.943627502000012],[102.74987249800031,18.94337249800023],[102.75112750200006,18.94312750200011],[102.75253559100022,18.9427666320001],[102.75335825300007,18.943622879000245],[102.75414174700026,18.943877121000327],[102.75533750200017,18.945121681000174],[102.75626093300016,18.945140526000316],[102.75762750200025,18.944127502000256],[102.75828312700034,18.94312750200011],[102.75961806500018,18.94391008800021],[102.75963775600016,18.94487500000011],[102.75961734800015,18.945875000000072],[102.75963250000027,18.946617348000203],[102.7591275020001,18.946877502000063],[102.75837750200034,18.947241364000234],[102.75865436600012,18.947677727000197],[102.75937750200004,18.94837249800021],[102.76003312700018,18.949372498000088],[102.76038262900025,18.949123848000212],[102.76036744700022,18.948379951000206],[102.76089245600011,18.947605431000156],[102.76086760700022,18.946387794000046],[102.76131452900026,18.9459226380001],[102.7633001480003,18.945599396000176],[102.76439456900019,18.944857544000087],[102.76537500000009,18.944877548000136],[102.766621979,18.94485210400026],[102.7666276020004,18.94512738000003],[102.76489103700013,18.94719603700021],[102.76539911700016,18.951872498000256],[102.76580098000002,18.951441399000203],[102.76622001600006,18.949722473000264],[102.76712750200008,18.949127502000067],[102.76784836600021,18.948377213000242],[102.76927853400016,18.948098015000056],[102.77037750200023,18.947377502000222],[102.77179945400027,18.94589749900024],[102.7734946290004,18.945463058000087],[102.77410749800012,18.947351685000214],[102.77484327700026,18.94811749999998],[102.77860539200012,18.94866726700009],[102.78173158300015,18.948210426000216],[102.78261138900021,18.949126144000132],[102.78537239100021,18.94946352400015],[102.78786572300001,18.951098221000137],[102.78881750500014,18.953060051000108],[102.78930271900018,18.953565071000142],[102.79137249800024,18.95396913100018],[102.79112750200025,18.95512750200001],[102.79082005300009,18.956025702999995],[102.79137249800024,18.957098091000177],[102.79087750200026,18.957377502000014],[102.78988110400033,18.95770083600013],[102.78984687800008,18.959378127999997],[102.79158351100014,18.959342682000084],[102.79304206800029,18.96033137500008],[102.79558201600022,18.9606859510002],[102.79593896500026,18.962150131000115],[102.79713256800008,18.96362878800015],[102.79710311900013,18.965072243000122],[102.79737249800021,18.965627499000064],[102.7976813660002,18.966227051000104],[102.79612750200013,18.968274853000253],[102.79638346900006,18.972299934000233],[102.79793306000013,18.972802784000265],[102.79976698300018,18.97352611900007],[102.80035249300013,18.974088676000264],[102.80062750200025,18.974622501000013],[102.80099249300022,18.976119743000083],[102.80198383600029,18.976725838000235],[102.80289232000021,18.97701107000003],[102.8034523770003,18.977493584000158],[102.80376843100012,18.97829628200023],[102.80412535100001,18.97901012100023],[102.8052472530002,18.97963099700017],[102.80734001200025,18.98086117200009],[102.8081585370002,18.981080252000098],[102.80883306900014,18.98128373300014],[102.80910890200008,18.98164109400014],[102.80939109800013,18.981858906000213],[102.80973918200024,18.98310890600017],[102.81035205100008,18.982395542000035],[102.80985890200023,18.98114109400025],[102.80975000000026,18.98050000000005],[102.80891450500022,18.980732655000196],[102.80808715300023,18.980544873000113],[102.80744305400006,18.980391830000244],[102.8061111760002,18.97963882800029],[102.80600000000024,18.979500000000087],[102.80523180000014,18.978795969000004],[102.804517962,18.97815351500023],[102.80360865300023,18.977280538000116],[102.80342147800033,18.97665886700011],[102.80238703900008,18.976575748000073],[102.80195083600015,18.976139301000288],[102.80137750200012,18.974372501000204],[102.80112249800007,18.97412749900009],[102.80027314800023,18.972832012000197],[102.7976990660002,18.971996716000092],[102.79687750200029,18.970401913000032],[102.79724391200031,18.969236237000047],[102.79787750200026,18.96862749900012],[102.79812249800025,18.96837250100016],[102.79837750200014,18.968127499000232],[102.7986293030003,18.967094582000215],[102.79937249800034,18.96565191300013],[102.79912750200012,18.964622501000306],[102.79876864600024,18.96357409300016],[102.79920213300014,18.96273261300017],[102.79861744700011,18.96187004900021],[102.7986302030001,18.961245293000204],[102.79787249800009,18.960127502000176],[102.79762513700027,18.958860435000233],[102.79612852500011,18.957422501000096],[102.79611990400039,18.95700000000022],[102.7961472320001,18.955660797000263],[102.79562712100014,18.95465117600004],[102.79528593400025,18.95290342700021],[102.79351190200018,18.952557106000143],[102.79301499900018,18.951025818000105],[102.7926275020001,18.950622498000214],[102.7909798430002,18.950220833000017],[102.78965249600023,18.948945541000015],[102.78937249800006,18.948127502000105],[102.78905250500023,18.946814850000024],[102.78862750200025,18.9463724980002],[102.78837249800009,18.94612750200018],[102.7881275020001,18.945872498000043],[102.78737249800022,18.945627502000022],[102.78612750200008,18.94512249800016],[102.78537249800033,18.94487750200014],[102.78391420000017,18.944378349000132],[102.7833822170002,18.94436749300013],[102.78279390000031,18.94467057000007],[102.77979344200017,18.94436390700028],[102.77862780800021,18.944387695000017],[102.77859791600011,18.94292263000004],[102.77912249800002,18.942122498000273],[102.77985968000027,18.941414230000106],[102.78036265600022,18.940377502000132],[102.78087750200027,18.940622498000153],[102.78199787900027,18.94147263300023],[102.78287750200028,18.94062750200021],[102.78358577000026,18.939890320000316],[102.78412750200025,18.939627502000064],[102.78537249800033,18.938872498000222],[102.78637750200025,18.938627502000102],[102.78862529000034,18.937469551000135],[102.79012249800022,18.938377502000208],[102.7913775020003,18.938622498000043],[102.79233284000023,18.938949493000194],[102.79264231900018,18.938348732000136],[102.79261781300019,18.93714748400022],[102.79297651700008,18.93640808900024],[102.79412750200012,18.93612750200002],[102.7951224980001,18.935372498000177],[102.79589173900015,18.935122879000218],[102.79683577000023,18.934140320000097],[102.7978825070002,18.933632500000172],[102.79937249800034,18.9326224980001],[102.80062056000028,18.932217499000075],[102.80063499500014,18.931510002000067],[102.79937249800034,18.93212249800021],[102.79846014400025,18.93259249900028],[102.7975990910002,18.932887230000148],[102.79644203200021,18.932863609000066],[102.79417028800012,18.933153984000015],[102.79262278700023,18.933122406000066],[102.79187721300028,18.93337759400022],[102.79137500000027,18.93336734800026],[102.79088999900031,18.934367043000208],[102.78987759400022,18.93438770300004],[102.78885826100017,18.93386258700012],[102.78762780800022,18.933887695000067],[102.78761753800026,18.933384712000105],[102.78819912700013,18.93195090500022],[102.7868468930001,18.931621262000206],[102.78563702400007,18.9303620000002],[102.78466217000008,18.930381897000075],[102.78312750200027,18.9296373520002],[102.78362249800003,18.92937249800022],[102.7846531070002,18.929121262000223],[102.78537249800033,18.928372498000257],[102.78631552100026,18.92746646100008],[102.78719853200025,18.92601037600012],[102.78672766100007,18.925096352000168],[102.78887750200025,18.92387750200004],[102.78915846300012,18.922438248000148],[102.78987928800026,18.92137486300018],[102.7889691930001,18.92017545300007],[102.78862750200025,18.919122498000164],[102.78812136800022,18.91837582400011],[102.78838241600002,18.917613152000072],[102.78836740100022,18.916877708000143],[102.78887500000022,18.916867347999997],[102.79107620200008,18.916912270000253],[102.79189456200012,18.916357544000192],[102.79325000000026,18.916385201000168],[102.79411219800002,18.916367607000126],[102.79437750200029,18.916622498000265],[102.79511259500029,18.91738760400024],[102.79623393200015,18.916627502000054],[102.79787750200026,18.91687249800016],[102.79898393200014,18.917622498000128],[102.79914604200022,18.916781258000256],[102.79912245200015,18.915625000000063],[102.79914773600021,18.914386139000143],[102.79837750200014,18.914122498000083],[102.79675718700017,18.91372750100018],[102.79587249800025,18.9128775020001],[102.79562750200026,18.912622498000147],[102.79462750200028,18.912137352000244],[102.79522702000023,18.910877502000275],[102.79587750200025,18.911122498000196],[102.79687263500008,18.911877602000146],[102.79840144300019,18.911846397000147],[102.80012741100015,18.913642807000187],[102.80160701000003,18.91361261000027],[102.8023596800002,18.91433577000015],[102.80279725600028,18.91523770900008],[102.80538696300013,18.914876175000273],[102.80462750200016,18.913401909000058],[102.80595471200027,18.913323051000106],[102.80687750200016,18.913622498000194],[102.80762249800026,18.91412750200024],[102.8083775020003,18.914372498000162],[102.81122785900007,18.915605751000243],[102.81193850700024,18.91452182000009],[102.8148019710001,18.914940262000073],[102.81512750200014,18.914627502000215],[102.81537249800013,18.914372498000162],[102.81612249800011,18.913651909000137],[102.81463623000016,18.912423012000247],[102.81312249800024,18.912127502000047],[102.81211427300022,18.911362465000167],[102.81110817000021,18.91138299600017],[102.81037750200014,18.910622498000038],[102.81012249800037,18.910377502000202],[102.80987750200015,18.910122498000234],[102.80862750200012,18.909302963000016],[102.80917578100028,18.909103081000183],[102.81050489800029,18.909130203000117],[102.81096974200003,18.908172073000244],[102.81187750200027,18.90787750200012],[102.8125980830001,18.90712750200005],[102.81289236500012,18.9076488420002],[102.81284700000006,18.90987188000011],[102.81379194600018,18.909891159000196],[102.81428312700027,18.908377502000093],[102.81630471800011,18.908745918000207],[102.81662750200016,18.909372497999996],[102.81707749900019,18.910300049000185],[102.81851504500011,18.91179627200026],[102.81937249800026,18.912377502000126],[102.8204031070002,18.912628738000222],[102.82182749900008,18.91411127500014],[102.82312249800012,18.914137703000193],[102.82287750200018,18.913872498000003],[102.82241561900017,18.913428726000234],[102.82123532100027,18.911687500000056],[102.82083107000008,18.910506462000214],[102.82262249800024,18.90963735200006],[102.82225030500015,18.909614792000156],[102.8213750000003,18.909632652000212],[102.82062500000015,18.909617348000012],[102.81937791400017,18.909642799000068],[102.81937240600027,18.909372780000197],[102.81976837200014,18.908215958000056],[102.81837750200017,18.90737249800017],[102.81712750200015,18.906966873000172],[102.8174423830001,18.905239014000117],[102.81923895300022,18.904778587000308],[102.82085275300025,18.905872498000136],[102.82090718100025,18.905333702000135],[102.81981202700032,18.903527771000014],[102.82061265600029,18.90187750200026],[102.82256327800022,18.90242460600014],[102.8228724980003,18.90337750200011],[102.82387750200033,18.904122498000206],[102.82514289900016,18.90508268000015],[102.82600000000028,18.905250000000237],[102.82586825600018,18.904844009000215],[102.82437831100012,18.90341249800025],[102.82435209700023,18.902128021000195],[102.82535180700009,18.902107613000197],[102.82685438500008,18.90355127700019],[102.82728250100016,18.90487056000019],[102.82788281300017,18.904882812000224],[102.82737750200019,18.90390190900007],[102.82836793500027,18.903198090000004],[102.83012249800012,18.90379863700005],[102.82949632300009,18.901994553000165],[102.82794378700024,18.90252594800026],[102.82662750200015,18.901887352000088],[102.82732803300027,18.90041522200015],[102.82811825600018,18.899655991000117],[102.82861425800027,18.898127502000037],[102.82912750200032,18.898372498000242],[102.82972116100021,18.898678329000234],[102.83017375200009,18.896359970000262],[102.83135749800019,18.895127914000184],[102.8320000000003,18.895114792000257],[102.83262721300005,18.895127594000158],[102.83337582400011,18.894871368000196],[102.83412249800026,18.89537750200006],[102.83487750200007,18.89587249800016],[102.83514335600026,18.89614920000014],[102.83510762000012,18.894398193000114],[102.83537249800028,18.89412249800013],[102.83662249800025,18.89330296300018],[102.83637750200032,18.893122497999997],[102.83562249800028,18.892627502000067],[102.83470805400012,18.892007645000305],[102.83362500000013,18.892378357000155],[102.8321617130002,18.891877502000185],[102.83137249800009,18.892122498000035],[102.83037750200006,18.892877502000147],[102.82907077000007,18.89373423800025],[102.82783842500007,18.89464775100025],[102.82714585900013,18.895368591000206],[102.82645416300025,18.89570416300026],[102.82589230300024,18.89686230500007],[102.82537750200018,18.897127502000075],[102.82460826100012,18.897377121000034],[102.82365191700032,18.898372498000242],[102.82285845900012,18.898123077000122],[102.82237609900008,18.89762104800006],[102.82112423700025,18.898128815000234],[102.81986320500019,18.897171951000118],[102.81989270000034,18.898617325000245],[102.81884025600019,18.898887039000087],[102.81795477300031,18.89886897300002],[102.81747866800023,18.90033615900026],[102.8163240970002,18.900731354000186],[102.81561778300019,18.90036749300002],[102.81488221700008,18.900382507000188],[102.8134184420002,18.899628441000146],[102.81312278700008,18.89962240600019],[102.81195463600014,18.90002224000014],[102.8116125790003,18.899358253000273],[102.81163249200026,18.898382645000098],[102.81092977900019,18.898020645000088],[102.81053349300018,18.90045492600005],[102.80965191700031,18.90137249800013],[102.8088645020002,18.900264435000196],[102.80888766500024,18.89912922700006],[102.8061275020003,18.898815704000228],[102.80637249800023,18.899627502000158],[102.8073724980002,18.900945381000042],[102.80667022700018,18.902622497999985],[102.80587249800007,18.90237750200015],[102.80487750200027,18.901622498000208],[102.80355404700018,18.90083686100013],[102.80239210500022,18.899627502000158],[102.80142164600014,18.900085075000092],[102.80111904900033,18.90037582400018],[102.8022287900001,18.900914215000128],[102.80262249800026,18.90212750200007],[102.80337249800007,18.903233932000134],[102.80302917500009,18.904135796000148],[102.80236297600013,18.90412220000026],[102.80163702400009,18.90487780000025],[102.8009009090002,18.904862770000165],[102.79994700600017,18.905189278000094],[102.79962249800022,18.904877502000048],[102.79896687300024,18.903877502000086],[102.79818336500014,18.904434914000205],[102.79772422800019,18.905849823000125],[102.79640799000018,18.904986862000214],[102.79599256900016,18.903706711000083],[102.79440171800027,18.90536250300012],[102.79337500000022,18.905713928000154],[102.79204843100015,18.90525986500016],[102.7915099950001,18.906369698000233],[102.79087995900025,18.906382553000142],[102.7897660680002,18.905627502000115],[102.78937249800006,18.90612249800003],[102.78907298300018,18.907656799000065],[102.7871145170001,18.90737060500018],[102.78639250200015,18.908122093000188],[102.78565090900017,18.908137230000108],[102.78487721299999,18.907872406000052],[102.78425000000024,18.907885201000127],[102.78338264500027,18.907867500000265],[102.78312147500029,18.90837449600002],[102.78356352200021,18.90966597000012],[102.78262249800005,18.910122498000234],[102.7821425020002,18.910622093000185],[102.78168264800021,18.910631477000166],[102.78012249800022,18.910377502000202],[102.77937750200024,18.910122498000234],[102.7756275020001,18.90984024000025],[102.7761224980002,18.909372497999996],[102.78083145100018,18.908911942000174],[102.78148706100026,18.9082820430002],[102.78062370300026,18.907117371000197],[102.78000000000011,18.907130104000274],[102.77937500000021,18.9071173480002],[102.77862500000023,18.907132652000215],[102.77812500000007,18.907122452000266],[102.77740090900014,18.907137230000146],[102.77661314400021,18.90686759200004],[102.77588685600008,18.90688240800003],[102.77509909100016,18.906612770000095],[102.77425000000008,18.9066301040002],[102.77312500000008,18.906607140000162],[102.7716278080002,18.906637695000114],[102.77161261000012,18.905892998000056],[102.77187249800002,18.905622498000056],[102.77212750200007,18.905377502000206],[102.77328891000033,18.903421036000253],[102.77480299400011,18.903939278000053],[102.77512750200029,18.90362750200019],[102.77561051900031,18.902139008000134],[102.77637249800031,18.901622498000208],[102.77772340400017,18.901184128000267],[102.77944537400018,18.899877502000066],[102.78105630500013,18.900153091000035],[102.78160749800011,18.901851685000068],[102.78202450600023,18.902285713000097],[102.78409808300032,18.900127502000146],[102.78510998500028,18.90059577900007],[102.78594703700006,18.901872498000202],[102.78642076100007,18.90160287500018],[102.78783828700014,18.900127502000146],[102.78886329700023,18.900593231000215],[102.78936265600024,18.901622498000208],[102.78962750200029,18.901377502000273],[102.79000489800009,18.90059958600021],[102.79157565300002,18.900631645000203],[102.79312249800003,18.90032967399999],[102.7928775020001,18.900122498000087],[102.7916294400001,18.89971749900033],[102.79161261000016,18.898892990000235],[102.79187249800006,18.898622498000137],[102.79329673800012,18.89827529900019],[102.79237791400013,18.897392502000244],[102.79236750800018,18.89688264500016],[102.7933327640001,18.896385391000052],[102.79429931600012,18.896071747000207],[102.79321685800008,18.89494509900007],[102.79190191700016,18.89562249800008],[102.79156027200017,18.895322937000245],[102.79041171300017,18.894127502000188],[102.7898622890003,18.89437713600006],[102.78990300000018,18.896371872000174],[102.78962500000009,18.896377548000203],[102.78936297600026,18.8963722080002],[102.78863221700001,18.89713279700007],[102.78812500000006,18.89712245200019],[102.78731631500031,18.897138947000045],[102.7863662410002,18.895857315000228],[102.78513008100006,18.89588255300019],[102.78487153600022,18.894873764000124],[102.78576893600027,18.89369111600014],[102.78465872200022,18.893152496000255],[102.78437249800018,18.892877502000147],[102.7840269320001,18.89251782200006],[102.78276606800003,18.89337249799999],[102.7800104520002,18.892802628],[102.77961825600008,18.891594009000087],[102.77862791400005,18.890642502000233],[102.7786126100003,18.88989299000012],[102.77887249800008,18.889622498000122],[102.78171861300021,18.889313278000117],[102.78286088600018,18.888124390000158],[102.78447387700012,18.88786181600011],[102.78527787800002,18.886635513000158],[102.78648260500026,18.887452133000224],[102.78712249800006,18.88712249800004],[102.78780386400021,18.886791946000045],[102.78711749300018,18.886132507000198],[102.78662750200024,18.88562249800019],[102.78612791400028,18.88514250200018],[102.7861127780001,18.884400909000192],[102.78642703200026,18.88348278800025],[102.78437750200024,18.88213905300009],[102.78485728500024,18.880637909000058],[102.78537249800033,18.88037249800003],[102.78637249800025,18.87988734400031],[102.7861033780002,18.878772598000168],[102.78375991800002,18.87978654500013],[102.78237750200012,18.878073990000104],[102.78329843100019,18.87627972400024],[102.78437249800018,18.875758636000114],[102.78412750200025,18.875122498000138],[102.78324476600014,18.8729462430002],[102.78512249800022,18.872579666000064],[102.78462750200012,18.87212249800008],[102.78287899800031,18.87169624300016],[102.78286485300012,18.871002594000146],[102.78363005100013,18.86987373400018],[102.78285969500016,18.86950000000016],[102.78289260900013,18.867887131000202],[102.78237164300018,18.866875839000016],[102.78264176900021,18.865821808000206],[102.78260459900017,18.86400000000002],[102.78263742100015,18.86239173900009],[102.78205894500016,18.861268814000255],[102.78247651700022,18.860408081000088],[102.78363267500006,18.860126236000127],[102.78362245200029,18.85962500000032],[102.78363742100018,18.858891739000043],[102.78329040500026,18.85821814000026],[102.78399009700016,18.857489899000043],[102.78558860800027,18.858037033000286],[102.78593812600022,18.856603333000052],[102.78714663700012,18.856627991000238],[102.7881225890001,18.8556121980003],[102.78961698900022,18.85564270000006],[102.78963520800025,18.854750000000095],[102.78961230500019,18.85362780800024],[102.79054563900004,18.853608765000175],[102.79165310700031,18.853878738000134],[102.79237249800022,18.854627502000085],[102.79347285500015,18.855348923000278],[102.79296893300003,18.856821167000234],[102.79530438200007,18.85714718600029],[102.79585749800012,18.858851685000104],[102.79635969500018,18.859374374000097],[102.79763143900024,18.859684401999985],[102.79761732500012,18.860375824000272],[102.79839173900027,18.860627121000093],[102.79934808300024,18.861622498000116],[102.79989515700012,18.861369324000137],[102.80060749800018,18.860627914000247],[102.8013570100002,18.860612610000047],[102.80162750200029,18.860872497999978],[102.80188140900017,18.861395859000112],[102.8028724980002,18.8623480830002],[102.80257293700018,18.862689728000234],[102.80211805700017,18.863126770000235],[102.80364900200013,18.86337600700017],[102.8046224980001,18.86387750200001],[102.80558279400023,18.86418911700021],[102.80587550400006,18.86538978600008],[102.80637249800023,18.864872498000082],[102.80662750200011,18.864627502000246],[102.8068724980001,18.864372498000023],[102.80762249800026,18.864008636000023],[102.80737750200026,18.86387249800012],[102.80627581800022,18.863514999000117],[102.80587249800007,18.86312750200021],[102.80562626600002,18.86287121600006],[102.8043810730002,18.86329742400015],[102.80436700400023,18.86260817000023],[102.80512759400008,18.86187741099998],[102.80512245200018,18.861625000000146],[102.80513249200001,18.861132645000183],[102.80462750200016,18.860872497999978],[102.80298275800024,18.860604752000114],[102.80262750200026,18.8598724980001],[102.80212249800005,18.859127502000092],[102.80162750200029,18.85837249800025],[102.80062750200025,18.857411713000246],[102.80140141300032,18.856959549000223],[102.80325788900038,18.857594986000123],[102.80362922700019,18.85687416100008],[102.80237852500025,18.85567250100013],[102.80236740100023,18.85512770100017],[102.80336286900015,18.85510739100019],[102.80444059800007,18.855662582000107],[102.80520095800026,18.854502838000073],[102.80636898800012,18.855294586000042],[102.80638731400009,18.854396698000272],[102.80567140200012,18.852631699000156],[102.80704882800015,18.852603592000236],[102.80787750200014,18.85287249800018],[102.80911892700018,18.853297424000175],[102.80912759400039,18.85287278700021],[102.8087476200001,18.85176268000002],[102.80928970300002,18.85119848600023],[102.81029307600008,18.851715378000193],[102.81085826100022,18.851127121000104],[102.81188609300014,18.85079357900004],[102.81185926800006,18.84947879000005],[102.81334056100016,18.848474686000102],[102.81433842500022,18.848988739000276],[102.81362750200017,18.846911713000196],[102.81418173200015,18.846587891000226],[102.81637229900011,18.846632599000017],[102.81637759400027,18.846372787000192],[102.8159345400002,18.845078339000025],[102.81660749800008,18.844377914000248],[102.81736233500013,18.844362503000212],[102.8178775020003,18.845122498000208],[102.81815808100023,18.846273483000147],[102.81921417200013,18.846785828000264],[102.81998393200033,18.848372498000174],[102.82018861400027,18.846241119000126],[102.81986743200017,18.84561764500006],[102.82051136800018,18.84436764500002],[102.81979856900026,18.84298397800019],[102.82080412300016,18.84162750200005],[102.82162750200015,18.841872498000072],[102.82253903200015,18.842490387000126],[102.82295196500033,18.840796555000125],[102.82513502500021,18.841741089000124],[102.82510733000012,18.84038439900013],[102.82591497800004,18.840107956000082],[102.82706735200011,18.84013147000026],[102.82864900200016,18.839873992999998],[102.82962249800025,18.83937249800016],[102.83091378800023,18.838953476000228],[102.83162249800014,18.83787249800004],[102.83211859100018,18.837395859000125],[102.83275505100008,18.836083969000214],[102.8352564850002,18.835474167000115],[102.83587750200016,18.83487750200004],[102.83659808300027,18.834127502000158],[102.83737249800012,18.835217270000086],[102.83700239600032,18.835836975000106],[102.83577581800014,18.836235001000006],[102.8351374970002,18.836848282000034],[102.83462750200019,18.838338287000127],[102.83487541200029,18.838883926000236],[102.83536425800023,18.837377502000123],[102.83601927200024,18.83769017000006],[102.83687249800013,18.83912750200014],[102.83737750200018,18.839872498000233],[102.83762550400027,18.84038368200025],[102.83803312700005,18.83912750200014],[102.83865419000014,18.839569351000023],[102.83862219200003,18.841137817000117],[102.83987219200006,18.841112305000237],[102.83990704300012,18.842820145000232],[102.83950994900002,18.84359097300033],[102.84084567300019,18.844024429000044],[102.84119561800034,18.845102814000185],[102.84316061400003,18.845377121000055],[102.84462249800012,18.84587750200015],[102.84763050800021,18.84614500400008],[102.84812750200021,18.846622498000244],[102.84837249800032,18.846877502000112],[102.84866262800008,18.847156250000083],[102.84861335800028,18.849570358000264],[102.8510000000002,18.84974999999993],[102.85113174400001,18.849344009000177],[102.8521101380002,18.848403992000115],[102.85311094700015,18.846877502000112],[102.85354521200011,18.847276642000097],[102.85458367900017,18.848357498000183],[102.85608828700012,18.848872498000247],[102.85711882000024,18.84840426600023],[102.85750424200015,18.847216507000184],[102.85862249800013,18.846142105000197],[102.85731240800007,18.846037262000223],[102.85671749900015,18.847870560000032],[102.85489566000032,18.847907745000185],[102.85445570400012,18.847053726000226],[102.85398350500023,18.844634872000015],[102.85314747600009,18.8446178130002],[102.85223620600007,18.845059906000188],[102.85187249800029,18.84612249800017],[102.85138749700022,18.847617096000207],[102.85061778300022,18.847632797000173],[102.85012750200016,18.847122498000132],[102.84864399700021,18.846149872000126],[102.84820986900021,18.845698029000232],[102.84687750200018,18.84462249800005],[102.84553369100027,18.844294907000034],[102.8458825070002,18.84361778300014],[102.84587240600004,18.84312278700004],[102.84631546000023,18.84182833900006],[102.8458775020002,18.841372498000084],[102.84538417100018,18.840898514000216],[102.84512240600029,18.83987713600017],[102.84513792400011,18.839117081000083],[102.84367904700011,18.839146851000237],[102.84287750200022,18.83887249800027],[102.84156485000025,18.83855250500008],[102.84112249800026,18.838127502000177],[102.84087750200032,18.83787249800004],[102.84003669700022,18.837064667000078],[102.84085522500007,18.8353775020002],[102.8416275020002,18.835622498000035],[102.84260855100021,18.836127884000106],[102.84362500000017,18.836107146999993],[102.84512219200022,18.83613769500012],[102.84513520800007,18.83550000000021],[102.84512240600029,18.834872787000094],[102.84546244800023,18.83387933300014],[102.84437623600016,18.833857162000257],[102.84400683600015,18.835372498000226],[102.84237249800012,18.83487750200004],[102.8410596470001,18.83388131700012],[102.84062500000019,18.833872452000193],[102.83941639700024,18.833897110000095],[102.83907547000004,18.83180290200019],[102.83837249800015,18.831127502000086],[102.83812750200016,18.830872498000133],[102.83774499500001,18.83050500500019],[102.83737750200018,18.830122498000065],[102.83662200900008,18.829396637000144],[102.83663801600008,18.828611984000233],[102.83538525400016,18.828637543000212],[102.83502598600003,18.827940140000152],[102.83776068100028,18.827406281000222],[102.83862750200032,18.826127502000105],[102.83897164900017,18.825066971000282],[102.8398877110001,18.82462254300019],[102.83986770600026,18.823642441000104],[102.84037249800011,18.82287249800008],[102.84062750200022,18.82262750200023],[102.84109600800016,18.822139862000213],[102.84193048100022,18.821592758000065],[102.84262249800034,18.820872498000156],[102.84287750200022,18.820627502000136],[102.84324499500028,18.820244995000195],[102.84387249800014,18.819642105000227],[102.84229550200021,18.81951590000017],[102.8416423030001,18.820862305000105],[102.8411177830001,18.821132507000257],[102.8404018550003,18.82111788900012],[102.83912249800031,18.82162249800004],[102.83787750200017,18.82262750200023],[102.83713031000016,18.822990005000122],[102.83711990400016,18.823500000000223],[102.83714790300027,18.82487197900005],[102.83565918000002,18.824902359000077],[102.83465229800012,18.824219849000187],[102.83430841100025,18.8259814300001],[102.83302977000008,18.826951660000077],[102.83262417600017,18.826115646000275],[102.8322690580001,18.827572342000195],[102.83095463600031,18.828022232000023],[102.83062249800028,18.827377502000147],[102.8300160680001,18.826127502000105],[102.82987249800024,18.826372498000126],[102.8296124420003,18.828500732000265],[102.82784703100006,18.829840317000077],[102.82714720200013,18.828397797000193],[102.82586453200022,18.82773703000005],[102.82590300000024,18.829621872000217],[102.82537500000015,18.829632660000215],[102.82437010200024,18.829612152000124],[102.8237524570001,18.830885254000123],[102.82310336300011,18.830872009000274],[102.82166171300022,18.83237249800007],[102.82064381400014,18.831910004000264],[102.81980296300028,18.830627502000112],[102.81936230500023,18.83087829600008],[102.81939030500021,18.83225000000006],[102.81858577000017,18.832640320000024],[102.81764173900015,18.83362287900023],[102.81687249800027,18.83387249800019],[102.81555462600002,18.83487249800025],[102.81510743700025,18.834360260000224],[102.81513249200029,18.833132644999992],[102.81462750200015,18.832872498000057],[102.81319572400017,18.83217787200013],[102.81281778000007,18.830627502000112],[102.81262249800008,18.830872498000133],[102.81237750200015,18.831377502000265],[102.81162843300015,18.832831558000223],[102.81161749300023,18.83336778300027],[102.81229476900032,18.834682495000152],[102.81086734000016,18.83537500000017],[102.81091784700018,18.83784913600006],[102.8103677830002,18.838132507000154],[102.80982746900011,18.838121475000122],[102.80613150000019,18.839068680000167],[102.80612211600013,18.838608551000107],[102.8068724980001,18.837151917000014],[102.80662553400029,18.83636624100002],[102.80614140300011,18.83736413600026],[102.80587249800007,18.83762249800023],[102.80468524200015,18.839622498000068],[102.80288082900026,18.83928573600018],[102.80286750800022,18.83863264500023],[102.80337249800007,18.838372498000297],[102.80434127800018,18.83790249600021],[102.80562249800008,18.836671524000238],[102.80528099100033,18.835906250000065],[102.8036250000001,18.835872452000203],[102.80300000000025,18.835885208000192],[102.80164648400014,18.83585757400013],[102.79943005400028,18.83661622600019],[102.79875000000007,18.836630096000093],[102.7981474760002,18.83661781300006],[102.79745416300014,18.836954163],[102.79688749700014,18.8381221920001],[102.79563481100016,18.83814776600026],[102.79512240600022,18.836377167000038],[102.79514790300007,18.83512750200012],[102.79487249800033,18.835622498000035],[102.79460440100033,18.838637329000264],[102.7938727870002,18.8386224060001],[102.79312417600008,18.83887863200016],[102.79237500000025,18.83837080400015],[102.79162750200013,18.838877502000244],[102.79037249800032,18.83937249800016],[102.78905462600025,18.84037249800012],[102.78791041600007,18.840071762000107],[102.78753149400026,18.838130737],[102.78688780200011,18.838117615000158],[102.78587817400015,18.839087631000126],[102.78554692100008,18.841122498000274],[102.78510049400009,18.840864792000175],[102.78439585900034,18.84013140900025],[102.78361999500018,18.8397550050001],[102.78266174300009,18.83926135300011],[102.78232417300015,18.84236837800033],[102.7816250000001,18.84238266000027],[102.78087417600025,18.84236732500007],[102.7805353550003,18.843411438000217],[102.77862500000023,18.84337245200001],[102.77789669800009,18.843387313999997],[102.77651080300038,18.842825165000107],[102.77491420000015,18.843371643000296],[102.77415576200022,18.84338713100007],[102.77186425800014,18.84272396900009],[102.77189790300017,18.8443719790002],[102.77055081200015,18.84439947500026],[102.76982490500026,18.84329228200022],[102.7655367970003,18.84381626900023],[102.76416505400019,18.84428578200017],[102.76164917000014,18.842989716000133],[102.76012750200007,18.842372498000046],[102.75887944000002,18.841967499000205],[102.7588698960001,18.841500000000153],[102.75888750500016,18.840637253000097],[102.75837239800026,18.83987735000028],[102.75837754800014,18.839625000000098],[102.75837245200009,18.83937500000019],[102.75837759400017,18.83912303200013],[102.75793569900029,18.836532333000093],[102.7593724980002,18.835372498000226],[102.76058236700007,18.835077560000244],[102.76193824800006,18.834158463000136],[102.76364185300022,18.833825897000153],[102.76361750000027,18.83263264500019],[102.76412249800003,18.83237249800007],[102.7646642300002,18.832109680000002],[102.76561043500024,18.83112486300014],[102.76716563400012,18.830821243000244],[102.76788780200027,18.830127411000035],[102.76787220000026,18.829362976000112],[102.76862780000013,18.828637024000173],[102.76861230500012,18.82787780800024],[102.76937500000022,18.8278622440001],[102.77062254300026,18.827887711000344],[102.77096974200018,18.827172073000114],[102.77189280700011,18.82687252800011],[102.77186230500016,18.82537780800007],[102.77310817000031,18.82535238600009],[102.77360789500008,18.825872498000237],[102.77387750200026,18.825627502000117],[102.77413140900015,18.825104141000068],[102.77488250700023,18.824382507000223],[102.77538702400031,18.823857391000118],[102.77663281200014,18.82388281200018],[102.77662220800036,18.823362976000155],[102.77738279700012,18.822632217000177],[102.77736761500032,18.821887802000134],[102.77792822300032,18.821304291000175],[102.77905299400024,18.821689285000147],[102.77937750200024,18.82137750200019],[102.77985826100016,18.820877121000265],[102.78086889600016,18.82054916400004],[102.78087754800018,18.820125000000218],[102.78086230500017,18.819377808000112],[102.7818629760001,18.81935739100011],[102.78212249800018,18.81962750200026],[102.78237750200012,18.819872498000194],[102.78284056100026,18.82035446200028],[102.78320249900017,18.81813107300026],[102.78437500000021,18.81810714700005],[102.7860419460001,18.81814115900002],[102.78645805400024,18.816858841000155],[102.78762229900022,18.81688259900025],[102.78763009600024,18.816500000000218],[102.78761761500019,18.81588780200019],[102.78851504500008,18.81495372000026],[102.78937249800006,18.814372498000225],[102.79028306600017,18.814077011000194],[102.78982440200016,18.812736954000073],[102.79048393200011,18.811377502000212],[102.79162750200013,18.811622498000332],[102.79282711800019,18.81192994700028],[102.79337258900026,18.811362198000012],[102.79437121600031,18.811382568000198],[102.79592601000016,18.81012750200017],[102.79662750200029,18.81037249800002],[102.79748260500006,18.8109521330001],[102.79812249800025,18.810622498000185],[102.79946676600011,18.810294800000165],[102.79987249800004,18.809872498000033],[102.8008903050002,18.809624374000208],[102.80161749300018,18.808867493000193],[102.8026642300002,18.808359680000095],[102.80383367899995,18.807142502000104],[102.8046224980001,18.806872498000146],[102.80575500500018,18.806505005000304],[102.80643838500023,18.80579373200007],[102.8093724980001,18.804636444000053],[102.80903045700015,18.804267944000117],[102.80759025600028,18.8046370390002],[102.80522125200017,18.804588699000107],[102.80339146400033,18.805214996000146],[102.80137750200012,18.80562750200008],[102.79987249800004,18.805872498000284],[102.79841420000034,18.80637164300019],[102.79756321700009,18.806389023000207],[102.79396908600026,18.806069397000044],[102.7935639340001,18.803167191000085],[102.79307885700015,18.801750000000155],[102.79337759400025,18.80087721300015],[102.79337245200017,18.800625000000153],[102.79338775600021,18.799875000000085],[102.79336721800027,18.798868347000024],[102.79390606700011,18.79729402200023],[102.79115872200018,18.796402496000184],[102.79087249800003,18.796127502000175],[102.79050500500014,18.79574499500032],[102.78987791400024,18.795142502000203],[102.78987211600011,18.794858551000246],[102.79082273900016,18.793013229000252],[102.7895282750001,18.79213578800021],[102.78862500000028,18.79211734000019],[102.78812265000002,18.79212759400015],[102.78737750200028,18.79162249800011],[102.78563186600027,18.79058624300025],[102.78560285900008,18.789165085000178],[102.78612249800008,18.788372498000143],[102.78730984500012,18.787231720000165],[102.78487968400012,18.78772946200023],[102.78487245200014,18.78737500000021],[102.78488775600019,18.786625000000143],[102.78486224400021,18.7853750000002],[102.78490451000013,18.78330410800018],[102.7836579900002,18.78248686200024],[102.78337750200009,18.781622498000132],[102.78287136800023,18.780875824000162],[102.78325808700023,18.779746002000294],[102.78176010100012,18.779259903000224],[102.78124761999996,18.77776268000015],[102.78162249800008,18.77737249800002],[102.78487249800006,18.777107529000304],[102.78437750200024,18.776622498000137],[102.7831789250001,18.776233551000203],[102.78408000200014,18.774484390000154],[102.78337750200009,18.774122498000054],[102.78212750200024,18.773716873000154],[102.78262249800005,18.77337249800027],[102.7839137880002,18.77295347600014],[102.78462249800006,18.77187249800005],[102.78525833100016,18.770934509000156],[102.78215692100017,18.770429626000222],[102.78187121600004,18.769875000000155],[102.7824179080001,18.768813751000195],[102.78212750200024,18.767622498000122],[102.78176539600028,18.766209564000192],[102.78509648100012,18.765397491000243],[102.78557589700026,18.764936890000143],[102.78458276400013,18.764614594000122],[102.78362750200009,18.764122498000077],[102.78212750200024,18.763756836000027],[102.78237249800034,18.763372498000194],[102.78300756800022,18.762435608000217],[102.78187780800019,18.761887512000072],[102.78185945100009,18.760988342000104],[102.78212249800018,18.75937249800026],[102.78274716200016,18.758450958000225],[102.7811439970001,18.757399872000022],[102.78087750200027,18.757122498000257],[102.7792298580001,18.756472626000047],[102.77887249800008,18.754377502000068],[102.77850622600002,18.752127502000064],[102.77787249800022,18.752372498000085],[102.7769094390002,18.7530253300001],[102.77595692400021,18.752534637000082],[102.77515599100028,18.75336825600023],[102.77372535700013,18.753832489000175],[102.7708775020001,18.756568665000174],[102.77112249800021,18.75662750200007],[102.77456665000025,18.756964354999965],[102.77512249800023,18.758588287000038],[102.77487750200024,18.759127502000155],[102.77437791400021,18.759607513000162],[102.77436224400023,18.760375000000252],[102.77587249800004,18.760743164000075],[102.77561137400019,18.76115280200004],[102.77503462200016,18.761706940000053],[102.77562249800022,18.762848083000065],[102.77512750200029,18.764627502000124],[102.77449923700001,18.765554321000153],[102.77589273100031,18.766381531000206],[102.77586735500014,18.767624451000287],[102.77762249800017,18.768666351000164],[102.77732426500009,18.769532043000027],[102.77662249800008,18.769872498000225],[102.77637750200009,18.77012750200018],[102.77548732000017,18.770982758000244],[102.77462249800001,18.77212249800013],[102.77429583700015,18.773129166000118],[102.7724358520002,18.77423329200016],[102.77206288100004,18.776524429000204],[102.77101655600026,18.777063431000116],[102.76740091700006,18.777137222000093],[102.76647429700014,18.77682005300005],[102.76541343700009,18.77736656200024],[102.76462918100006,18.77738256800015],[102.76330461900014,18.776377502000116],[102.76287249800001,18.776872498000316],[102.76216750300003,18.778325668000292],[102.7618775020002,18.77862750200012],[102.76162249800021,18.77887249800014],[102.76078880300028,18.779740234000002],[102.75982732400021,18.779088486000163],[102.75787750200007,18.77946913100031],[102.7581255870002,18.779882645000242],[102.75959660300029,18.779852615000152],[102.75987750200025,18.78012249800001],[102.76059689300021,18.780871262000232],[102.76181088300027,18.781167206000205],[102.7622020030004,18.782372498000015],[102.76237750200036,18.782127502000165],[102.76272650100029,18.779627502000082],[102.76456671100019,18.780019211000166],[102.76487750200008,18.78062249800017],[102.76512318400015,18.781880981000114],[102.76698571000023,18.780377502000235],[102.76814650000009,18.780696396000067],[102.76811740100007,18.782122299000008],[102.76886274000012,18.782137512000105],[102.76987083400033,18.781454163000234],[102.77187750200008,18.781127502000032],[102.77352650500009,18.780127502000155],[102.77412249800031,18.780968018000152],[102.77361631800014,18.781898056000188],[102.7728975070003,18.78258868400023],[102.77250994900018,18.783340973000122],[102.7733775020001,18.783622498000057],[102.77414456200009,18.784142456000183],[102.77718598900017,18.784080383000187],[102.77787249800022,18.78512750200005],[102.77848620600022,18.78603286700009],[102.77761749300018,18.78686749300023],[102.77712750200024,18.787377502000055],[102.77637811300022,18.78809750400012],[102.77636453200014,18.788762970000207],[102.77808338900022,18.787877502000043],[102.77937249800007,18.78827522300017],[102.77912750200008,18.790127502000047],[102.7787908780002,18.792101012999993],[102.78012249800022,18.792533127000226],[102.77987750200012,18.793627502000092],[102.77945257600024,18.79486892700004],[102.78037500000008,18.794887756000094],[102.78234140000015,18.79484762600015],[102.78315802000023,18.795632217000133],[102.78310209700001,18.79837249800012],[102.78387750200025,18.7981275020001],[102.78486898800023,18.797455414000083],[102.78488775600019,18.79837500000015],[102.78486750800008,18.7993673550001],[102.78537249800033,18.799627502000035],[102.78665780600008,18.79994082600021],[102.78786013800007,18.801096008000044],[102.7884419710002,18.801983459000283],[102.78962750200029,18.803122498000022],[102.78987249800034,18.80337750200026],[102.79037249800032,18.803857895000206],[102.79004881300025,18.80454438800008],[102.78877121000025,18.805164215000204],[102.78824348400028,18.806790497000208],[102.78737750200028,18.80737750200028],[102.78687249800024,18.80762249800003],[102.78653155500021,18.807977371000263],[102.78352287300012,18.809095306000216],[102.78286749300034,18.810367493000044],[102.78237750200012,18.811377502000212],[102.78102290300032,18.81218162500022],[102.77958895900022,18.813153625000183],[102.77862249800032,18.813622498000157],[102.77771014400028,18.814092499000054],[102.77616171300016,18.81462249800012],[102.77382180800001,18.814116547000182],[102.77175735500029,18.81305302400021],[102.77107968100015,18.813402130000043],[102.76733954600022,18.813325806000222],[102.76562750200034,18.813743164000286],[102.76587249800016,18.81387750200021],[102.76787750200023,18.81412249800023],[102.7688724980002,18.814877502000087],[102.77111869800027,18.81519107100027],[102.77115213000022,18.81682968100023],[102.77036201500036,18.818363449000117],[102.77039440900003,18.819951202000127],[102.76832399000014,18.82162249800004],[102.76761290000027,18.820842880000015],[102.76764279900019,18.819377914000214],[102.76712334400028,18.819367310000132],[102.76679750100024,18.821368927000194],[102.7662452930002,18.821380203000146],[102.76476606800028,18.820377502000227],[102.76274417100015,18.821497543000092],[102.76226201600022,18.822983368000195],[102.76105722800017,18.82206918300014],[102.7600827640002,18.82238539100028],[102.75907015200025,18.822907043000185],[102.75714748400006,18.82286781300013],[102.75662249800027,18.82312249800016],[102.75630914300027,18.824088135000025],[102.75351461800014,18.82527441400022],[102.75230296300006,18.82712249800018],[102.75136788200015,18.826098740000205],[102.75138752000018,18.82513661200018],[102.75012750200008,18.8243724980002],[102.74937249800027,18.82412750200018],[102.74862500000032,18.82387164300023],[102.74787722000033,18.824127594000274],[102.74714174700014,18.824112579000186],[102.74615190900013,18.824622498000195],[102.74562249800002,18.824377502000075],[102.74465190900023,18.8238775020001],[102.74411985800012,18.82462622100023],[102.74512249800014,18.825112656000243],[102.74480875400005,18.8260921170001],[102.74337249800001,18.826372498000126],[102.74237750200021,18.827127502000238],[102.73987249800027,18.827372498000088],[102.73912750200023,18.827627502000226],[102.73387249800001,18.82812249800024],[102.73335825300003,18.82838742100013],[102.73090625000029,18.828337372000163],[102.73039250200011,18.82887208600026],[102.72989131200026,18.828882324000134],[102.72887750200019,18.82862249800013],[102.72671246300021,18.828357940999993],[102.72562403900022,18.827620148000236],[102.72511013000022,18.828403992000162],[102.72462249800023,18.828872498000024],[102.72420274400011,18.829737701000212],[102.72129207600025,18.829331375000066],[102.71922562400025,18.82793061800008],[102.71848143000003,18.82754725600016],[102.71758009300007,18.82841325400004],[102.7205354920001,18.830115356000007],[102.72258130600008,18.8304009550001],[102.72490229000019,18.83134239200011],[102.72687500000026,18.83138266000006],[102.7283527220001,18.83135249300014],[102.72962249800023,18.832377502000128],[102.73012750200022,18.832622498000248],[102.73058867600022,18.83310249300034],[102.73176104000024,18.833706451000225],[102.73273261300025,18.83304786700009],[102.73337650300019,18.83337956200009],[102.73375490600009,18.832599594000214],[102.73584873200022,18.8326423190002],[102.73638221700023,18.832367493000106],[102.73735825300034,18.83238742100015],[102.73788221700013,18.832117493000197],[102.73886779000028,18.83213760400018],[102.7395980910002,18.831377502000265],[102.74137750200023,18.831622498000186],[102.74295861100026,18.832263840000138],[102.74467601000006,18.83087750200019],[102.74587750200024,18.831372498000206],[102.74650000000028,18.831693176000172],[102.74725000000015,18.83130682400001],[102.74804962900023,18.831718750000164],[102.74885749800009,18.83087791400004],[102.7496047520003,18.830862656000022],[102.75150080100022,18.83168301400022],[102.75337750200006,18.831377502000265],[102.75392032600021,18.83109787000022],[102.75537722000004,18.831127594000094],[102.75616498600024,18.83085795600026],[102.75760331000023,18.830887314000208],[102.75947650900022,18.830127502000124],[102.76012032300022,18.830520859000075],[102.76013250000014,18.83111735500023],[102.7596275020002,18.831377502000265],[102.75811250300015,18.832112503000232],[102.75662750200004,18.8328775020002],[102.75584875500007,18.833130203000152],[102.75437750200004,18.834127502000158],[102.75337750200006,18.834783127000136],[102.75362249800017,18.83512750200012],[102.75507303600031,18.83548111000006],[102.7545080950002,18.838793243000197],[102.75500499700027,18.840244995000234],[102.7554950030001,18.841755005000024],[102.75605197100018,18.84229013100007],[102.75712750200003,18.843622498000087],[102.75759638200017,18.844588959000205],[102.75837249800028,18.845733932000172],[102.75769011700018,18.846621124000038],[102.75689299800004,18.84663739000014],[102.75636750000027,18.84613250700002],[102.7555100020002,18.84524000500008],[102.75438749700007,18.844161514000106],[102.75412249800016,18.843127502000257],[102.75372701300032,18.841101654000056],[102.75262249800019,18.84037750200018],[102.75237750200009,18.840122498000042],[102.75141103400026,18.839653625000068],[102.75026606800029,18.838877502000244],[102.74995657300016,18.839944595000162],[102.75037415300025,18.840379227000057],[102.75105619000013,18.840027878000214],[102.75187249800015,18.840877502000254],[102.75286743200033,18.84152980000013],[102.75316217000031,18.844242630000238],[102.75435072300004,18.84717283600004],[102.75362249800017,18.847872498000285],[102.75320674100013,18.848305222000207],[102.75062249800013,18.848872498000247],[102.74962750200021,18.849127502000215],[102.74812750200024,18.849493163999995],[102.74855396300038,18.850597336000234],[102.74937582400017,18.85087863200023],[102.75046395900026,18.850141037000043],[102.75261677600011,18.85009710700014],[102.75264723200033,18.851589203000145],[102.75187750200021,18.853083389000233],[102.75217998500031,18.85437249800013],[102.75237750200009,18.854127502000196],[102.75312249800018,18.85287249800018],[102.75416864000024,18.85253302000025],[102.75381493400013,18.851152878000008],[102.75527972400025,18.85055873100015],[102.7571224980002,18.851924759000013],[102.7567229690001,18.853070740000064],[102.75612750200034,18.853377502000043],[102.75487750200026,18.853783127000128],[102.75512249800013,18.854877502000164],[102.75712120100022,18.8560639800002],[102.7571381990002,18.856896637000162],[102.7559897990001,18.85800000000006],[102.75687249800004,18.858848083000154],[102.75646380600008,18.859314194000092],[102.75562249800001,18.86012249800018],[102.75525000000019,18.860750000000053],[102.75651751700016,18.860502563000097],[102.75788138600032,18.85881298800018],[102.75786770600027,18.85814244100004],[102.7588609470001,18.856627502000194],[102.7596275020002,18.85687249800003],[102.7612463610001,18.857529144000182],[102.75987750200025,18.855725143000228],[102.76037249800018,18.855122498000284],[102.76062750200023,18.854877502000164],[102.76087249800017,18.854622498000026],[102.7619562150002,18.854358307000112],[102.76249235500026,18.85279194600018],[102.7616305240002,18.851520523000232],[102.76161275500013,18.85064999400015],[102.76260733000018,18.849133011000134],[102.76360439300007,18.849112671000043],[102.76388884700023,18.852311356000115],[102.7646275020002,18.850877502000145],[102.76511264800016,18.849877502],[102.76559628300024,18.850324875000155],[102.76612249800033,18.85112750200004],[102.7663775020001,18.85137249800006],[102.76675490600016,18.851765305000143],[102.76785336300028,18.85062200900005],[102.76861779000004,18.850637604000184],[102.7691225890002,18.850112198000062],[102.77000000000024,18.850130096000115],[102.77169696000013,18.850095474000184],[102.7756176610001,18.85039057900009],[102.77563035600016,18.851012253000192],[102.77312750200011,18.852226517000204],[102.77437321500017,18.85237759400009],[102.77537208600032,18.85235720800027],[102.77538249200009,18.8528673550003],[102.77394250500006,18.853609161000207],[102.77162750200026,18.85426211500024],[102.77212249800007,18.854627502000085],[102.77333236700011,18.85492244000025],[102.77437249800008,18.855627502000047],[102.77537750200011,18.855872498000068],[102.7761224980002,18.856127502000305],[102.77745967100029,18.856561417000137],[102.77812249800004,18.857848083000192],[102.7775534360002,18.858497070000254],[102.77612750200026,18.859554123000223],[102.77637249800031,18.85987750200016],[102.77807926900019,18.860293579000214],[102.77844317600031,18.861000000000132],[102.77786749300017,18.862117493000227],[102.77723529100021,18.863420624000213],[102.77467434700011,18.863368347000062],[102.77336662300021,18.863623642000135],[102.77462249800001,18.864447037000232],[102.77412750200008,18.86487750200014],[102.77287750200006,18.865182220000136],[102.77339842200016,18.865597412000028],[102.77487721300022,18.86562759400003],[102.77633828700024,18.86512750200005],[102.77638975500022,18.865777145000067],[102.77632926900017,18.868741043000156],[102.77739250200003,18.8701422730001],[102.77736990400032,18.871250000000273],[102.7773877560002,18.87212500000011],[102.7773675840003,18.873113144000243],[102.7776285250001,18.873875504000267],[102.77727923600017,18.874553558000144],[102.77962249800024,18.876411362000198],[102.77937750200024,18.87712750200022],[102.77886248800027,18.877887253000196],[102.77889030500015,18.879250000000056],[102.77811618000013,18.879625565000225],[102.77754750100027,18.88311892700017],[102.77667158500017,18.88313681000014],[102.77584400900017,18.882868256000123],[102.77489250200026,18.88187791400007],[102.77436807300026,18.881867203000155],[102.7733011020002,18.88241685500016],[102.77041497800022,18.882357956000178],[102.76961314400015,18.882632416000234],[102.76875250200013,18.88261485300002],[102.76912249800031,18.883377502000158],[102.7708775020001,18.883622497999994],[102.77262249800017,18.884377502000206],[102.77412750200008,18.88462249800014],[102.77486999500033,18.885005005000167],[102.77636953700014,18.885732498000237],[102.77639267000009,18.886865601000196],[102.7756275020001,18.887127502000098],[102.77410813900033,18.88762052900013],[102.77512219200023,18.88811250300016],[102.77514160200022,18.88906312600021],[102.77356485000016,18.889447495000127],[102.77311904900003,18.889875824000214],[102.77389535500023,18.890252457000116],[102.77386740100022,18.89162258900015],[102.77462249800001,18.89234808300013],[102.77415406800023,18.893838318000064],[102.77352520800034,18.894766037000267],[102.7738724980002,18.89512750200015],[102.77437249800008,18.895607895000197],[102.77396220400018,18.896478088000165],[102.77184793100028,18.896117462000262],[102.7708775020001,18.897127502000075],[102.76989923100027,18.89806741300022],[102.76950000000002,18.89889030500028],[102.76795806100014,18.898858841000063],[102.76754358700012,18.900136093000228],[102.76637760200023,18.900112297000035],[102.76537750200023,18.90062750200022],[102.76437963900017,18.90111161000003],[102.76372512100014,18.90210992400003],[102.76116038500018,18.90273515300025],[102.76085399600024,18.90586777500019],[102.76036298400012,18.905877800000212],[102.75921785000023,18.90468592800019],[102.75762750200025,18.905202003000085],[102.7578724980003,18.905627502000115],[102.75837209300013,18.90610749800021],[102.75838250000018,18.906617348000125],[102.75768724800022,18.90697551000018],[102.75643532600023,18.9056724780001],[102.75605839500011,18.908372498000034],[102.75562249800001,18.908127502000198],[102.75423388700025,18.907006569000174],[102.75364250200025,18.90762209300003],[102.75293564600028,18.907636520000068],[102.7525126570001,18.905901405000122],[102.75013528400004,18.905495903000244],[102.75012240600014,18.906127220000158],[102.75062249800013,18.90758828700025],[102.74991078200023,18.90764466900012],[102.74937249800027,18.90712750200005],[102.74895806100025,18.906696144000065],[102.74854583000015,18.907545830000203],[102.74742933700023,18.908087502000086],[102.7468585890002,18.90863586400016],[102.74614141100008,18.910114136000075],[102.74512750200009,18.911088287000126],[102.74587249800018,18.911377502000164],[102.74712249800027,18.911783127000064],[102.74647381600013,18.913872498000003],[102.7442247700001,18.912956154000042],[102.74330429100027,18.912071770000054],[102.74387249800012,18.9104117130001],[102.743407555,18.90891397900016],[102.74312584700013,18.908620773000067],[102.74221177700028,18.90909166000003],[102.7411224980003,18.908377502000093],[102.74019588500008,18.90712750200005],[102.74012249800015,18.90737249800017],[102.73980249800005,18.908685150000153],[102.73870015000014,18.90983249700014],[102.73807967400015,18.9101521380002],[102.73612916600015,18.91011232800011],[102.73535012800019,18.911300560000015],[102.73337249800014,18.911622498],[102.73241171300006,18.912622498000147],[102.73186160300011,18.912156487000217],[102.73189221200025,18.91065650900019],[102.73109130100002,18.908805397000066],[102.73142014300007,18.906877502000157],[102.73112249800013,18.907122497999993],[102.73036572300023,18.90827677900002],[102.72812750200004,18.90936264800007],[102.72838968700015,18.909913620000182],[102.72937209300008,18.910857498000126],[102.72938259900005,18.911372292000266],[102.72795253800032,18.911401482000286],[102.72661979700015,18.91075490599998],[102.72662754800021,18.910375000000172],[102.72662245200033,18.910125000000093],[102.72663210300013,18.909651855000106],[102.72604152700004,18.908154518000217],[102.7245988240002,18.907872878999996],[102.72251470900025,18.90679924000007],[102.72151874500017,18.90731230900016],[102.72009913600024,18.90662358900002],[102.7186617130001,18.905127502000227],[102.71814925400011,18.905561615000252],[102.71811734800022,18.907125000000022],[102.71814279900028,18.908372086000185],[102.71739299800007,18.9083873900003],[102.71662721300018,18.907651634000075],[102.71629857600018,18.90596820800006],[102.71520390300012,18.90540428200012],[102.71487249800012,18.90637249800021],[102.71451999700017,18.907458778000105],[102.71364250200034,18.90837209300018],[102.71288266800016,18.908387596000225],[102.71262249800012,18.90762750200004],[102.71237549600013,18.90686632500021],[102.71188735200022,18.90787249800023],[102.7108907700003,18.907398262000257],[102.71036364000028,18.90637500000024],[102.71112249800021,18.90490190900003],[102.71072254200013,18.903629539000093],[102.71013779400025,18.90361760700017],[102.70938495600032,18.90434092700015],[102.70868225900026,18.90612249800003],[102.70813456700003,18.905689308000163],[102.70779220600005,18.903935585000184],[102.70687750200003,18.903622498000132],[102.70610825300017,18.90337287900026],[102.7051274030002,18.90235199000017],[102.70343564200019,18.902386520000178],[102.7029558370003,18.900418335000225],[102.70056113100023,18.9000840300001],[102.69987749900034,18.899372498000204],[102.69962250100016,18.89912750200027],[102.69937749900018,18.898872498000046],[102.69862250100024,18.898377502000216],[102.6983774990002,18.898122498000163],[102.69669221500013,18.897457779000135],[102.69568375000026,18.896128754000046],[102.69533298100018,18.89468988],[102.69437790700013,18.895607498000075],[102.69434438700026,18.897250000000184],[102.69597387700017,18.898040543000036],[102.69683054400016,18.89980632800021],[102.69843515400024,18.900197502000168],[102.69984750000006,18.901554459000266],[102.70056868400022,18.904368500000217],[102.69939819700019,18.904392387000144],[102.69887712100004,18.903891747000117],[102.69838583400028,18.902377769000083],[102.69787953600022,18.9023674390002],[102.69594669000017,18.903757538000107],[102.69550999800018,18.901520615000038],[102.69500000000008,18.900989799000257],[102.6942960010002,18.901722527000047],[102.69260522800019,18.900718842000217],[102.69264238400032,18.89889819300012],[102.69237749900034,18.898622498000137],[102.69212250100028,18.898377502000216],[102.69169728500017,18.89793492100027],[102.69011043200018,18.897625137000134],[102.68962259700024,18.897117401000045],[102.68863525000015,18.897137543000113],[102.68787749900034,18.89566661100018],[102.68820430400021,18.895274292000224],[102.68912287900034,18.894391739000113],[102.68949599800001,18.893241913000196],[102.69087066300008,18.89371244800023],[102.69087755200022,18.89337500000019],[102.69087240200017,18.89312278700011],[102.69125808000027,18.89199600200004],[102.68963698200034,18.891469940000036],[102.69054117200008,18.89013604700007],[102.68985854300021,18.89012211600007],[102.68840191300004,18.890872497999993],[102.68798252100024,18.890129517000062],[102.68882196800016,18.88850000000015],[102.68721388200024,18.887445694000135],[102.68631204200003,18.886579224000215],[102.68662250100013,18.88562249800019],[102.68688131300021,18.88486636400006],[102.68611868700029,18.884133636000186],[102.68653578600006,18.88291505400018],[102.68537749900017,18.880666611000123],[102.68607829700014,18.880250214000213],[102.68762250100028,18.881296967000054],[102.68737749900018,18.880622498000022],[102.68611032500021,18.87905271900017],[102.68556119500008,18.877448395000215],[102.687122501,18.877067780000246],[102.68687749900008,18.87662249800009],[102.68639749900015,18.876161316000122],[102.68586229700011,18.875122406000045],[102.68588770700009,18.873877457000063],[102.68535413700019,18.873618591000238],[102.68466156800005,18.87289775100001],[102.68337902100009,18.871947006000127],[102.68336230100013,18.871127808000026],[102.6841250000002,18.87111224400016],[102.68537218900028,18.871137695000314],[102.6853873860002,18.870392990000155],[102.68490171400006,18.86988749700025],[102.6841274990002,18.86962249800017],[102.68272211800027,18.869348145000117],[102.68211859100026,18.868104141000046],[102.68087831500023,18.86691250600022],[102.68086760700024,18.866387802000048],[102.6811370200002,18.86610739100003],[102.68265159600011,18.86613829000001],[102.68095734800002,18.865027496000124],[102.68037211200019,18.863891449000178],[102.68038233200005,18.863390762000236],[102.67916000000034,18.86174185200005],[102.67746299400008,18.860591522000078],[102.67620463900025,18.861022232000195],[102.67587240200018,18.860377304000124],[102.67587755200023,18.86012500000021],[102.67587244800009,18.85987500000013],[102.67587759400007,18.859622864000315],[102.67555878800019,18.858378906000155],[102.67684812500019,18.85835258500002],[102.67832749900018,18.85935539200021],[102.67983579600022,18.859871643000204],[102.68099552900034,18.859895309000123],[102.67962250100024,18.858877502000198],[102.6793774990002,18.85862249800023],[102.6786281130002,18.857902496000264],[102.67862244800008,18.857625000000127],[102.67863760800017,18.856882217000035],[102.67824499900021,18.856505005000088],[102.67739663300009,18.855622009000214],[102.67637740300015,18.855642807000166],[102.67564250200016,18.8548779140002],[102.67488572700026,18.854862457000166],[102.67369961200026,18.855762482000202],[102.67337250100022,18.855127502000244],[102.67312749900017,18.854122498000223],[102.67194641700016,18.852565979000133],[102.67280196600015,18.85167550700018],[102.67483828400006,18.852372498000022],[102.67737915800004,18.852127335000176],[102.67703756000029,18.851129333000102],[102.67775000000009,18.85111479200006],[102.67881494900021,18.851136536000254],[102.68052015300023,18.85072084000015],[102.68088139000011,18.850373764000025],[102.67971651100018,18.84999575800019],[102.67863221000007,18.848867203000168],[102.67736779000009,18.848893005000164],[102.67639174700017,18.84787712100014],[102.67535883700006,18.84754194600002],[102.67537760200011,18.84662251300024],[102.67376190900009,18.846307098000167],[102.67337749900017,18.845122498000208],[102.67137957600025,18.84447416700013],[102.67136989800022,18.844000000000065],[102.67138246300001,18.843384247000273],[102.67062500000017,18.842870804000157],[102.66952004800012,18.84361979700023],[102.66836720500001,18.841381926999986],[102.66839238400033,18.840148193000218],[102.66764914100011,18.839374619000253],[102.6647633800001,18.83909237700017],[102.66387286000017,18.837734116000235],[102.66213359600013,18.83689030500004],[102.66185796000022,18.836085022000205],[102.6618823910002,18.834887801999997],[102.66162750100008,18.834622498000073],[102.66072164300024,18.834183029000044],[102.66015733900022,18.832444046000134],[102.65978086700025,18.834372498000178],[102.65885828600008,18.833819000000034],[102.6588775500002,18.832875000000087],[102.65887245000013,18.832625000000277],[102.65888200400022,18.83215678400026],[102.65862750100021,18.831372498000206],[102.65759739900031,18.83001495400005],[102.65712249900017,18.828627502000188],[102.65677103800013,18.8275444180001],[102.6543796230001,18.82597654700014],[102.65436200900032,18.825113449000128],[102.65537788700024,18.823141449000303],[102.65537244900017,18.82287500000011],[102.65538249700026,18.822382645000133],[102.65440191200017,18.821877502000092],[102.65312250000008,18.822122498000283],[102.65234908400012,18.822387222000074],[102.6513777070002,18.822367401000122],[102.65136760800019,18.82286219800011],[102.65162740400021,18.82313259900019],[102.65225000000018,18.823119904000123],[102.65336298100019,18.82314260900023],[102.65385789200027,18.82262750200023],[102.65431157000015,18.823460449000237],[102.65312750000012,18.82459808300021],[102.65342354600003,18.826446152000173],[102.65486648000004,18.827832504000227],[102.6548877550002,18.828875000000053],[102.65486758900013,18.8298631440002],[102.65512750000025,18.830622498000054],[102.65561500000015,18.832622238000127],[102.65612500000017,18.8326326600001],[102.65704358500014,18.832613907000237],[102.65772500000023,18.834713776000257],[102.65812249900014,18.83512750200012],[102.65837750100027,18.835372498000226],[102.65886083400025,18.837355148000043],[102.65959750000033,18.838121887000256],[102.66037500000036,18.838137756000236],[102.66185180500017,18.83810762000013],[102.66212750100024,18.838372498000297],[102.66274000000013,18.839009995000097],[102.6635049990002,18.83974499500016],[102.66458763500012,18.840871826000225],[102.66631278400021,18.84115266400019],[102.66687712300009,18.84289173900011],[102.66763250000017,18.84361749300021],[102.66824500100014,18.844255005000107],[102.66862750100009,18.84462249800005],[102.66887249900017,18.844877502000188],[102.67025399000019,18.845783249000263],[102.67210671400008,18.84756330900028],[102.67087249900013,18.848372498000174],[102.66993250100015,18.849350861000218],[102.66813060200016,18.849387634000237],[102.66787240800002,18.84812704500021],[102.66788738800014,18.84739299000013],[102.66762552800029,18.84712045300023],[102.66673396900015,18.84772479200032],[102.66637249900012,18.8473775020001],[102.66612750100009,18.847122498000132],[102.66418865600016,18.84602327000013],[102.66362249900001,18.844627502000108],[102.66337750100027,18.843872498000167],[102.66237249900027,18.842627502000184],[102.66031397100019,18.839377502000048],[102.65997592000022,18.839810059000214],[102.66049500100016,18.840880005000102],[102.66112249900024,18.842098083000266],[102.66061860300024,18.84238252300017],[102.65937750100014,18.84235719300021],[102.6596912960002,18.842703400000246],[102.66106150100015,18.8440198670002],[102.66138670500024,18.845926468000215],[102.66135738800008,18.84736297600014],[102.66187209100022,18.847857498000025],[102.66188241200021,18.848363144000203],[102.66145658700017,18.849607224000195],[102.66396912800022,18.849914246000026],[102.66537750100022,18.85187249800022],[102.6656534480002,18.85525708000013],[102.66640127000008,18.855642319000125],[102.66812208600018,18.855607208000237],[102.66813520400021,18.856250000000216],[102.66811290900014,18.857342422000016],[102.66871810200038,18.858589859000105],[102.67022897500019,18.858958176000115],[102.6706372260002,18.860150909000225],[102.6706096940002,18.861500000000106],[102.67066301900022,18.8641129760003],[102.66912750100025,18.865588287000065],[102.6705503710003,18.866140656000027],[102.67277119300016,18.865761856000134],[102.67312250100039,18.866127502000012],[102.67360946700009,18.866595367000087],[102.67412749900015,18.86787249800024],[102.67437250100014,18.868627502000095],[102.6746274990002,18.869122498000195],[102.67487250100024,18.869627502000057],[102.67586230100025,18.871087708000076],[102.67612749900033,18.87212249800008],[102.67637250100009,18.873627502000176],[102.67728621700027,18.87407078600016],[102.67788539500029,18.875917236000177],[102.67862250100009,18.87734808300017],[102.67837749900005,18.87887750200015],[102.67766117100015,18.879565735000156],[102.67887250100014,18.88135275300023],[102.67832110600031,18.88388665800018],[102.67713060000008,18.883862366000216],[102.67660794100019,18.886414169000147],[102.67667617400033,18.889757507000283],[102.67587749900017,18.891726517000038],[102.67704748500014,18.891572052000143],[102.67762749900018,18.889877502000175],[102.67796068200013,18.886130905000158],[102.67911128600022,18.88610742200008],[102.67937250100013,18.890377502000064],[102.67987250100012,18.892328476000017],[102.67962749900013,18.893127502000056],[102.67923703000022,18.893885468000235],[102.68061214800005,18.893857407000226],[102.6815574990002,18.895692505000184],[102.68187628600012,18.89765074200021],[102.68262749900018,18.898372498000242],[102.68287250100022,18.89937750200008],[102.68362868100004,18.90037405400011],[102.68331071900022,18.901302994000062],[102.68362250100031,18.901627502000082],[102.68411168300005,18.902097504000068],[102.68414741100017,18.903848129000053],[102.68349242400026,18.904814392000162],[102.68414586300023,18.905131409000006],[102.68462990200013,18.905635201000123],[102.68535789100011,18.904877502000048],[102.68593127100016,18.905147850000034],[102.68709600800005,18.906360130000152],[102.68810822700024,18.90702377300009],[102.68837250100015,18.908377502000093],[102.68915599100032,18.908631744000175],[102.69046120100015,18.909990227000037],[102.6917339360003,18.90912750200016],[102.69299350400016,18.910096298000198],[102.69347652100006,18.91109191100007],[102.69462749900006,18.911372498000276],[102.69544311900026,18.911651672000104],[102.69760732700033,18.91160750600018],[102.6983774990002,18.912622498000147],[102.6988263930003,18.913547768000143],[102.70086999900022,18.91249500300016],[102.70237749900022,18.912127502000047],[102.70431625000006,18.911128754000188],[102.70520578800009,18.9111105960002],[102.70612252800018,18.91250885000025],[102.70717388900007,18.91196723900029],[102.70837249800022,18.912377502000126],[102.70912750200003,18.912622498000147],[102.71057125100023,18.91336624900022],[102.71162500000023,18.91338775600022],[102.71307181500029,18.913358231000274],[102.71412249800025,18.913627502000168],[102.71537750200017,18.913872498000003],[102.7161224980002,18.91412750200024],[102.72095797000011,18.91446550000022],[102.7226956330002,18.914889107000192],[102.72412249800024,18.915377502000283],[102.7263775020003,18.915622498000204],[102.72712249800028,18.91587750200017],[102.72819563300007,18.916139107000234],[102.72978679700012,18.916683739000177],[102.73534158300018,18.917362503000206],[102.73682566100032,18.918082497000086],[102.73812249800025,18.919328484000246],[102.73753481300017,18.920645423999957],[102.73687103300026,18.92162465700025],[102.73720616900019,18.92227521500007],[102.73644486200018,18.923067589000084],[102.73470942700018,18.92438443000006],[102.73227349100026,18.9253724980001],[102.73162249800001,18.92487750200027],[102.73035272200022,18.923852493000197],[102.72854421200023,18.923889404000235],[102.72787750200021,18.922872498000203],[102.72612249800014,18.922627502000267],[102.72505400800023,18.922261772000212],[102.7238794560001,18.923031853000154],[102.72385262300011,18.924346603000217],[102.72412582400014,18.924630959000126],[102.72485522500008,18.923127502000156],[102.72562750200021,18.92362249800017],[102.72599500300018,18.924004997000196],[102.72663131000016,18.924616356000243],[102.72634460400033,18.925453995000183],[102.72668916300026,18.92721899400003],[102.72738938100028,18.92866230000017],[102.72962165800013,18.928336090000272],[102.72962760200019,18.928627312000117],[102.72912750200001,18.92959809100023],[102.729372498,18.930377502000326],[102.73031749700024,18.93128543900005],[102.73112249800013,18.932848091000196],[102.73044346600025,18.933622498000062],[102.7296087570002,18.933373398000057],[102.72866152200007,18.932387497000278],[102.72728621700034,18.93203503399998],[102.72663735200004,18.933372498000253],[102.72585254700019,18.932646523000045],[102.72662249800024,18.931151909000192],[102.72605754100019,18.930833008000178],[102.72263701600016,18.930902817000273],[102.72212584700006,18.930370773000035],[102.72162731200021,18.930627602000058],[102.72115679200019,18.93061799600015],[102.71965723400027,18.93110460700028],[102.7181666180002,18.931872498000217],[102.7172608340002,18.931117981000227],[102.71774500300015,18.93012000300007],[102.71838250000039,18.928882500000086],[102.71887249800014,18.92687249800005],[102.71912750200013,18.926127502000043],[102.71953523300019,18.92445495600022],[102.72112249800014,18.923122498000097],[102.72237249800023,18.922817772000116],[102.72212750200018,18.92262249800021],[102.72162249800013,18.922377502000103],[102.72051606800008,18.921627502000305],[102.71962249799995,18.921872498000056],[102.71911778300031,18.922132507000256],[102.71790126800025,18.92210768100024],[102.7169019090002,18.92262249800021],[102.71656027200007,18.922322937000203],[102.71588221000022,18.921617203000167],[102.71488525400005,18.92163754300016],[102.71449500300017,18.9208799970001],[102.71412750200003,18.92012249800031],[102.71348999800014,18.919510002000166],[102.71287750200028,18.918872498],[102.71223999800011,18.918260002000125],[102.71162750200025,18.917622498000128],[102.71011979700009,18.91650485200003],[102.71013239300024,18.915887794000128],[102.70987750200018,18.915622498000204],[102.70762249800012,18.915377502000283],[102.70644379400014,18.91497405200002],[102.70514345600012,18.915604904000176],[102.7033356480002,18.91712249800024],[102.70237250100016,18.916627502000054],[102.70106656300013,18.91563656600013],[102.69987749900034,18.915612297000166],[102.70012250100015,18.91587750200017],[102.70085968000015,18.916585770000154],[102.7015385890002,18.917985153000203],[102.70331088300028,18.918417206000257],[102.70362250100018,18.919377502000216],[102.70438597900014,18.920111038000158],[102.70363375100024,18.921571251000188],[102.7036180110002,18.922342392000033],[102.70406871800017,18.925868492000106],[102.70313525000014,18.925887543000172],[102.70287250100014,18.92537750200016],[102.70228215000023,18.92388076000023],[102.70142646400015,18.923863297000025],[102.69873111300004,18.924323036000132],[102.69831777200031,18.922627502000267],[102.69812250100026,18.922872498000203],[102.69771686900017,18.924122498000244],[102.69637978700021,18.923734535000207],[102.69637240600011,18.923372955000133],[102.69650000000021,18.922750000000278],[102.69582514200013,18.92261825600012],[102.69390191300008,18.921627502000305],[102.69386369300011,18.921945877],[102.69387759800011,18.922627373000083],[102.69294441200017,18.923857201000047],[102.69362250100025,18.925838287000005],[102.69297285100012,18.925889755000185],[102.6916017720001,18.92586177100017],[102.69164697300019,18.928076622000205],[102.69075500100021,18.929004997000007],[102.6901314090002,18.9296041340002],[102.68965250000011,18.93059127800025],[102.68913250000034,18.93113250000009],[102.68837790700016,18.931857498000042],[102.68836479600017,18.93250000000009],[102.68840237400033,18.934341408000037],[102.68812749900016,18.934627502000254],[102.68787250100016,18.934872498000104],[102.6870107770001,18.93576939400006],[102.68485905100007,18.936376289000094],[102.68413250000006,18.937132500000047],[102.6834949990002,18.937745003000188],[102.68292872600014,18.93833438900019],[102.68212749900019,18.93887750200001],[102.68084219400018,18.939190834000172],[102.67963987000016,18.940346008000276],[102.67880296300038,18.941622498000115],[102.67860307700008,18.94107422600004],[102.67864300500017,18.939117790000168],[102.67736200000004,18.93788701600012],[102.6773968540002,18.93617904700021],[102.67712176900008,18.935375359000048],[102.67739933000021,18.93429232000024],[102.67712749900019,18.9326224980001],[102.67585392400028,18.93231202700008],[102.6748718260001,18.930405602000164],[102.67489204000017,18.929414986000182],[102.67461299900006,18.92859974700032],[102.67491205200022,18.924016312000248],[102.67587250100027,18.922151909000178],[102.6752232060002,18.921129555000135],[102.6743791690001,18.92111232800005],[102.67338905700015,18.92262249800021],[102.67187750100013,18.922258201999995],[102.67301149400001,18.920229156000246],[102.67362250100027,18.919642105000165],[102.67261681600039,18.918940681000038],[102.66912198800006,18.91849397300021],[102.6683775010001,18.918877502000058],[102.66737249900027,18.919122498000164],[102.66671815100008,18.920120544000056],[102.66564456600011,18.920142456000093],[102.66472307400014,18.919517822000188],[102.6639142270001,18.920359680000118],[102.66314576500028,18.920732498000334],[102.66310719100002,18.922622597000213],[102.66412249900011,18.923598091000102],[102.66316725700014,18.924619736000167],[102.66162750100008,18.92492032600026],[102.66245369000004,18.925618950000242],[102.66300000000021,18.92563010400019],[102.66386475000016,18.92561245700024],[102.66462249900027,18.927083382000177],[102.66419756500025,18.927593506000193],[102.66338030600016,18.927989998000143],[102.66336980200006,18.928504707000187],[102.66424235500025,18.929791939000197],[102.66387240400027,18.9308727800001],[102.66389113800025,18.931790741000114],[102.66193175500021,18.93307537100017],[102.66162249900017,18.933372498000253],[102.66137750100009,18.93362750200012],[102.65916690100025,18.934939766000156],[102.66012249900027,18.935857895000282],[102.65986904900026,18.936395424000253],[102.6588885210003,18.937337502000133],[102.65883993100019,18.939718391000213],[102.65920520800003,18.94121676600011],[102.65987209100015,18.94185749800019],[102.65990150800027,18.943298950000084],[102.65937750100014,18.94462750200006],[102.65887249900024,18.945372498000054],[102.65862750100021,18.947377502000222],[102.65837249900025,18.94837249800021],[102.65812514500018,18.950396782000098],[102.65712750100025,18.952333382000205],[102.65787249900026,18.952877502000007],[102.65912750100009,18.953622498000186],[102.65937249900017,18.953877502000154],[102.65987249900016,18.954357895000015],[102.65962750100024,18.954877502000116],[102.6588519100001,18.955899635000037],[102.65741924900013,18.958852669000123],[102.65580461900024,18.957627502000193],[102.65537798400024,18.958787094000215],[102.65637278200026,18.95912759400005],[102.65687004700024,18.95911744700018],[102.6578892270002,18.959808304000063],[102.66010432100009,18.958127502000252],[102.66101114100016,18.958552155000135],[102.66162249900017,18.960338287000127],[102.66135055500027,18.96176928700004],[102.66037750100011,18.962241364000207],[102.66062249900025,18.96237750200018],[102.66187249900011,18.96278312700018],[102.66160545900019,18.96315848200024],[102.66100342000024,18.963736908000214],[102.66137485500016,18.965639568000086],[102.66187750100025,18.966122501000157],[102.66212249900016,18.966377499000117],[102.66262249900015,18.96685789100026],[102.66237750100007,18.967877499000068],[102.66188413000029,18.969802608000194],[102.66183993100017,18.971968391000146],[102.66212249900016,18.973127499000128],[102.66262249900015,18.97458828400012],[102.66232069400016,18.975868454000164],[102.66092188100023,18.975897003000128],[102.65862249900002,18.97462749900008],[102.65790250000018,18.97387811300007],[102.65668874900027,18.973853340000232],[102.65487750000014,18.97456773800029],[102.65512250000026,18.97462749900008],[102.65612750000022,18.974872501000092],[102.6568725000001,18.975377499000132],[102.65754583400016,18.975704166000256],[102.65799754900027,18.9766352540002],[102.65910331000023,18.97661268600011],[102.6609420200003,18.977358509000183],[102.66187735400015,18.97737759800016],[102.66289627300026,18.976686920000205],[102.66635882000006,18.97736287700009],[102.66733276400007,18.97786460500022],[102.66815599100025,18.978131744000294],[102.66911043400026,18.97912514500007],[102.67037750100039,18.9793725010001],[102.67087249900013,18.97962749900006],[102.67241563800016,18.97992874900021],[102.6728775010001,18.980372501000062],[102.67385393900022,18.981861816000276],[102.67537208600018,18.981892799000093],[102.67538308300018,18.981353928000175],[102.67435739100026,18.979362877000014],[102.67438770700008,18.977877453000218],[102.67241259000028,18.97691922800007],[102.67211413600009,18.976608589000207],[102.67074425300027,18.975943993000286],[102.67012240400013,18.974127220000156],[102.6701352040001,18.97350000000013],[102.67011734800028,18.972625000000036],[102.67013750500021,18.971637260000023],[102.66937750100013,18.97051606400025],[102.66979878800018,18.969409428000077],[102.67117064300001,18.968852974000214],[102.67262229300005,18.96888259900018],[102.67264280700013,18.967877468000154],[102.67149500100012,18.967505001000333],[102.67088250000015,18.966867500000077],[102.66987750100023,18.965901913000025],[102.67016253300025,18.96237750200018],[102.67211914100025,18.96287427500026],[102.67262560800023,18.963360878000188],[102.67295308100014,18.965372501000104],[102.67364255900017,18.965122028000067],[102.6743578910002,18.964377499000022],[102.67513628400022,18.964625298],[102.67574136000027,18.965872501000177],[102.67612760200015,18.96562743800014],[102.67612244800009,18.965375000000037],[102.67612758300007,18.965123402000188],[102.67583551400006,18.961979347000195],[102.67661249900024,18.960377808000104],[102.67734908300022,18.960362770000103],[102.67883828400025,18.96087249800027],[102.67857521800019,18.959312469000153],[102.67740356400012,18.958186760000004],[102.67687240200016,18.95687725800029],[102.67689030500028,18.95600000000009],[102.6768622440002,18.954625000000178],[102.67691262800011,18.952156250000016],[102.67637790700027,18.95164250200024],[102.67636758800015,18.951136848000047],[102.67687250100025,18.94966171300021],[102.67662749900032,18.9488724980001],[102.67626562500013,18.947815254000204],[102.6768774990002,18.94662750200034],[102.67735858900014,18.945635864000266],[102.67764261200003,18.945362984000155],[102.67760288600007,18.94341638900012],[102.67948291800016,18.943110336000203],[102.68125001500007,18.940264534000192],[102.68380015200032,18.939849396000128],[102.68496967300027,18.939056633000177],[102.68773387900009,18.938276985000144],[102.6881225010001,18.93787249800026],[102.68910749800014,18.937394630000156],[102.68962759800016,18.936627357000077],[102.68961320900016,18.935922264000183],[102.69024499900021,18.934620003000262],[102.6906969680002,18.933742645000137],[102.69004040900015,18.932468147000023],[102.69060749800028,18.931877907000214],[102.69195595900018,18.931850388000157],[102.69362749900009,18.93212249800021],[102.6950446280002,18.932697319000155],[102.69563250000019,18.93213250000005],[102.69635789100025,18.931377502000117],[102.69776950800028,18.93164990200009],[102.69812250100026,18.93237750200025],[102.69862749900008,18.933122498000174],[102.69891720600017,18.93431088300018],[102.70008750200012,18.934690643000067],[102.7011274990002,18.935372498000177],[102.70137250100018,18.935627502000216],[102.70162749900018,18.935872498000066],[102.70239482100024,18.937042862000183],[102.70337250100002,18.93737750200006],[102.70498809100033,18.93769289400005],[102.70537911200014,18.938897873000002],[102.70731311800003,18.938858406000023],[102.70765808900015,18.94027347600023],[102.70854583000025,18.94070417000016],[102.70887349700016,18.94137956200008],[102.70982219700014,18.940890839000062],[102.71144538100017,18.942122498000273],[102.71228858900022,18.941644424000145],[102.7133026810001,18.94009767900016],[102.71510274500028,18.93887750200001],[102.71621973400025,18.939230728000098],[102.7166275020002,18.93962249800019],[102.71687249800007,18.939877502000243],[102.71725499700008,18.940245003000186],[102.71762249800022,18.94062750200021],[102.71859201000021,18.94126313800004],[102.71910749800023,18.942851685000207],[102.71982770500026,18.943601288000153],[102.72287750200027,18.94387249800029],[102.72325490600011,18.944265305000016],[102.72458828700022,18.942877502000215],[102.72687750200001,18.94312249800005],[102.7281828230002,18.943794937000177],[102.72887750200019,18.94312750200011],[102.72932167800016,18.94266519900006],[102.73037249800026,18.94337750200002],[102.73187249800023,18.94374317200007],[102.73162750200007,18.94512750200022],[102.73112750200019,18.946098091000138],[102.73212249800011,18.94662750200034],[102.7333684920001,18.94693125200007],[102.73340237400012,18.948591408000112],[102.73289250200023,18.94912209300024],[102.73262500000001,18.949127548000064],[102.73087750200031,18.94909188800014],[102.73177410100024,18.95051488500029],[102.73212249800011,18.950877502000182],[102.73237750200022,18.951122498000103],[102.73262249800027,18.95187750200023],[102.73312249800026,18.953338287000037],[102.7328775020002,18.954877502000116],[102.73211945300002,18.955876511000255],[102.73361430400027,18.956361595000075],[102.73434999800028,18.957789703000202],[102.73501203900017,18.96037295500024],[102.73462750200022,18.96312749900025],[102.73434877800028,18.96421506500026],[102.73439540900014,18.96650000000004],[102.73436479900025,18.96800000000026],[102.73439764400021,18.969609547000204],[102.73387750200007,18.969877499000162],[102.73312249800026,18.970122501000006],[102.73271160100009,18.97264659900013],[102.73212127700018,18.974143288000064],[102.73161956000015,18.974625324000257],[102.73287097900013,18.975552989999997],[102.73289231900029,18.976598728000198],[102.73249500300008,18.977369999000146],[102.73165569300002,18.979099998000024],[102.73060334000016,18.97981333900016],[102.72935868800025,18.980132320000266],[102.7283813780002,18.98011237300004],[102.72801452600018,18.981543804000253],[102.72837249800025,18.983377499000184],[102.72887249800013,18.98483828399999],[102.72787750200021,18.98662749900025],[102.72643129700023,18.987486004000047],[102.72552787800018,18.989348145000193],[102.72397146600017,18.989651985000208],[102.72272001600018,18.99047246900014],[102.72213666500014,18.992865425000076],[102.7211275020002,18.994195381000253],[102.72199748200026,18.99557581100015],[102.7226224980001,18.99462250100015],[102.72312614400019,18.99413860700008],[102.72340847000012,18.991828136000223],[102.72387750200019,18.991377499000336],[102.7244849090001,18.99074530000007],[102.72507108300002,18.99130849100004],[102.72562249800015,18.994377499000123],[102.72587750200015,18.995122499000132],[102.72620307900004,18.997122499000227],[102.72825878100016,18.996256052000035],[102.72774762700024,18.994762672000107],[102.72835789500013,18.99412749900023],[102.72937750200018,18.994372501000072],[102.73051728100032,18.994762627000014],[102.73223693100007,18.992972782000166],[102.73347947700009,18.992130520000202],[102.73503404200014,18.992098797000054],[102.7364237520002,18.99254975900007],[102.73753026600028,18.994374405000045],[102.7379203260003,18.99637249899999],[102.73827934300024,18.994214989000184],[102.73779849200034,18.9923387220002],[102.73825237300022,18.991012672000252],[102.7378775020002,18.990622501000217],[102.73712750200005,18.98990191300001],[102.73771266200018,18.989276070000187],[102.73812750200003,18.988877499000253],[102.73837249800002,18.988622501000194],[102.73913767200011,18.988120831000074],[102.73911740100024,18.987127705000148],[102.73959222400006,18.987118015000235],[102.74085968000011,18.988335773000102],[102.7411224980003,18.988877499000253],[102.74238636000027,18.990443180000213],[102.7423673930002,18.991372597000193],[102.7428756100002,18.991860878000267],[102.74312249800025,18.99337749900026],[102.74337750200019,18.994372501000072],[102.74363530700012,18.997008458999943],[102.74453749800014,18.999295834000193],[102.74500499700011,18.99974500100015],[102.74537249800025,19.000127501000264],[102.7458594670002,19.00059537100016],[102.7465207670003,19.00222570800014],[102.74587750200024,19.008519656999994],[102.74618135100027,19.008963451000113],[102.74712750200032,19.009872499000195],[102.74737249800015,19.01012750100024],[102.74762750200003,19.010372499],[102.74787249800002,19.01062750100013],[102.7481376110002,19.010882212000155],[102.74811719500022,19.011882353000047],[102.74961229700031,19.012607700000103],[102.74987750200003,19.01312250000025],[102.75012485500022,19.015146779000133],[102.75062750200019,19.016122500000137],[102.75118609600011,19.017273900000276],[102.75234809100024,19.017872500000152],[102.75187750200021,19.01687250000019],[102.75120163700015,19.015560537000184],[102.75162249800027,19.01512250000026],[102.75187750200021,19.014877500000154],[102.75212249800026,19.014622500000186],[102.75313940400028,19.013955789000008],[102.75311219800025,19.012622596000185],[102.75387249800028,19.011892108000055],[102.75336434900012,19.011358693000062],[102.75201125300018,19.010702240000185],[102.75137240600017,19.009127260000255],[102.75137759400016,19.008872869000257],[102.75100098400017,19.007403353],[102.75188734400004,19.005354753000134],[102.75186484500003,19.004252600000157],[102.75282323500019,19.00283874699997],[102.75146435500025,19.002179489000227],[102.75192993900029,19.00127570500014],[102.75159638200014,19.000301205000255],[102.75202708400016,18.997353872000105]],[[102.73809207900027,18.939069977000216],[102.73664646100022,18.938424911000226],[102.73738430000017,18.937384300000275],[102.73764044200024,18.93625679000006],[102.7386343000002,18.935634300000075],[102.73961570000014,18.934865700000074],[102.74063430000015,18.934634300000113],[102.7413823090001,18.934216949000216],[102.74227802300024,18.93317729900008],[102.74325000000002,18.933000000000064],[102.74336570000017,18.933134300000162],[102.74363430000014,18.933365700000223],[102.74389927700011,18.933673271000174],[102.74462500000018,18.93361496000024],[102.74498946400016,18.933644241000266],[102.74536570000012,18.934219543000253],[102.7446231920002,18.935550354000227],[102.74437548800026,18.93771111300022],[102.74361570000028,18.938365700000205],[102.74338430000032,18.939384300000015],[102.74273555000028,18.94054706600022],[102.74236570000014,18.940865700000288],[102.74213430000017,18.941134300000215],[102.74180330700025,18.94141945600019],[102.74024392700008,18.941294159000208],[102.73963430000018,18.94163430000002],[102.73868906400023,18.94186570000025],[102.73838430000015,18.939865700000055],[102.73809207900027,18.939069977000216]],[[102.76138552100028,18.93363095900014],[102.76136496000024,18.933375000000183],[102.76138504000014,18.933125000000203],[102.76136467000029,18.93287141400009],[102.76167709400013,18.931148277000162],[102.76158151200022,18.92995880100024],[102.76195527600024,18.92894101000023],[102.76130622100018,18.927777679000158],[102.76167626200024,18.92677002000009],[102.76138430000023,18.92611570000014],[102.76040036800018,18.92549942000022],[102.7599893570002,18.924134300000247],[102.7591157000002,18.92436570000021],[102.75847744800026,18.924721809000275],[102.75725000000031,18.92376052900005],[102.75583881400021,18.924865700000097],[102.75511570000012,18.92388430000007],[102.7542508770002,18.922384300000132],[102.75336570000016,18.922615700000094],[102.75230793000028,18.923365700000247],[102.75161570000031,18.92288430000029],[102.75129710400026,18.922514496000062],[102.75005899000021,18.923205276000203],[102.74875000000029,18.922724579000217],[102.74763430000021,18.923134300000285],[102.74686570000014,18.923365700000247],[102.74652493300007,18.924865700000097],[102.74586570000028,18.924384300000057],[102.7454400790003,18.92389027400003],[102.74491392500013,18.923847992000177],[102.74396022000028,18.924198227000204],[102.74356462900013,18.92288430000029],[102.74330978400027,18.92318074800012],[102.74285920700018,18.924190529000185],[102.74214079300029,18.924809471000145],[102.74166948700017,18.92586570000006],[102.74077794600029,18.92549315600023],[102.74164079300002,18.923559471000104],[102.74253862800023,18.922785950000147],[102.74210861200007,18.921614990000066],[102.74402273600018,18.91939326500018],[102.74500000000015,18.919314735000086],[102.74723851000007,18.91949460600013],[102.74875292200014,18.918649658000035],[102.74974707800007,18.918350342000224],[102.75061570000028,18.917865700000178],[102.75113430000019,18.917634300000216],[102.75219854700023,18.917040512000213],[102.75425000000021,18.917205353000256],[102.75612500000031,18.917054695000132],[102.75778754400008,18.917188278000083],[102.7585540540002,18.916760612000047],[102.76092414100012,18.917121773000275],[102.76160539200023,18.917912506000235],[102.76515311400013,18.91819756300002],[102.76694933300027,18.917705971000203],[102.76827767900002,18.918193779000063],[102.76886570000019,18.917865700000178],[102.76938429300029,18.917634300000216],[102.76986570700015,18.917365700000204],[102.77180966200015,18.917011101000256],[102.77257840000024,18.916118820000065],[102.77400000000026,18.91600000000018],[102.77464927700001,18.916753609000267],[102.77748381000023,18.91727066000024],[102.77861570700028,18.91824584200002],[102.77838429300024,18.918884300000087],[102.77774165300016,18.92003611800017],[102.7786064000002,18.92051859300021],[102.77970465100023,18.921008652000168],[102.77955505400027,18.92287052200004],[102.78111570700028,18.923225067000146],[102.78064613300015,18.924055458000197],[102.77961570700015,18.92436570000021],[102.77913429300028,18.92463430000022],[102.77642977900015,18.925841103000067],[102.77600762900013,18.928562363000154],[102.7773686830001,18.929135551000243],[102.77797981300003,18.929086449000266],[102.7795036160002,18.93039927700009],[102.77934507800015,18.932372406000283],[102.78070307900006,18.933155357000047],[102.78143434100016,18.93400414300011],[102.78235640000005,18.93451859300022],[102.78335192900019,18.9349628140002],[102.78340129100022,18.93557720900006],[102.78170654300013,18.93619957700004],[102.77861570700028,18.93588430000024],[102.77764305100018,18.93552710700017],[102.77509022500018,18.93532198300008],[102.77330174300025,18.93631984700022],[102.77120144700027,18.93554855300026],[102.77010929900015,18.93640387000015],[102.7692500000002,18.936334824000213],[102.76839304400025,18.93640367900005],[102.7673079300001,18.935634300000075],[102.76660695600017,18.935868629000012],[102.7671157,18.93678045700014],[102.76671042600023,18.937838005000245],[102.76572312900012,18.93791733600014],[102.7638258590002,18.93762822700012],[102.76309188100024,18.936776291000243],[102.76147222900013,18.935523300000128],[102.76100085400029,18.9346784520003],[102.76138552100028,18.93363095900014]],[[102.67189472600015,18.958829178000045],[102.66946958000031,18.959292191000173],[102.6673783040001,18.957853134000203],[102.66700000000034,18.958654724],[102.66592459500018,18.95861209900012],[102.66617532200021,18.956379768000062],[102.66717084100034,18.956906548000134],[102.66709020800025,18.954872231000124],[102.6658702340001,18.952879768000017],[102.66531781200004,18.951709236000156],[102.6647901540002,18.94949402600001],[102.66538011700007,18.948379105000043],[102.66537004500029,18.948125000000076],[102.66537995500025,18.947875000000266],[102.6653449250002,18.94699121100014],[102.66575162500007,18.94504732500006],[102.66493618000018,18.943862289000066],[102.66462976600022,18.941620232000105],[102.6639806920002,18.939768364000173],[102.66449654000021,18.938296593000175],[102.66550714900026,18.937819649000147],[102.66612023400003,18.936870232000018],[102.66644091000015,18.93657311200012],[102.6680000000002,18.93663491100027],[102.66912500000021,18.93659031700021],[102.67017921799996,18.936632103000207],[102.67009890600033,18.938658356000175],[102.66912023400019,18.939120232000192],[102.668879766,18.939879768000154],[102.66875000000019,18.940250000000233],[102.67132253600013,18.94037997400015],[102.67162023400007,18.941629768000183],[102.67187976600022,18.942370232000158],[102.6721446400002,18.944308342000213],[102.67341618300028,18.944710915000115],[102.6733700450001,18.945875000000072],[102.67342792100018,18.94733515200018],[102.67312023500037,18.947620232000048],[102.67280927500016,18.947955841000194],[102.67317524700022,18.94900000000017],[102.67264950400013,18.95050000000012],[102.67317524700022,18.95200000000024],[102.67285117100025,18.952924622000182],[102.67214858800017,18.953575600000036],[102.67187976600022,18.953998772000062],[102.6726061000002,18.95817005900014],[102.67189472600015,18.958829178000045]],[[102.79284164400016,18.844618729000004],[102.7923797610002,18.844120239000148],[102.79117073100016,18.843000000000103],[102.7927500000001,18.842500000000115],[102.79295039400026,18.84271627800007],[102.79480787700018,18.84343959000006],[102.79512023900028,18.844224487000247],[102.79376002500018,18.844655121000272],[102.79284164400016,18.844618729000004]]]]},"properties":{"id":"6959"}}]}