{"type":"FeatureCollection","features":[{"type":"Feature","geometry":{"type":"MultiPolygon","coordinates":[[[[82.06111897786442,27.855841200087355],[82.06138183593751,27.855546875000655],[82.0619232855901,27.855579155816443],[82.06296373155388,27.85501369900227],[82.0665722656249,27.855151638455467],[82.06713406032989,27.85411770290851],[82.06621921115456,27.853093804254115],[82.06318847656254,27.851309543186417],[82.06263888888887,27.850694444445054],[82.0614089626736,27.850858968099587],[82.05641384548616,27.854336615669055],[82.05390231662332,27.856580674913786],[82.0536659071179,27.860547688802555],[82.0563244628905,27.859666612413818],[82.05851793077241,27.858474663629167],[82.06052883572076,27.858006727431203],[82.06082546657993,27.856103244358252],[82.06111897786442,27.855841200087355]]]]},"properties":{"id":"18513"}}]}