{"type":"FeatureCollection","features":[{"type":"Feature","geometry":{"type":"MultiPolygon","coordinates":[[[[101.59002711114951,21.624513102816664],[101.59083420063897,21.623166464416315],[101.59083420063897,21.621552282320053],[101.59056667419955,21.621280254332902],[101.59029472296479,21.621012748608933],[101.58975516134282,21.620740739854654],[101.58732933841574,21.620740760713616],[101.58732933841574,21.621012765946347],[101.58544319567002,21.621012764482003],[101.5849080847963,21.620473166092125],[101.58463606176784,21.61939411094076],[101.58463606176784,21.61750789664437],[101.5851755965032,21.615889240632384],[101.58544319567002,21.615621658883896],[101.58571522083659,21.615354124808903],[101.58679430448231,21.614542555340208],[101.58760136857674,21.614275003720948],[101.58760136857674,21.613467951628508],[101.58760136857674,21.613195946862774],[101.58760136857674,21.61265632888066],[101.58706182109418,21.612116862165706],[101.58679430448231,21.611849299281772],[101.58625476124016,21.61104221316988],[101.58571522083659,21.60996302722367],[101.58544319567002,21.60915597616409],[101.5851755965032,21.608883932070256],[101.58463606176784,21.608344447676572],[101.58355700079525,21.60780482265146],[101.5832894065422,21.60753734356254],[101.58301738779866,21.606997807874848],[101.58301738779866,21.60591864966868],[101.5832894065422,21.605651125816365],[101.58436855146218,21.605651131062658],[101.58436855146218,21.605918656648512],[101.58544319567002,21.605918700693024],[101.58598273464546,21.605651129499634],[101.58625476124016,21.60537912104202],[101.58652227645953,21.604844027730138],[101.58652227645953,21.603492874550042],[101.58760136857674,21.601067144247992],[101.58814091887953,21.60026004666483],[101.58840852578109,21.599992562446133],[101.59002711114951,21.59999250267235],[101.59056667419955,21.600260057390557],[101.59056667419955,21.600532059542118],[101.59164129646157,21.60079959781214],[101.59326001952374,21.600799581067662],[101.59406704761332,21.60053203238597],[101.59487868128483,21.600260034654255],[101.59541818301582,21.59999253779634],[101.59676482362605,21.599720509297413],[101.59730442203377,21.5994530012196],[101.59811148186989,21.598913438313147],[101.59811148186989,21.598373836195236],[101.59783951067439,21.596755222898324],[101.59757196600825,21.595408562219887],[101.59730442203377,21.594869018465417],[101.59703236619904,21.59406191560008],[101.59703236619904,21.59244328531605],[101.59703236619904,21.59190816324015],[101.59703236619904,21.59109665262909],[101.59730442203377,21.590829032953508],[101.59811148186989,21.590557093899562],[101.59891854803917,21.59001754692926],[101.59973013321948,21.58921043536803],[101.59999768350028,21.588670866856205],[101.60080476446464,21.58759619941779],[101.60107683027982,21.58732418637885],[101.60107683027982,21.587056673180598],[101.60107683027982,21.586517076245997],[101.60107683027982,21.584630951871006],[101.60080476446464,21.584091371546222],[101.60053721208206,21.583819344987347],[101.6002652344724,21.58381935405147],[101.6002652344724,21.583284237230757],[101.60053721208206,21.583012234189866],[101.60188391970652,21.583012303656517],[101.60188391970652,21.58328429705854],[101.6037701037026,21.583551793062995],[101.60430965206533,21.58355180332181],[101.60511676684254,21.583284236044946],[101.60592831412296,21.58328431206928],[101.60673535480672,21.583551851121],[101.60700292329633,21.583819380830136],[101.60727491870156,21.585438033284518],[101.60754248860135,21.58597754987406],[101.60970069130488,21.587056682909434],[101.61077533984277,21.58813129087028],[101.61131492491964,21.5884033444772],[101.611854426022,21.588670830932685],[101.61239401674035,21.588670892700605],[101.61239401674035,21.588403297701817],[101.61212643424605,21.58786379860274],[101.61131492491964,21.586784686210578],[101.61104734521919,21.586517080000945],[101.61024027074049,21.585977587100288],[101.60970069130488,21.585710006169094],[101.60942868948584,21.585438046067722],[101.6091611146903,21.58489844575537],[101.6091611146903,21.58435894998003],[101.60970069130488,21.583551846871956],[101.61104734521919,21.58220516795761],[101.61131492491964,21.581933194821687],[101.61131492491964,21.58166559937385],[101.61077533984277,21.58166561325288],[101.61050776155255,21.581933194318808],[101.60970069130488,21.5805865075082],[101.60808205673598,21.580319005763542],[101.60781448543489,21.580046995707022],[101.60781448543489,21.579779397905412],[101.60808205673598,21.579507430419895],[101.60808205673598,21.578972324873092],[101.60754248860135,21.57977941814451],[101.6064633608211,21.580047008418006],[101.60592831412296,21.580046953324384],[101.60565632226601,21.57977937080318],[101.60565632226601,21.579239870572295],[101.60592831412296,21.57923985435761],[101.60592831412296,21.57897234490534],[101.60538875727096,21.578700343679174],[101.60350254361245,21.57870035797147],[101.60350254361245,21.57897235002595],[101.60296299948075,21.578972330253947],[101.60242345817889,21.578700315589018],[101.60215147558361,21.57843272298858],[101.60215147558361,21.57789321796055],[101.60242345817889,21.57654659891007],[101.60269101546626,21.576274550603074],[101.60296299948075,21.57627454220402],[101.60323055816949,21.576006974397075],[101.60323055816949,21.575734982279712],[101.60296299948075,21.574927933933253],[101.6016163645211,21.573581227656277],[101.60134429727756,21.573041731943718],[101.60107683027982,21.572774174476606],[101.60080476446464,21.572774182857728],[101.6002652344724,21.573041746792825],[101.59973013321948,21.57330926765357],[101.59945815773895,21.573581262394],[101.59945815773895,21.574120770790714],[101.59999768350028,21.57466040809568],[101.6002652344724,21.574927871428415],[101.60053721208206,21.574927958277513],[101.60080476446464,21.57519542002902],[101.60107683027982,21.575467493165576],[101.60134429727756,21.575735048889996],[101.60134429727756,21.576007042336684],[101.60107683027982,21.576546595460556],[101.60080476446464,21.57708611329852],[101.60053721208206,21.577353679003224],[101.6002652344724,21.577621196818768],[101.59919060886878,21.57762117445958],[101.59891854803917,21.577893177886835],[101.59865100056149,21.578160741929665],[101.59837902794649,21.579507368436325],[101.59837902794649,21.580046968532926],[101.59865100056149,21.580318961323982],[101.59891854803917,21.58058651408392],[101.59945815773895,21.5805865409705],[101.6002652344724,21.58031900442515],[101.6002652344724,21.580046920392064],[101.6016163645211,21.58004696092408],[101.60188391970652,21.58031898712352],[101.60188391970652,21.58085849275338],[101.6016163645211,21.58112606255453],[101.60134429727756,21.581398071578107],[101.6002652344724,21.581398109891282],[101.6002652344724,21.58112602580438],[101.59973013321948,21.581126044426554],[101.59945815773895,21.581398045059856],[101.59945815773895,21.5830122708591],[101.59919060886878,21.583551834663936],[101.59891854803917,21.58355184703369],[101.59865100056149,21.584358925752298],[101.59865100056149,21.585710032283046],[101.59891854803917,21.58571006689519],[101.59919060886878,21.585710052989242],[101.59973013321948,21.585977591816416],[101.59973013321948,21.587324213930145],[101.59945815773895,21.587596219234655],[101.59919060886878,21.587863791110777],[101.59891854803917,21.58813132126916],[101.59837902794649,21.588403292932043],[101.59783951067439,21.589482380521545],[101.59676482362605,21.59028949850554],[101.59622531483419,21.590557075187874],[101.59541818301582,21.59055710218219],[101.59514621895292,21.590557016527768],[101.59433909560582,21.590557037350663],[101.59352755296996,21.59082909499108],[101.59326001952374,21.59109657251726],[101.59326001952374,21.59136866200295],[101.59379951275693,21.59136861186795],[101.59406704761332,21.59163616999986],[101.59406704761332,21.592443295520766],[101.59379951275693,21.5927152559275],[101.59352755296996,21.592982776985963],[101.59379951275693,21.5937943817316],[101.59406704761332,21.59406193828228],[101.59460663186385,21.594601481857083],[101.59514621895292,21.594601505563716],[101.59541818301582,21.594869016201628],[101.59568572208539,21.595408566181433],[101.59568572208539,21.596220080188004],[101.59568572208539,21.596487687143437],[101.59568572208539,21.598106324119982],[101.59541818301582,21.59837389922997],[101.59514621895292,21.598641426522633],[101.59433909560582,21.59918098211689],[101.59379951275693,21.599452961567934],[101.59272044233407,21.599452998928896],[101.59272044233407,21.59918099834053],[101.59056667419955,21.59918092143583],[101.59029472296479,21.59918092214521],[101.58814091887953,21.59918099352545],[101.58786897406773,21.59891337704802],[101.58760136857674,21.598641422192856],[101.58706182109418,21.59756680052361],[101.58625476124016,21.596487642200643],[101.58625476124016,21.595680589407237],[101.58652227645953,21.595141022494317],[101.58652227645953,21.594869017710906],[101.58598273464546,21.594869051011287],[101.58571522083659,21.59540852782331],[101.58571522083659,21.596217889518314],[101.58571522083659,21.596487676750073],[101.58544319567002,21.596755196757286],[101.5851755965032,21.596755239984304],[101.5849080847963,21.596487662143446],[101.58463606176784,21.595948124937507],[101.58463606176784,21.595342765624423],[101.58382902096699,21.595408564663174],[101.58355700079525,21.595680562700423],[101.5832894065422,21.59622013465288],[101.582211423676,21.59729480304138],[101.58194276896828,21.59864140097463],[101.58167075380018,21.59891339912859],[101.58094437744214,21.59891339729485],[101.58113123747145,21.599180947109417],[101.58194276896828,21.59945294436507],[101.58274988171533,21.599452969724524],[101.58301738779866,21.59945293531915],[101.5832894065422,21.599180935108095],[101.58409652986225,21.5989134278299],[101.58463606176784,21.598913396065342],[101.58625476124016,21.598913461570547],[101.58679430448231,21.599180945187044],[101.58706182109418,21.599720520975367],[101.58706182109418,21.59999252558842],[101.58706182109418,21.600260049081115],[101.58706182109418,21.60106719036763],[101.58679430448231,21.601339148807043],[101.58625476124016,21.602953388925513],[101.58598273464546,21.603492919941814],[101.5851755965032,21.60484398983911],[101.58409652986225,21.604843982419183],[101.58409652986225,21.604571975515597],[101.58248237632355,21.604572040580436],[101.58194276896828,21.60537914103847],[101.58194276896828,21.60619068524639],[101.58221035971812,21.60673017701542],[101.58274988171533,21.607537292627995],[101.58382902096699,21.609155986243138],[101.5851755965032,21.61104214784436],[101.58625476124016,21.612388797994583],[101.58652227645953,21.612656361920628],[101.58679430448231,21.61319588237258],[101.58679430448231,21.614275031110694],[101.58652227645953,21.614542565715738],[101.58598273464546,21.61481454292999],[101.58544319567002,21.614814602119978],[101.5849080847963,21.61508214301334],[101.58463606176784,21.615354157058405],[101.58409652986225,21.616968331240358],[101.58409652986225,21.619394081772356],[101.58436855146218,21.620473139474925],[101.58463606176784,21.62101271010701],[101.5849080847963,21.6212803142146],[101.58544319567002,21.6215522964865],[101.58679430448231,21.62155223144839],[101.58739960255329,21.621280261472435],[101.58760136857674,21.62101274944426],[101.58922002800196,21.621012694072107],[101.58982534036264,21.621280264506453],[101.59029472296479,21.62155227381291],[101.59029472296479,21.62289893606342],[101.59002711114951,21.623438442762463],[101.58975516134282,21.62397798569937],[101.58948755093806,21.624245578739718],[101.58860150648289,21.624245565782005],[101.58786897406773,21.624245555069052],[101.58760136857674,21.624513146034445],[101.58760136857674,21.624785151213445],[101.58814091887953,21.625592211588426],[101.58922002800196,21.62586422359449],[101.59002711114951,21.62613177003034],[101.59056667419955,21.626399289085526],[101.59083420063897,21.626671313694843],[101.59083420063897,21.62775045304535],[101.59110624007971,21.627750425017993],[101.59110624007971,21.626671286430962],[101.59083420063897,21.626131788885843],[101.59056667419955,21.625864245028197],[101.59002711114951,21.62559224412533],[101.58922002800196,21.625324696575788],[101.58868047203063,21.625324693269903],[101.58840852578109,21.625052704179808],[101.58840852578109,21.62478509107106],[101.58868047203063,21.624513161117136],[101.58956783965974,21.624513122700037],[101.59002711114951,21.624513102816664]]]]},"properties":{"id":"39358"}}]}