{"type":"FeatureCollection","features":[{"type":"Feature","geometry":{"type":"MultiPolygon","coordinates":[[[[78.92317968750021,25.1359423828127],[78.92366015625012,25.135695312500047],[78.92447265625029,25.136311523437612],[78.92481250000006,25.136119140625084],[78.92467968750012,25.13364453125007],[78.92413281250012,25.133274414062498],[78.92381250000003,25.133438476562716],[78.92356250000003,25.13356152343762],[78.92217968749995,25.134811523437662],[78.92193750000015,25.134688476562488],[78.92168749999999,25.134561523437497],[78.92119531250003,25.134321289062527],[78.92102734375001,25.134000000000142],[78.92131250000003,25.133451171875066],[78.92118750000017,25.133061523437547],[78.92093750000018,25.132938476562643],[78.92068750000018,25.132811523437468],[78.91953125,25.13266992187509],[78.91881250000014,25.13181347656264],[78.91868750000017,25.131561523437696],[78.91856250000015,25.131313476562482],[78.91843750000018,25.131061523437623],[78.91818750000002,25.13057617187522],[78.91831250000016,25.129186523437653],[78.91843750000018,25.12893847656271],[78.9185000000002,25.128250000000193],[78.91831250000016,25.12831152343746],[78.91818750000002,25.12881347656267],[78.91806250000005,25.129061523437613],[78.91793750000002,25.129313476562643],[78.9178125,25.129561523437502],[78.91768750000014,25.129813476562532],[78.91731250000018,25.130311523437655],[78.91718750000015,25.130813476562494],[78.91693750000005,25.131298828125082],[78.91712500000014,25.131893554687565],[78.91756250000017,25.132188476562575],[78.91851171875018,25.13234375000016],[78.91881250000014,25.132923828124973],[78.91868750000017,25.134063476562645],[78.91856250000015,25.13431152343759],[78.91843750000018,25.134563476562718],[78.91818750000002,25.135048828124937],[78.91831250000016,25.13568847656262],[78.91843750000018,25.135936523437664],[78.91858203125017,25.137683593749998],[78.92210937500008,25.13775585937495],[78.92293750000019,25.137061523437666],[78.92320312500013,25.136932617187455],[78.92317968750021,25.1359423828127]]]]},"properties":{"id":"19099"}}]}