{"type":"FeatureCollection","features":[{"type":"Feature","geometry":{"type":"MultiPolygon","coordinates":[[[[108.56252678765102,12.73292195638065],[108.56239332410954,12.732777777778267],[108.56075541178271,12.733001573351004],[108.55924119737304,12.736209716797276],[108.55783087836275,12.73794270833369],[108.55753763834534,12.740699734158483],[108.55698208278974,12.74228474934931],[108.55838182237326,12.74203762478335],[108.55983310275528,12.740692816840564],[108.56085361056765,12.739210069444766],[108.56014207627956,12.737180311415202],[108.56302781846685,12.736100124783235],[108.56383538140099,12.734134250217352],[108.56252678765102,12.73292195638065]]]]},"properties":{"id":"22812"}}]}