{"type":"FeatureCollection","features":[{"type":"Feature","geometry":{"type":"MultiPolygon","coordinates":[[[[105.18429802375962,15.314395962419411],[105.20928236432056,15.306662714150463],[105.223947517016,15.277267749492893],[105.23902562689372,15.255504302525111],[105.2503280666713,15.24717618900489],[105.25508698868296,15.240037805987214],[105.27471754198118,15.23111482721535],[105.28661484701004,15.25312484151928],[105.3050556698054,15.273945125320296],[105.314573513829,15.273350260068838],[105.32825541461219,15.28286810409216],[105.32825541461219,15.29000648710965],[105.35680894668232,15.296550004875684],[105.3645421949511,15.304283253144632],[105.39309572702106,15.310231905659208],[105.41272628031905,15.30963704040775],[105.43826382668217,15.28383498095944],[105.44365927339484,15.27037593381155],[105.45615144367557,15.273945125320296],[105.46334846073447,15.281493748448113],[105.47338231435563,15.278483592361766],[105.46401738430941,15.266777429804065],[105.45317711741816,15.262642685542602],[105.44528752421687,15.260422655844039],[105.43760414862155,15.261541753766025],[105.42997737261149,15.268591338057178],[105.42402872009686,15.28286810409216],[105.41689033707942,15.294170543869853],[105.40261357104438,15.301903792138802],[105.37881896098608,15.294765409121311],[105.36751652120827,15.287032160852362],[105.34372191115031,15.284057834595075],[105.33539379762956,15.275729721074669],[105.33122974086953,15.266806742302805],[105.32052216634324,15.26561701179989],[105.30981459181717,15.266211877051347],[105.29553782578208,15.252529976267823],[105.28601998175876,15.230519961963893],[105.2705534852208,15.222786713694944],[105.25568185393425,15.232304557718365],[105.24318968365375,15.241822401741587],[105.21880020834388,15.26799647280572],[105.20496786700008,15.297331950938073],[105.18548775426254,15.30725757940192],[105.12957042062536,15.30011919638443],[105.11745193604563,15.301429152268199],[105.10266113281264,15.300369262695554],[105.06734570449586,15.285172828109125],[105.05831523623706,15.281828210235275],[105.04995369155316,15.280824824873449],[105.0426254272464,15.27735900878919],[105.03222721682258,15.273132203764092],[105.02520351928817,15.271794356614592],[105.01569366455087,15.274271011352866],[105.0092926025392,15.275112152099695],[105.0027008056642,15.272962570190415],[104.96218109130913,15.2425928115848],[104.94781494140628,15.237358093261989],[104.92621612548842,15.225599288940359],[104.91748046875026,15.224339485168485],[104.89610290527352,15.230731010436998],[104.89114379882827,15.229749679565671],[104.88341522216822,15.224366188049373],[104.87001037597659,15.218450546264847],[104.85346984863295,15.217318534851088],[104.85023498535176,15.211533546447939],[104.845329284668,15.20710468292232],[104.83921813964858,15.204498291015938],[104.82338714599624,15.203374862670913],[104.80516815185578,15.203596115112447],[104.79923248291041,15.204897880554284],[104.79513549804707,15.210358619690354],[104.79743957519523,15.2147541046143],[104.81249999999991,15.22069454193111],[104.81410980224635,15.223701477050852],[104.81335449218781,15.227138519287195],[104.80974578857453,15.23099708557146],[104.79952239990254,15.234769821167035],[104.78557586669942,15.234127998352136],[104.77664184570304,15.23010444641126],[104.76637268066409,15.22031974792479],[104.74356842041018,15.194055557251104],[104.72290802001967,15.182980537414963],[104.71158317664211,15.177867195163657],[104.70352172851565,15.166177749633718],[104.70312500000031,15.160888671875199],[104.70598602294953,15.159317970276007],[104.71468353271499,15.163110733032411],[104.72216796875009,15.168725967407212],[104.72828674316438,15.170875549316492],[104.73349761962916,15.170714378357061],[104.73709869384768,15.166625976562528],[104.73980712890616,15.159539222717441],[104.73844146728541,15.155844688415584],[104.72769927978541,15.146281242370634],[104.70594024658246,15.129906654357825],[104.70567321777364,15.132200241088853],[104.71965789794965,15.145944595337],[104.73299407958999,15.15623283386229],[104.73458099365237,15.16084861755374],[104.7314224243166,15.166780471801886],[104.72928619384791,15.167211532592859],[104.72315979003909,15.16552162170413],[104.70982360839875,15.155922889709558],[104.70249938964858,15.155135154724405],[104.69795989990237,15.15829086303738],[104.69788360595706,15.163804054260396],[104.70246887207034,15.173517227173036],[104.71131896972659,15.183285713195872],[104.71551513671906,15.187247276306223],[104.7285079956055,15.188570022583178],[104.74066925048854,15.198381423950266],[104.77726745605477,15.235857009887766],[104.78830718994183,15.241745948791575],[104.79846954345729,15.242568016052331],[104.81321716308608,15.236785888672145],[104.81872558593753,15.232033729553493],[104.8206787109377,15.227693557739272],[104.8207550048829,15.222410202026353],[104.81748962402347,15.21869087219254],[104.80289459228518,15.213906288146958],[104.79891967773463,15.210638046264677],[104.80180358886744,15.207458496093892],[104.82309722900422,15.206816673279079],[104.83443450927726,15.208342552185329],[104.84006500244143,15.211631774902372],[104.84638977050784,15.215848922729577],[104.85032653808602,15.222332954406667],[104.87697601318362,15.227729797363196],[104.88002014160176,15.230525970459283],[104.89295196533229,15.235975265503114],[104.91764068603558,15.229625701904567],[104.92544555664077,15.230183601379451],[104.93788146972676,15.237233161926397],[104.94754791259786,15.239881515503015],[104.96816253662112,15.255073547363267],[104.96900939941438,15.255468368530401],[104.97637209833297,15.26142604120649],[104.9820022583011,15.263746261596708],[104.98774379910336,15.271125433039927],[105.00141906738313,15.28006839752203],[105.00873565673854,15.281537055969423],[105.01702880859384,15.280490875244354],[105.02538299560578,15.275539398193487],[105.02986145019563,15.27628326416017],[105.03925091435727,15.28383498095944],[105.06701124270833,15.289855293132135],[105.0890857206746,15.301895917477353],[105.10260009765645,15.305422782898034],[105.10839329143792,15.307216985830664],[105.15507850124473,15.310888843806467],[105.18429802375962,15.314395962419411]]]]},"properties":{"id":"1920"}}]}