{"type":"FeatureCollection","features":[{"type":"Feature","geometry":{"type":"MultiPolygon","coordinates":[[[[76.05862141927113,27.044989691840527],[76.0579166666669,27.044027777778],[76.05693413628515,27.044156358507166],[76.05606431749155,27.04464165581608],[76.05278808593786,27.0452880859377],[76.04917697482645,27.04556504991345],[76.04943888346364,27.046414659288388],[76.05140713161896,27.048699273003663],[76.05334364149329,27.049434136284916],[76.05381659613718,27.0499829101565],[76.05602532280827,27.05016059027797],[76.05832302517396,27.048878580729394],[76.06025105794296,27.04852674696194],[76.06036471896718,27.04711235894119],[76.05862141927113,27.044989691840527]]]]},"properties":{"id":"18675"}}]}