{"type":"FeatureCollection","features":[{"type":"Feature","geometry":{"type":"MultiPolygon","coordinates":[[[[77.32769711477297,24.086347115028573],[77.32715752805208,24.08473295601901],[77.32715752805208,24.083653879254],[77.32689005616746,24.082035230788165],[77.3266224960411,24.081228112211207],[77.32608290434374,24.081228109579087],[77.32527136495972,24.081495595791736],[77.32473185465855,24.08149559441746],[77.32446428957363,24.081228102760903],[77.32446428957363,24.080421024455376],[77.32473185465855,24.079881436153514],[77.32554339779776,24.079069861223147],[77.32581096040295,24.078802355705506],[77.32581096040295,24.077995270375112],[77.32554339779776,24.077723234159606],[77.32554339779776,24.076109059824788],[77.32581096040295,24.075837003747296],[77.32608290434374,24.075837047980357],[77.32608290434374,24.075297501719803],[77.32581096040295,24.074757911450618],[77.32527136495972,24.074490370898687],[77.32446428957363,24.074222800675457],[77.32203856017017,24.07422285319106],[77.32149894728153,24.073950842586342],[77.32095941953506,24.07341129611902],[77.3206918457993,24.073143711899974],[77.31961278035331,24.071525073369386],[77.3190732438841,24.07044598177339],[77.3190732438841,24.069371355487036],[77.3190732438841,24.0680202685933],[77.31826612563057,24.06775267512174],[77.31664749008237,24.067485185603203],[77.31530080116093,24.06667356315191],[77.31503330210231,24.066406069249595],[77.31476124476725,24.066134002976256],[77.31476124476725,24.06505938022032],[77.31368659456766,24.065059354528344],[77.31341462174615,24.065326921922008],[77.31287505663872,24.06586652156946],[77.3126075520286,24.066134014546563],[77.31233548904314,24.066406027594823],[77.31072132912638,24.066406036613742],[77.31072132912638,24.067213106978244],[77.31044934940584,24.067485120538265],[77.31018175158633,24.067752686359682],[77.30964225920647,24.067752649681466],[77.30937465953659,24.0680202128799],[77.3091026766808,24.068292221508415],[77.3091026766808,24.068559757056533],[77.30990977060802,24.07017844536277],[77.31018175158633,24.070717957730082],[77.31098883805757,24.071525121914377],[77.31152841187858,24.07179706985268],[77.3126075520286,24.072332224357737],[77.31368659456766,24.073143727333132],[77.31395418435622,24.073411320903645],[77.3142216858852,24.07368327512971],[77.3142216858852,24.075029959883196],[77.31449374447791,24.07556947533179],[77.31530080116093,24.07637662511621],[77.31557285723832,24.076644146174772],[77.31637990646541,24.0766441368052],[77.31637990646541,24.076109063498734],[77.31664749008237,24.075837033454548],[77.31691945537605,24.075569470507915],[77.3177265829361,24.07556945760801],[77.31799854572361,24.075837056963664],[77.31826612563057,24.07610901366037],[77.3190732438841,24.077183694222867],[77.3185337049268,24.07799520107001],[77.31880566582768,24.079341863347523],[77.3204198892914,24.081495676209016],[77.32123146242523,24.082574736355042],[77.32149894728153,24.082846771870138],[77.32177098891398,24.083381822736413],[77.32177098891398,24.08473296668194],[77.32149894728153,24.085540052901663],[77.32123146242523,24.08607962648908],[77.3204198892914,24.08688667951607],[77.3206918457993,24.08715873500958],[77.32149894728153,24.08796578502715],[77.32203856017017,24.08796581706099],[77.32311760319433,24.08769377761135],[77.32338517136961,24.087426200956386],[77.32338517136961,24.086619135298974],[77.32392468789598,24.086079618898353],[77.32419672387798,24.08580759834942],[77.32446428957363,24.08580755381101],[77.32527136495972,24.08634713919325],[77.32554339779776,24.08661910617569],[77.32581096040295,24.086886686621753],[77.32742955648828,24.088772844989123],[77.32850863727757,24.089312476257234],[77.32985534904341,24.090119505829108],[77.32985534904341,24.0918168418262],[77.32985534904341,24.09281726701049],[77.33093440738386,24.093084804301483],[77.33174152561949,24.09308483929091],[77.33174152561949,24.092817300239204],[77.33093440738386,24.09254526976399],[77.33039483564707,24.092545268218913],[77.33012290175841,24.092277771450796],[77.33012290175841,24.092005775677336],[77.33093440738386,24.091198659561798],[77.3312019576197,24.090931065326586],[77.33146950724446,24.090119563599785],[77.33146950724446,24.089580024974808],[77.3312019576197,24.08931245156259],[77.32958332626666,24.088505299774866],[77.32769711477297,24.086347115028573]]]]},"properties":{"id":"38987"}}]}