{"type":"FeatureCollection","features":[{"type":"Feature","geometry":{"type":"MultiPolygon","coordinates":[[[[74.6474793836812,24.519644198948214],[74.64869194878534,24.51893130832319],[74.64852647569515,24.52026241726422],[74.64955946180615,24.51987311469253],[74.65140407986192,24.517793138292788],[74.65167317708406,24.514737582737368],[74.6527794053828,24.516929083930776],[74.65637369791725,24.516400722928267],[74.65569064670208,24.515557590061462],[74.65349663628555,24.515238274469],[74.65265082465336,24.51418202718176],[74.65130805121586,24.514441731771512],[74.6506510416672,24.515262417264225],[74.64998480902838,24.51501536051522],[74.6496809895842,24.514294128418683],[74.64724609375062,24.514596964518972],[74.64708333333394,24.514027777778566],[74.64633572048663,24.5141578504782],[74.64630208333395,24.515558505588842],[74.6488259548619,24.51599765353805],[74.64970703125081,24.516849127876114],[74.64869628906317,24.51698849148289],[74.64726453993117,24.516579589844483],[74.6467127821189,24.517268303766016],[74.64473741319503,24.51810061984669],[74.64523057725754,24.51859575059767],[74.64859592013951,24.51780222574935],[74.64824869791724,24.51856947157188],[74.6445475260422,24.519032389323655],[74.64399631076455,24.519970974393132],[74.64517035590367,24.520306803386106],[74.64445963541746,24.52151601155677],[74.64539930555614,24.52139000786768],[74.6469596354174,24.52029313829287],[74.6474793836812,24.519644198948214]]]]},"properties":{"id":"19300"}}]}