{"type":"FeatureCollection","features":[{"type":"Feature","geometry":{"type":"MultiPolygon","coordinates":[[[[82.43103434244782,24.169708726671303],[82.43142225477416,24.168483344184267],[82.43139756944433,24.167144843207723],[82.43341986762132,24.164205661350096],[82.43484374999983,24.163866509331896],[82.4355851236979,24.162718370225974],[82.43722683376737,24.162783474392555],[82.43805013020844,24.162216932508926],[82.43896023220472,24.1619497341582],[82.4389019097222,24.164635552300666],[82.4401833767362,24.163753865560153],[82.44109646267364,24.164739312066246],[82.44169406466997,24.16471564398897],[82.44164686414919,24.16352776421469],[82.4411021592883,24.16249816894556],[82.44171549479157,24.161929863824113],[82.44276095920131,24.161971299913517],[82.44307779947914,24.157678290473314],[82.4446408420138,24.156531846788525],[82.44557590060751,24.155522528754574],[82.44753689236117,24.154597100152202],[82.45088324652764,24.154729682074887],[82.45266031901022,24.155952487521915],[82.453327907986,24.15437357584665],[82.45067843967033,24.153243340386496],[82.44792724609383,24.150661688910873],[82.44381320529519,24.15000637478329],[82.44333875868048,24.149368150499555],[82.44389675564238,24.147775946723257],[82.44319444444446,24.146805555555844],[82.44277642144087,24.14719299316441],[82.4425054253472,24.148894178602617],[82.4418476019965,24.150550265842327],[82.43968967013873,24.149984809028055],[82.43895209418386,24.15001403808617],[82.43748833550339,24.151924777560993],[82.43443901909708,24.15221693250895],[82.43322075737834,24.15315110948366],[82.43167588975697,24.152333577474195],[82.4313943142362,24.150272488064473],[82.43074273003478,24.149041544596614],[82.43000542534722,24.149500325521146],[82.43061252170125,24.150647786458705],[82.43053846571198,24.152515869141027],[82.42945339626746,24.15247280544726],[82.4286914062499,24.15365281846816],[82.42720757378461,24.153594021267622],[82.4261455620659,24.154740125868273],[82.42422634548618,24.15466403537347],[82.42278266059012,24.155839029948183],[82.42196723090271,24.15580668131534],[82.42139431423587,24.156242404514202],[82.42200032552083,24.15721693250903],[82.42489474826394,24.155560845269335],[82.42635199652776,24.15656351725282],[82.42725640190955,24.15608493381106],[82.42854193793411,24.15613586425812],[82.43061957465287,24.155591566297986],[82.43151150173603,24.15655415852889],[82.431075032552,24.15906039767826],[82.42968478732624,24.159750094943874],[82.4297680664063,24.16184895833362],[82.42678629557295,24.16296434190562],[82.4257807074653,24.163656277127004],[82.42500542534717,24.16535583496112],[82.42652289496547,24.16495815700992],[82.42773573133664,24.16340298122853],[82.42933892144086,24.163021104601043],[82.43161675347213,24.161815795898775],[82.43193901909709,24.162535536024507],[82.43056179470491,24.16381178114173],[82.43006347656237,24.166938612196432],[82.42860568576381,24.16721693250892],[82.42719102647575,24.16796549479183],[82.42723361545123,24.169038153754727],[82.42950276692702,24.168618910047954],[82.43053087022562,24.169728732639115],[82.43103434244782,24.169708726671303]]]]},"properties":{"id":"9594"}}]}