{"type":"FeatureCollection","features":[{"type":"Feature","geometry":{"type":"MultiPolygon","coordinates":[[[[73.00554768880247,32.81154785156265],[73.0042447916666,32.81071912977447],[73.0049921332467,32.8099446614586],[73.0038376193576,32.80945231119813],[73.00293185763886,32.8103735351564],[73.00115234375002,32.80949747721367],[72.99972222222235,32.810010579427185],[72.99708740234385,32.809155680338876],[72.99531195746565,32.806336805555674],[72.99500786675347,32.804755316840485],[72.99740912543402,32.80438110351581],[72.9990106879342,32.804476589626915],[72.99835123697929,32.802638888888936],[72.99899929470499,32.80083333333364],[72.99875000000006,32.80013888888911],[72.99697672526057,32.80029025607652],[72.9966745334203,32.802230088975804],[72.99622450086818,32.80348429361986],[72.99479003906268,32.80296956380225],[72.99262668185762,32.800298122830085],[72.99139838324655,32.80000786675366],[72.99000786675359,32.802551405165104],[72.99399685329857,32.805608452691075],[72.99449381510433,32.809324001736314],[72.99538682725691,32.81096761067727],[72.99853488498266,32.81077989366342],[73.00013400607654,32.81156643337695],[73.00102132161456,32.81084120008691],[73.00221435546874,32.81167453342027],[73.0045543077259,32.81203911675348],[73.00554768880247,32.81154785156265]]]]},"properties":{"id":"16755"}}]}