{"type":"FeatureCollection","features":[{"type":"Feature","geometry":{"type":"MultiPolygon","coordinates":[[[[108.38769140625001,12.791058593750094],[108.38755859375024,12.790816406250173],[108.38744140625002,12.79055859375002],[108.38730859375008,12.790316406250199],[108.38719140625003,12.790058593750047],[108.38675000000015,12.789499999999947],[108.38405859375021,12.789558593750058],[108.38381640625002,12.78969140625017],[108.38291015625,12.789832031250086],[108.38269140625002,12.790316406250199],[108.38244140625002,12.79076562500012],[108.3825898437502,12.791308593750088],[108.38369140625005,12.791191406250022],[108.38414062500019,12.790941406250127],[108.38506640625005,12.791058593750094],[108.38580859375011,12.79169140625001],[108.38606640625002,12.791808593750062],[108.3863085937501,12.791941406250174],[108.38678710937509,12.79215624999999],[108.3869414062502,12.79243359375009],[108.3870585937502,12.792691406250142],[108.38719140625003,12.792933593750064],[108.38740234375021,12.793406250000032],[108.38797070312503,12.793808593749986],[108.388302734375,12.793257812500045],[108.38805859375012,12.792816406250012],[108.38794140625018,12.791558593749983],[108.38780859374995,12.791316406250061],[108.38769140625001,12.791058593750094]]]]},"properties":{"id":"22794"}}]}