{"type":"FeatureCollection","features":[{"type":"Feature","geometry":{"type":"MultiPolygon","coordinates":[[[[83.4426316316893,24.69682414042846],[83.441822038771,24.695490693269193],[83.44472704865368,24.696205039961924],[83.44491754110507,24.69730037155695],[83.44596524958743,24.69777660268518],[83.44734631985935,24.69682414042846],[83.44729869674674,24.69782422579827],[83.44891788258272,24.699300542295774],[83.4531087165121,24.69891955739321],[83.4542992943328,24.697395617782703],[83.4532992089635,24.696205039961924],[83.4535849476404,24.695443070156628],[83.45568036460455,24.694871592802656],[83.45529937970215,24.694109622997274],[83.46053792211322,24.689728296616906],[83.46015693721066,24.689252065488418],[83.45596610328172,24.69187133669422],[83.45501364102509,24.691061743776274],[83.45401355565573,24.691680844242896],[83.4532992089635,24.69282379895101],[83.45215625425541,24.69291904517668],[83.44967985238807,24.69368101498189],[83.44929886748551,24.692538060274032],[83.44948935993713,24.69077600509901],[83.44758443542352,24.691966582919875],[83.44353647083298,24.690299773970878],[83.44220302367378,24.689299688601338],[83.44106006896575,24.688775834360285],[83.43939326001689,24.68701377918545],[83.43734546616511,24.68701377918545],[83.4361072652317,24.68610894004175],[83.4361072652317,24.68501360844664],[83.43715497371377,24.684299261754447],[83.43725021993984,24.68177523677413],[83.43691685814966,24.681299005646082],[83.43634538079587,24.681060890081937],[83.43405947137987,24.681822859887134],[83.43205930064121,24.683156307046232],[83.4306782303689,24.683727784400205],[83.42967814499943,24.68258482969243],[83.4289161751943,24.682108598564042],[83.42753510492221,24.68253720657934],[83.42639215021435,24.683203930159067],[83.4249158337166,24.683108683933582],[83.4240109945728,24.683346799497727],[83.42343951721884,24.68439450797993],[83.42239180873648,24.68544221646212],[83.42072499978755,24.68348966883623],[83.42167746204396,24.682727699030934],[83.42158221581806,24.681394251871566],[83.42120123091567,24.680537035840615],[83.42048688422304,24.680156050938137],[83.41810572858193,24.680108427825047],[83.4167722814224,24.680441789614946],[83.41539121115036,24.67939408113284],[83.41520071869908,24.67877498066595],[83.41710564321218,24.67744153350678],[83.41748662811503,24.67653669436281],[83.41667703519661,24.675822347670604],[83.41458161823235,24.67629857879892],[83.41358153286271,24.67629857879892],[83.40800962866169,24.675012754752387],[83.40724765885616,24.673869800044443],[83.40558084990764,24.673155453352067],[83.40477125698922,24.672441106659605],[83.40410453340954,24.67234586043395],[83.40353305605564,24.671202905725906],[83.4042474027481,24.669964704792307],[83.40586658858453,24.668678880745873],[83.40734290508212,24.668393142069064],[83.4086763522412,24.669488473664174],[83.40896209091844,24.671012413274582],[83.40977168383634,24.67234586043395],[83.41110513099548,24.673393568915955],[83.41624842718144,24.673441192028974],[83.41734375877647,24.672583975997924],[83.4172961356638,24.671107659500066],[83.41758187434041,24.67001232790514],[83.41862958282289,24.66953609677674],[83.41862958282289,24.668345518956144],[83.42005827620781,24.66720256424837],[83.42167746204396,24.666392971329984],[83.4218679544953,24.66529763973496],[83.42267754741371,24.66396419257559],[83.42320140165432,24.66401181568851],[83.42296328609032,24.663202222770295],[83.42424911013657,24.662583122303673],[83.42515394928049,24.66310697654464],[83.42520157239338,24.66248787607792],[83.42115360780284,24.661583036934047],[83.42110598469017,24.660773444016186],[83.42086786912577,24.660440082226373],[83.41977253753103,24.66086869024194],[83.41891532149978,24.66205926806245],[83.41829622103288,24.662392629852434],[83.42005827620781,24.66220213740111],[83.41977253753103,24.663249845883215],[83.41739138188919,24.6650595241708],[83.4157245729402,24.665535755299018],[83.4143911257813,24.667107318022616],[83.41377202531405,24.667488302925094],[83.41434350266812,24.66820264961764],[83.41343866352449,24.668869373197097],[83.41196234702662,24.668536011407554],[83.41172423146239,24.667631172263853],[83.41234333192946,24.66653584066883],[83.40996217628773,24.66491665483248],[83.40943832204667,24.663011730319155],[83.40758102064629,24.662821237867647],[83.40596183480991,24.66186877561121],[83.40410453340954,24.66396419257559],[83.40277108625034,24.664535669929563],[83.40072329239896,24.66501190105805],[83.40053279994711,24.665583378412023],[83.39953271457799,24.66682157934555],[83.39843738298296,24.66715494113528],[83.39786590562872,24.666964448683956],[83.3977230362905,24.665488132186184],[83.39848500609574,24.663773700124267],[83.39834213675707,24.662964107206406],[83.3977230362905,24.66277361475491],[83.39548474998745,24.663202222770295],[83.39543712687444,24.662678368529242],[83.39624671979291,24.661630660047237],[83.39629434290524,24.660963936467425],[83.39486564952054,24.660440082226373],[83.39391318726413,24.661916398723946],[83.39181777029935,24.663011730319155],[83.39110342360684,24.662868860980566],[83.3909129311555,24.66205926806245],[83.39005571512453,24.66134492137016],[83.38843652928827,24.66082106712892],[83.38629348921123,24.660963936467425],[83.38581725808265,24.661535413821483],[83.38581725808265,24.662964107206406],[83.38543627318009,24.66434517747824],[83.38386471045689,24.667774041602073],[83.37905477606083,24.67053618214628],[83.3788166604966,24.672964960900742],[83.377006982209,24.675346116541945],[83.37448295722916,24.678060633973487],[83.37414959543926,24.68039416650238],[83.37343524874697,24.681013266968833],[83.37481631901895,24.681727613661394],[83.37762608267602,24.68177523677413],[83.37943576096379,24.680918020743434],[83.38172167037939,24.680679905179105],[83.38172167037939,24.682108598564042],[83.3826741326358,24.683346799497727],[83.38057871567142,24.686251809380252],[83.38219790150768,24.685966070703344],[83.38348372555393,24.685346970236452],[83.38491241893897,24.684061146189933],[83.38567438874443,24.683013437707913],[83.38753169014458,24.6844897542055],[83.38719832835503,24.682870568369424],[83.38829365995,24.6826800759181],[83.38934136843235,24.683727784400205],[83.39062719247877,24.68348966883596],[83.39100817738128,24.68282294525632],[83.39105580049429,24.68177523677413],[83.39215113208931,24.681441874984486],[83.39329408679723,24.681679990548375],[83.39477040329464,24.684299261754447],[83.39634196601813,24.685632708913616],[83.3977230362905,24.68610894004175],[83.39896123722374,24.687251894749693],[83.40034230749606,24.685585085800525],[83.40153288531693,24.686251809380252],[83.40296157870202,24.685918447590424],[83.40296157870202,24.687394764088097],[83.40258059379894,24.6886805881348],[83.40391404095809,24.688490095683306],[83.40558084990764,24.686918532959965],[83.4072000357439,24.686918532959965],[83.40881922157953,24.688394849457737],[83.40872397535415,24.68996641218125],[83.40962881449789,24.690299773970878],[83.41077176920592,24.688728211247366],[83.41091463854426,24.68806148766774],[83.41272431683186,24.690299773970878],[83.41281956305775,24.691728467355816],[83.41262907060607,24.692347567822353],[83.41396251776544,24.693347653192163],[83.41415301021695,24.694300115448684],[83.41277193994503,24.695252577705133],[83.41386727154006,24.695776431946356],[83.41472448757085,24.694823969689566],[83.4151054724733,24.695490693269193],[83.41596268850415,24.69563356260805],[83.41815335169466,24.69687176354138],[83.41843909037195,24.697443240895538],[83.41982016064347,24.697586110233757],[83.4207726229001,24.698062341362245],[83.42172508515691,24.69615741684892],[83.42253467807475,24.69696700976722],[83.42367763278278,24.69639553241325],[83.42382050212129,24.69563356260805],[83.42367763278278,24.694585854125492],[83.42296328609032,24.694109622997274],[83.42162983893095,24.693776261207375],[83.42148696959273,24.692538060274032],[83.42239180873648,24.6920618291459],[83.42434435636224,24.692633306499516],[83.42634452710118,24.693585768756137],[83.42753510492221,24.693300030079143],[83.42877330585546,24.690347397083627],[83.42877330585546,24.6895854272785],[83.43015437612772,24.689680673503986],[83.43182118507693,24.690442643309282],[83.43282127044628,24.691490351791842],[83.43320225534902,24.69268092961235],[83.432868893559,24.69310953762765],[83.432868893559,24.69472872346408],[83.43244028554372,24.695728808833536],[83.4338213558157,24.695871678172196],[83.43410709449299,24.69453823101267],[83.43491668741072,24.69382388432038],[83.43601201900586,24.694204869222844],[83.43734546616511,24.696490778638733],[83.43834555153458,24.6973479946697],[83.43963137558094,24.696728894202977],[83.44072670717614,24.69777660268518],[83.44091719962736,24.699967265875316],[83.44215540056112,24.69977677342426],[83.44291737036625,24.698729064941702],[83.4426316316893,24.69682414042846]]]]},"properties":{"id":"1781"}}]}