{"type":"FeatureCollection","features":[{"type":"Feature","geometry":{"type":"MultiPolygon","coordinates":[[[[79.59277452256984,25.260530056423633],[79.59108127170171,25.258336046007003],[79.58926323784758,25.25927246093758],[79.58870171441029,25.258688693576545],[79.58960503472261,25.256935221354283],[79.58715603298648,25.254095594618136],[79.58603786892414,25.253613823784775],[79.5827208116323,25.254179687500127],[79.58109157986175,25.254169921875103],[79.58111436632012,25.255309244791732],[79.58190049913256,25.25683485243063],[79.57999674479228,25.257758789062535],[79.57935221354197,25.259087456597285],[79.57856119791731,25.259441731770934],[79.57891818576425,25.257347005208416],[79.58056586371563,25.256945529514027],[79.57997450086842,25.2566585286459],[79.58003797743092,25.25354817708346],[79.58087402343793,25.2527804904515],[79.5832937282992,25.253608398437493],[79.58360839843814,25.251589084201484],[79.58123209635457,25.24861382378478],[79.58055826822962,25.250002712673663],[79.57944715711844,25.250252821180723],[79.5808116319449,25.248240559895834],[79.57944173177114,25.24722493489591],[79.5787500000005,25.24597222222232],[79.57833062066018,25.246108398437514],[79.57805555555606,25.247516276041694],[79.57696289062554,25.248608940972233],[79.57609266493094,25.248891059027898],[79.57500705295203,25.249976671007147],[79.57470865885469,25.25059190538215],[79.57471788194474,25.251740451388983],[79.57257215711846,25.25119032118066],[79.57194715711861,25.25281846788195],[79.57334147135461,25.254158528645902],[79.57516655816036,25.256567925347255],[79.57731499566009,25.2637272135418],[79.57808159722279,25.26446397569451],[79.57989474826454,25.265052083333273],[79.58111707899351,25.26707790798619],[79.58166395399363,25.269169379340426],[79.58250162760456,25.270862087673848],[79.5838807508687,25.272230360243128],[79.58503634982682,25.272791341145847],[79.58652180989625,25.27276095920142],[79.5926220703129,25.268801540798677],[79.59412326388943,25.2672390407988],[79.59472656250077,25.266946614583375],[79.59401801215333,25.2648079427084],[79.59227810329898,25.26313693576394],[79.5927967664937,25.261622178819536],[79.59277452256984,25.260530056423633]]]]},"properties":{"id":"9488"}}]}