{"type":"FeatureCollection","features":[{"type":"Feature","geometry":{"type":"MultiPolygon","coordinates":[[[[76.5861083984378,27.491669379340493],[76.58512356228326,27.489235568576632],[76.58339925130238,27.488212076823245],[76.58188218858518,27.488731282552493],[76.5815277777779,27.48763888888915],[76.58012396918414,27.487791341146192],[76.57921278211845,27.489608018663404],[76.5770096842451,27.490038248698298],[76.57394897460964,27.489975585937884],[76.5728769259986,27.49034261067729],[76.57028957790837,27.49444580078169],[76.56400933159753,27.495382215712],[76.56331909179701,27.493591579861373],[76.55735731336821,27.493616807725886],[76.55694715711829,27.49441758897609],[76.55972493489602,27.4947195095489],[76.56270860460083,27.495477973090473],[76.56334662543415,27.496142035590566],[76.56711127387169,27.496065266927403],[76.57336303710971,27.494430609809214],[76.57493041992203,27.49279920789955],[76.57613606770863,27.492214355468988],[76.57834038628485,27.49223090277802],[76.58187364366333,27.49139160156274],[76.5833306206599,27.49361382378497],[76.58389160156261,27.49388617621544],[76.584214138455,27.494550781250183],[76.5833306206599,27.496941731771045],[76.58305826822934,27.498515082465488],[76.58408108181445,27.49888617621552],[76.58444173177091,27.497775065104406],[76.5871255154083,27.49744710286481],[76.58831909179722,27.495052083333675],[76.58665947808188,27.492199164496768],[76.5861083984378,27.491669379340493]]]]},"properties":{"id":"18577"}}]}