{"type":"FeatureCollection","features":[{"type":"Feature","geometry":{"type":"MultiPolygon","coordinates":[[[[77.07778808593733,23.15251030816013],[77.0786311848959,23.151912570529973],[77.07996378580711,23.152019585503837],[77.08082302517354,23.15082302517399],[77.0858230251736,23.149862060547278],[77.08543796115461,23.14922119140668],[77.08193413628473,23.14889919704919],[77.08009290907111,23.147082248264425],[77.07961249457466,23.146221110026474],[77.08054524739586,23.14454942491365],[77.07915635850671,23.14471191406298],[77.0786834038627,23.145260823568123],[77.07811157226561,23.145306803385935],[77.07776746961784,23.145010308160238],[77.07763888888874,23.144027777778206],[77.07693223741327,23.144156629774656],[77.07477606879328,23.14667466905422],[77.074327392578,23.149566514757396],[77.07472751193555,23.150895589193055],[77.07564602322034,23.15179402669318],[77.07701890733509,23.15276746961848],[77.07778808593733,23.15251030816013]]]]},"properties":{"id":"19891"}}]}