{"type":"FeatureCollection","features":[{"type":"Feature","geometry":{"type":"MultiPolygon","coordinates":[[[[108.41968173556748,12.75566284179719],[108.41933776855356,12.755277777778119],[108.41838589138362,12.755571695963823],[108.41803514268562,12.759205729167164],[108.41869540744253,12.760793050130545],[108.41854051377928,12.763392605252108],[108.4199619547517,12.767354193793764],[108.42037021213017,12.76926567925372],[108.42023729112307,12.771498616536789],[108.42205695258164,12.771607123481289],[108.4238782416439,12.77077121310802],[108.42474656846704,12.768683132595868],[108.42391323513388,12.765980088976178],[108.42363789876211,12.762753634982957],[108.42254848903977,12.759717475043857],[108.4225219048387,12.759270426432565],[108.42363545735574,12.75827541775206],[108.42337341308499,12.75790879991348],[108.41968173556748,12.75566284179719]]]]},"properties":{"id":"22804"}}]}