{"type":"FeatureCollection","features":[{"type":"Feature","geometry":{"type":"MultiPolygon","coordinates":[[[[77.53852593315995,25.898680013021092],[77.53927408854182,25.898251681857673],[77.544476996528,25.899960937500026],[77.54628553602456,25.900145128038318],[77.54751274956644,25.897512749566047],[77.54814615885468,25.895012749566234],[77.5465814887157,25.895916612413373],[77.54463595920177,25.89664767795152],[77.54406901041685,25.89596544053829],[77.5423418511289,25.896141493055566],[77.54002061631965,25.894786512587032],[77.54004123263931,25.892512749566052],[77.53838677300362,25.89280192057302],[77.53796685112886,25.89608344184036],[77.53508463541706,25.895237630208428],[77.53452772352446,25.893953179253586],[77.5319059244795,25.893371853298746],[77.53140163845526,25.89276502821194],[77.52958333333353,25.892083333333446],[77.52895507812539,25.892267795139006],[77.52878987630251,25.893888888888995],[77.53056830512199,25.894153917100823],[77.5308539496531,25.89607069227442],[77.53210530598997,25.896198187934232],[77.53320502387172,25.895568305121657],[77.53470947265649,25.896679416232686],[77.53637613932321,25.897049153645995],[77.53606743706641,25.89829725477439],[77.53470947265649,25.898598361545197],[77.53334608289973,25.900893012152864],[77.5347349717886,25.90084608289949],[77.53582058376762,25.89998725043408],[77.53806830512181,25.899734971788277],[77.53852593315995,25.898680013021092]]]]},"properties":{"id":"18879"}}]}