{"type":"FeatureCollection","features":[{"type":"Feature","geometry":{"type":"MultiPolygon","coordinates":[[[[73.61015319824233,33.32224669101167],[73.60718536376967,33.31943144442924],[73.60073089599612,33.32072081210542],[73.59863281250003,33.31854261996651],[73.60893249511722,33.31060042025936],[73.6091918945315,33.3071404898395],[73.60661315918011,33.30223478915596],[73.6077117919921,33.298954149507566],[73.61650797589144,33.29386673664956],[73.61798468222608,33.288206029033134],[73.61232757568374,33.285133501314135],[73.61182403564501,33.27895750644137],[73.62360382080087,33.25576414706609],[73.62323760986331,33.24452986361902],[73.62825012207057,33.2389565909139],[73.6427688598632,33.23283018710519],[73.64006042480472,33.21966185214434],[73.64117431640628,33.21661390902911],[73.64907836914082,33.223049303316174],[73.65402984619132,33.22344984652891],[73.66019439697297,33.21872725131411],[73.66706085205092,33.2158013785114],[73.67615509033223,33.220100542329945],[73.675576229283,33.2340601300907],[73.6770529356177,33.244889309879326],[73.683451996402,33.27663849607728],[73.69034329263073,33.289928853090416],[73.69748070658218,33.29485120753944],[73.702156943309,33.29608179615205],[73.6987112951945,33.299773561988815],[73.69994188380687,33.31035662405489],[73.7056025914234,33.312325565834456],[73.7134783585424,33.31281780127949],[73.71569341804488,33.30666485821777],[73.72307694971838,33.302973092380824],[73.72941589355472,33.30269255282772],[73.73813629150382,33.30562986972251],[73.74576568603507,33.31184401156831],[73.74424307385053,33.32069356839831],[73.75113437007943,33.31798627345134],[73.75752258300807,33.31184401156831],[73.7599946080883,33.297804620209064],[73.75608825683614,33.28803267123604],[73.74816131591805,33.27815642001546],[73.7441101074219,33.26552977206639],[73.73651885986365,33.26298536898989],[73.7337265014651,33.259014269136316],[73.73444366455081,33.25115980746645],[73.73247528076169,33.24713911654865],[73.7287521362305,33.2450601065389],[73.72589111328128,33.24683775546474],[73.72333526611371,33.252269884370804],[73.718620300293,33.25139631869715],[73.70035552978541,33.238678118013425],[73.69173431396521,33.223556658052615],[73.69411468505851,33.21928419711513],[73.70263671875026,33.21993651034728],[73.71750640869143,33.22802748324766],[73.7220687866214,33.22706999423433],[73.72563171386761,33.22387327792552],[73.7292404174805,33.224582811617225],[73.73228454589847,33.23497404696835],[73.73403930664071,33.23645033481054],[73.73579406738313,33.231090685152054],[73.73870849609389,33.23000349643149],[73.74298095703168,33.23871245028894],[73.74526977539105,33.23995604159735],[73.74775695800795,33.23038878085541],[73.74634552001945,33.22656645419515],[73.74318695068368,33.224685808443226],[73.74367523193368,33.22074904086499],[73.75806427001962,33.21967329623615],[73.76448059082034,33.214702745699114],[73.77399444580092,33.214141985200996],[73.77528381347693,33.20992674472237],[73.7866058349612,33.20489515902885],[73.79389190673831,33.20377363803314],[73.81300354003915,33.20700850131429],[73.81050872802777,33.20003142001518],[73.7937927246094,33.189533373140435],[73.79248046875014,33.18685545566005],[73.79500579833976,33.18440642001538],[73.79943084716811,33.18506636264215],[73.80188751220734,33.17527022006422],[73.81226348876979,33.162246843599505],[73.81668853759768,33.16290297152891],[73.82820892334016,33.1700326407187],[73.82670593261733,33.15863051059161],[73.83196258544947,33.15625013949777],[73.83885192871085,33.15699019076729],[73.84748077392581,33.1622201407187],[73.85079956054719,33.162712236665726],[73.85301208496108,33.15660490634336],[73.84925842285182,33.14763655307223],[73.85022735595706,33.14620222690009],[73.85715484619132,33.1473962271441],[73.85967254638663,33.14494719149977],[73.8650970458987,33.13152708651924],[73.85964965820338,33.12519087436108],[73.86002349853507,33.119880815767274],[73.85813903808585,33.117008348726515],[73.85356903076163,33.11452498080624],[73.84295654296884,33.11492933871659],[73.83496351912905,33.11463748729311],[73.82734925209067,33.115468134606274],[73.82291913308606,33.11823695898413],[73.81793524920633,33.122943960426],[73.81129007069947,33.128481609181634],[73.8120040893555,33.13629927279854],[73.81131744384768,33.144382616304284],[73.80573272705092,33.15918745639229],[73.80217742919959,33.16238417270101],[73.79676055908206,33.16293730380434],[73.78747558593781,33.17267622592358],[73.78139495849612,33.17510237338465],[73.7748031616214,33.1745721304645],[73.76951599121102,33.17993940951743],[73.7644271850589,33.18116011264223],[73.74189758300813,33.179496904634476],[73.73690032958993,33.17519392611892],[73.72860717773463,33.18716826083559],[73.7142562866214,33.19857802035713],[73.71087646484395,33.20727553012287],[73.70628356933608,33.21121992709547],[73.69776916503949,33.21056761386288],[73.69303894042994,33.20624937655826],[73.69140625000014,33.199680467866955],[73.69245910644545,33.192497392915655],[73.6960830688478,33.18677153232014],[73.70743560791007,33.178756853365044],[73.7033233642579,33.17853941562089],[73.70098114013663,33.176609178804284],[73.69918823242219,33.17142881991754],[73.70156860351565,33.15727629306221],[73.70088958740271,33.15225996615777],[73.69719696044936,33.147190233492],[73.69022369384797,33.14208616855038],[73.66953277587905,33.13938154818911],[73.6670121016592,33.13267501079292],[73.64499994785618,33.130494561595725],[73.64384460449244,33.14225020053294],[73.63927459716828,33.15308394076729],[73.64810943603507,33.167736192964526],[73.65637207031253,33.17529692294501],[73.65429687500014,33.18001188876528],[73.65409851074261,33.187606951021195],[73.64933776855483,33.19615187289625],[73.65602874755896,33.2044946158163],[73.65574645996114,33.20772947909737],[73.65245819091828,33.210907121919576],[73.64734649658195,33.211891313814306],[73.64446258544936,33.2099877798785],[73.6420135498046,33.20346846225161],[73.63152115696195,33.203541532505454],[73.62389150756522,33.21018671101184],[73.62323760986331,33.221092363619036],[73.63372039794942,33.2223283255331],[73.6346588134767,33.227096697115044],[73.63219451904317,33.230457445405904],[73.62449645996114,33.23319639804268],[73.61360168457057,33.24370588900959],[73.60981750488284,33.244152208589455],[73.60313415527335,33.23925413730045],[73.59774017333999,33.22325148227108],[73.58841705322257,33.22953047397047],[73.57530975341811,33.22959150912695],[73.55924330393484,33.226218973276545],[73.56329270958716,33.22403852407943],[73.56318887867323,33.22081976574002],[73.56111226038988,33.218846978371076],[73.557478178394,33.21760100740104],[73.55477857462566,33.214174587233714],[73.5555053910247,33.20773707055531],[73.55799733296507,33.202649355761324],[73.56121609130392,33.189566660576446],[73.5571936047775,33.18360599698556],[73.55129017885466,33.18391670361301],[73.54710277815653,33.17622246531194],[73.54608431310592,33.18419069654722],[73.5431648945968,33.184344350152884],[73.53799642242538,33.17671470075679],[73.5340585388656,33.18139093748343],[73.54543379235079,33.19901527376537],[73.54200737218346,33.202441693933054],[73.54190354126936,33.204414481302166],[73.54761424154847,33.19859995010884],[73.55052150714496,33.19922293559381],[73.55270195634242,33.20098806113465],[73.55322111091314,33.20815239421212],[73.55135215445833,33.211371152551095],[73.55540156011071,33.2197814565986],[73.55882798027866,33.22009294934121],[73.56090459856168,33.22144275122517],[73.55986628942,33.22403852407943],[73.55654370016677,33.225180664135124],[73.55778967113653,33.23089136441426],[73.55602454559576,33.236602064693244],[73.56048927490477,33.23919783754715],[73.56318887867323,33.23670589560733],[73.56163141496066,33.23026837892894],[73.58100128173848,33.23519529940987],[73.59107208251979,33.235351701997814],[73.59682464599635,33.23892607333566],[73.6057357788089,33.25449385287652],[73.61341094970729,33.2547418081991],[73.60592491382553,33.272946730240335],[73.59903361759652,33.28746767586564],[73.5913238525392,33.31942381503488],[73.59638214111331,33.327861925386316],[73.59173583984418,33.33800902011318],[73.59690093994155,33.34093107821862],[73.6100692749026,33.327995439790826],[73.61015319824233,33.32224669101167]]]]},"properties":{"id":"312"}}]}