{"type":"FeatureCollection","features":[{"type":"Feature","geometry":{"type":"MultiPolygon","coordinates":[[[[81.48157031250005,23.686505859375174],[81.48215234375013,23.68619140625013],[81.4838164062501,23.686308593750184],[81.48427734375005,23.686558593750092],[81.48505859374998,23.686419921874943],[81.4849414062501,23.68605859375019],[81.48471093750007,23.68563867187497],[81.48518359375001,23.68530859374995],[81.48594140625013,23.68519140625007],[81.48618359375016,23.685058593750142],[81.48661328125004,23.684862304687627],[81.48684765625026,23.684348632812544],[81.48730859375016,23.684136718750068],[81.48701953125001,23.6839453125002],[81.48656640625026,23.684191406250108],[81.48580859375014,23.68430859374999],[81.48534765625013,23.68455859375007],[81.48493359375013,23.684441406250016],[81.4846914062501,23.68430859374999],[81.48368359375016,23.684191406250108],[81.48344140625008,23.68405859375018],[81.48293359375,23.683941406250128],[81.4826914062501,23.6838085937501],[81.48220703125006,23.68358593750004],[81.48205859375017,23.683316406250015],[81.48194140625012,23.681808593750176],[81.48143359375015,23.681691406250124],[81.48119140625008,23.681558593750097],[81.48063281250015,23.68142968750007],[81.48025000000004,23.681000000000083],[81.47955859375,23.681058593750024],[81.47944140625,23.681816406250064],[81.47930859375029,23.682058593749986],[81.47908593750023,23.682543945312574],[81.47881640624999,23.682691406250086],[81.47834765625012,23.68290722656255],[81.47755859375016,23.6838085937501],[81.47744140625011,23.684566406250056],[81.47719140625,23.685026367187575],[81.47730859375,23.685441406250064],[81.47744140625011,23.68568359375007],[81.47763671875012,23.68611230468767],[81.47828515625011,23.68640917968763],[81.47869140625025,23.686933593750112],[81.47880859375013,23.687691406250067],[81.47981640625025,23.687808593750034],[81.48030859375015,23.688191406249956],[81.48081640625011,23.688308593750023],[81.48127734375001,23.688558593750187],[81.48144140625013,23.688441406250135],[81.48157031250005,23.686505859375174]]]]},"properties":{"id":"19585"}}]}