{"type":"FeatureCollection","features":[{"type":"Feature","geometry":{"type":"MultiPolygon","coordinates":[[[[76.8372446017797,25.055139973958404],[76.83720852322071,25.054689670138927],[76.83636569552968,25.05475748697917],[76.83521402994828,25.05411512586811],[76.83473253038235,25.05186360677081],[76.84028808593771,25.051399197048667],[76.8408230251737,25.051061740451416],[76.8393334960941,25.050397135416688],[76.83657375759563,25.050514865451376],[76.83608208550365,25.049944118923648],[76.83612291124169,25.049436848958422],[76.83581515842027,25.04888509114582],[76.83637139214423,25.048406032986193],[76.83678629557326,25.047476128472354],[76.83791666666681,25.047566731770914],[76.83832370334218,25.046654730902844],[76.8391202799481,25.046718750000068],[76.83971191406269,25.046283637152797],[76.83911200629356,25.04520833333339],[76.83700330946206,25.044267578125087],[76.8359722222223,25.04291666666674],[76.83120686848972,25.043600802951516],[76.82910929362001,25.043026801215333],[76.82835693359411,25.04308702256955],[76.82871541341191,25.05004774305577],[76.82832180447056,25.05221842447918],[76.82822713216163,25.054794379340336],[76.82920505099858,25.056997070312534],[76.83240681966154,25.056992730034708],[76.833323025174,25.056656358507],[76.83616319444471,25.05639539930573],[76.8372446017797,25.055139973958404]]]]},"properties":{"id":"9508"}}]}