{"type":"FeatureCollection","features":[{"type":"Feature","geometry":{"type":"MultiPolygon","coordinates":[[[[78.78242975966603,23.97423643632608],[78.7821622715654,23.973968882905325],[78.78189020066853,23.97396889978623],[78.78162271110497,23.973429320116836],[78.78162271110497,23.97235025720643],[78.78189020066853,23.97208270961471],[78.7821622715654,23.971810664703938],[78.78377643970933,23.971810632133625],[78.78431598838964,23.971543144582412],[78.78485553411818,23.971275564435842],[78.7853950768953,23.971275534930996],[78.78647415359367,23.971275558742875],[78.78754880957408,23.97154316223495],[78.78782086486117,23.971810686972873],[78.78782086486117,23.97208271753007],[78.78808842406337,23.972082714267614],[78.78836039141308,23.971810645920996],[78.78836039141308,23.971275534986944],[78.78782086486117,23.970196492772075],[78.78674171645028,23.96911739319181],[78.78593461672054,23.968849787748496],[78.78485553411818,23.968577825130907],[78.78162271110497,23.96857786026459],[78.78135072517469,23.968310244005394],[78.78108314769341,23.96777074479644],[78.78108314769341,23.967231163564207],[78.78135072517469,23.966691588753335],[78.78162271110497,23.966152068168142],[78.78189020066853,23.96588451321938],[78.7821622715654,23.965612550339955],[78.78323688807788,23.96453791529207],[78.78377643970933,23.96399829527141],[78.78404841895147,23.963726318559765],[78.78431598838964,23.963458760526876],[78.78458796614385,23.963191257379876],[78.7853950768953,23.96319121463246],[78.78593461672054,23.96319126166577],[78.78700927858105,23.96345876259403],[78.78754880957408,23.963726272923466],[78.78782086486117,23.963726326896477],[78.78808842406337,23.963458758645814],[78.78836039141308,23.96237970292006],[78.78836039141308,23.961840106285834],[78.78782086486117,23.96184016058764],[78.78700927858105,23.962112104670283],[78.78674171645028,23.961840077111844],[78.78620218104115,23.961572565493114],[78.78242975966603,23.961300593697985],[78.78108314769341,23.962651681973824],[78.78054358133161,23.96291926005378],[78.77946452621242,23.96291921579879],[78.77892495099954,23.96265167803493],[78.77838986861306,23.962112082156906],[78.77838986861306,23.961302773369894],[78.77811787377183,23.961300582017472],[78.77731070348645,23.96130058353377],[78.7767712029569,23.961840091537013],[78.7762316130198,23.962112126075468],[78.77434540268538,23.96211212577269],[78.77326636626904,23.962379678728738],[78.77326636626904,23.963458740621206],[78.77353837447728,23.963458817810036],[78.77380588595113,23.963726292321468],[78.7740778926732,23.964265854692783],[78.7740778926732,23.96588448865893],[78.77380588595113,23.966424073462434],[78.77353837447728,23.966691605871816],[78.7727267571768,23.966963624671834],[78.77191971574021,23.966963594321797],[78.77084056635553,23.967498739416],[78.77057304684931,23.967770738020704],[78.77003350950653,23.968310283240584],[78.76976590134981,23.96857779681649],[78.76868681490035,23.968849853261162],[78.76814726725578,23.96938938558806],[78.76787524420112,23.969656925718994],[78.76734018840412,23.969924496799052],[78.7662610754621,23.969924510138156],[78.7662610754621,23.96965687881297],[78.76518195073632,23.969389342696687],[78.76410290069774,23.969389345991203],[78.76410290069774,23.9720826465456],[78.76383536294944,23.972622249628174],[78.76356332802598,23.97262223557746],[78.76329578881737,23.973161746396144],[78.76329578881737,23.97342928440301],[78.76356332802598,23.97370133935597],[78.7643748476668,23.973968850938903],[78.76598904721484,23.974236388202797],[78.76680063340618,23.974508458378438],[78.7676077166648,23.975048001447945],[78.76868681490035,23.975047990614925],[78.76949396921671,23.974508415855027],[78.77057304684931,23.974508387986646],[78.77165211269366,23.974236422291],[78.7721872315989,23.973968845028523],[78.7724592427796,23.973701298235],[78.7740778926732,23.97235020089353],[78.774885002932,23.972082688762413],[78.77838986861306,23.97208264003943],[78.77892495099954,23.972350214158908],[78.77946452621242,23.972889784229665],[78.77946452621242,23.97370129185859],[78.77919694361614,23.97450839613542],[78.77892495099954,23.974508412840365],[78.77892495099954,23.975047983449542],[78.77919694361614,23.975315514608724],[78.77973651734183,23.975587537124255],[78.78054358133161,23.975587542664627],[78.78189020066853,23.975315509233468],[78.7821622715654,23.97504794379752],[78.78242975966603,23.974508461966494],[78.78242975966603,23.97423643632608]]]]},"properties":{"id":"38986"}}]}