{"type":"FeatureCollection","features":[{"type":"Feature","geometry":{"type":"MultiPolygon","coordinates":[[[[82.53539453125015,27.634162597656328],[82.5355585937501,27.633431640625147],[82.5356914062501,27.633193359375127],[82.53580859375026,27.63293164062499],[82.53605468750024,27.632500000000064],[82.5356914062501,27.63187011718749],[82.53580859375026,27.629931640625102],[82.5359414062502,27.629693359375082],[82.53605859375008,27.628181640625172],[82.53619140625008,27.627943359375152],[82.53630859375014,27.6276816406251],[82.53680859375012,27.627049804687573],[82.53669140624996,27.62580664062513],[82.53650000000007,27.625499999999974],[82.53405859375013,27.625556640625234],[82.53381640625022,27.62569335937515],[82.53355859375026,27.62580664062513],[82.53306640625013,27.626193359375037],[82.53130859375025,27.626306640625018],[82.52931640625022,27.628193359375146],[82.5288710937501,27.628387207031295],[82.52719140625007,27.63017773437511],[82.52730859375012,27.63244335937516],[82.52744140625012,27.63268164062518],[82.52764453124988,27.633146972656405],[82.52811718750021,27.633486816406247],[82.52843359375012,27.633306640625108],[82.52894140625008,27.633193359375127],[82.52918359374999,27.633056640625128],[82.52969140625024,27.632943359375048],[82.52993359375009,27.63280664062522],[82.53094140625021,27.63269335937524],[82.5313671875002,27.632451171875147],[82.53178515625021,27.632408203125166],[82.53205468750005,27.632875000000098],[82.53169140625008,27.633504882812574],[82.53202734375012,27.63405664062499],[82.53344140625009,27.63394335937501],[82.53376171875007,27.63376123046875],[82.53444921875004,27.63430664062507],[82.53539453125015,27.634162597656328]]]]},"properties":{"id":"18554"}}]}