{"type":"FeatureCollection","features":[{"type":"Feature","geometry":{"type":"MultiPolygon","coordinates":[[[[78.12669325086827,26.486858452691095],[78.1265730794274,26.485361870659816],[78.12835720486137,26.484324815538315],[78.12829969618107,26.483607855903003],[78.1294666883683,26.483256293402917],[78.13031331380259,26.482526855468862],[78.130289713542,26.481658528645966],[78.12923909505238,26.479783799913363],[78.12772081163237,26.479737955729362],[78.12778944227475,26.478881293403035],[78.12693413628497,26.47751030815992],[78.12652615017399,26.476155598958485],[78.12278672960119,26.476356065538354],[78.12164605034744,26.477062717014093],[78.12084364149334,26.478343641493197],[78.12002848307318,26.478707411024402],[78.11973253038232,26.480010308159834],[78.11890272352449,26.481180826823078],[78.11945638020873,26.481657714843877],[78.1195819769969,26.483796115451668],[78.11854953342052,26.48437201605914],[78.11689778645874,26.484824218750163],[78.11532931857667,26.483004014757114],[78.11306586371589,26.481934136284906],[78.11193413628499,26.481676974826556],[78.11149115668454,26.481162651909855],[78.11046251085097,26.480785047743254],[78.10786621093777,26.480508897569592],[78.10667100694482,26.48094780815987],[78.10485378689262,26.48053493923628],[78.10287814670167,26.477784016927316],[78.10039388020866,26.477330729166923],[78.09672092013912,26.474702690972393],[78.0966061740456,26.473275010850884],[78.0990888129343,26.472332899305755],[78.0997119140628,26.47121609157999],[78.09897298177108,26.469521755642475],[78.09735975477483,26.468377821180752],[78.0956372070319,26.468239474826547],[78.09445203993081,26.468900553385552],[78.09338921441011,26.468917914496686],[78.09248969184054,26.467788085937713],[78.09199381510481,26.466676974826584],[78.09137858072941,26.466934136284934],[78.09084364149331,26.467788085937713],[78.08971191406286,26.468045247395963],[78.0894533962676,26.468345269097583],[78.08890272352457,26.468301052517504],[78.08898871527802,26.47027018229184],[78.08775770399328,26.47114284939248],[78.08449598524336,26.471274414062748],[78.08240695529551,26.470507269965523],[78.08144476996594,26.470584581163322],[78.08021837022622,26.46930853949685],[78.077634277344,26.470168999566184],[78.07626980251794,26.469560004340465],[78.07576660156272,26.46819037543426],[78.07598470052139,26.46547580295156],[78.07511447482685,26.464465874566102],[78.07318359375049,26.46325629340288],[78.07251030815999,26.46204942491329],[78.07278103298657,26.461050618489665],[78.07338704427107,26.460528700086954],[78.07325602213584,26.458897840712027],[78.07390082465324,26.45834228515642],[78.07394341362871,26.456682128906436],[78.07239067925391,26.456557345920274],[78.07255289713575,26.458573404948083],[78.07170410156297,26.458641493055765],[78.07027859158009,26.458041178385713],[78.06940131293439,26.45836344401056],[78.06856608072948,26.458347981770984],[78.06806586371553,26.457767469618318],[78.06622233072946,26.456958279080013],[78.06571180555582,26.458348253038352],[78.06726535373306,26.45891899956625],[78.06832166883706,26.458834092882256],[78.0713210720489,26.460170898437667],[78.07074896918428,26.463306749132073],[78.0693975151913,26.463040635850874],[78.06658311631966,26.46336317274327],[78.06590603298659,26.464149034288354],[78.0649761284727,26.464564073350857],[78.0650119357642,26.46500976562514],[78.06344265408015,26.465482313368213],[78.06287706163218,26.467548285590482],[78.06471191406277,26.46893581814254],[78.06353814019124,26.469494357639064],[78.06250895182328,26.469411621093883],[78.06216498480924,26.469810926649444],[78.06163547092038,26.468861762152926],[78.06169569227481,26.4681114366321],[78.06139919704881,26.467767469618295],[78.05971191406289,26.466954752604437],[78.0590030924482,26.466131998698003],[78.05780626085092,26.465771755642535],[78.05780544704893,26.464515516493208],[78.05677734375027,26.4628738064238],[78.05550835503524,26.46197401258695],[78.05401855468781,26.461854383680787],[78.05145860460087,26.46279459635437],[78.0486319986982,26.4626567925349],[78.04859646267388,26.46310058593764],[78.04927652994817,26.463686523437588],[78.04862033420162,26.464734157986385],[78.0472376844622,26.464667697482795],[78.04723958333366,26.46535454644122],[78.04491590711834,26.466805013020945],[78.04244032118103,26.466606174045353],[78.04028808593799,26.46815158420155],[78.04132595486143,26.46852430555569],[78.04538628472247,26.467397189670265],[78.04764214409741,26.466138509114742],[78.04894775390667,26.465745442708652],[78.05026746961832,26.46471191406262],[78.05167697482662,26.46445475260444],[78.05312472873297,26.463428276909866],[78.05498480902818,26.463278808593913],[78.05582302517408,26.464732530382108],[78.05751736111162,26.46666449652801],[78.05708496093771,26.46743950737863],[78.05798556857681,26.468215332031406],[78.05617513020863,26.47052734375019],[78.0570320638025,26.470595974392523],[78.05919053819488,26.4690462239585],[78.05911159939254,26.468065863715466],[78.06188151041707,26.470594075521063],[78.06448866102474,26.47097683376758],[78.06531060112874,26.470268825955117],[78.06607259114614,26.46528808593763],[78.0689054361981,26.465653483073012],[78.07026746961853,26.467574598524365],[78.06893337673634,26.469584689670427],[78.06884602864633,26.470671929253584],[78.07017279730943,26.472211914062598],[78.07211724175389,26.471399197048726],[78.07312771267382,26.471786566840436],[78.07405300564258,26.472712944878637],[78.07518636067735,26.47280381944455],[78.0786008029518,26.472444932725892],[78.07778808593784,26.473343641493216],[78.07701985677105,26.47368652343765],[78.07619032118097,26.475327148437685],[78.07695339626756,26.47526584201401],[78.07724256727496,26.475601399739702],[78.07910183376774,26.475179036458556],[78.07949110243092,26.474306369357933],[78.081021321615,26.473845757378612],[78.08138156467035,26.473038736979305],[78.08445475260484,26.47387858072932],[78.0847691514762,26.47424370659752],[78.08733100043449,26.475184461805654],[78.08872775607685,26.474561089409917],[78.08932779947943,26.473216688368126],[78.09145860460106,26.471958279079985],[78.09253553602471,26.473028700087013],[78.09247639974004,26.473766547309182],[78.09340521918446,26.475076497395975],[78.09335259331615,26.476490885416823],[78.09170003255227,26.4763579644099],[78.09125298394125,26.477159016927203],[78.09313503689262,26.47750217013909],[78.09474039713567,26.478885362413408],[78.09418701171907,26.47987684461819],[78.09595974392383,26.48062364366328],[78.09695203993087,26.480543891059213],[78.09791992187533,26.481083713107964],[78.10124593098979,26.482025553385554],[78.10163682725724,26.48412272135434],[78.10263888888929,26.48430555555572],[78.10372531467036,26.483868001302184],[78.10447129991363,26.4830018446182],[78.10630913628515,26.483006184896027],[78.1072325303825,26.48387858072938],[78.10758978949698,26.484679090712035],[78.10862141927132,26.48498969184041],[78.10919352213588,26.48565375434042],[78.11115532769148,26.485496148003648],[78.11338433159764,26.486490885416885],[78.11292643229214,26.48858968098969],[78.11458794487893,26.48865614149318],[78.11528808593792,26.488343641493174],[78.11582845052104,26.487716471354332],[78.11630208333358,26.489289822048775],[78.11687798394124,26.488621419270928],[78.11725531684075,26.48889485677104],[78.11716769748293,26.489984537760577],[78.11768093533053,26.49002577039947],[78.1199275716148,26.488072645399427],[78.12130913628519,26.488104926215414],[78.12182617187537,26.48765950520867],[78.12237304687525,26.485843641493176],[78.12336669921919,26.48639133029532],[78.12325303819469,26.48780463324661],[78.12442735460095,26.488816460503614],[78.12445638020861,26.48917561848971],[78.12334364149334,26.49013427734397],[78.12578559027796,26.49110080295152],[78.12695475260463,26.490843641493257],[78.1277674696183,26.489788682725887],[78.12751030816023,26.488323025173855],[78.12669325086827,26.486858452691095]],[[78.09716905381978,26.47221245659742],[78.09473008897592,26.470093044705024],[78.0959722222224,26.46986111111127],[78.0972734917539,26.4703691948786],[78.09860324435786,26.47155409071196],[78.09716905381978,26.47221245659742]]]]},"properties":{"id":"4885"}}]}