{"type":"FeatureCollection","features":[{"type":"Feature","geometry":{"type":"MultiPolygon","coordinates":[[[[76.11680859374988,23.882814453124965],[76.11657421875006,23.882315429687466],[76.11585546874997,23.88228710937497],[76.11537500000011,23.882540039062647],[76.11494140624998,23.882310546875175],[76.11466796874996,23.88218261718744],[76.11449999999994,23.882000000000204],[76.11405859375,23.88206054687501],[76.11381640624998,23.88218945312522],[76.11304687500015,23.88231250000004],[76.11307421875026,23.883031250000087],[76.11283203125006,23.883542968750035],[76.11231640625013,23.883939453125066],[76.11189062500003,23.88414062500013],[76.11169140625,23.88456445312508],[76.11144140625024,23.885035156250098],[76.11194140625017,23.88568554687518],[76.11208984375017,23.886637695312615],[76.11281640625,23.886810546875182],[76.11330859375013,23.887189453125117],[76.11356640625016,23.88731054687507],[76.11380859375012,23.88743945312511],[76.11406640625015,23.88756054687515],[76.11430859375017,23.88768945312519],[76.11506640625001,23.887810546875144],[76.11530859375003,23.887939453125],[76.11625781250004,23.88809082031267],[76.11647265625012,23.88850000000005],[76.11630859375,23.88881054687502],[76.11614843750013,23.8894931640625],[76.11556640625011,23.889939453125194],[76.11530859375003,23.890060546875063],[76.11506640625001,23.890189453125004],[76.11457812500001,23.89041894531256],[76.11419140625017,23.890984375000087],[76.1143789062501,23.89131054687519],[76.11469140625016,23.891189453124966],[76.11493359375012,23.891060546875025],[76.11519140625015,23.890939453125057],[76.11543359375005,23.890810546875116],[76.11735546875022,23.89067871093758],[76.11769140624997,23.890189453125004],[76.11785156250008,23.88950683593761],[76.11843359375015,23.889060546875186],[76.11885937499997,23.888859375000024],[76.11905859374988,23.888435546875073],[76.11930859375005,23.88796289062485],[76.11919140625017,23.88756054687515],[76.11905859374988,23.88731445312507],[76.11894140625012,23.88706054687499],[76.11880859375006,23.886814453124998],[76.11869140625018,23.886560546875018],[76.11855859375001,23.88631445312501],[76.11844140625001,23.885310546875147],[76.11830859375013,23.885064453125068],[76.11819140625013,23.88456054687518],[76.11805859375002,23.884314453125185],[76.11789453125007,23.88362402343762],[76.11744140625015,23.883310546875137],[76.11694921875008,23.88307910156253],[76.11680859374988,23.882814453124965]]]]},"properties":{"id":"19485"}}]}