{"type":"FeatureCollection","features":[{"type":"Feature","geometry":{"type":"MultiPolygon","coordinates":[[[[77.88186740451377,24.380431247287746],[77.88221435546868,24.378700832791253],[77.88084662543403,24.37674255371148],[77.87990180121531,24.374234619141234],[77.87659369574638,24.37388990614194],[77.87597222222232,24.37319444444499],[77.87372802734384,24.373644544813885],[77.87247829861113,24.375609605577765],[77.87251573350696,24.376234944662016],[77.87414550781253,24.377526109484094],[77.87524061414942,24.377460801866917],[77.87622450086818,24.378147922092438],[77.87972601996515,24.377490030925017],[77.88051513671886,24.37791876898919],[77.8799753146703,24.378912217882473],[77.8794382052952,24.378880208333854],[77.87864529079874,24.379311116537025],[77.87896972656259,24.380269978841596],[77.88046956380217,24.379454956055184],[77.88186740451377,24.380431247287746]]]]},"properties":{"id":"19328"}}]}