{"type":"FeatureCollection","features":[{"type":"Feature","geometry":{"type":"MultiPolygon","coordinates":[[[[72.93056884765625,33.81893724229624],[72.93555284288195,33.81785597059482],[72.93427137586801,33.81616719563823],[72.93372422960087,33.81448113335529],[72.93608832465296,33.81390475802968],[72.93817165798609,33.81299146864174],[72.94293918185761,33.81339742024768],[72.94333062065974,33.815002780490815],[72.94472520616321,33.81665330674933],[72.94472656249994,33.81812913682748],[72.94753445095509,33.81777025010874],[72.94834526909725,33.81692620171471],[72.95127604166677,33.815836113824005],[72.95348904079887,33.81673373752186],[72.95572048611123,33.815836113824005],[72.9621568467883,33.81812086317309],[72.96249728732661,33.81916944715735],[72.9632603624132,33.8199972195097],[72.96360839843757,33.817470092773746],[72.96303629557283,33.81635972764785],[72.96306939019118,33.81474080403669],[72.96266520182289,33.813956366645115],[72.9589575195312,33.81359368218335],[72.95750081380228,33.81389207628061],[72.95441541883699,33.81357666015654],[72.95376736111135,33.81224087185346],[72.95166395399312,33.81194722493504],[72.95139160156262,33.810641140408194],[72.95286593967015,33.810162760416844],[72.9524886067708,33.809430474175684],[72.95111653645833,33.80943603515644],[72.9499837239587,33.810203925239065],[72.9474820963541,33.81101576063388],[72.94750786675351,33.80975402832058],[72.94499728732657,33.80944722493504],[72.94368815104158,33.80899915907152],[72.94333604600686,33.809725138346536],[72.94302490234404,33.809718763563524],[72.94222493489602,33.808886108398795],[72.94083062065968,33.80861389160178],[72.94045898437517,33.80822726779529],[72.93913736979172,33.80890814887171],[72.93805311414948,33.80888597276497],[72.93635769314253,33.8094416639543],[72.93639377170157,33.80767428927969],[72.93807454427107,33.806391669379536],[72.93874457465299,33.80708889431439],[72.94098849826409,33.80800503200996],[72.94471950954866,33.80583055284319],[72.94559082031245,33.80554775661925],[72.94666395399312,33.80554707845087],[72.94703342013915,33.805931599935136],[72.95077962239608,33.805452745226006],[72.95329074435782,33.804355536567144],[72.95360839843758,33.80305277506544],[72.95519205729178,33.8011661105689],[72.95725206163215,33.80083611382403],[72.95944390190974,33.80194837782139],[72.96139729817716,33.80110263400631],[72.96138454861105,33.800481974284025],[72.95955240885408,33.800951470269496],[72.95823703342015,33.799582180447345],[72.95708333333343,33.79763888888928],[72.95638590494812,33.79777499728752],[72.95639187282987,33.798058200412555],[72.95463650173619,33.799851277669546],[72.9530487738717,33.80036641438842],[72.95278618706615,33.80222276475722],[72.9509662543405,33.80294060601149],[72.94777506510414,33.80333055284311],[72.94585910373283,33.80382154676667],[72.94466796875017,33.803014187283225],[72.94231743706612,33.80341512044305],[72.94083604600715,33.80221944173199],[72.93728488498263,33.801929931640885],[72.93583604600704,33.80083055284311],[72.93374348958346,33.800240342882205],[72.9324739583333,33.80056572808198],[72.93162489149316,33.80144924587708],[72.93083875868072,33.803069864909205],[72.92999728732653,33.80305263943163],[72.92916937934044,33.80378634982655],[72.93114095052098,33.80416388617638],[72.93222303602423,33.8036064317494],[72.93351372612855,33.804949747721636],[72.93388617621545,33.80615966796901],[72.93039876302109,33.8083305528431],[72.92905761718785,33.807421468099264],[72.9286138237849,33.80833624945765],[72.92605685763888,33.80831807454453],[72.9247913953993,33.807666083442],[72.92277018229183,33.80976976182744],[72.92278157552104,33.81115275065126],[72.92417914496528,33.812495591905716],[72.9228789605036,33.81345933702285],[72.92222737630223,33.81595275878924],[72.92457817925359,33.81641167534751],[72.92610839843766,33.81638041178404],[72.92779432508686,33.81736097547784],[72.92916937934044,33.8166525607641],[72.92974717881955,33.817253757053294],[72.92971923828148,33.81861952039945],[72.92916395399308,33.81860819498719],[72.92733940972258,33.82013990614182],[72.92831597222224,33.8210781521269],[72.9313639322917,33.82145060221376],[72.93166395399297,33.820814344618256],[72.93055230034722,33.81974622938395],[72.93056884765625,33.81893724229624]]]]},"properties":{"id":"4586"}}]}