{"type":"FeatureCollection","features":[{"type":"Feature","geometry":{"type":"MultiPolygon","coordinates":[[[[104.53318413628173,16.882002495660032],[104.53291178385123,16.881194661458636],[104.53104112412902,16.88134494357685],[104.53060465494522,16.880562337239866],[104.53075792100398,16.878655598958744],[104.53033610025747,16.877114529080274],[104.5304901801185,16.875196126302484],[104.52891276041387,16.87431586371558],[104.52719563801813,16.874659559462188],[104.52550971136858,16.87611219618084],[104.52463270399014,16.877906358507374],[104.52407063801795,16.877478027344026],[104.5241384548581,16.87501166449701],[104.52361111110835,16.874166666666994],[104.52098632812212,16.87430908203156],[104.52019151475409,16.875733506944783],[104.51999403211514,16.878192545573242],[104.5213416883652,16.88053032769126],[104.52278754340003,16.881662597656515],[104.52508246527506,16.88218397352459],[104.52724419487569,16.88469319661506],[104.53019748263605,16.884666069878733],[104.53143907334774,16.884112141927403],[104.53318413628173,16.882002495660032]]]]},"properties":{"id":"10234"}}]}