{"type":"FeatureCollection","features":[{"type":"Feature","geometry":{"type":"MultiPolygon","coordinates":[[[[102.56527856400018,19.38252529100015],[102.56551321400022,19.380638828000116],[102.56462396000009,19.381283010000047],[102.56394669500017,19.382128757000032],[102.56295815000018,19.38201700200011],[102.5622500000002,19.38150000000023],[102.56205999000011,19.38072641000008],[102.56289789000019,19.380147890000174],[102.56314115300015,19.379497761000124],[102.56392180300023,19.378958773000207],[102.56375857400016,19.37823065200027],[102.56519367200022,19.37769367200015],[102.56618106500005,19.37702899200005],[102.56555005300007,19.375185448000096],[102.56715163400023,19.37487278900008],[102.5683480870002,19.373627500999987],[102.56887166600026,19.374086594000133],[102.56888722600033,19.374849085000065],[102.56856583400028,19.37578805500013],[102.56937249900014,19.375372499000207],[102.57036640400011,19.37489030800002],[102.57062750100008,19.374127501000046],[102.57091288400014,19.372374424000213],[102.57237249900012,19.371622498999997],[102.57303269600013,19.37130220800023],[102.5746225010001,19.368372499000117],[102.57511013000024,19.367903992000166],[102.57562250100025,19.367122499000075],[102.5761295620002,19.36687650100025],[102.5756281240003,19.365903125999992],[102.57561245300022,19.36513525000005],[102.57612250100007,19.364872501000164],[102.5773725010001,19.36456777200017],[102.57712189100025,19.364112309000063],[102.57588525000025,19.364137547000198],[102.57562147100018,19.363625504000012],[102.5758774990002,19.362877499000206],[102.57628313100011,19.361627499000164],[102.57687749900018,19.361872501000192],[102.57773125500032,19.36231231300016],[102.57888000100033,19.361755001000233],[102.58033673900022,19.361004559000136],[102.58247650900014,19.361872501000192],[102.58406708100014,19.360998646000183],[102.58442625000012,19.35879232000015],[102.58511264800026,19.357377499000066],[102.58587749900019,19.35762250100008],[102.58686898800025,19.358294582000184],[102.58687759800009,19.357872631000177],[102.58587749900019,19.356554619000192],[102.58685686100014,19.35619429400022],[102.58812250100024,19.35662749900027],[102.58912749900017,19.356872501000197],[102.59037398900008,19.357878700000228],[102.59112250100011,19.35762250100008],[102.59206625000022,19.357316250000054],[102.59253200900028,19.355880955000046],[102.5943725010001,19.35662749900027],[102.59512749900031,19.356872501000197],[102.59605299400019,19.357189281000217],[102.59662437800014,19.356640301],[102.59695520800025,19.35528323400024],[102.59737749900032,19.354877499000153],[102.59785789100025,19.354377499000265],[102.59838712700005,19.354627041000214],[102.59909750000023,19.356091274000136],[102.59959515000011,19.356609238000274],[102.5999416010001,19.3541274990001],[102.60148294100017,19.35444593400034],[102.60287749900007,19.355122500999997],[102.60335789100012,19.355622501000155],[102.60391334900018,19.355360600000168],[102.60507975800013,19.35414657600026],[102.60649940500028,19.355223793000036],[102.60917984800008,19.353842957000182],[102.61130058300014,19.353886238000115],[102.6142552490002,19.353550629000154],[102.61512750200015,19.354122501000035],[102.61608750200011,19.355121685000114],[102.61637500000009,19.355127552000155],[102.61688221000011,19.35511719900019],[102.61774432400003,19.35601450000017],[102.62050500500018,19.35648538600006],[102.62112249800012,19.35589210900008],[102.62075834700019,19.354748219000115],[102.61999962600024,19.354019245000202],[102.61962417600026,19.35286226300022],[102.61792063900006,19.352897026000164],[102.61662750200017,19.35237250100019],[102.61562249800008,19.35212749900026],[102.61451606800009,19.351377499000108],[102.61287249800026,19.351622501000136],[102.61239250200018,19.352122093000077],[102.61062822700032,19.352158096000124],[102.61061261000017,19.351392994000065],[102.61087249800008,19.351122501000148],[102.61155249800012,19.35046916600001],[102.6121224980001,19.347872501000182],[102.6125495000002,19.34662500000026],[102.61207885700034,19.345250000000178],[102.61237847100026,19.344374668000057],[102.61137143700014,19.342125122000084],[102.6121224980001,19.340273491000275],[102.61179686000028,19.339075954000037],[102.61037750200026,19.338387352000183],[102.6109640810001,19.337480995000234],[102.61237066700025,19.337962440000197],[102.61238265200026,19.337375000000165],[102.61161979700026,19.337004902000103],[102.61163774100024,19.33612582400019],[102.61068374600026,19.33581625000025],[102.61022557800013,19.33440432700013],[102.60915152700014,19.334055794000164],[102.60885116600005,19.33221071600026],[102.60690114600018,19.33144158900022],[102.60637750200013,19.3299117130002],[102.60705905200038,19.329513504000204],[102.60842591100007,19.32998135400001],[102.60958276400024,19.329385391000173],[102.61037750200026,19.329127502000247],[102.61074500300018,19.328370003000003],[102.6111799390001,19.327525703000234],[102.61066507700005,19.32602149200011],[102.61162249800023,19.325372498000064],[102.61277295700009,19.32481435400034],[102.61138295700019,19.324139999000224],[102.6113697970001,19.32349509400025],[102.61261413600019,19.322891411000214],[102.61287249800026,19.322622498000257],[102.61350375400028,19.322316254000228],[102.61412249800006,19.32137249800003],[102.61491051500033,19.320990196000025],[102.6148578030002,19.318407539000205],[102.61554751600025,19.317355560000024],[102.61712740300007,19.317387802000212],[102.61762249800009,19.31687249800021],[102.61861640200007,19.316390312000095],[102.6190614240002,19.315090157000085],[102.61843131300023,19.312631500000222],[102.61911315200021,19.312617592000223],[102.62036386100007,19.313045685000205],[102.62041736600017,19.310424194000106],[102.62012750200014,19.310122498000197],[102.61962790700002,19.309642502000187],[102.61961261000019,19.30889299800016],[102.61987249800026,19.308622498000076],[102.62062750200013,19.308127502000147],[102.62110413400003,19.307631409000052],[102.62212219200015,19.307137497000042],[102.62212759400026,19.306872780000077],[102.62162750200028,19.30541171300034],[102.62253258500036,19.305340012000173],[102.62408828700009,19.305872498000085],[102.62530155900006,19.30511152600019],[102.62562249800024,19.304122498000154],[102.62709589400018,19.302180740000253],[102.62787249800024,19.30087249800019],[102.6281414110002,19.30061413600022],[102.62888531500019,19.299080772000266],[102.63039300500023,19.29763221000023],[102.6303677060001,19.29639244100005],[102.63092460600015,19.295543030000033],[102.63208797500025,19.29442527800009],[102.63341202500018,19.292824722000006],[102.63387750200016,19.29237750200022],[102.63462249800025,19.29112249800002],[102.63537750200018,19.290127502000217],[102.63562249800029,19.289622498000085],[102.6363724980001,19.28851606800002],[102.63701327400017,19.287670947000166],[102.63773077400023,19.287785271000217],[102.63759886900024,19.287117767000225],[102.63789562200017,19.28639562200017],[102.63800000000012,19.28600000000003],[102.63722408300012,19.286204704000085],[102.63664562200015,19.287612366000204],[102.63556935100016,19.287877502000214],[102.63487249800025,19.288622498000123],[102.63426240500021,19.290502602000075],[102.63312249800012,19.290872498000127],[102.63285725400013,19.292231186000194],[102.63112750200034,19.293627502000263],[102.62980049900014,19.293950996000106],[102.62912249800027,19.29562249800003],[102.62886274000019,19.29801337400015],[102.6275212170003,19.298664215000173],[102.62696749900024,19.300370560000133],[102.6266250000003,19.300377548000185],[102.62612500000014,19.300367348000222],[102.62587750200018,19.300877502000247],[102.62562249800024,19.301372498000077],[102.62529193900005,19.30239115900008],[102.62413007400019,19.302367447000066],[102.62387176500013,19.303375359000242],[102.62437249800027,19.304838287000052],[102.62342982500027,19.304912964000096],[102.62287249800025,19.304377502000293],[102.62239250200005,19.30387790700017],[102.6211361390003,19.303852264000184],[102.62087249800024,19.304622498000043],[102.62060643000015,19.305713928000117],[102.61926606800009,19.306622498000237],[102.61912240600012,19.306127174000196],[102.6191376950002,19.305377808000188],[102.61887268800032,19.305372398000188],[102.61785334800018,19.305897514000208],[102.61637750200012,19.305867401000114],[102.61671970400008,19.306230698000064],[102.61715762300005,19.306651443000234],[102.6171181030002,19.30858783000005],[102.61763140900021,19.309645866000196],[102.61862249800024,19.310598091000017],[102.6181185990001,19.310882523000103],[102.61663311800012,19.31085220300008],[102.61661776700001,19.311604393000152],[102.61712249800021,19.314068680000204],[102.6166684720001,19.31510427100018],[102.61487249800021,19.31612249800024],[102.61361106100017,19.316887474000197],[102.61237750200027,19.316862297000156],[102.6126224980002,19.318877502000007],[102.61312249800008,19.31984809100011],[102.61280163600028,19.3208688430002],[102.61213425400004,19.320882462000256],[102.61162249800023,19.320127502000048],[102.61111013000013,19.319346008000053],[102.61037561800006,19.318640305000187],[102.61010709400009,19.317538795000175],[102.60930965400027,19.31871521000008],[102.6106186830003,19.320440346000268],[102.61064789599996,19.321871979000065],[102.61012918100019,19.321882568000134],[102.60847515100014,19.320627502000306],[102.60798613000028,19.320967238999984],[102.60725764500003,19.322041939000187],[102.60762852500025,19.323125504000217],[102.60719509900028,19.323966866000106],[102.60887148300017,19.32557749900006],[102.6089182970002,19.32787156700016],[102.60714183000024,19.327907822000228],[102.60591171300021,19.326627502000164],[102.60405421800019,19.326923164000107],[102.60337749900023,19.32762750200021],[102.60237749900026,19.328283127000105],[102.60262250100013,19.32862750200009],[102.60287749900007,19.328872498000194],[102.60349625000023,19.329816254000207],[102.60447675700007,19.33029193900022],[102.60345867900023,19.331270096000154],[102.60496728100023,19.332259178000186],[102.6039328000002,19.33362249800028],[102.6051275020001,19.33337750200026],[102.60642165400012,19.33293453200021],[102.60700499700019,19.33349500300021],[102.60737712100016,19.334641747000063],[102.60808438900014,19.335321274000066],[102.60896533200028,19.336620888000212],[102.60845078300028,19.33812417600025],[102.60921392800034,19.33925000000005],[102.60837750200014,19.340483936000183],[102.60862249800007,19.34162749900021],[102.60981412500027,19.34201418700023],[102.61016686200023,19.342698901999952],[102.61012202500015,19.344895721000086],[102.61078276100031,19.34682610700021],[102.61024500300019,19.347869999000153],[102.60964463000008,19.349107498000237],[102.6081472550002,19.350122501000186],[102.60733441900018,19.349865456000245],[102.6061302030001,19.349245106000154],[102.60612200900013,19.349646633000077],[102.60737249800005,19.350848087000188],[102.60687750200029,19.351127499000214],[102.6054724730001,19.351470020000036],[102.60466378000015,19.35270347600013],[102.60337250100028,19.353122501000072],[102.60220463900018,19.353522240000203],[102.60186749300019,19.352867783000136],[102.6019030110003,19.351127499000214],[102.59911718000026,19.35139722100014],[102.59836750000014,19.352117500000062],[102.59740907300025,19.353115047000173],[102.59612250100028,19.35362250100023],[102.59492152000021,19.354872501000187],[102.59387250100028,19.3541274990001],[102.59321686900003,19.353127499000223],[102.59307628600013,19.35349248100013],[102.59354742100012,19.354868931000254],[102.59288779400006,19.354882393000025],[102.59262250100025,19.354627499000074],[102.59152000000014,19.353480000000175],[102.59000629000033,19.352025650000186],[102.59112250100011,19.350554619000235],[102.59087458400009,19.35037033100018],[102.59050500100025,19.350755001000124],[102.58937250100027,19.351122501000148],[102.58896749900023,19.35237056000021],[102.5871937710003,19.35240676100001],[102.58612250100023,19.351377499000108],[102.58514986800012,19.349893990000197],[102.58462220400017,19.349387020000265],[102.58462759800008,19.349122780000158],[102.58424499900005,19.34800500100023],[102.58379799700006,19.346627499000206],[102.58362240600022,19.347372898000245],[102.58365636800019,19.349037006000174],[102.58237749900016,19.34945200300031],[102.58262250100026,19.349627499000093],[102.5836403010002,19.349875622000198],[102.58436750000013,19.350632500000287],[102.5851025010002,19.35133867600028],[102.58557575600028,19.352257355000077],[102.58483954200003,19.353686481000196],[102.58693816000019,19.353256641000158],[102.58862250100012,19.35436094300023],[102.5881274990002,19.354627499000074],[102.58347882500007,19.354930809000123],[102.58301865000018,19.355824093000138],[102.58337868100031,19.356875946000045],[102.5826174320002,19.357879177000186],[102.58265217200025,19.359581413000157],[102.58189250200027,19.360372093000038],[102.58138779400022,19.36038239300018],[102.58037831500022,19.359412498000225],[102.58036990000019,19.35900000000011],[102.5803825300001,19.358380932000216],[102.5796250000001,19.35812164300026],[102.57887722000018,19.358377598000217],[102.57839748400008,19.3583678050002],[102.57787250100026,19.358622501000042],[102.57739250200027,19.359122093000167],[102.57664299400025,19.3591373860002],[102.57637250100024,19.358877499000272],[102.57612749900002,19.358622501000042],[102.57574499900025,19.358255001000188],[102.57537749900021,19.35787250100026],[102.57508639200014,19.35736752300012],[102.57447962900008,19.35690352800019],[102.57437255300002,19.356332457000192],[102.57351594700023,19.3559041540001],[102.57286797000009,19.355659000000244],[102.57188748900003,19.35527126300005],[102.5702631300002,19.35585409900014],[102.56938203000024,19.354867970000257],[102.56911797000012,19.35463203000019],[102.56900000000022,19.35425000000002],[102.56835843800016,19.35462351600019],[102.56876406300015,19.354985939000244],[102.56974140500009,19.35607978400016],[102.57169718000003,19.35619635400012],[102.57217884900027,19.355975284000124],[102.5731947200002,19.35618968900019],[102.57369440700026,19.35647522500001],[102.57412271000024,19.357046295000018],[102.57433686100026,19.35751029000012],[102.57497513500024,19.35833406500025],[102.57487749900028,19.360627499000202],[102.57387250100007,19.361872501000192],[102.57312749900021,19.363127499000115],[102.57256004300027,19.363964638000013],[102.57317114300011,19.36575000000012],[102.57286277400001,19.366650915000136],[102.5728779090002,19.367392500000122],[102.57337749900015,19.367872499000228],[102.57362250100007,19.36815191300026],[102.57287249900017,19.368872499000105],[102.57212750100027,19.370127501000198],[102.57187249900014,19.37037249900004],[102.57137750100023,19.37112750100026],[102.57044774200008,19.37173707600006],[102.57012750100014,19.373377501000263],[102.56948393600013,19.373872499000086],[102.5680278780001,19.372885508000053],[102.56703744300032,19.37439617200026],[102.56562500000021,19.374367348000092],[102.56487500000017,19.374382652000108],[102.56419715300032,19.374368820000214],[102.56533137100027,19.376042074000097],[102.56541393200015,19.376633477000098],[102.56497939100026,19.37733552100009],[102.56450745800012,19.3774130460002],[102.56416452500028,19.37736236900001],[102.56345668600031,19.37725776700023],[102.56314109400014,19.378391094000122],[102.56258598300022,19.37907794100002],[102.56235890600018,19.379358906000093],[102.56214109400017,19.379891094000072],[102.56143008400025,19.380439901000187],[102.56125000000023,19.38150000000023],[102.56206585200007,19.38198131000027],[102.56267261500025,19.38226684500009],[102.56339916500016,19.382638063000073],[102.56361117200024,19.383189616000237],[102.56332257500023,19.384097178000275],[102.56288882800013,19.384638828000234],[102.56261039000017,19.384861798000117],[102.56131427400007,19.386482399000002],[102.56051016200016,19.388345168000214],[102.56203481100025,19.388534811000184],[102.56183797500003,19.38695233200025],[102.56211117200027,19.386611172000087],[102.56333993000018,19.385864832000152],[102.56370512600009,19.384176927000027],[102.5648251110002,19.383704988000147],[102.56527856400018,19.38252529100015]]]]},"properties":{"id":"6960"}}]}