{"type":"FeatureCollection","features":[{"type":"Feature","geometry":{"type":"MultiPolygon","coordinates":[[[[107.56446119520288,12.41265435112878],[107.56433776855371,12.412500000000179],[107.56362786186949,12.41290120442737],[107.56216573079328,12.414130588107923],[107.56004767523766,12.4150233289934],[107.5603498670778,12.416882866753795],[107.56146504719939,12.417697482639127],[107.56427863226904,12.418047417534936],[107.56498609754661,12.417481011285133],[107.56537238226903,12.41578016493088],[107.56543477376206,12.41399631076419],[107.56446119520288,12.41265435112878]]]]},"properties":{"id":"22925"}}]}