{"type":"FeatureCollection","features":[{"type":"Feature","geometry":{"type":"MultiPolygon","coordinates":[[[[74.76972764757002,24.846949734158827],[74.7699945746534,24.845828043620585],[74.77063313802162,24.84552663167399],[74.77159179687558,24.844492102729617],[74.77306098090335,24.84389417860322],[74.7735758463547,24.843338623047714],[74.77444986979222,24.84360582139844],[74.77496473524369,24.844161376953863],[74.77611653645906,24.84389417860322],[74.77701009114648,24.842510392931487],[74.77805013020915,24.84306084526986],[74.77972764757018,24.843328043620502],[74.78149468316039,24.844410010444548],[74.7827832031256,24.844716932509385],[74.78311414930627,24.846105821398254],[74.78410481770905,24.845766550700674],[74.78471679687576,24.843430057102523],[74.78436197916758,24.842556135390367],[74.7831320529522,24.84388359917611],[74.78064615885509,24.843108690050798],[74.77949218750078,24.841962856717345],[74.77751464843814,24.84197138468491],[74.77697970920221,24.841394178603224],[74.77527235243113,24.841661376953965],[74.77412326388949,24.842452172174205],[74.77251736111194,24.842515835232945],[74.77247450086887,24.838941107856613],[74.77346245659785,24.836123046875855],[74.77281087239638,24.83474260118352],[74.77236111111173,24.83430555555637],[74.77148328993113,24.83447313096859],[74.77107584635482,24.835636003283113],[74.77115397135478,24.837604420980583],[74.77051974826466,24.841095767551806],[74.7669883897577,24.841403486464557],[74.7674945746534,24.841949734158746],[74.7683279079869,24.84234302096978],[74.76579481336867,24.842777031793318],[74.76588107638966,24.844950171577537],[74.76478841145914,24.84637498643731],[74.76554090711906,24.846404808892927],[74.7661149088548,24.846101023356923],[74.76646538628538,24.847208743626112],[74.76896864149373,24.847307959663368],[74.76972764757002,24.846949734158827]]]]},"properties":{"id":"19206"}}]}