{"type":"FeatureCollection","features":[{"type":"Feature","geometry":{"type":"MultiPolygon","coordinates":[[[[77.82430859375009,26.690182617187546],[77.82455078125011,26.689748046875096],[77.82345703125,26.689835937500092],[77.82326953125025,26.689500000000052],[77.82344140625005,26.689192382812607],[77.82365625000014,26.688711914062665],[77.82414062500007,26.68844238281254],[77.82456640625006,26.688557617187556],[77.82501562500019,26.688807617187464],[77.82552734375011,26.688474121093876],[77.82605859375005,26.687794433593723],[77.82555859375006,26.687807617187502],[77.82510937500021,26.68805761718758],[77.82468359375005,26.687942382812466],[77.82425000000003,26.687700683593874],[77.82381640625019,26.687942382812466],[77.82355859375005,26.68805761718758],[77.82268359375021,26.688807617187464],[77.82219140625003,26.68816552734377],[77.82230859375008,26.687432617187554],[77.82244140625008,26.687192382812583],[77.82255859375024,26.68618261718761],[77.82269140625019,26.68594238281254],[77.82280859375007,26.684432617187497],[77.82294140625007,26.684192382812526],[77.82300000000001,26.68350000000011],[77.82255859375024,26.68355761718766],[77.82244140625008,26.684317382812566],[77.82230859375008,26.684557617187536],[77.82219140625003,26.68506738281262],[77.82205859375009,26.685307617187775],[77.82190625000001,26.685973144531232],[77.82106640625003,26.686692382812694],[77.81994140625002,26.686821289062635],[77.82008593750007,26.68759521484388],[77.82080859375006,26.688192382812545],[77.82127734375021,26.688400878906364],[77.82169140624993,26.688932617187504],[77.82188671875,26.68936523437509],[77.82231640625005,26.689557617187617],[77.82360937500007,26.69073876953128],[77.82393359375007,26.69055761718758],[77.8241914062501,26.69044238281255],[77.82430859375009,26.690182617187546]]]]},"properties":{"id":"27122"}}]}