{"type":"FeatureCollection","features":[{"type":"Feature","geometry":{"type":"MultiPolygon","coordinates":[[[[78.66313710649993,25.36619569578764],[78.66119161089469,25.361707704454588],[78.65429463823833,25.373558061510323],[78.65449300249625,25.381589906603068],[78.65661397417594,25.387771623522212],[78.66292348345306,25.393854158312195],[78.68520131548436,25.408817308336467],[78.70622029741818,25.42712022581692],[78.72102895220345,25.443565385729073],[78.72839898180567,25.454764719817632],[78.72823110064078,25.486627595812266],[78.73215260942962,25.49496843138337],[78.7384316011289,25.502103822618935],[78.74699941118783,25.50317575255032],[78.75433125933219,25.506748216539577],[78.76382985552371,25.50784303465477],[78.77518239458587,25.513965623766197],[78.77885213335551,25.515296953111815],[78.78711000364862,25.514856749486526],[78.7939203967716,25.510486038533273],[78.77135705437738,25.503491090746763],[78.75516286333598,25.502546327501804],[78.7499214692929,25.49924089232094],[78.74344411333615,25.49801255980124],[78.7407356782775,25.495618837267372],[78.73499074419541,25.486173646837415],[78.73377004107047,25.466501253038558],[78.73427151190148,25.455216452901894],[78.72996046228482,25.444156353136535],[78.7222038789611,25.43599321165678],[78.7130028291563,25.425821321397876],[78.69903340776958,25.41235544005029],[78.68475118120719,25.401201265245703],[78.66857686480083,25.39147378721836],[78.66158833941037,25.384948747545337],[78.65932240923459,25.376018541246808],[78.66313710649993,25.36619569578764]]]]},"properties":{"id":"1762"}}]}