{"type":"FeatureCollection","features":[{"type":"Feature","geometry":{"type":"MultiPolygon","coordinates":[[[[103.74871365017063,16.854072265625305],[103.74911810980635,16.853328179253666],[103.7512212456567,16.854575466580158],[103.75331000433746,16.851396484375215],[103.75263102213253,16.85042453342048],[103.75236897786189,16.849050292969082],[103.75409912109083,16.847016330295418],[103.75568657768824,16.846024848090636],[103.75448187933748,16.84447021484415],[103.75488579643795,16.843726671007246],[103.75582926431989,16.843782823350992],[103.75665066188932,16.845074598524576],[103.76006835937213,16.848128255208636],[103.76040879991044,16.84959120008712],[103.76179606119487,16.849853244358016],[103.7643286132782,16.847603624132276],[103.76485324435484,16.84546929253503],[103.76374213324371,16.844035644531616],[103.76236382378178,16.839738769531536],[103.76120279947625,16.83786078559055],[103.75999999999695,16.837222222222508],[103.75694498697621,16.837677951389182],[103.75593098958072,16.838228895399595],[103.75542453341714,16.83986897786498],[103.75491292317398,16.84068657769123],[103.75263888888603,16.839098307291934],[103.75057996961502,16.840536566840555],[103.74929253471927,16.842560492621743],[103.74936794704578,16.843824327257266],[103.74698513454555,16.845506727430845],[103.74591606987545,16.84783555772593],[103.74669650607345,16.849420301649573],[103.74512559678519,16.852830403646095],[103.74514946831297,16.853233506944747],[103.74647705077817,16.85384277343782],[103.7472846137122,16.855602484809467],[103.7478933376706,16.858217773437886],[103.74851372612565,16.858772243923937],[103.74926350911173,16.858727756076846],[103.74871365017063,16.854072265625305]]]]},"properties":{"id":"10237"}}]}