{"type":"FeatureCollection","features":[{"type":"Feature","geometry":{"type":"MultiPolygon","coordinates":[[[[79.86086317274342,28.990552775065552],[79.862108289931,28.98991149902386],[79.86165690104244,28.98859408908467],[79.86028049045174,28.987774997287715],[79.85777506510456,28.987502780490786],[79.85733723958376,28.98570780436225],[79.85671440972263,28.986356065538544],[79.85500271267401,28.98534918891096],[79.85613009982697,28.98389166937976],[79.8566693793409,28.984452921549916],[79.85749728732699,28.98443596733979],[79.85800781250052,28.984967312283487],[79.8583306206601,28.98341891818619],[79.85721950954897,28.983058336046312],[79.85609157986173,28.981653306749664],[79.8560910373267,28.977219509549087],[79.85777669270894,28.97638515896304],[79.86055826822977,28.97694166395455],[79.86083604600734,28.97723069932769],[79.86190483941013,28.97720886230502],[79.86221950954896,28.975274997287656],[79.86325249566036,28.974597710503843],[79.86168023003538,28.97108588324693],[79.86307508680616,28.971114366319725],[79.8640809461809,28.971941663954382],[79.86451660156288,28.970600043403195],[79.86588867187547,28.970280558268584],[79.86808159722281,28.972797105577612],[79.86944444444501,28.972769300673093],[79.87057454427142,28.97444166395438],[79.87132921007006,28.973656277127162],[79.87173502604227,28.971577555338854],[79.87110839843817,28.96916944715747],[79.87051703559078,28.965349934896153],[79.87058973524339,28.961788601345773],[79.87198187934078,28.95697835286491],[79.87191948784786,28.95392476399772],[79.86872992621599,28.945300157335453],[79.86600694444505,28.940913492838916],[79.86473795572968,28.939999321831934],[79.86305284288241,28.939725002713047],[79.85996039496561,28.93858642578155],[79.85753960503516,28.93863579644129],[79.85685167100755,28.9382813856341],[79.85256076388922,28.93836893717487],[79.85167209201447,28.937911105686155],[79.84903917100732,28.937482435438767],[79.84847222222285,28.936527777778196],[79.84666015625064,28.937508341471727],[79.84607964409773,28.93749654134153],[79.8450005425353,28.93694051106806],[79.84334092881997,28.937508680555965],[79.83952582465335,28.93743082682326],[79.83778049045199,28.938613891602017],[79.83401963975749,28.939688652886616],[79.82465223524363,28.945333591037667],[79.81965060763955,28.94924669053853],[79.81577148437535,28.951147189670465],[79.81431749132022,28.952660454644416],[79.8119417317715,28.953330552843212],[79.81077690972282,28.95393052842914],[79.81000813802123,28.95473056369393],[79.80888617621574,28.955274997287702],[79.80832465277845,28.955835978190407],[79.80860839843805,28.960002577040342],[79.8088802083337,28.96110846625477],[79.80946126302146,28.96166666666707],[79.8088802083337,28.962224867079357],[79.80889268663228,28.962826063368468],[79.81046875000047,28.965974460178302],[79.80893446180588,28.967111612956018],[79.80861599392406,28.977047254774632],[79.81001953125033,28.97750271267394],[79.80998426649344,28.979237874349266],[79.80859049479201,28.981943427192178],[79.8098730468756,28.982219441732212],[79.81127387152813,28.980329454210434],[79.81251898871588,28.979708116319955],[79.81326171875051,28.978177422418014],[79.8138140190978,28.97931593153247],[79.81235297309061,28.980273844401495],[79.81194715711851,28.98196424696218],[79.81332519531307,28.981936102973535],[79.8144455295143,28.98221367730069],[79.81510199652828,28.98360833062108],[79.81650553385455,28.98183797200555],[79.81880208333385,28.981278076172217],[79.81805284288234,28.9805583360464],[79.81750271267416,28.979132283528998],[79.81863009982695,28.978058336046317],[79.81957790798666,28.979044799804996],[79.82058702257004,28.97803066677554],[79.82259602864636,28.978071695963934],[79.82307400173656,28.976598442925706],[79.82304633246585,28.975243598090714],[79.8219417317712,28.9736137559683],[79.82195366753533,28.972197197808555],[79.82278645833375,28.9713968912764],[79.8227837456603,28.969859619141033],[79.82357584635477,28.96944722493531],[79.82388617621567,28.971669447157552],[79.8244699435767,28.972802463108025],[79.82695095486176,28.9742744276263],[79.82694173177143,28.974724934896102],[79.82806369357675,28.975569797092575],[79.8280523003476,28.976130574544698],[79.82694715711844,28.97743855794309],[79.83018446180589,28.97662516276077],[79.83055284288238,28.975731268989136],[79.82916395399351,28.97528055826875],[79.82889160156296,28.973886108398773],[79.8280528428825,28.973613891601843],[79.8273497178823,28.97291666666709],[79.82779730902851,28.972486640082792],[79.82777452256997,28.97135830349427],[79.82692491319497,28.9705421956384],[79.82694715711844,28.969441799588026],[79.82636935763955,28.968589341905812],[79.82639214409787,28.967491590712214],[79.82776801215314,28.96748602973139],[79.83062988281281,28.97007242838575],[79.83333062066029,28.97033447265656],[79.83194173177142,28.968613891601862],[79.83139160156313,28.96740214029998],[79.83409288194505,28.968298407661024],[79.83528320312573,28.967491590712214],[79.83584743923669,28.96750311957497],[79.83639160156312,28.968625217014207],[79.83777398003551,28.968597005208693],[79.83884548611158,28.970402086046292],[79.83914767795173,28.971386108398775],[79.83834960937563,28.970555623372704],[79.83702907986142,28.970280558268584],[79.83757812500059,28.97188327365494],[79.83862955729208,28.972224595811966],[79.83955078125055,28.973183254666225],[79.83872884114615,28.974396158854603],[79.83972493489645,28.97471944173205],[79.83999728732684,28.97611389160184],[79.84057454427139,28.97638610839877],[79.84111165364644,28.975827094184467],[79.84249728732695,28.977780558268563],[79.84515299479213,28.978363579644366],[79.84570149739622,28.980613538954344],[79.84666395399339,28.980536566840684],[79.8458360460074,28.979713745117564],[79.84710286458372,28.979716186523845],[79.84749728732712,28.97884806315146],[79.8462212456603,28.97762220594656],[79.84320203993113,28.976447414822445],[79.84249511718812,28.974164971245983],[79.84333062066011,28.973509046766907],[79.84187228732682,28.972552964952655],[79.84272623697959,28.971732652452587],[79.84590440538253,28.973732028537725],[79.84638617621582,28.974725002712972],[79.8470838758686,28.97539530436235],[79.84750542534758,28.97669413248731],[79.85118543836862,28.97788831922783],[79.85166395399361,28.978269721137437],[79.84969943576439,28.978748643663522],[79.84972656250065,28.98008002387182],[79.85111382378514,28.981108330621083],[79.85166937934068,28.982219441732212],[79.85196831597281,28.98314019097252],[79.85190755208404,28.986113755968276],[79.8536035156254,28.98774332682332],[79.85417805989621,28.98918063693621],[79.85501410590322,28.98916354709236],[79.85571072048648,28.987780558268625],[79.8566639539936,28.989081081814646],[79.85555284288259,28.989441663954338],[79.85528049045203,28.990031127930195],[79.85719943576427,28.98999199761326],[79.86086317274342,28.990552775065552]]]]},"properties":{"id":"1714"}}]}