{"type":"FeatureCollection","features":[{"type":"Feature","geometry":{"type":"MultiPolygon","coordinates":[[[[77.48450032552071,23.03138359917571],[77.485589735243,23.030807156033433],[77.48892659505199,23.03081529405435],[77.48888319227436,23.02971761067745],[77.48917209201377,23.02917195638051],[77.48967610677087,23.025482313368414],[77.48770453559032,23.02355346679741],[77.48586588541653,23.02362630208384],[77.48467366536445,23.023313937717376],[77.48400444878476,23.02259155273488],[77.48361653645841,23.021421983507366],[77.48528320312491,23.01944973415837],[77.48728108723967,23.011343180338955],[77.48717339409708,23.008626980252146],[77.48835313585053,23.006397162543806],[77.48791666666651,23.005972222222653],[77.48692464192695,23.00610785590311],[77.48530815972211,23.010881347656635],[77.48469536675358,23.01366739908903],[77.48355523003485,23.01416137695351],[77.48267957899313,23.01321641710119],[77.4831184895834,23.011118435330218],[77.48197021484364,23.010054389106458],[77.48033718532994,23.009727511936063],[77.4814154730905,23.011133626302424],[77.48135281032992,23.01271280924516],[77.48243055555545,23.015182020399635],[77.48161078559039,23.015828043620232],[77.48055067274291,23.014683837891056],[77.47900119357652,23.014745279948357],[77.47861653645842,23.015560845269505],[77.47791910807271,23.015890028212183],[77.47543077256924,23.014778917101154],[77.47424479166673,23.016395941840685],[77.472461751302,23.01693915473126],[77.4725282118055,23.015260145399694],[77.47176839192699,23.015290256076852],[77.47097737630199,23.0169666883685],[77.46872260199657,23.01687730577295],[77.46710123697906,23.01768039279561],[77.46667209201397,23.017216932509115],[77.46577311197896,23.016949734158473],[77.46591335720481,23.020491536458707],[77.46555013020824,23.020828043620227],[77.46461642795137,23.023689236111508],[77.46253228081585,23.026250406901454],[77.46166124131926,23.02666137695357],[77.46114393446183,23.02775756835976],[77.46389431423606,23.028050265842367],[77.4661669921874,23.02860582139806],[77.46723714192697,23.028039686415426],[77.46847222222218,23.028044569227887],[77.47302463107658,23.02822496202309],[77.47806098090265,23.028883599175728],[77.48014241536467,23.029428982205303],[77.48231743706586,23.03088609483541],[77.48450032552071,23.03138359917571]]]]},"properties":{"id":"9710"}}]}