{"type":"FeatureCollection","features":[{"type":"Feature","geometry":{"type":"MultiPolygon","coordinates":[[[[77.76193657769139,26.653808051215464],[77.76138020833358,26.652784016927257],[77.76149902343766,26.650789659288307],[77.75956244574675,26.649557834201573],[77.75537027994832,26.64980767144118],[77.75417453342058,26.648881022135626],[77.75321451822938,26.648618977864814],[77.75223741319465,26.650155164930723],[77.75182427300373,26.64750379774324],[77.75306342230934,26.64639675564267],[77.75350613064276,26.64449381510437],[77.75443956163221,26.64365966796892],[77.75554768880252,26.641000705295227],[77.75513888888909,26.639861111111315],[77.7545884874136,26.640030924479305],[77.75328206380246,26.641658799913316],[77.75233181423656,26.640595431857847],[77.75167453342047,26.641440158420224],[77.75224663628492,26.641951497396107],[77.75221055772604,26.642554796007076],[77.75134711371552,26.643326280382126],[77.75144666883702,26.644996202257133],[77.75026991102479,26.645269911024513],[77.74929931640659,26.64579752604189],[77.7486263020838,26.64726345486119],[77.75025119357664,26.648009168837007],[77.75075141059065,26.648569064670255],[77.74866129557327,26.650436740451582],[77.74953287760442,26.652040744357905],[77.75265462239608,26.652623155382102],[77.75404161241349,26.653120930989772],[77.75720838758721,26.65311279296894],[77.76138834635444,26.653898111979387],[77.76193657769139,26.653808051215464]]]]},"properties":{"id":"18746"}}]}