{"type":"FeatureCollection","features":[{"type":"Feature","geometry":{"type":"MultiPolygon","coordinates":[[[[108.40715705023771,12.73456434461842],[108.40752434624457,12.733688422309427],[108.40516567654012,12.73081380208366],[108.4029488796647,12.730277777778085],[108.4011444091789,12.73042507595521],[108.39823967827616,12.73025187174521],[108.39692050509896,12.730725233290372],[108.39699483235566,12.731972384983052],[108.40232387966498,12.733919677734718],[108.40546217176549,12.733732638889236],[108.40669236924819,12.734592013889298],[108.40715705023771,12.73456434461842]]]]},"properties":{"id":"22814"}}]}