{"type":"FeatureCollection","features":[{"type":"Feature","geometry":{"type":"MultiPolygon","coordinates":[[[[82.81917046440984,24.198099093967215],[82.81944173177098,24.196386108398627],[82.82212022569453,24.192502780490685],[82.82361382378488,24.1927749972876],[82.82470350477413,24.19390909830763],[82.82692735460066,24.193863728841492],[82.82727701822901,24.194542371962044],[82.82694715711816,24.195558336046275],[82.82555826822934,24.196587931315406],[82.82583062065984,24.197225002712912],[82.82656439887145,24.1979301622181],[82.82416937934013,24.19970567491336],[82.82542209201395,24.201072930230424],[82.82962592230896,24.20002183702283],[82.83186496310768,24.19997612847247],[82.8341148546007,24.200552775065347],[82.83389160156233,24.19971944173207],[82.83305908203116,24.198919474284054],[82.83304714626749,24.198336317274524],[82.83414659288204,24.198347100152148],[82.83523600260432,24.197237277561072],[82.83659993489576,24.19720940483961],[82.83778049045131,24.19749721950984],[82.83858127170132,24.198330552843103],[82.83946424696185,24.197769843207766],[82.83943684895829,24.196434122721726],[82.83990939670136,24.194495239258075],[82.84090060763893,24.193984781901335],[82.84180013020844,24.195839097765045],[82.84304823133667,24.195813666449936],[82.8439027235244,24.19725314670174],[82.84749647352433,24.197258978950018],[82.84751925998282,24.196140272352793],[82.84694715711802,24.195029907226825],[82.84745741102424,24.19444817437106],[82.84915337456604,24.19442484537784],[82.84997016059046,24.195274997287683],[82.85110785590271,24.19474853515655],[82.8511414930554,24.193092854817948],[82.85028184678819,24.192242567274548],[82.84971815321191,24.190812988281593],[82.84845811631956,24.189602525499396],[82.84895317925353,24.188156060113087],[82.84804850260426,24.186365695529744],[82.84707817925337,24.185433417426495],[82.84916205512141,24.183976847331024],[82.85066569010408,24.183488905165333],[82.84945366753502,24.181700846354445],[82.84943657769108,24.18085828993088],[82.84998074001757,24.179736328125287],[82.85360839843744,24.178743760850963],[82.8533319769966,24.179739854601024],[82.85222493489599,24.180803426107005],[82.8541693793405,24.18166388617651],[82.85501329210061,24.18254224989178],[82.85775770399292,24.182486233181663],[82.85806125217019,24.182777777778128],[82.85722493489575,24.183581203884756],[82.86135742187511,24.18358622233103],[82.86237548828129,24.18462110731363],[82.8630650499131,24.183603922526302],[82.86224717881933,24.18281812879799],[82.86152506510419,24.181366238064484],[82.85944986979163,24.18140862358962],[82.85894938151048,24.18037706163217],[82.8575298394098,24.1811083306209],[82.85748670789943,24.180012817383087],[82.85833062065981,24.178767835829248],[82.85583685980887,24.178642239041068],[82.85582085503498,24.177855699327537],[82.85732231987836,24.17747083875888],[82.85889160156253,24.177502916124354],[82.85967637803819,24.176686130100023],[82.86215955946184,24.175836113824076],[82.86328504774318,24.176177029080108],[82.86361192491333,24.177517022027203],[82.86445312499987,24.17832533094638],[82.864424641927,24.179718967014168],[82.86583007812501,24.179747653537632],[82.8658637152777,24.178090209961198],[82.86500271267349,24.17641879611574],[82.86562988281261,24.17506368001321],[82.86889133029504,24.17499708387608],[82.87122124565983,24.17567138671906],[82.87403103298627,24.174223836263295],[82.87625000000011,24.175075751410787],[82.87731689453133,24.174526095920413],[82.87850396050331,24.17576151529974],[82.88069308810779,24.17618889702709],[82.88152967664925,24.177423231337045],[82.87916965060774,24.178597208659156],[82.87915825737858,24.179164021810152],[82.87999728732623,24.17997009277373],[82.87832004123268,24.180274658203402],[82.8775946723089,24.18102945963561],[82.8761409505208,24.18028055826855],[82.87609429253487,24.181067843967227],[82.87655354817693,24.182014363607053],[82.87861300998273,24.18166307237442],[82.87916965060774,24.182219577365657],[82.87915337456585,24.183011406792843],[82.88111382378483,24.183330552843145],[82.88204616970503,24.184300808377017],[82.88370415581599,24.18483886718795],[82.88471950954855,24.185814344618237],[82.88417914496526,24.186408962673838],[82.8827696397569,24.18638020833359],[82.88222493489596,24.186947224935082],[82.88111382378483,24.187486300998614],[82.88254177517362,24.188583916558386],[82.88638075086808,24.188880547417725],[82.88695258246517,24.189175143771976],[82.88776963975707,24.18832465277808],[82.89389756944436,24.188318956163513],[82.89320203993051,24.190830552843124],[82.89277506510425,24.190558336046294],[82.89232421874996,24.189169447157326],[82.88778211805564,24.18964409722244],[82.88777208116326,24.19014431423639],[82.88915473090267,24.19081509060355],[82.89000840928836,24.191669311523682],[82.88998589409746,24.192774658203376],[82.89028049045126,24.192780693902165],[82.89249945746522,24.191096937391762],[82.8941373697916,24.191130371093976],[82.89489067925334,24.19074239095076],[82.89666395399311,24.19117472330761],[82.89384684244791,24.191760728624416],[82.89250271267352,24.192780558268524],[82.8911824544272,24.19310241699246],[82.89071777343744,24.194533962674015],[82.88856662326381,24.195944417317946],[82.88778049045138,24.197470092773685],[82.88832058376747,24.198085869683425],[82.88894205729159,24.19743896484394],[82.89031629774306,24.197791137695532],[82.89138020833346,24.197769436306757],[82.89141330295135,24.19938435872416],[82.89095513237854,24.20072285970079],[82.89234320746553,24.201663886176547],[82.89343180338531,24.20124952528242],[82.89255642361107,24.199958224826702],[82.89360568576379,24.19886623806454],[82.8946112738715,24.199912923177337],[82.89535346137151,24.198472222222534],[82.89472493489589,24.19725212944897],[82.89553114149297,24.197204250759782],[82.89610405815975,24.19775458441869],[82.89665283203155,24.198885769314487],[82.89721381293415,24.19889723036046],[82.89749159071184,24.19778055826852],[82.89935872395833,24.198233439127904],[82.90083062065966,24.200056694878725],[82.90036648220476,24.20185852050814],[82.89805989583343,24.20242085774767],[82.89804714626754,24.203047078450865],[82.89915907118072,24.203619791666924],[82.90024359809016,24.2035976155602],[82.90314670138898,24.204437798394338],[82.90435628255196,24.2044624837243],[82.90593478732657,24.20407769097241],[82.90512505425372,24.202505967882246],[82.9063444010416,24.202481079101787],[82.90749511718744,24.20287495931015],[82.90748019748261,24.201113891601864],[82.90928331163187,24.202216457790968],[82.91028618706613,24.200269775390893],[82.91024685329862,24.19834248860704],[82.91136881510428,24.198319566515167],[82.91193712022553,24.198865627712948],[82.91238362630227,24.201483425564405],[82.91166937934034,24.203570285373544],[82.91270887586805,24.203736707899523],[82.91305826822915,24.203058336046254],[82.91338975694438,24.200007731119996],[82.91524793836797,24.2019416639544],[82.91532633463547,24.20062038845508],[82.9141691080728,24.19891316731791],[82.91385199652771,24.197612779405716],[82.91289415147563,24.197148098416108],[82.91194715711796,24.19555277506535],[82.91032362196191,24.19418613010008],[82.9070486111111,24.193301391601878],[82.90562093098956,24.192365247938753],[82.90408311631958,24.190180596245867],[82.9045613606772,24.18919474283878],[82.90666395399299,24.188784315321385],[82.90581081814221,24.188080579969792],[82.90418077256933,24.18804734971809],[82.90140787760427,24.190830552843124],[82.90099934895844,24.190080227322298],[82.9033417426214,24.18749579535617],[82.9033276367189,24.18680033365915],[82.9047051323785,24.18445400661929],[82.90558430989606,24.184153103298897],[82.90943630642349,24.18417500813834],[82.9108588324655,24.183442314995915],[82.91412353515616,24.184110989041116],[82.91557400173608,24.183127916124363],[82.91556369357633,24.184986843533252],[82.91508626302081,24.186382175022004],[82.91582790798626,24.186397298177354],[82.91705186631967,24.1855675591365],[82.91838731553824,24.185540296766803],[82.91805582682301,24.187238430447323],[82.91667616102447,24.18856391059066],[82.91665825737843,24.189441460503843],[82.91831325954846,24.18947523329018],[82.91893934461822,24.18722500271302],[82.92032362196173,24.189441663954256],[82.92091579861116,24.188485175238995],[82.92028049045129,24.187252129449078],[82.92101209852424,24.186417711046445],[82.92327690972215,24.18583733452715],[82.92441514756948,24.18581407335097],[82.92639160156259,24.18638610839865],[82.92679796006931,24.188052775065458],[82.92747368706605,24.187622002495942],[82.92783230251754,24.186150919596614],[82.92885281032991,24.187212999132228],[82.93054741753483,24.18723056369376],[82.93307590060752,24.186106974284073],[82.93385932074668,24.185291680230293],[82.93505669487834,24.18488186306449],[82.93713840060772,24.18593750000022],[82.93830349392366,24.184725002713023],[82.93986111111124,24.18549662272163],[82.94084147135405,24.184991658528944],[82.94166558159716,24.185008477105256],[82.9425396050348,24.183675672743263],[82.94475124783011,24.18310879177541],[82.94888536241322,24.183024427626236],[82.94890299479155,24.183880886502052],[82.94747314453119,24.185311482747608],[82.94361409505214,24.18720831977018],[82.94359185112856,24.189418674045427],[82.94434244791674,24.190199856228546],[82.94833089192727,24.188608194987168],[82.95137179904512,24.188585951063658],[82.95185384114583,24.18952175564273],[82.94973985460061,24.19160054524781],[82.94857503255204,24.193971828884813],[82.94527018229175,24.196705796983835],[82.94528618706605,24.197501356337156],[82.94333577473967,24.19805847168],[82.94236111111107,24.19803853352896],[82.94194715711788,24.198891669379634],[82.9402804904515,24.200954386393533],[82.94083414713575,24.20111490885455],[82.94166097005225,24.200689019097496],[82.94166965060774,24.20111368815128],[82.9411138237846,24.202192314995926],[82.94196967230911,24.20267537434924],[82.94348497178825,24.20000278049075],[82.94413140190986,24.20043538411487],[82.94462022569431,24.2019416639544],[82.94500271267353,24.201391669379717],[82.94527560763893,24.199994642469917],[82.94666069878471,24.200708211263304],[82.94667534722211,24.19999199761314],[82.9458360460068,24.199185655382195],[82.94612169053832,24.198580118815443],[82.94805013020832,24.19861952039966],[82.9489187282986,24.19803066677548],[82.95110812717027,24.19804714626774],[82.95110270182292,24.19916117350283],[82.95167100694428,24.199999389648738],[82.9507115342881,24.202216932509018],[82.95139702690963,24.20223090277804],[82.95207221137147,24.201527981228722],[82.95250840928836,24.2019470893015],[82.9524915907119,24.20277479383708],[82.95331461588538,24.202791544596792],[82.95441460503494,24.202225002712993],[82.95737494574652,24.20251173231358],[82.95796332465264,24.203724161784095],[82.95913682725708,24.202502780490747],[82.96296522352421,24.203029920790158],[82.9638916015625,24.2033305528431],[82.9650417751736,24.20411017523898],[82.9659727647568,24.203215806749398],[82.96651123046874,24.201556464301518],[82.96719265407992,24.200847235785858],[82.96965549045152,24.200004204644344],[82.97168945312526,24.199714219835286],[82.97535156250004,24.199766235351902],[82.98000244140613,24.199447360568783],[82.98108127170158,24.198891669379634],[82.98250271267366,24.199163886176564],[82.98304226345496,24.199725341797134],[82.98387017144094,24.199708455403965],[82.98453938802075,24.200053168402988],[82.9872249348958,24.199725002712995],[82.98830213758694,24.19917012532575],[82.98916395399308,24.199152560764134],[82.98970052083345,24.200258314345007],[82.99133734809058,24.201368001302356],[82.99438585069444,24.201364542643574],[82.99555311414954,24.20194736056878],[82.99713324652785,24.201915079752894],[82.99920084635428,24.2025134955514],[83.00367051866309,24.20256639268696],[83.00714165581613,24.201676839192984],[83.00778021918396,24.20166375054282],[83.00938340928829,24.20221245659755],[83.0104801432291,24.202234836154688],[83.01416937934047,24.19861389160178],[83.01499728732645,24.19749721950984],[83.01646782769106,24.19662428114175],[83.01817192925333,24.194904581706098],[83.01654703776049,24.193803168403136],[83.0157828776041,24.194196845160818],[83.01416422526037,24.194163818359613],[83.01139295789918,24.194787190755548],[83.01137478298605,24.193889770508093],[83.01471923828151,24.19278978135881],[83.0147417534724,24.191686333550663],[83.01316487630211,24.190489773220733],[83.01052680121532,24.18916510687967],[83.0097249348959,24.188330552843126],[83.0073334418403,24.18684556749156],[83.00784803602423,24.18631015353749],[83.01075276692703,24.185565728081812],[83.01583604600685,24.186108330621067],[83.01854139539924,24.18666239420604],[83.0204798719619,24.1866370307079],[83.02304796006942,24.187486504449026],[83.02416395399317,24.188581203884837],[83.02334201388877,24.191885986328444],[83.02666937934035,24.192497219509846],[83.02719726562489,24.193046535916082],[83.02869710286458,24.193077121311006],[83.0296202256944,24.19166944715741],[83.0308360460069,24.19194166395424],[83.03243733723977,24.19360833062096],[83.03471679687485,24.193181627061904],[83.03470241970481,24.191113891601802],[83.03641547309033,24.191389973958607],[83.03755045572908,24.191974622938673],[83.04024793836831,24.19191955566447],[83.04110839843761,24.192502780490685],[83.04286431206592,24.192930908203422],[83.04356933593746,24.194384087456896],[83.04444715711796,24.195274997287683],[83.04485351562508,24.196941663954235],[83.04774848090281,24.19618116590729],[83.04914767795142,24.194725002713],[83.05571451822905,24.195583496094017],[83.05813178168395,24.19553412543428],[83.06475097656241,24.197513563368275],[83.06721381293394,24.197519666883935],[83.06761393229166,24.195957641601836],[83.06669650607634,24.195002780490668],[83.06606906467013,24.195293172200905],[83.06501329210064,24.19639200846386],[83.06392496744806,24.19640231662352],[83.0612459309896,24.19493469238307],[83.06033827039917,24.193550347222526],[83.05624511718739,24.193633897569697],[83.05137613932314,24.19302707248299],[83.05026557074646,24.191959974501103],[83.05106906467014,24.19040018717469],[83.05040934244786,24.188472222222558],[83.05102484809024,24.18667338053406],[83.04974256727448,24.186647271050603],[83.0497357855904,24.18969414605064],[83.04788953993065,24.190645277235646],[83.04655490451407,24.189632500542828],[83.04533203125007,24.190262518989044],[83.04333658854179,24.19030320909313],[83.04332492404504,24.189727715386567],[83.04416395399332,24.188490058051457],[83.04329915364568,24.18780259874154],[83.04111952039929,24.18775811089435],[83.03944715711802,24.188891669379572],[83.03752983940959,24.18971944173201],[83.03666395399304,24.189447224935165],[83.03633138020828,24.1880831570098],[83.0338916015626,24.18774258083792],[83.03424099392359,24.187071261936197],[83.03583062065988,24.186663886176504],[83.03916395399315,24.186337890625325],[83.03882188585064,24.18500278049069],[83.038036295573,24.185280829535998],[83.03739095052075,24.18595241970516],[83.0363916015626,24.18527499728762],[83.03337402343735,24.184783799913475],[83.03185682508692,24.182737019857],[83.02845703124999,24.182806464301606],[83.02417399088554,24.18215833875894],[83.02415879991307,24.181413845486404],[83.02444173177074,24.18083041720942],[83.02588080512166,24.18005269368527],[83.02737413194453,24.179688652886597],[83.02916395399299,24.17833055284315],[83.03027479383675,24.177791680230314],[83.03028971354158,24.17705559624588],[83.02613471137144,24.176524522569736],[83.0241693793403,24.177780558268566],[83.02312499999985,24.17811950683617],[83.02007188585063,24.18012125651073],[83.01945827908,24.18138610839867],[83.01812445746512,24.180958862304962],[83.01732883029504,24.178905232747624],[83.0117328559028,24.178947075738108],[83.01100585937493,24.17783006456193],[83.00749945746523,24.176401028103527],[83.00712483723945,24.174864501953394],[83.00331163194457,24.173710598416136],[83.00186360677102,24.174692179362353],[82.99916124131951,24.17403333875903],[82.99782036675336,24.173342692057517],[82.9966867404514,24.173319566515048],[82.99533691406268,24.174677530924868],[82.99416937934032,24.173886108398676],[82.99278049045145,24.17343539767829],[82.99359510633704,24.172290378146926],[82.9952704535589,24.171881917318032],[82.99526991102445,24.17085828993082],[82.99568495008683,24.17000278049065],[82.99763888888882,24.170606825087205],[82.99891737196165,24.170169203016798],[83.00028049045127,24.170830552843086],[83.00068495008694,24.171663886176447],[83.00102050781246,24.171059773763375],[83.00054524739582,24.1691101074222],[82.99721462673628,24.168567911784038],[82.99720811631929,24.16722534179729],[83.00110839843742,24.167253350152308],[83.00060492621523,24.166677042643485],[82.99797227647574,24.16578626844641],[82.9958580186632,24.16721944173206],[82.99447889539928,24.166575453016733],[82.99514431423628,24.165283542209508],[82.99278157552092,24.165235324435997],[82.99278320312496,24.165966661241598],[82.99073133680551,24.16546644422766],[82.98891004774302,24.163669433594023],[82.98888047960068,24.1622302246096],[82.98944173177082,24.16114101833793],[82.98805284288179,24.159447224935064],[82.98755099826403,24.15738932291694],[82.98472547743071,24.15529466417128],[82.98469156901055,24.153636542426568],[82.98610460069457,24.152678697374498],[82.98805284288179,24.152046508789283],[82.98690212673628,24.151372545030796],[82.98696397569452,24.148342217339618],[82.98592366536471,24.148320990668623],[82.98499240451397,24.151145562066375],[82.98307508680566,24.153052300347497],[82.98263346354165,24.153061319987287],[82.9819582790798,24.151669447157502],[82.98137993706624,24.152204250759794],[82.98141899956605,24.15411627875457],[82.98083604600694,24.155247870551463],[82.98140570746537,24.155281711154842],[82.98276123046875,24.154583468967218],[82.98361382378485,24.154997219509752],[82.98449327256938,24.156810031467188],[82.98667290581582,24.159434000651444],[82.98634982638899,24.160694444444687],[82.98694173177111,24.16300387912365],[82.986228298611,24.16415547688827],[82.98360324435774,24.164476250542748],[82.98361952039951,24.165274997287582],[82.98305284288213,24.165002780490738],[82.9819916449654,24.163898383246774],[82.98055881076382,24.16386908637189],[82.98054958767366,24.1643191867407],[82.9821156141492,24.16507887098554],[82.98250840928827,24.165841539171296],[82.98139160156236,24.166914537218062],[82.98524793836825,24.166969333225182],[82.98648627387146,24.16612982855922],[82.98749728732636,24.16762105306016],[82.98444715711813,24.168119981554156],[82.98476833767378,24.170013224284205],[82.98604437934043,24.16998718261752],[82.98833034939244,24.17054443359399],[82.9883523220486,24.171629774305785],[82.9877804904514,24.172225002712878],[82.98444173177094,24.173330552843083],[82.9832259114585,24.174154663086142],[82.97888617621524,24.1738916693796],[82.97791666666652,24.17355984158023],[82.97664822048617,24.17399400499167],[82.97202094184021,24.171836547851896],[82.97109781901023,24.17279737684497],[82.96973036024295,24.172769436306552],[82.9690402560764,24.173124864366514],[82.96756483289946,24.172386135525485],[82.95890218098944,24.171674872504553],[82.95726643880201,24.171115112304946],[82.9543104383682,24.170633884006406],[82.95333875868064,24.170133327908232],[82.951663953993,24.16972500271298],[82.94861382378477,24.16797553168422],[82.94963026258668,24.167226901584442],[82.95272732204856,24.167192043728548],[82.95443060980901,24.168069525824862],[82.95542616102423,24.167394816081057],[82.96082655164938,24.16686665852896],[82.9608417426218,24.166116739909057],[82.95968370225685,24.165819973416077],[82.95670518663204,24.165819973416077],[82.95466200086818,24.166343587239922],[82.95090087890631,24.16512315538222],[82.95054172092003,24.16442586263051],[82.95058105468755,24.162503323025476],[82.94946831597215,24.1624806722007],[82.94754692925355,24.16313835991788],[82.94721923828135,24.16193108452711],[82.94805230034714,24.16113057454446],[82.94806939019091,24.160289171007207],[82.94679741753484,24.159633856879623],[82.94447428385402,24.160830552843194],[82.94227539062493,24.159579535590566],[82.94153889973958,24.158061455620924],[82.93895860460086,24.158085327148868],[82.93779188368055,24.157519192166063],[82.93722493489574,24.156418796115616],[82.93801188151062,24.155577189127868],[82.94088487413202,24.1546453857424],[82.94444769965295,24.151135118272805],[82.94441623263899,24.149588758680792],[82.94582139756935,24.148907131619154],[82.947762044271,24.146943766276223],[82.94998752170133,24.146581488715555],[82.9500084092883,24.145561048719856],[82.94916937934036,24.144323391384745],[82.94959581163207,24.14363844129815],[82.95134141710068,24.143212890625406],[82.95192871093744,24.141403062608788],[82.95278347439259,24.140276828342238],[82.95193603515636,24.139721272786716],[82.95196451822935,24.138318752712948],[82.9506228298612,24.138346150716373],[82.95016791449663,24.136479627821558],[82.9489187282986,24.135836113824084],[82.94915852864577,24.138597954644396],[82.9496560329861,24.14005181206622],[82.94836127387143,24.141399536132965],[82.94713840060754,24.1410861545141],[82.94601752387146,24.142795681423905],[82.94400933159713,24.14275472005245],[82.94138617621516,24.143330552843153],[82.93881808810775,24.144441663954268],[82.93695068359378,24.143777398003664],[82.93692898220493,24.142712809245012],[82.93928276909728,24.141117214626973],[82.94164089626733,24.141130438910864],[82.94249837239576,24.140306532118387],[82.94331380208334,24.13862569173213],[82.94561659071209,24.1386322021486],[82.9472195095486,24.136685655382166],[82.94264105902775,24.136746012370196],[82.94067437065976,24.135578409831098],[82.94138346354171,24.134201524522922],[82.93861382378466,24.13381490071636],[82.93914469401025,24.132328491211183],[82.94038113064235,24.131905381944634],[82.94379475911452,24.13276414659309],[82.94418023003468,24.131637844509854],[82.9441533745659,24.13032192654103],[82.94666395399318,24.129913262261553],[82.94630289713544,24.12928778754366],[82.94472493489596,24.128253309462067],[82.9458430989583,24.127484063042886],[82.94766682942705,24.12842352973115],[82.94913601345476,24.1269479031035],[82.95082980685768,24.126913316514973],[82.95034233940979,24.12866733127197],[82.95358642578131,24.130830552843264],[82.95417507595474,24.13055569118947],[82.9541474066842,24.12919243706628],[82.95458875868067,24.128732977973286],[82.95567762586822,24.129866333007996],[82.95694173177074,24.128651936849167],[82.95528049045137,24.12697435167138],[82.95567735460057,24.12611714681006],[82.95693115234386,24.126091512044454],[82.95891357421871,24.127802802192093],[82.96055257161456,24.12776936848998],[82.96056966145827,24.128603108724164],[82.95861382378465,24.13048210991782],[82.95906087239595,24.131063435872747],[82.96134819878486,24.130280558268495],[82.96345431857648,24.131663886176455],[82.9638861762152,24.13027486165393],[82.96525906032977,24.130302937825718],[82.96555609809039,24.129993760851036],[82.96646891276046,24.131386108398686],[82.96731038411465,24.13090725368947],[82.96777506510406,24.128052775065427],[82.96834038628461,24.126921251085307],[82.96942545572918,24.125836113824022],[82.97028049045136,24.12610833062095],[82.97095540364572,24.12681077745249],[82.97194498697925,24.125860188802292],[82.97222547743061,24.122992078993363],[82.97523708767349,24.123886108398708],[82.97733100043402,24.12293463812965],[82.97805284288208,24.122241210937716],[82.9772808159722,24.121391669379634],[82.97666395399321,24.12166388617638],[82.97586317274309,24.12249721950984],[82.97498589409716,24.1222214084204],[82.9750192599827,24.120587158203463],[82.97213216145818,24.120528225369128],[82.97025119357639,24.120834418403078],[82.96909369574652,24.12143066406267],[82.96797824435757,24.119729139540155],[82.96723036024312,24.119713880751164],[82.96601047092005,24.120342203776417],[82.96277804904517,24.119162801107194],[82.96168511284728,24.119536946614843],[82.96030164930559,24.119087931315406],[82.96026394314222,24.117237616645397],[82.96161051432304,24.116215752495833],[82.9635850694444,24.115575018988963],[82.96416395399339,24.115018988715576],[82.96315972222206,24.11447211371562],[82.96114963107632,24.114431084527226],[82.95960937499999,24.114825778537494],[82.95778049045154,24.11362670898461],[82.95860839843763,24.11305277506537],[82.95975667317717,24.112772827148703],[82.95805826822905,24.11083055284304],[82.9569471571181,24.1101020643449],[82.95726399739576,24.109010687934315],[82.95915934244803,24.108548583984728],[82.95916965060772,24.108052910699115],[82.95805826822905,24.10698527018249],[82.95985026041657,24.105918375651285],[82.9592515733506,24.104169447157346],[82.96110839843763,24.104725002712954],[82.96416368272574,24.10509833441877],[82.9655064561633,24.105978664822274],[82.96591796875012,24.10718105740048],[82.96306342230892,24.107529839410162],[82.96304144965282,24.10860548231362],[82.96631537543388,24.109163886176503],[82.96718370225702,24.1087897406686],[82.96639160156238,24.107252129448995],[82.96821343315995,24.10703342013923],[82.97022026909721,24.10800699869816],[82.97165961371539,24.109099121094047],[82.97169053819462,24.107584635416828],[82.97139160156266,24.10666388617642],[82.9698375108508,24.106159600152196],[82.96944064670132,24.105000000000288],[82.96971435546882,24.103358289930796],[82.97012505425371,24.102511596680003],[82.9721525065103,24.10247022840737],[82.97332139756955,24.103037312825734],[82.97412082248255,24.103869425455997],[82.97509141710086,24.104201727973503],[82.98000271267355,24.10361389160174],[82.98123833550366,24.10238328721819],[82.98000271267355,24.100755140516725],[82.98041124131956,24.10003451877205],[82.9825434027779,24.100764295790242],[82.98416395399298,24.09920749240493],[82.9838085937499,24.098788180881385],[82.98172417534713,24.09921515570764],[82.98044379340266,24.098243611653984],[82.97865722656266,24.09916388617644],[82.97642171223961,24.097612508138226],[82.97610541449669,24.096637505425704],[82.9747593858506,24.094651963975963],[82.97433973524292,24.09250278049082],[82.97361870659725,24.093376871745136],[82.9735975477432,24.094416707357055],[82.97527506510434,24.096744859483792],[82.97338677300357,24.09738152398029],[82.97279161241309,24.098607991536696],[82.97222629123272,24.098619520399623],[82.9692504882814,24.09612148708787],[82.96695122612837,24.09574720594658],[82.9669585503473,24.094447564019532],[82.96639729817704,24.09443610297329],[82.96583685980923,24.095524291992533],[82.96582465277768,24.096119113498546],[82.9667993164064,24.09705566406275],[82.96571343315978,24.098185899522818],[82.96297498914939,24.0972972276478],[82.95949598524302,24.095298665364837],[82.95803683810763,24.095268893771916],[82.95669650607633,24.096663886176444],[82.95294542100683,24.09515557183191],[82.95199734157987,24.094244588216426],[82.95130316840269,24.09289733886746],[82.9522195095486,24.091545613607025],[82.95158420138901,24.091040513780612],[82.94976291232658,24.09166388617645],[82.94934570312509,24.090949503580973],[82.95083062065973,24.08910997178849],[82.94971950954849,24.089163886176365],[82.9489187282986,24.089997219509826],[82.94847005208348,24.089603746202556],[82.94667887369783,24.087805921766744],[82.94500271267353,24.085274997287584],[82.94388617621522,24.084447224935147],[82.94357421874989,24.083168334961144],[82.94223632812518,24.082519192165975],[82.94125949435752,24.08055833604628],[82.94012342664942,24.0833279758032],[82.93947970920149,24.08334113227022],[82.93722737630199,24.082610202365714],[82.93833062065991,24.078951483832682],[82.9374972873263,24.079163886176488],[82.93603298611109,24.080274997287518],[82.93501790364573,24.07991048177108],[82.9349804687499,24.07807522243955],[82.93721950954861,24.076680365668665],[82.93635823567703,24.075809326172134],[82.9363945855034,24.074022352430788],[82.93444769965308,24.07307779947938],[82.93449517144117,24.07014885796464],[82.93305826822919,24.068255140516712],[82.93333062065969,24.066108330620906],[82.93388617621534,24.065574544271215],[82.93318630642372,24.065518527561096],[82.93135443793395,24.065988023546296],[82.93140218098969,24.063649698893457],[82.93099283854175,24.06205254448801],[82.93300374348942,24.060002780490635],[82.93533501519093,24.06032023112006],[82.93609212239593,24.061108330620826],[82.93688042534725,24.06039204915389],[82.9361138237849,24.059997219509896],[82.93394341362838,24.05964389377189],[82.93344319661472,24.05769178602462],[82.9351904296876,24.055955471462894],[82.9360991753471,24.054614732530567],[82.9361189778646,24.05363606770858],[82.93570393880222,24.052780558268495],[82.93464328342029,24.053453640408208],[82.9333382161457,24.05607733832491],[82.93305826822919,24.057225002712883],[82.93074164496537,24.06014709472693],[82.92893391927075,24.061372273763283],[82.92641872829873,24.05889166937952],[82.92540907118044,24.059358927409022],[82.9269471571179,24.061386108398764],[82.9277682834203,24.063012830946448],[82.92779134114582,24.064130452474217],[82.92737060546861,24.06499721950979],[82.92664659288184,24.06471835666258],[82.92578233506939,24.063818901910025],[82.92439588758688,24.064268866645193],[82.92499647352432,24.066611938476854],[82.92278049045129,24.068336113823975],[82.92168077256937,24.068869696723354],[82.92083604600688,24.070509304470704],[82.92178032769093,24.072418145074067],[82.92068603515636,24.073469441731973],[82.92137912326402,24.075494384765847],[82.92140869140636,24.076941799587885],[82.9202813042534,24.07802497016077],[82.92028591579847,24.078869493273004],[82.91954644097214,24.07999721950975],[82.91887342664918,24.079719780816134],[82.91764295789946,24.0778430853952],[82.91555826822932,24.07666388617649],[82.91035508897582,24.075135837131413],[82.90993055555546,24.07595974392389],[82.91111382378469,24.07805277506536],[82.91194064670137,24.080789794922254],[82.9113916015626,24.082736952040193],[82.91226128472229,24.08307461208794],[82.91360812717019,24.083047146267575],[82.91361952039941,24.083605617947313],[82.91284667968742,24.08474589029977],[82.91333577473964,24.087251790365002],[82.91494086371532,24.088844197591527],[82.91691894531252,24.087503323025473],[82.91804199218737,24.08748040093343],[82.92221110026028,24.089318915473413],[82.92223524305544,24.09050211588564],[82.92055284288185,24.090830552843187],[82.91901936848947,24.091620415581858],[82.91528293185755,24.09044108072942],[82.91525851779525,24.09164089626755],[82.91654622395819,24.092981160481997],[82.91888617621541,24.09470323350716],[82.91804850260414,24.097245415581867],[82.91692437065959,24.09832533094638],[82.91695855034723,24.099996880425664],[82.91530327690973,24.100030653212002],[82.91391059027788,24.09751946343357],[82.91275363498258,24.09673516167564],[82.9109575737846,24.09627488878064],[82.90947428385428,24.09777499728756],[82.90739908854161,24.097122667101075],[82.90694335937494,24.093857760959366],[82.90444769965276,24.09390869140651],[82.90445827907988,24.092520005968225],[82.90278103298616,24.090852796766768],[82.90276394314245,24.090018581814462],[82.90306396484382,24.08943623860702],[82.9014499240453,24.087478908963064],[82.89944769965288,24.087519802517647],[82.8994360351563,24.086947089301503],[82.90027425130214,24.08614169650629],[82.9002973090277,24.08501335991778],[82.89971272786451,24.08445163302993],[82.9003377278647,24.083529527452427],[82.89973605685773,24.081675482856184],[82.89833658854164,24.081646864149576],[82.89835313585061,24.08333007812533],[82.89444715711798,24.082375623915084],[82.89521647135413,24.081149427626045],[82.89778049045142,24.080836113824034],[82.89944173177085,24.080192192925566],[82.89902940538192,24.078634847005432],[82.89657199435763,24.07827575683619],[82.89305881076402,24.078347439236467],[82.89301920572919,24.0764118109812],[82.89622368706611,24.075045369466494],[82.89774793836798,24.075830552843215],[82.89806396484371,24.075553385416868],[82.89803575303833,24.074169311523775],[82.89944173177085,24.07281860351584],[82.8988349066839,24.072464124891795],[82.89627631293396,24.07283799913216],[82.89448513454872,24.07222500271294],[82.89325330946198,24.07388610839874],[82.89258273654522,24.07350443522158],[82.89361735026026,24.072510443793576],[82.89334499782998,24.070402289496926],[82.89197428385424,24.071108330620902],[82.89139160156256,24.070597398546198],[82.89173638237847,24.069837171766807],[82.89360839843752,24.06938083224854],[82.89205729166659,24.06885213216181],[82.89126790364574,24.067225002712945],[82.88997612847217,24.067579142252868],[82.88997694227427,24.070438978407424],[82.89036485460062,24.072714029948173],[82.88863579644087,24.07388610839874],[82.88755560980897,24.07292290581624],[82.88833062065979,24.070830552843134],[82.88916042751728,24.069606119791928],[82.8891750759548,24.06833631727457],[82.88754855685752,24.068303154839725],[82.88639648437513,24.069409993489884],[82.88605875651027,24.070450303819754],[82.88404568142354,24.071663886176594],[82.88253445095475,24.069981146918693],[82.88384819878488,24.068613891601828],[82.88452826605888,24.069903225369302],[82.88555202907972,24.068919474284087],[82.88558024088528,24.06753974066865],[82.88526936848942,24.066936442057667],[82.8852962239583,24.065623779297226],[82.88491455078142,24.064447224935194],[82.8834863281252,24.065210978190322],[82.88113064236106,24.068182508680792],[82.87896647135412,24.068737114800584],[82.87819444444452,24.067083333333514],[82.87674831814226,24.067578260633994],[82.87764431423611,24.06583909776508],[82.87615342881938,24.065846625434233],[82.8747884114583,24.064535386827558],[82.87404758029518,24.063442314996024],[82.8749907769097,24.06253607855929],[82.875008138021,24.06168090820333],[82.8742195638022,24.060859917534998],[82.87222873263906,24.060819295247597],[82.87060546874997,24.062781643337928],[82.86893934461816,24.062747599284037],[82.86833279079858,24.063060031467188],[82.8668663194446,24.06194722493511],[82.86476074218743,24.063302273220785],[82.86665744357637,24.065801934136545],[82.86670355902763,24.068051961263293],[82.86584147135429,24.06806959364178],[82.86513102213544,24.067330254449075],[82.8633360460071,24.06805833604639],[82.86165093315961,24.068332655165193],[82.86035264756939,24.069683837890906],[82.85420979817721,24.069758165147874],[82.85361436631936,24.069186130100093],[82.85359700520857,24.068330213758912],[82.85466498480898,24.068351982964643],[82.85835205078135,24.066652899848393],[82.85970865885415,24.06668056911927],[82.86114773220478,24.06570495605507],[82.8621185980904,24.066205105251967],[82.86250298394091,24.06583597819035],[82.86248589409709,24.065003119574854],[82.86360812717007,24.06500840928858],[82.86363091362855,24.06389024522599],[82.86203504774315,24.06350124783019],[82.86139160156264,24.062252129449192],[82.86174072265626,24.060784979926524],[82.86332139756954,24.06001824273021],[82.86433729383671,24.058960706923017],[82.86611409505215,24.058613891601752],[82.86610270182294,24.05806355794303],[82.86666395399325,24.056974351671272],[82.86611382378479,24.056663750542725],[82.8650257703994,24.05668599446649],[82.86416937934038,24.055863240560058],[82.86529106987845,24.05528089735263],[82.86640869140618,24.05416402181018],[82.86636338975686,24.05194776746987],[82.8669444444445,24.05193596733966],[82.86748616536468,24.053052775065424],[82.86855902777776,24.05206054687524],[82.86901665581607,24.051117011176416],[82.86944715711806,24.051108194987307],[82.86989800347206,24.052497219509732],[82.87056016710054,24.05202616373721],[82.87052083333336,24.050098605686074],[82.87321234809028,24.047297227647917],[82.8744417317711,24.046663886176475],[82.87705512152772,24.046344536675676],[82.8791837565104,24.045554877387403],[82.88083062065962,24.04392971462694],[82.88028049045155,24.04360819498723],[82.87919243706605,24.043630438910824],[82.87859375000008,24.043055148654773],[82.8807603624131,24.042702433268545],[82.88133273654509,24.04102993435353],[82.88028049045155,24.040018988715488],[82.88166558159716,24.039440850152147],[82.88382595486101,24.03988335503493],[82.88499728732651,24.039315185547125],[82.88472493489596,24.03860833062089],[82.88277506510408,24.038336113824045],[82.88111382378483,24.03751369900202],[82.881643608941,24.036941121419616],[82.88279812282994,24.036964721679936],[82.88193603515609,24.035828721788363],[82.88196994357625,24.034169447157325],[82.88143093533003,24.034648980035],[82.88006727430539,24.037404106988163],[82.87865370008691,24.036676025390832],[82.87723280164917,24.036647067600185],[82.8769525824653,24.03804328070771],[82.87468722873254,24.039997219509758],[82.87418240017374,24.03943752712692],[82.87546630859387,24.03722886827289],[82.87368679470492,24.03719258626323],[82.87198513454857,24.037774997287528],[82.87084255642347,24.037255791558536],[82.87083034939226,24.036653306749386],[82.87189100477454,24.03563401964],[82.87334526909737,24.033672485351843],[82.87581759982632,24.03306972927551],[82.87694173177076,24.03158847385008],[82.87584716796871,24.02889166937959],[82.87516899956617,24.029519042969014],[82.87610839843748,24.031342637804073],[82.87555338541685,24.03223314073378],[82.8733306206598,24.032774997287618],[82.87139160156252,24.034447224935178],[82.87064344618054,24.034810180664294],[82.87001925998257,24.03609700520863],[82.86778618706589,24.037230563693853],[82.86609239366337,24.037780151367528],[82.86545166015614,24.038447062174725],[82.86257785373274,24.039514906141676],[82.8619436306424,24.04112325032581],[82.86041341145832,24.04033494737436],[82.85827229817701,24.04114671495242],[82.85638617621535,24.041108194987245],[82.8557158745659,24.04180596245682],[82.85341335720491,24.042571411133267],[82.85212565104163,24.041282823350926],[82.8508146158853,24.041958211263278],[82.84946316189232,24.04193067762604],[82.84829861111123,24.042530449761543],[82.8463807508679,24.04249131944478],[82.84557454427099,24.043330552843116],[82.84240288628476,24.0429457600915],[82.84147026909713,24.04204983181451],[82.84313422309017,24.041220160590612],[82.84235487196176,24.04007046169727],[82.84317003038208,24.038060709635786],[82.8420833333333,24.038038533528976],[82.84140272352423,24.039441324870012],[82.83916937934018,24.039430338541905],[82.83862765842005,24.04054673936649],[82.83723551432283,24.040575154622587],[82.83641954210057,24.03972568088129],[82.83529106987831,24.03970262315569],[82.83450629340288,24.040519476996707],[82.83240152994799,24.041603800455988],[82.83086398654527,24.040003458659044],[82.83055284288187,24.039997083876116],[82.82999701605891,24.041664089626977],[82.83001410590268,24.042491183810967],[82.82944173177069,24.042502916124405],[82.82761447482645,24.041116265191206],[82.82557183159739,24.04107462565149],[82.82525336371518,24.04200453016523],[82.82528971354171,24.043780517578455],[82.82490044487847,24.046568332248498],[82.824200032552,24.048012356228625],[82.82154622395822,24.04806654188397],[82.81833062065968,24.047780558268414],[82.81589735243043,24.046886054145205],[82.81388047960061,24.04556389702728],[82.80824490017378,24.040300971137427],[82.80834174262154,24.03555833604638],[82.80694173177088,24.03721944173209],[82.80666585286471,24.038350355360436],[82.80557264539917,24.039400838216523],[82.80463650173621,24.041330227322334],[82.80327718098951,24.041771308051523],[82.79997477213547,24.044099053277336],[82.79747341579846,24.044804484049706],[82.79595296223951,24.045958251953422],[82.79202121310757,24.047767740885703],[82.790871310764,24.047791205512397],[82.78687771267383,24.045956895616513],[82.78629069010404,24.044817301432516],[82.78559027777786,24.04002610948382],[82.78944064670148,24.036152750651297],[82.7894680447051,24.03481953938831],[82.78802327473974,24.03387234158012],[82.78641194661449,24.03222934299076],[82.78540961371525,24.031743028429077],[82.78431911892355,24.030079481337083],[82.78304741753479,24.031402926975062],[82.78113769531248,24.031363932291924],[82.77988878038187,24.03231140136748],[82.77699625651039,24.03305277506547],[82.77652289496538,24.032269490560125],[82.7805528428818,24.031257595486252],[82.78027994791651,24.030551079644255],[82.77865478515608,24.03110738118508],[82.77724392361105,24.031136203342186],[82.77611219618072,24.029466552734633],[82.77555284288181,24.02750278049062],[82.77525417751733,24.025058458116604],[82.77139539930559,24.024062771267637],[82.77136990017354,24.022822197808466],[82.77221950954848,24.019441663954197],[82.7729429796008,24.01803690592483],[82.77094319661475,24.01462836371546],[82.76944715711798,24.013902587890783],[82.76972167968776,24.01276563856365],[82.77092664930544,24.012181057400525],[82.77194742838552,24.010835978190386],[82.77192464192714,24.009725477430763],[82.77305257161467,24.009730631510863],[82.77306966145849,24.008891805013263],[82.77170708550332,24.006246609158296],[82.77365044487837,24.005748562283173],[82.77753743489595,24.007241278754762],[82.77915635850704,24.007230495876968],[82.78058159722232,24.005085313585255],[82.78427707248281,24.00644992404544],[82.7860015190972,24.00585964626758],[82.78687201605916,24.007654215495023],[82.78864013671867,24.00825934516095],[82.79068739149326,24.007451917860465],[82.79194118923604,24.005852796766888],[82.7919528537328,24.005280558268524],[82.78836317274298,24.006941663954237],[82.78739284939226,24.00566277398022],[82.78444769965287,24.003626980252136],[82.78445285373263,24.002225206163416],[82.783058810764,24.00223632812535],[82.78307400173603,23.99951321072072],[82.7816639539931,23.9991694471575],[82.78125759548598,23.99750278049069],[82.78000813802097,23.998908623589685],[82.78005371093732,24.002218288845683],[82.7777810329861,24.00219679090732],[82.7777747938367,24.002513359917785],[82.77864963107643,24.003353949653032],[82.77555935329863,24.00329087999154],[82.77555257161472,24.003624471028814],[82.77638617621537,24.004425455729347],[82.77598551432308,24.0052749972876],[82.77360812717026,24.00415256076414],[82.77277533637161,24.004169582791036],[82.77112386067719,24.003318888346556],[82.77000271267352,24.003341810438684],[82.7688861762152,24.002502780490673],[82.76850504557277,24.00093946668862],[82.76694173177074,24.000558336046282],[82.76586317274322,24.00000278049069],[82.76499403211798,24.000275946723434],[82.76610839843752,24.00191969129793],[82.76558485243064,24.003040771484564],[82.76352105034718,24.00308288574243],[82.76161621093743,24.00277275933192],[82.75774034288204,24.001092054579217],[82.75475694444432,24.001152886285013],[82.75362820095481,24.000043606228587],[82.7530772569443,23.99890835232233],[82.74916965060774,23.996680569119263],[82.74915825737864,23.99611409505232],[82.74968587239582,23.996103379991652],[82.75360378689246,23.996604139540153],[82.75361952039933,23.995842013889117],[82.75250298394101,23.99584174262175],[82.75248779296871,23.995090467665193],[82.75362657335077,23.994720865885697],[82.75264133029529,23.993774074978518],[82.75411593967019,23.991947224935103],[82.75194173177076,23.99221944173202],[82.75125000000006,23.992575751410854],[82.75055826822907,23.99221944173202],[82.74833604600704,23.991785617404716],[82.74903320312492,23.99028354220947],[82.7474972873263,23.990292019314623],[82.74667995876743,23.98944132487013],[82.74532741970498,23.989425591363016],[82.74265814887136,23.99119683159759],[82.74141872829844,23.99055833604622],[82.74168077256942,23.993323771159126],[82.73874565972218,23.99419128417992],[82.73805826822931,23.995525648329235],[82.7386083984376,23.995836249457696],[82.74055202907974,23.995796576606196],[82.74056423611128,23.996396891276348],[82.73918674045134,23.99778523763041],[82.7373790147569,23.99741495768255],[82.73557508680543,23.998311496311047],[82.73432752821176,24.000862155490736],[82.73251437717008,24.00082512749593],[82.73249186197913,24.00192633734831],[82.73284559461788,24.003306342231113],[82.73116455078113,24.004921535916054],[82.73028049045146,24.006113891601785],[82.7285942925349,24.006443074544478],[82.72748182508676,24.007512071397827],[82.72693739149335,24.00863430447069],[82.72585042317692,24.009678615994076],[82.72460964626728,24.012185194227854],[82.72292914496526,24.011319580078336],[82.72193305121536,24.011802842882247],[82.72196967230897,24.01359144422777],[82.72054904513877,24.01445278591605],[82.71559299045148,24.014425387912638],[82.71389404296892,24.01511447482656],[82.7138750542534,24.01418077256963],[82.71553087022582,24.013058336046257],[82.71694715711831,24.0133305528431],[82.71802571614583,24.013886108398694],[82.71910617404515,24.01338616265221],[82.72193305121536,24.01060472276508],[82.72305284288203,24.008330552843105],[82.72416395399298,24.006663886176568],[82.72499728732654,24.005863240560174],[82.72429253472231,24.005465494791864],[82.72293457031233,24.0063861083988],[82.72263861762164,24.004850531684312],[82.7238861762153,24.00365193684928],[82.72338324652773,24.00305833604628],[82.72257649739586,24.003722941080937],[82.72169677734396,24.00553575303846],[82.72004611545142,24.0063861083988],[82.72083062065954,24.003608330620963],[82.72139214409734,24.002518310547117],[82.72138563368068,24.001370578342375],[82.72221950954858,23.999752129449078],[82.72066541883672,23.996393975152117],[82.72000298394099,23.99638047960096],[82.7204456922743,23.999854871962143],[82.71750271267345,24.002747870551545],[82.71777994791651,24.003629489475102],[82.71879747178824,24.004607204861443],[82.71807210286457,24.006102294922172],[82.7163916015626,24.00613654242639],[82.71699191623279,24.0037173801001],[82.71613335503488,24.00194769965303],[82.71279106987853,24.00193623860696],[82.71068901909715,24.00263332790827],[82.7092184787326,24.004163886176386],[82.70797173394081,24.003229166666955],[82.70639702690963,24.004040391710447],[82.70534640842001,24.003499213325057],[82.70472493489584,24.004447224935163],[82.70249213324658,24.00475891113308],[82.70251410590268,24.005828721788518],[82.70166395399312,24.0063861083988],[82.70137369791664,24.006984524197236],[82.69888916015631,24.008059421115732],[82.69773925781246,24.007665812174736],[82.69694173177064,24.00805277506535],[82.69616943359367,24.00923061794734],[82.69406684027766,24.00995029025637],[82.69305284288194,24.008613891601968],[82.69224419487833,24.006947224935246],[82.69109320746523,24.007312418620046],[82.6911143663194,24.00835639105921],[82.69036159939245,24.010555555555754],[82.69107774522573,24.012647637261495],[82.69003662109358,24.013183932834337],[82.68821234809045,24.01194722493514],[82.68750515407979,24.012387424045457],[82.68778157552092,24.014445597331033],[82.68666937934037,24.01627943250888],[82.68749728732635,24.01720323350716],[82.68658610026066,24.021733534071444],[82.68587375217007,24.02247497558629],[82.68475206163211,24.02305277506531],[82.68383110894084,24.021877170139106],[82.68333604600699,24.018330552843082],[82.68198757595493,24.017892930772945],[82.68162055121516,24.016820339627003],[82.6819520399304,24.015798882378704],[82.68415662977426,24.01368055555578],[82.6842027452258,24.011432020399567],[82.6836300998265,24.010836113824197],[82.6814317491318,24.012207166883996],[82.68013617621537,24.012233615451592],[82.67889160156258,24.009997219509827],[82.67722493489569,24.009671834310154],[82.67768419053803,24.009283447265858],[82.6791598849828,24.0088046603735],[82.67919460720478,24.007106119791985],[82.67812798394087,24.006556667752108],[82.67650634765633,24.007082926432574],[82.67555691189219,24.00807115342907],[82.67520100911472,24.00697394477021],[82.67331759982645,24.00666734483535],[82.6703404405383,24.003891669379556],[82.66967230902773,24.005679117838753],[82.67040581597232,24.008540988498495],[82.66932156032973,24.00909952799519],[82.66704725477419,24.00333828396286],[82.66562635633679,24.00330925835526],[82.66366400824634,24.00408325195336],[82.66148111979177,24.006032036675663],[82.66103407118047,24.005110270182485],[82.65940592447899,24.005667521159225],[82.65806966145843,24.00501919216616],[82.65770209418409,24.004305555555817],[82.65806016710056,24.003610161675567],[82.65767957899314,24.00324435763916],[82.6580878363716,24.000050320095824],[82.65802490234367,23.996972859700776],[82.65953911675356,23.996192762587114],[82.66052571614588,23.997219441732014],[82.66222737630196,23.99666863335524],[82.66166937934017,23.995585462782444],[82.66469563802079,23.99372884114601],[82.66386908637159,23.99332790798637],[82.66391438802097,23.991113891601827],[82.66176866319452,23.99416388617651],[82.66128309461808,23.993818359375283],[82.66456108940966,23.98780659993507],[82.66721950954874,23.98779188368073],[82.66657090928803,23.98708997938391],[82.66489746093757,23.98654696994383],[82.6672200520832,23.98221842447954],[82.66993733723942,23.982774997287564],[82.67003255208343,23.981973876953404],[82.6682782660591,23.981088528103527],[82.66953233506942,23.977773166232893],[82.67222493489598,23.973891669379626],[82.6744805230035,23.969044053819815],[82.67666476779519,23.965060221354392],[82.67696885850697,23.9613317192928],[82.67749728732653,23.959163886176412],[82.67805230034733,23.958630574544486],[82.67807481553811,23.957525770399513],[82.67751898871515,23.956947224935178],[82.67669731987851,23.957762993706908],[82.67582004123253,23.957780897352762],[82.67499728732648,23.956947224935178],[82.67445827907969,23.955836113824063],[82.67383789062504,23.95613125271295],[82.6728464084201,23.961582709418636],[82.67188747829849,23.962846544054074],[82.67222601996528,23.964167616102714],[82.67194173177066,23.964719441732],[82.67163004557293,23.9669521755644],[82.67056423611112,23.96693047417571],[82.67055853949662,23.96805799696196],[82.6694951714409,23.97128913031723],[82.66709445529503,23.975637546115692],[82.66557454427075,23.97721944173206],[82.66606445312507,23.972383490668633],[82.66265679253499,23.970280558268428],[82.66205593533002,23.970654568142606],[82.66333007812491,23.971924981011554],[82.66334201388898,23.97250773111999],[82.66071397569434,23.978049519857052],[82.66017740885403,23.978060438368473],[82.6607484266494,23.97639166937971],[82.65778049045164,23.97676920572944],[82.65811740451389,23.97767720540392],[82.6594384765626,23.978318142361374],[82.65994222005193,23.98127129448804],[82.65916937934034,23.98166944715736],[82.6574584960936,23.981947970920444],[82.655138346354,23.984284193251142],[82.65472493489594,23.98555833604624],[82.65281385633662,23.985869411892565],[82.65248046874987,23.98791836208794],[82.65146131727428,23.988443332248607],[82.65085828993048,23.985354817708583],[82.65014838324666,23.983891669379517],[82.64902886284713,23.984201253255463],[82.64972493489566,23.985552775065315],[82.65055284288186,23.99021518283442],[82.64972493489566,23.991113891601827],[82.64751898871512,23.992774997287626],[82.64777832031237,23.991649915907388],[82.64847493489575,23.99098056369391],[82.64662326388881,23.99034681532146],[82.64573621961799,23.99119906955319],[82.64500271267374,23.993058336046303],[82.64309136284729,23.994335327148676],[82.63916395399306,23.9947194417321],[82.63776231553825,23.995569390191278],[82.63528049045149,23.995518731011586],[82.63590440538181,23.997454291449998],[82.63680772569447,23.99651414659327],[82.63916395399306,23.999246012370065],[82.63889160156245,24.00028055826853],[82.638058268229,24.001081203884823],[82.63861490885407,24.002221679687693],[82.63810899522556,24.003700425889974],[82.63998101128462,24.005552775065354],[82.6419037543404,24.003891669379556],[82.64223632812482,24.00417344835091],[82.64220241970483,24.005830688476834],[82.64390299479155,24.00750800238754],[82.64389187282987,24.00889153374591],[82.64245334201397,24.010938110351873],[82.64011067708341,24.013189019097396],[82.64083604600691,24.013886108398694],[82.6412860785592,24.015272827148664],[82.64220350477413,24.015291544596607],[82.64290418836791,24.01493069118945],[82.64415717230887,24.01553853352894],[82.64474093967002,24.01789028591608],[82.645968967014,24.01869554307747],[82.64500271267374,24.02012105306015],[82.64805284288187,24.020629543728575],[82.6477690972221,24.021713121202623],[82.64639594184015,24.023032362196403],[82.64603569878486,24.023775295681716],[82.64444173177085,24.024163886176524],[82.64390760633691,24.024719848633126],[82.64167182074672,24.025445353190534],[82.64165825737862,24.026103108724215],[82.64206407335084,24.02689059787349],[82.640824924045,24.027491658528874],[82.64002495659705,24.028324313693858],[82.63917209201375,24.028341742621762],[82.63694444444448,24.027074924045408],[82.63401746961799,24.02856594509568],[82.6308525933159,24.028630574544593],[82.62971761067709,24.027769368489857],[82.62864963107634,24.027791137695573],[82.62644070095493,24.027225002712868],[82.62481580946175,24.0276045057511],[82.6243834092883,24.028443671332653],[82.62479356553823,24.029642198351],[82.62419162326384,24.03026875813825],[82.62250895182305,24.030303073459592],[82.62245388454849,24.025103488498516],[82.62386311848977,24.022313300238963],[82.6248445638021,24.019334242079253],[82.6255360243056,24.018614366319625],[82.62692437065968,24.018624877929966],[82.62777425130216,24.017808363173003],[82.62779161241346,24.016958550347468],[82.62613579644093,24.015836113824008],[82.62471950954844,24.016108330620938],[82.6236423068577,24.016663208007998],[82.62170735677077,24.01611389160186],[82.62090711805567,24.016791788737265],[82.62277506510398,24.01739793565561],[82.62234564887146,24.018877834744217],[82.62092013888886,24.01890692816869],[82.61849555121537,24.018493381076652],[82.61528049045128,24.021625840929048],[82.6158306206598,24.02194736056876],[82.61721950954868,24.02191901312969],[82.61521375868043,24.023360256619227],[82.61391194661454,24.024715101454305],[82.61055419921857,24.026950073242475],[82.61001383463528,24.02583611382417],[82.60970811631935,24.02611870659743],[82.60973551432281,24.027461412218173],[82.60833604600683,24.032181396484617],[82.6093755425346,24.03234781901061],[82.60972493489598,24.031669447157512],[82.61002685546876,24.029198269314534],[82.61333062065987,24.026941663954275],[82.61576795789918,24.02590691460523],[82.6180257161457,24.02389166937968],[82.6186610243054,24.024448784722523],[82.6180270724827,24.028250189887487],[82.6169623480902,24.029821031358694],[82.61695827907991,24.031653035482208],[82.61600585937506,24.033281046549675],[82.61361382378485,24.034057210286775],[82.61400499131955,24.034617445204262],[82.61694064670124,24.03411668565576],[82.61695122612835,24.03463595920161],[82.6130745442708,24.037177530924737],[82.61278320312502,24.038738810221602],[82.61110812717018,24.039441731771106],[82.61112467447904,24.040241563585226],[82.61069444444459,24.041128133138287],[82.60889024522598,24.041091308593977],[82.60805826822903,24.04330342610706],[82.60861328124994,24.043336385091393],[82.60938123914914,24.042940877278852],[82.60979166666655,24.04373752170173],[82.60833604600683,24.046279432508896],[82.6094911024305,24.046050008138295],[82.61000271267355,24.04555833604627],[82.61259819878464,24.041581556532307],[82.6161545138888,24.037902764214607],[82.6169525824653,24.037491658528936],[82.61806722005198,24.03751437717048],[82.6174004448786,24.036220296224172],[82.61889160156258,24.035280558268454],[82.61942491319431,24.034181247287535],[82.62139160156275,24.034163750542774],[82.62226019965291,24.03475260416704],[82.62605631510425,24.03467515733533],[82.62666395399296,24.03525878906281],[82.62614637586805,24.035828179253713],[82.62458604600684,24.03620856391082],[82.62278103298601,24.038587443034118],[82.62278618706611,24.040825330946433],[82.62250298394096,24.041669379340533],[82.62140842013898,24.042200385199905],[82.62056179470474,24.043449435764217],[82.6205585394965,24.044169243706804],[82.6201334635418,24.044994235568737],[82.62069986979148,24.04500576443168],[82.62136718749989,24.043630574544466],[82.62303141276041,24.04250244140654],[82.6246731228297,24.04210225423202],[82.62389160156246,24.040585462782346],[82.62433593750004,24.03917168511309],[82.6255523003471,24.0391468641495],[82.6255414496529,24.040274658203373],[82.62583604600687,24.040280693902076],[82.62614990234377,24.038032090929093],[82.6280696614584,24.03638427734414],[82.62804551866307,24.035197347005408],[82.62970377604162,24.034629720052322],[82.63085205078133,24.035002373589776],[82.63191379123256,24.03610765245253],[82.63353542751744,24.036140747070505],[82.63468858506937,24.035746053060222],[82.63501898871525,24.036711086697323],[82.63497097439259,24.03906561957497],[82.63536810980887,24.04029012044296],[82.63638346354176,24.040269368489817],[82.63721950954871,24.040836249457683],[82.63776963975684,24.040824991862195],[82.63860839843758,24.041256985134737],[82.63767361111101,24.03925042046467],[82.63914360894105,24.037784898546178],[82.64089925130205,24.036706882053224],[82.64192491319446,24.037774522569833],[82.64276963975684,24.037791815864097],[82.64355278862863,24.0369767930776],[82.64583062065972,24.036930338541907],[82.64555826822917,24.038058336046205],[82.64454698350707,24.039725884331787],[82.64545355902769,24.041108330621057],[82.645964626736,24.03916944715749],[82.64750271267363,24.03944166395425],[82.64805284288187,24.040014241536753],[82.64916368272563,24.039991590712148],[82.64914116753468,24.04249721950984],[82.64972493489566,24.04222500271291],[82.65149305555562,24.040194023980263],[82.65064805772559,24.03855380588132],[82.65166937934018,24.038058336046205],[82.65202989366301,24.036947224935076],[82.65305826822905,24.03721944173209],[82.65359212239579,24.037774997287528],[82.65498101128466,24.036391669379654],[82.65666395399316,24.03679606119826],[82.65639160156232,24.037780558268437],[82.65472629123278,24.039380560981158],[82.6547086588541,24.040241563585226],[82.65512776692717,24.04110521104623],[82.6559912109374,24.041122843424816],[82.65720838758662,24.038614230686036],[82.65885525173601,24.03858059353324],[82.66016113281253,24.03957153320337],[82.66103271484363,24.03866448296472],[82.66147569444448,24.041386108398726],[82.66291124131934,24.040133327908265],[82.66419759114572,24.039715847439496],[82.66415527343756,24.037636176215457],[82.66500596788197,24.037223510742464],[82.66389160156265,24.0357551405167],[82.66447102864586,24.03554192437099],[82.66625000000008,24.035538533528893],[82.66693060980893,24.036941663954423],[82.66704182942718,24.035107150607857],[82.66642930772556,24.034469468858774],[82.66444715711808,24.03371317545593],[82.66555853949646,24.03083591037357],[82.66554714626719,24.028891872830087],[82.66664713541681,24.02886942545591],[82.6680528428819,24.03072204589874],[82.66679470486102,24.03359958224847],[82.66915228949645,24.03358025444902],[82.66968587239572,24.035138888889193],[82.66889160156265,24.037780558268437],[82.667136501736,24.040952894422915],[82.66759385850705,24.04184095594644],[82.66696397569447,24.04249674479189],[82.66444308810762,24.042491455078334],[82.66403618706588,24.04416083441869],[82.66334147135407,24.04417500813831],[82.66263888888878,24.043813137478566],[82.66138590494782,24.044441731771002],[82.6613804796007,24.045269775390906],[82.6619417317709,24.04635898166265],[82.66144178602431,24.04743937174503],[82.66031955295145,24.04860744900199],[82.6586138237848,24.048597005208606],[82.65890624999989,24.049510158962903],[82.66055284288203,24.051092122396042],[82.66028049045124,24.052502780490826],[82.65970838758673,24.053346964518482],[82.65973063151031,24.054443495008897],[82.65807020399293,24.05553215874592],[82.65804741753502,24.056649169922096],[82.65997016059035,24.05888610839868],[82.6604796006944,24.05843926323817],[82.65981282552085,24.05714491102458],[82.66053656684036,24.056391669379693],[82.66170003255203,24.05667127821205],[82.66330349392368,24.057497219509813],[82.66265950520821,24.056167670356103],[82.6630636935765,24.054986843533285],[82.66303032769079,24.053342352973388],[82.66472493489576,24.053307766384776],[82.66581434461793,24.054441663954208],[82.66611382378463,24.054169447157378],[82.6665180121528,24.052511528863164],[82.66747477213536,24.052491997613217],[82.66989664713535,24.05527499728757],[82.67067084418412,24.054956461588773],[82.67128689236117,24.05305833604625],[82.67194905598959,24.053529391818955],[82.67193603515622,24.05416402181018],[82.6726394314235,24.054839748806756],[82.6734700520835,24.05739969889342],[82.67454779730892,24.058130221897116],[82.67616183810762,24.057475518120853],[82.67779595269107,24.05749681260889],[82.6794146050348,24.058330552843174],[82.68072970920142,24.057721896701594],[82.68136962890608,24.056402994791867],[82.68194173177065,24.056108330621015],[82.68388644748248,24.055274861653842],[82.69254286024298,24.052502780490826],[82.69430691189243,24.05285875108534],[82.69605007595496,24.054040391710245],[82.69683268229167,24.052427096897034],[82.69805826822912,24.051795722114008],[82.69905571831609,24.05331692165838],[82.70000868055544,24.0533363172746],[82.69998209635426,24.052036743164408],[82.70111626519108,24.05166863335519],[82.70056504991314,24.050598280165204],[82.70051378038201,24.04808858235714],[82.70142686631928,24.047469618055814],[82.70332519531237,24.047508341471584],[82.7047262912329,24.046946818034144],[82.70416937934041,24.044773898654782],[82.70508544921873,24.044220513238187],[82.70630099826374,24.04481018066427],[82.70706542968767,24.046386108398707],[82.7086083984374,24.045798746745092],[82.70833604600685,24.044719441731985],[82.70750623914941,24.04349500868078],[82.70749159071184,24.042782389323207],[82.7088094075522,24.041045532227017],[82.70815022786482,24.04035942925374],[82.70623616536469,24.04134555392818],[82.70530273437501,24.03839335123726],[82.70432101779525,24.036769070095758],[82.70573133680566,24.035355699327425],[82.70685329861104,24.03593377007398],[82.70749728732645,24.035263536241544],[82.7086083984374,24.03528625488309],[82.7094045681425,24.034457533094923],[82.71084445529524,24.036882866753714],[82.71373779296883,24.03760715060804],[82.71511040581586,24.036288316514984],[82.71261637369778,24.033692491319655],[82.71010660807295,24.031865573459385],[82.70944715711815,24.03058546278227],[82.71007649739599,24.030509914822204],[82.7118815104167,24.030949978298977],[82.71482964409748,24.032774997287618],[82.71500379774321,24.032221544054067],[82.71429172091999,24.03083930121548],[82.71768608940957,24.031836615668723],[82.7180585394967,24.031113688151237],[82.71804850260432,24.030621541341347],[82.72053276909739,24.030015869140783],[82.72163682725673,24.029447224935097],[82.72221950954858,24.030479465061006],[82.72180094401037,24.031027628581],[82.72033610026031,24.031988118489863],[82.72132703993046,24.033019476996728],[82.7219525824652,24.033341674804973],[82.72251329210084,24.033330213759086],[82.72354926215289,24.03440836588568],[82.72416585286473,24.034725952148577],[82.72555121527776,24.034370863173024],[82.7251806640626,24.03582851833795],[82.72582519531252,24.03584167480497],[82.72639702690961,24.03554714626759],[82.72896701388882,24.03749721950976],[82.72918023003481,24.036917724609694],[82.72914116753455,24.035002780490785],[82.73054850260408,24.036398451063576],[82.73178765190985,24.03555833604638],[82.73224717881934,24.036136271159222],[82.73223632812514,24.038325330946606],[82.73174831814222,24.038794080946403],[82.73241834852425,24.04009480794292],[82.73168158637137,24.040802747938613],[82.73164415147554,24.042636176215623],[82.73279486762138,24.043194444444694],[82.73275797526051,24.044996744791973],[82.73332790798614,24.045008409288457],[82.73416395399315,24.04444152832059],[82.73555284288202,24.044430338541986],[82.73520670572921,24.04551086425799],[82.7344471571179,24.046669447157385],[82.73154812282982,24.048849622938633],[82.72776529947927,24.047777370877085],[82.72696099175349,24.046119927300566],[82.72584147135402,24.04609707302548],[82.72518554687494,24.046779717339703],[82.72459282769088,24.04555833604627],[82.72153049045161,24.046541815863947],[82.72067057291676,24.045646904839643],[82.71916937934034,24.046375189887556],[82.7196818033855,24.04692891438829],[82.72128119574657,24.047704874674807],[82.72268690321167,24.050022922092282],[82.72305853949669,24.051108669705087],[82.72306966145837,24.053607991536794],[82.7225054253473,24.053619520399636],[82.71971950954858,24.052225002712888],[82.71902153862854,24.051498480903064],[82.71778049045147,24.053133748372687],[82.71888617621525,24.05484327528241],[82.71843017578121,24.05604078504807],[82.7158536783854,24.057477756076636],[82.71582546657979,24.058863593207732],[82.71777506510412,24.060781656901284],[82.71729682074638,24.063317667643588],[82.7153624131943,24.06335713704449],[82.71444173177068,24.063058336046225],[82.71377495659729,24.06204149034322],[82.71197428385418,24.061113891601835],[82.71163628472223,24.062015380859663],[82.712399902344,24.06612887912354],[82.71062798394095,24.066092732747606],[82.71221950954853,24.068314344618244],[82.71169243706598,24.069431898329242],[82.70639160156239,24.07096462673637],[82.70680718315978,24.071616414388316],[82.70884331597225,24.072419433593936],[82.70944173177097,24.073581203884743],[82.70916937934047,24.074169447157416],[82.70750759548619,24.07449388292136],[82.70749104817699,24.07529649522597],[82.70888617621537,24.076636759440348],[82.70801133897564,24.07713060167127],[82.705860188802,24.075064019097496],[82.70555555555543,24.07443596733961],[82.70416992187486,24.074464246962165],[82.70415825737857,24.07389689127635],[82.70499728732639,24.07226847330753],[82.70379665798609,24.07139166937958],[82.70217013888882,24.07245042589004],[82.6992673068577,24.073044976128685],[82.69694444444437,24.073092380100178],[82.69188368055543,24.07310499403239],[82.68986436631931,24.07261271158879],[82.68833550347225,24.07145263671893],[82.68305826822908,24.072631293403006],[82.68367133246514,24.073592732747585],[82.6850946723089,24.072859429253754],[82.68598795572913,24.07375406901069],[82.68291205512159,24.076336195204178],[82.68097222222238,24.07729797363308],[82.67975341796867,24.076670125325776],[82.67782090928839,24.07663072374156],[82.67694715711812,24.07747009277371],[82.67777859157994,24.077781914605254],[82.67874077690956,24.077129720052312],[82.6805360243055,24.078607855903016],[82.68190483940955,24.078635796441247],[82.68362440321195,24.078047349718076],[82.68942735460078,24.077754313151246],[82.69012559678808,24.07844868977891],[82.6895779079862,24.081660902235555],[82.69014431423616,24.081672431098312],[82.69060899522552,24.080714857313694],[82.69302571614563,24.07972500271292],[82.69417127821188,24.079997626410844],[82.69388509114592,24.080833333333615],[82.69420166015632,24.081758015950854],[82.69418023003473,24.084686008029777],[82.6931806098091,24.086660698784954],[82.69414794921866,24.086680433485498],[82.69494330512137,24.086270751953506],[82.6964179144966,24.086775377061784],[82.69776204427077,24.084725002713],[82.69919623480885,24.085002373589745],[82.7011008029514,24.08691833496127],[82.70142903645828,24.088198445638184],[82.7011138237846,24.089169447157374],[82.70028049045143,24.090398830837927],[82.70131971571166,24.0907002088761],[82.70324408637165,24.089919637044574],[82.70610839843758,24.092671644423078],[82.70222547743046,24.094984130859643],[82.70220513237845,24.095972222222514],[82.70358344184038,24.09664082845076],[82.70194715711787,24.09866780598999],[82.70278049045154,24.09861389160193],[82.70694363064226,24.097306450738174],[82.70845431857643,24.09833055284325],[82.71032145182286,24.097205200195646],[82.7113699001736,24.09611389160176],[82.71445773654509,24.097230428060342],[82.715524359809,24.097208658854342],[82.71611382378458,24.09777499728756],[82.71645724826399,24.098833414713795],[82.71864990234363,24.099451836480213],[82.72135633680588,24.100796915690367],[82.72222683376751,24.101943901909962],[82.72139160156243,24.103564860026225],[82.7222127278645,24.103638034396965],[82.7227804904513,24.103047078450743],[82.72361924913204,24.10306423611128],[82.72439507378456,24.102256673177337],[82.72712266710076,24.100602552626057],[82.72791666666674,24.102239244249432],[82.72913140190983,24.102214423285844],[82.73000271267378,24.102497219509786],[82.73133273654517,24.103506469726796],[82.73299723307284,24.104046563042814],[82.7356974283853,24.10584459092904],[82.7397688802084,24.105761515299903],[82.74127332899312,24.10678127712707],[82.74251220703107,24.104694078233706],[82.74386203342002,24.103397352430875],[82.74433620876746,24.102420043945543],[82.74718614366307,24.099453667534902],[82.7500024414064,24.09944152832064],[82.75216172960077,24.100513916016084],[82.7530303276911,24.101348266601775],[82.75444173177092,24.103336113823985],[82.75777072482649,24.106643473307514],[82.75860758463531,24.108302069770176],[82.75864013671864,24.109898952908424],[82.75832166883689,24.110880262587187],[82.75722493489579,24.113336113824047],[82.75639160156234,24.1145654975046],[82.75678168402769,24.11638610839873],[82.75889160156251,24.116113891601884],[82.76054768880223,24.114991319444798],[82.76300265842022,24.11496988932312],[82.76389512803834,24.11555501302105],[82.7633422851562,24.11608608669738],[82.76330376519084,24.11797987196198],[82.76408610026053,24.12082316080759],[82.76656548394104,24.120804239909234],[82.76796169704849,24.12125725640226],[82.76915744357623,24.123021375868333],[82.76915852864576,24.124707980685997],[82.77028049045165,24.125830552843183],[82.77081407335075,24.126930338541882],[82.77191460503482,24.12749721950982],[82.77361382378481,24.127225002713075],[82.77566840277771,24.12639166937963],[82.77611382378487,24.126663886176644],[82.77678900824665,24.127693413628734],[82.77856282552071,24.128607313368263],[82.77944173177079,24.128625217014118],[82.77985161675346,24.127780558268498],[82.78165907118048,24.128100043403023],[82.78167805989577,24.12903049045177],[82.78028049045153,24.129708523220714],[82.78055989583336,24.130580986871024],[82.7822195095487,24.13054707845069],[82.78326931423615,24.1316397433814],[82.78398220486102,24.13198560926675],[82.78555284288208,24.13405537923221],[82.7850496419272,24.13632032606364],[82.78388780381945,24.13748467339454],[82.7836130099827,24.139452989366532],[82.78278076171907,24.139436035156493],[82.78278076171907,24.14055813259573],[82.78194715711797,24.142175971137434],[82.78291151258688,24.14288018120689],[82.78415988498253,24.142033827040237],[82.78389160156237,24.14389166937967],[82.78329752604176,24.14476833767398],[82.7833417426215,24.14693644205765],[82.78276068793392,24.148099161784117],[82.78030843098949,24.15054077148457],[82.7791799587674,24.15056376139357],[82.77766276041658,24.150044555664323],[82.77668538411453,24.151486409505438],[82.77781575520842,24.152252604166932],[82.77999674479176,24.15220811631967],[82.77998670789938,24.154122517903858],[82.7822195095487,24.15448594835101],[82.78179660373266,24.155288899739944],[82.77973795572896,24.155246921115733],[82.7790546332466,24.156289198133933],[82.7783523220489,24.15555833604637],[82.77746907552071,24.156126369900463],[82.77750868055548,24.15806355794288],[82.77622178819442,24.159300130208706],[82.77721950954864,24.16025878906278],[82.77669976128468,24.160830552843194],[82.77425184461814,24.16020819769996],[82.77305826822922,24.161113891601786],[82.77150960286465,24.16186530219207],[82.77111382378482,24.163891669379623],[82.77028049045165,24.16555833604626],[82.76902099609376,24.167118801541122],[82.7701557074653,24.167887912326577],[82.77071044921868,24.16617824978323],[82.77179361979168,24.166736314561973],[82.7734611002605,24.163894788954266],[82.77470865885434,24.1638692898223],[82.77594726562509,24.164507310655623],[82.77972140841999,24.164430270725106],[82.78017578124988,24.16583055284309],[82.78126925998268,24.165379774305933],[82.78251898871534,24.162430216471606],[82.78475233289961,24.16300252278674],[82.78744357638882,24.16245130750896],[82.7880023871526,24.162988145616524],[82.78506293402788,24.164944864909074],[82.78418375651032,24.165832655165147],[82.78271104600682,24.166191677517617],[82.78166937934023,24.167192314995916],[82.78219563802097,24.16779249403234],[82.78332465277785,24.167769436306656],[82.7833363172742,24.168335978190456],[82.78258924696186,24.169437798394426],[82.78551106770843,24.1694198269317],[82.78652452256952,24.170084431966444],[82.78530843098966,24.172184719509886],[82.7850027126735,24.17250278049073],[82.78360839843756,24.17277499728756],[82.7825542534724,24.173318074544596],[82.78085503472224,24.173352728949894],[82.77960123697912,24.17250278049073],[82.77861382378464,24.17311740451423],[82.77888617621525,24.1738916693796],[82.7795722113714,24.174583129883118],[82.78040554470479,24.173750203450766],[82.78085150824651,24.174178738064512],[82.78205050998255,24.176570231120095],[82.78121229383672,24.17737562391514],[82.78233127170151,24.178134087456883],[82.78303602430569,24.176681247287647],[82.78507297091997,24.176671006944673],[82.78697265625001,24.175543280707743],[82.78749728732654,24.174997219509706],[82.78890516493047,24.174722357856183],[82.78970594618048,24.173888753255554],[82.7911273871529,24.173611246745068],[82.79166395399298,24.173052775065415],[82.79330349392367,24.172225002712878],[82.79461859809012,24.172833658854543],[82.79552870008698,24.174709269205934],[82.79750461154518,24.17536573621983],[82.7986328124999,24.17613050672773],[82.80194173177082,24.176062961154784],[82.80153455946177,24.176554701063665],[82.79845024956606,24.177250298394327],[82.79805826822914,24.178058336046234],[82.79639160156253,24.179151068793715],[82.79848388671886,24.18004516601593],[82.79778971354168,24.18360073513479],[82.79472086588552,24.184726426866618],[82.79365180121536,24.183613891601823],[82.79354871961814,24.184917941623567],[82.79467854817707,24.186094089084506],[82.79582383897579,24.186649644640013],[82.79649061414929,24.189042697483018],[82.79749728732625,24.189725002712933],[82.79887830946168,24.190173136393497],[82.79889729817697,24.191108466254704],[82.79833658854156,24.191647203233728],[82.7983251953124,24.192209065755478],[82.79861382378456,24.193052775065368],[82.7989398871529,24.196386108398627],[82.7998342556422,24.195416598850073],[82.80034342447905,24.193327297634752],[82.80218994140617,24.191405436198096],[82.80674940321185,24.188440348307495],[82.80748779296883,24.183904418945602],[82.80818495008683,24.182502780490793],[82.81166937934026,24.182774997287538],[82.81501383463527,24.183495347764946],[82.81677218967016,24.184348483615707],[82.81613742404502,24.18495836046037],[82.8161192491319,24.18776462131119],[82.81571506076418,24.188945448133992],[82.8170157877606,24.192142198350894],[82.81500271267359,24.19410407172336],[82.81571126302086,24.196277398003716],[82.81194715711817,24.19989386664517],[82.8128021918404,24.20110833062104],[82.81352620442718,24.20073927137618],[82.81437011718774,24.198999430338716],[82.81709716796885,24.197821112738964],[82.81777506510409,24.19944722493524],[82.81912760416677,24.20010342068187],[82.81944851345489,24.20142008463573],[82.82032904730889,24.202266031901303],[82.81979193793396,24.20488857693178],[82.82081624348965,24.205416191949055],[82.82119303385431,24.201728990343227],[82.82003065321172,24.20061211480069],[82.81917046440984,24.198099093967215]],[[82.94396728515633,24.14641594780835],[82.94597222222208,24.14541666666696],[82.94692898220481,24.14623826768681],[82.94639431423624,24.147198893229472],[82.94503472222235,24.14772142198369],[82.941529405382,24.14815938313832],[82.9397455512154,24.148104451497673],[82.93969563802082,24.147703314887423],[82.94195258246535,24.146474270291193],[82.94396728515633,24.14641594780835]],[[82.93419379340278,24.12869052463121],[82.93680555555548,24.128472222222527],[82.93709743923617,24.12926717122417],[82.9354234483508,24.130089789496864],[82.93408989800358,24.129982706706144],[82.93419379340278,24.12869052463121]],[[82.94725314670146,24.108787299262403],[82.94864637586798,24.107542521159232],[82.94829996744775,24.10690504286046],[82.94712103949686,24.106975301107056],[82.94507893880214,24.108401760525382],[82.94392686631934,24.107596978081844],[82.94503526475691,24.105453762478547],[82.94503879123252,24.10393039279535],[82.9479166666666,24.103750000000332],[82.94861355251729,24.104402330186915],[82.9502856445313,24.10471442328584],[82.9516587999133,24.10584113227017],[82.95332763671868,24.106397501627868],[82.95482367621545,24.10645290798648],[82.95559163411465,24.107312215169486],[82.95554144965266,24.10815233018687],[82.95352864583336,24.108620673285742],[82.95261800130211,24.109639756944716],[82.95088053385419,24.11004401312968],[82.95000786675345,24.11063652886314],[82.95084689670156,24.111386176215518],[82.95052218967024,24.11198384602889],[82.94875189887168,24.111878323025394],[82.94834120008684,24.110547756619184],[82.94716444227421,24.110273980035032],[82.94725314670146,24.108787299262403]],[[82.92774441189246,24.10269822862439],[82.92828043619804,24.105540161133007],[82.9272067599828,24.105293172200845],[82.92653944227439,24.1044598388674],[82.92540500217027,24.104848293728566],[82.9243096245659,24.106651272244207],[82.92357449001727,24.10639689127636],[82.92264512803828,24.104815945095723],[82.92281222873262,24.103472222222493],[82.92261393229157,24.101877983941364],[82.92311170789915,24.09901855468773],[82.92475992838527,24.097696126302353],[82.92619303385405,24.09787434895871],[82.9268055555556,24.097638888889136],[82.92734320746516,24.099037475586258],[82.926566297743,24.10010091145851],[82.9263180881077,24.102097167969006],[82.92774441189246,24.10269822862439]],[[82.84858642578124,24.081395399305876],[82.84722927517359,24.08003709581193],[82.84720594618065,24.07944939507408],[82.84832465277785,24.07841274685356],[82.84830864800355,24.07729125976593],[82.84872884114569,24.07640075683622],[82.85073486328136,24.076434529622645],[82.85263888888895,24.075694444444707],[82.85499294704849,24.07619235568602],[82.85443684895833,24.07777886284748],[82.85489556206582,24.078645494249415],[82.85288981119803,24.078566012912603],[82.85165066189231,24.079150797526324],[82.84892605251744,24.081381903754533],[82.84858642578124,24.081395399305876]],[[82.84387315538189,24.075091145833554],[82.84415635850704,24.07700507269996],[82.84184733072917,24.07866305881103],[82.84248969184014,24.080638699002037],[82.84128390842002,24.081100802951624],[82.83979465060773,24.079372151692965],[82.83754584418418,24.07743476019995],[82.83874918619793,24.07689778645866],[82.8395374891492,24.074862196180888],[82.84098388671865,24.073616061740722],[82.8420833333333,24.073472222222648],[82.84387315538189,24.075091145833554]],[[82.8247349717881,24.063753729926574],[82.82569444444428,24.0634722222225],[82.82837131076397,24.064767049153943],[82.82830132378459,24.065453084310192],[82.82518174913193,24.064508056640918],[82.8247349717881,24.063753729926574]],[[82.72598876953114,24.030257364909133],[82.72529812282997,24.02862786187086],[82.72613281250014,24.02751864963146],[82.7270833333333,24.027361111111375],[82.72771484374985,24.028335096571382],[82.72744493272577,24.029903903537587],[82.72598876953114,24.030257364909133]],[[82.65474907769081,24.023000352647884],[82.6576388888889,24.022638888889134],[82.65807400173614,24.023878919813654],[82.65802300347215,24.024289550781646],[82.6563734266492,24.024984605577586],[82.65606038411445,24.02713684082059],[82.65429063585086,24.02584404839432],[82.65474907769081,24.023000352647884]],[[82.86164116753471,24.04580790201851],[82.86208333333323,24.045694444444692],[82.86214952256941,24.04657470703151],[82.86080783420144,24.04691901312954],[82.85983045789939,24.047555406358683],[82.85943657769096,24.047467108832763],[82.85860866970498,24.04781494140653],[82.85808105468735,24.047545233832835],[82.85865152994788,24.046669243706972],[82.86074273003456,24.046392957899585],[82.86164116753471,24.04580790201851]],[[82.94536349826384,24.092096082899488],[82.94698567708323,24.091110772027122],[82.9490277777779,24.090972222222433],[82.9484727647571,24.09213819715734],[82.94695692274317,24.093352186415174],[82.94649766710083,24.09329501681883],[82.94536349826384,24.092096082899488]],[[82.88930555555558,24.174305555555776],[82.88970187717027,24.175291341146178],[82.88856770833328,24.176095987956074],[82.88255425347225,24.17739922417563],[82.88234619140613,24.17618998209663],[82.8833867730037,24.17515821668877],[82.88458333333338,24.174952189127893],[82.88607666015608,24.175209282769373],[82.88779812282993,24.174742635091448],[82.88803521050332,24.174424031575796],[82.88930555555558,24.174305555555776]],[[82.95701822916672,24.198669365777263],[82.95859456380205,24.19941318088135],[82.9567667643228,24.201659071180856],[82.95470920138874,24.201939154731164],[82.95361653645821,24.20085835774762],[82.95569932725707,24.198456759982875],[82.95652777777767,24.198194444444695],[82.95701822916672,24.198669365777263]]]]},"properties":{"id":"326"}}]}