{"type":"FeatureCollection","features":[{"type":"Feature","geometry":{"type":"MultiPolygon","coordinates":[[[[101.86790391710068,14.69013108995243],[101.86995198567686,14.68888444688605],[101.8719102647569,14.682075534396844],[101.87302069769967,14.679417961968497],[101.87356133355044,14.675948791504098],[101.8749658203125,14.671082763672047],[101.87094590928828,14.671021898057887],[101.87010647243906,14.669192979600851],[101.86948757595488,14.668500298394335],[101.86731567382796,14.66723581949887],[101.86617078993041,14.665596686469385],[101.86452894422726,14.660953979492305],[101.86307006835935,14.658865424262288],[101.86237046983499,14.655647650824989],[101.8610054524739,14.653605143229314],[101.85996921115438,14.652679341634368],[101.85966227213535,14.649733005099975],[101.85793307834186,14.649269883897787],[101.85665337456587,14.649346177843086],[101.85590155707459,14.648163960775022],[101.85336588541654,14.648140021430294],[101.85247287326396,14.648763800727124],[101.85080824110233,14.647347717285328],[101.8490471733941,14.648436381022364],[101.84826076931412,14.648483242458951],[101.84455702039938,14.64666666666686],[101.84341064453119,14.646820000542675],[101.8415313042535,14.6481839328344],[101.84081746419255,14.649497443305279],[101.8417506239152,14.65083333333348],[101.84107693142354,14.65179775661916],[101.84076104058144,14.654829813639637],[101.8394296603731,14.656195305718697],[101.83936374240463,14.657302178277106],[101.83999755859375,14.658209703233709],[101.83993448893207,14.659268459744084],[101.84210300021701,14.66288458930147],[101.8403409830727,14.664458957248414],[101.84138468424473,14.666830206977252],[101.84025933159708,14.667835727267928],[101.84444878472223,14.670235663520145],[101.84638929578998,14.672407565646836],[101.84968804253472,14.674035576714559],[101.8520585123699,14.674352620442818],[101.85313693576396,14.676509365505794],[101.85459242079006,14.676596103244663],[101.85557820637999,14.676060384114706],[101.85638604058167,14.67678212483736],[101.85714938693562,14.67844550238729],[101.85818874782993,14.679374050564476],[101.85721652560747,14.680765889485926],[101.85713066948793,14.68220533582911],[101.85834147135418,14.68356051974851],[101.86066080729145,14.684452107747589],[101.86318277994795,14.6881781005862],[101.86482164170994,14.68932288275846],[101.86625908745637,14.689237230089233],[101.86790391710068,14.69013108995243]]]]},"properties":{"id":"10329"}}]}