{"type":"FeatureCollection","features":[{"type":"Feature","geometry":{"type":"MultiPolygon","coordinates":[[[[106.42405192100014,13.688062812000084],[106.4258097280003,13.687008127000212],[106.42862222000011,13.688765934000259],[106.42888270100016,13.689229749000091],[106.42756753600023,13.692281549000171],[106.42774331600023,13.695972944000331],[106.43196205400014,13.689996399000194],[106.4365323530001,13.689469057000267],[106.43477454500012,13.68859015400011],[106.43459876500017,13.68612922400014],[106.43864172100021,13.68771125000022],[106.44356358200022,13.692281549000171],[106.44215733600018,13.689117496000122],[106.44215733600018,13.68612922400014],[106.44567295000027,13.685777662000277],[106.44707919600003,13.685953443000258],[106.44954012600019,13.68683234600006],[106.45217683700011,13.685953443000258],[106.4537588640001,13.689117496000122],[106.45446198700009,13.691051084000065],[106.45569245200002,13.695972944000331],[106.45990578100029,13.694393946000076],[106.46114165400033,13.695621383000201],[106.4641299260002,13.694918260000208],[106.46606351400013,13.69386357499998],[106.46764554100005,13.695972944000331],[106.47045803300003,13.692457330000067],[106.46553617200013,13.68859015400011],[106.46676663700023,13.687008127000212],[106.4727562150002,13.682107704000117],[106.47696191900027,13.686480785000285],[106.47467677000023,13.691578426000177],[106.48592673600015,13.69333623300004],[106.48065331500013,13.685601881000125],[106.48434062400028,13.682566865000183],[106.48998987900026,13.681488325000117],[106.49382074600024,13.677938855000065],[106.49600763300006,13.673806016000142],[106.49860009800008,13.664505541000054],[106.50188653200021,13.662244089000168],[106.50553582000018,13.663966347000027],[106.50732704700013,13.665625993000205],[106.51219805400021,13.664895606000087],[106.50860176500001,13.661014258000108],[106.5035169830002,13.658323653000238],[106.49762999600026,13.659631228000066],[106.49505294200023,13.664501396000247],[106.49340570700028,13.669704357000242],[106.49008117700018,13.674852616000052],[106.48443578700008,13.678309261000152],[106.48357426200013,13.675374758000189],[106.48504783300027,13.673473011000212],[106.48715720200036,13.673648792000108],[106.48592673600015,13.670308957999993],[106.48715720200036,13.667672247000056],[106.48610251700015,13.665387098000068],[106.49049703500012,13.663629291000206],[106.48856344700019,13.659937895000127],[106.4846962710001,13.657125404000041],[106.48030175300025,13.65818008800008],[106.47696191900027,13.657301185000193],[106.47485255100011,13.652906666000206],[106.47256740100013,13.655894939000106],[106.47432520900017,13.659234773000222],[106.4713369360002,13.661695703000092],[106.47520411200006,13.662047264000137],[106.4774892620002,13.660113676000023],[106.48012597200008,13.663629291000206],[106.48012597200008,13.669078493000058],[106.47907128800031,13.673473011000212],[106.48067974900025,13.678473195000223],[106.47823115500026,13.678580064000087],[106.47854394600009,13.674176134000035],[106.47520411200006,13.676109722000248],[106.4748364120002,13.678728228000097],[106.47119032200024,13.67888736300003],[106.47397364700007,13.675230818999992],[106.47028225200026,13.674527696000169],[106.46887600600022,13.6729456690001],[106.46694241800012,13.673648792000108],[106.46574160500015,13.679125173000259],[106.46144265000018,13.680631952000226],[106.45709869700019,13.678043310000177],[106.46114165400033,13.6729456690001],[106.46254790000003,13.665738659000112],[106.46149321600026,13.666266002000228],[106.45973540800006,13.667848028000122],[106.45411042500021,13.673297231000234],[106.4488370030002,13.672594108000055],[106.44613812200024,13.67882139200016],[106.44356358200022,13.675055038000195],[106.43899328300026,13.675758161000104],[106.43446432800025,13.676054168000178],[106.4307315890002,13.669078493000058],[106.43108315000026,13.666090221000076],[106.43459876500017,13.669078493000058],[106.43758703700016,13.669605834999984],[106.44127843200013,13.674000353000238],[106.44022374800008,13.67136364300012],[106.44250889700007,13.669078493000058],[106.4400479670002,13.668199590000171],[106.43729278100002,13.665159384000063],[106.4393448440002,13.662926168000197],[106.44127119300018,13.662913344000032],[106.44373936200029,13.661519922000195],[106.44321202000035,13.657301185000193],[106.43846594100032,13.659586334000181],[106.43495032600023,13.662574606000163],[106.43030605900017,13.657079962000282],[106.43582923000028,13.65571915800021],[106.4337198610003,13.652555105000161],[106.44268467800012,13.651148859000159],[106.44813388000014,13.646226999000064],[106.44356358200022,13.64763324500025],[106.43530188700018,13.646930122000342],[106.43038002700015,13.64464497200018],[106.43621277800023,13.636109239000206],[106.44180577400007,13.634273909000143],[106.45569245200002,13.633043444000023],[106.45885650500017,13.627945803000046],[106.46237211900026,13.628297364999995],[106.46254790000003,13.621969259000252],[106.45727447800007,13.617574741000269],[106.45780182000013,13.615289591000206],[106.45323152100016,13.61441068700023],[106.44778231900003,13.61687161800009],[106.44602451200026,13.612652880000184],[106.44145421300018,13.619859890000072],[106.43635657200022,13.61687161800009],[106.43741125600027,13.62214503900006],[106.43459876500017,13.62460597000019],[106.43565344900028,13.628297364999995],[106.43565344900028,13.634273909000143],[106.42827065800017,13.63901998900026],[106.42774331600023,13.642711384000236],[106.4236263510002,13.645586269000162],[106.4199346720001,13.643632813000181],[106.41075245200031,13.642377906000178],[106.41315351600011,13.638668428000031],[106.40911055900008,13.636207497000072],[106.41174727,13.634098129000165],[106.40788009400015,13.633570787000053],[106.4075285330002,13.63075829500005],[106.40594650600039,13.63163719900011],[106.40366135700023,13.629703610999996],[106.39953934000025,13.631192693000102],[106.39744008900018,13.629125231000287],[106.40207933000025,13.628297364999995],[106.40225511100013,13.62390284700028],[106.40383713800011,13.623375503999995],[106.40700119100026,13.62671533800011],[106.4092863400003,13.626539558000133],[106.41051680500007,13.620387232000013],[106.40647384800022,13.618453644000255],[106.40207933000025,13.617047398000068],[106.40137620700025,13.612477100000106],[106.39821215400016,13.612652880000184],[106.39050594200003,13.611294278000216],[106.3922356100002,13.608609924000234],[106.38769207700025,13.604058509000154],[106.38204032800016,13.606148993000104],[106.37922783600024,13.605973213000127],[106.3774700290002,13.60333650200019],[106.3797551780003,13.599996668000074],[106.38577218100014,13.599121553000046],[106.39065358300016,13.596656834000129],[106.39575122400024,13.598590422000072],[106.40067308500014,13.601930256000188],[106.40418869900023,13.602809160000078],[106.40735275200021,13.600348229000119],[106.40981368200008,13.599820887000007],[106.41368085800022,13.599293545000066],[106.41561444600015,13.601402914000246],[106.42053630700005,13.601930256000188],[106.42211833300021,13.601051352000113],[106.4178995960003,13.598238861000027],[106.41754803400025,13.596129492000202],[106.42071208700011,13.594195904000088],[106.41649335000014,13.594020123000192],[106.41614178800009,13.589274044000163],[106.41385663899999,13.595074808000149],[106.40911055900008,13.59718417600007],[106.40875899800014,13.592965439000153],[106.40664962900021,13.59718417600007],[106.40330979500018,13.598941984000291],[106.4003215230002,13.598414641000176],[106.39645434700034,13.59560215000026],[106.38995046000005,13.593668562000147],[106.3860832840002,13.594899027000082],[106.38713796900024,13.592613878000193],[106.38098564300029,13.586813114000208],[106.3776458090002,13.592965439000153],[106.37430597600016,13.590504509000098],[106.37219660700023,13.591734974000033],[106.36832943100026,13.591559193000236],[106.36903255400026,13.589098263000096],[106.37166926500024,13.586988894000186],[106.36797787000032,13.586813114000208],[106.36516537800023,13.583121718000044],[106.36375913200024,13.58734045600005],[106.36041929800027,13.59015294700015],[106.36077086000026,13.592789658000257],[106.35795836800034,13.592789658000257],[106.35672790300012,13.590328728000031],[106.35479431500019,13.591559193000236],[106.35461853400002,13.588746702000051],[106.35250916600032,13.58786779800026],[106.35479431500019,13.583473280000177],[106.35051675900004,13.584413912000201],[106.34934511300017,13.58329749900011],[106.34881777000012,13.586637333000056],[106.34600527900031,13.586285771000092],[106.34442325200015,13.583649061000074],[106.341259199,13.583473280000177],[106.34248966400028,13.589977166999986],[106.3440716910001,13.59103185100021],[106.34442325200015,13.592965439000153],[106.3433685680001,13.594371685000155],[106.34178654100023,13.594547465000218],[106.3405560760003,13.589977166999986],[106.33827092700014,13.586285771000092],[106.3370404620002,13.590856070000243],[106.33458535700018,13.592813487000186],[106.33440375100028,13.58734045600005],[106.33159125900013,13.58171547300023],[106.3265080220003,13.588147138000181],[106.32069285400038,13.592438097000041],[106.31840770500028,13.589449824000141],[106.31612255500025,13.589625605000037],[106.31366162500021,13.586285771000092],[106.31155225700027,13.58980138600019],[106.3092671070003,13.588395140000102],[106.3092671070003,13.590680289999995],[106.30750930000013,13.591559193000236],[106.3050483700001,13.592262316000145],[106.30522415100026,13.588922482000214],[106.30329056300033,13.58980138600019],[106.30135697500029,13.590328728000031],[106.30065385200001,13.591383412000084],[106.2992476060003,13.590856070000243],[106.29871752600033,13.588431416000077],[106.2959077720001,13.588219359000206],[106.29485308800011,13.59015294700015],[106.28870076200027,13.588219359000206],[106.29028278900014,13.584703745000297],[106.29520464900017,13.585055306000157],[106.29291950000018,13.582067034000005],[106.29502886800029,13.580133446000062],[106.29766557900015,13.580660788000174],[106.30118119400029,13.578902981000127],[106.29819292100015,13.578024077000237],[106.29485308800011,13.57626627000019],[106.29028278900014,13.576090489000222],[106.28905232400015,13.575211586000151],[106.28887654300016,13.573453778000015],[106.29256793800008,13.57503580500017],[106.29678667600015,13.57503580500017],[106.29872026400008,13.57468424300012],[106.29964322500027,13.572627103000087],[106.3051060350002,13.571095056000075],[106.30680617700014,13.570289725000137],[106.30487258900021,13.568707699000157],[106.30030229000019,13.568356137000208],[106.30135697500029,13.567301453000155],[106.29872026400008,13.56694989200011],[106.29252511300027,13.566353823000085],[106.29116169200026,13.564664742000218],[106.29942338700008,13.56396161900004],[106.30082963200019,13.561676470000336],[106.30311478200016,13.561500689000269],[106.30539993100032,13.559567101000056],[106.3043452470001,13.557633513000127],[106.3020600970003,13.55833663600022],[106.3000869750002,13.556962478000287],[106.30018510900024,13.55684060200015],[106.30223587800018,13.554293679000281],[106.3043452470001,13.553942118000137],[106.30663039600026,13.558160855000054],[106.30909132600013,13.557809294000194],[106.3113764760001,13.560621785000109],[106.31207959900021,13.56361005800018],[106.31700145900012,13.562906935000271],[106.31612255500025,13.568356137000208],[106.32051707400004,13.568707699000157],[106.32368112700019,13.5706412870001],[106.32526315300007,13.567828795000096],[106.33194282100013,13.56607098800005],[106.32280222300008,13.565719426000186],[106.31840770500028,13.563258496000046],[106.32016551200016,13.56202803100011],[106.32051707400004,13.559567101000056],[106.31875926600017,13.559742882000123],[106.31875926600017,13.557809294000194],[106.31454052900025,13.557106171000186],[106.31489209000014,13.554293679000281],[106.31331006400004,13.552360091000068],[106.3134858450002,13.551129626000133],[106.31489209000014,13.550250723000246],[106.32156738200027,13.55014642100005],[106.32350534600013,13.551832748999956],[106.32403268800013,13.549899161000198],[106.32614205700011,13.550074942000094],[106.3222748810002,13.548317135000048],[106.32174753900026,13.546207766000222],[106.31875926600017,13.54444995900026],[106.32192331900032,13.543922617000149],[106.32456003000007,13.545680424000196],[106.32561471500011,13.54515308200017],[106.3268451800001,13.541461686000105],[106.325790495,13.538649195000275],[106.31840770500028,13.538824975000253],[106.31629833600013,13.537770291000214],[106.31963817000022,13.5349578000002],[106.31963817000022,13.532672650000137],[106.30838820400024,13.533903115000072],[106.30838820400024,13.53091484300009],[106.31260694100004,13.529332816000192],[106.3141889680002,13.52634454400021],[106.31735302100017,13.526520325000106],[106.32122019700003,13.523707833000103],[106.32245066200025,13.52318049100026],[106.3242084690003,13.520192219000009],[106.3268451800001,13.52318049100026],[106.3278998640001,13.52423517500003],[106.32526315300007,13.524938298000038],[106.32473581100024,13.526168763000243],[106.32262644200014,13.526871886000237],[106.32280222300008,13.528805474000265],[106.32491159200012,13.528102351000172],[106.32526315300007,13.529684378000155],[106.32350534600013,13.531617966000084],[106.32315378500007,13.533375773000131],[106.32649361800028,13.532321089000092],[106.32807564500004,13.533024212000186],[106.32877876800015,13.535133580000007],[106.3268451800001,13.53653982600028],[106.3300092330002,13.538121853000078],[106.3300092330002,13.540582783000119],[106.33211860200012,13.541813248000054],[106.33247016300007,13.54515308200017],[106.33686468100021,13.545328862000147],[106.3447748140002,13.54726245000009],[106.34723574400024,13.548317135000048],[106.34741152500013,13.547438231000243],[106.34442325200015,13.545328862000147],[106.3372092110001,13.541764029000163],[106.33563421600022,13.540582783000119],[106.33862248800025,13.538473414000123],[106.34248966400028,13.540407002000052],[106.34248966400028,13.536364045000113],[106.34417148300028,13.534645621000223],[106.34143498000017,13.532321089000092],[106.3384467080003,13.53249686900007],[106.33739202300032,13.529860158000218],[106.33914983100019,13.528102351000172],[106.34143498000017,13.528805474000265],[106.33932561100036,13.526871886000237],[106.33791936500026,13.525992983000165],[106.33440375100028,13.527399228000178],[106.33457953200033,13.524938298000038],[106.33457953200033,13.520543780000054],[106.33493109300028,13.51614926200024],[106.33651312000009,13.519840657000046],[106.33862248800025,13.521422684000115],[106.33932561100036,13.51861019200011],[106.34178654100023,13.520543780000054],[106.34143498000017,13.52423517500003],[106.34459903300032,13.523707833000103],[106.34495059400027,13.527399228000178],[106.34811464800023,13.529508597000088],[106.35303650800014,13.530211720000082],[106.35350817300028,13.5315034300003],[106.35479431500019,13.532672650000137],[106.35344717200022,13.534553889999998],[106.35514587700024,13.535485142000141],[106.35567321900024,13.537067168000206],[106.35743102600023,13.537594510000048],[106.35866149100016,13.534254677000206],[106.36252866700002,13.535133580000007],[106.3646380360004,13.536715607000247],[106.36586850100034,13.534606238000066],[106.36727474700015,13.533903115000072],[106.36481381600012,13.5300359390002],[106.35778258700017,13.532145308000025],[106.35655212200007,13.529860158000218],[106.35971617500027,13.528629693000283],[106.35424475300019,13.52773703800014],[106.35391541100003,13.524059395000236],[106.35549743800019,13.52318049100026],[106.35743102600023,13.525289860000171],[106.3616497630002,13.526520325000106],[106.35866149100016,13.523356272000228],[106.35655212200007,13.519840657000046],[106.35321228900031,13.520016438000113],[106.35075135800017,13.517555508000072],[106.34705996300002,13.517379727000176],[106.34705996300002,13.515270358000265],[106.35549743800019,13.51491879700022],[106.35901305300021,13.516676604000182],[106.36270444800019,13.518082849999999],[106.36375913200024,13.520543780000054],[106.36506889000023,13.519693603000135],[106.36709896600027,13.520192219000009],[106.36797787000032,13.5223015870001],[106.37096614200024,13.521422684000115],[106.37307551100022,13.522477368000168],[106.37219660700023,13.520895341000099],[106.37395441400028,13.519137534000222],[106.37026301900019,13.518434411000229],[106.37026301900019,13.515797700000107],[106.37166926500024,13.514391455000194],[106.36534115900022,13.514215674000226],[106.36323179000013,13.511227402000245],[106.36270444800019,13.510348498000255],[106.36551693900029,13.509645375000076],[106.36551693900029,13.505602418000237],[106.3695598960002,13.505602418000237],[106.3695598960002,13.50173524200018],[106.37202082600007,13.501559462000202],[106.37342707200028,13.504899295000143],[106.3748333180001,13.504371953000032],[106.37905205500019,13.504196173000054],[106.38045830100017,13.500680558000226],[106.38327079300038,13.500680558000226],[106.38397391600009,13.504899295000143],[106.38538016100009,13.506832882999987],[106.3873137490003,13.504547734000184],[106.38854421400023,13.506129761000253],[106.39118092500027,13.506481322000027],[106.39012624100022,13.508414910000141],[106.38784109200023,13.50911803300015],[106.3895988990001,13.510348498000255],[106.3895988990001,13.512809428000125],[106.39205982900015,13.512809428000125],[106.39242752100009,13.514772913000144],[106.39065358300016,13.515094578000017],[106.39135670600015,13.517203946000208],[106.39364185500014,13.51614926200024],[106.3922356100002,13.519489096000186],[106.39557544300007,13.52107112200025],[106.3944993430002,13.525836488000195],[106.39539966300018,13.52511407900019],[106.39768481200028,13.526168763000243],[106.40067308500014,13.524059395000236],[106.40137620700025,13.525641421000032],[106.39961840000021,13.527047667000218],[106.40225511100013,13.5272234480001],[106.40120042700008,13.529508597000088],[106.40084886500014,13.532145308000025],[106.40348557600007,13.531266404000135],[106.40559494500022,13.53249686900007],[106.40647384800022,13.525817202000198],[106.4024308920003,13.519137534000222],[106.40436448000028,13.518434411000229],[106.40860824600023,13.52623278300021],[106.41016524400013,13.531090624000242],[106.41227461200023,13.528981255000147],[106.41262617400005,13.526696105000084],[106.41772381500007,13.529332816000192],[106.41684491100025,13.524410956000196],[106.41368085800022,13.523356272000228],[106.41508710400021,13.520367999000158],[106.41245039300028,13.519664876000164],[106.41332929700005,13.51773128800032],[106.4097163050001,13.516024215000115],[106.41005617400023,13.51289298700003],[106.40788009400015,13.512106305000131],[106.40577072600004,13.510348498000255],[106.40700119100026,13.505250857000092],[106.40084886500014,13.505602418000237],[106.39838793500027,13.50226258500011],[106.40155198800014,13.50173524200018],[106.39733909800023,13.498571185000216],[106.39733325100022,13.491012618000184],[106.4010246460002,13.494528233000011],[106.40225511100013,13.497692286000245],[106.40137620700025,13.499098531000158],[106.40357176200027,13.499600372000202],[106.40383713800011,13.49892275100018],[106.4075285330002,13.500504777000245],[106.41161271800016,13.498552520000189],[106.40840743600026,13.49734072400011],[106.40559494500022,13.495934478000109],[106.40682541000015,13.493297768000076],[106.40594432600008,13.493154833000247],[106.40612228700027,13.49030949500019],[106.40348557600007,13.48907903000017],[106.40559494500022,13.487145442000312],[106.40295823400012,13.485387635000095],[106.40155198800014,13.48661810000003],[106.39909105800027,13.486793881000182],[106.39786059300005,13.48907903000017],[106.39575122400024,13.486969661000074],[106.39821215400016,13.485563416000247],[106.39821215400016,13.482750924000158],[106.39557544300007,13.48257514300009],[106.39575122400024,13.479411090000212],[106.40014574200015,13.47976265200009],[106.40295823400012,13.481344678000156],[106.40137620700025,13.477653283000265],[106.4024308920003,13.474840791000162],[106.39768481200028,13.473434546000078],[106.39873949700004,13.470446273000178],[106.40401291800018,13.472204080000225],[106.40577072600004,13.473610326000056],[106.40629806799998,13.475719695000052],[106.40858321700014,13.474665011000283],[106.41034102400025,13.477477502000099],[106.41366321200027,13.479661274000222],[106.41860271900023,13.480289994000103],[106.42510660500031,13.482223582000216],[106.42282145600021,13.479586871000109],[106.41877849900018,13.475895476000218],[106.41825115700024,13.47431344900005],[106.42088786800022,13.473961888000275],[106.42264567500033,13.473610326000056],[106.42457926300008,13.478180625000192],[106.42879800100016,13.480289994000103],[106.42967690400016,13.484157169999975],[106.4330167380003,13.485914977000022],[106.43582923000028,13.484508731000204],[106.43547766800017,13.482750924000158],[106.4330167380003,13.480817336000214],[106.4337198610003,13.477125941000239],[106.43776281800032,13.479938432000239],[106.43952062500009,13.479235309000245],[106.43952062500009,13.476247037000164],[106.43864172100021,13.473961888000275],[106.44039952800026,13.473961888000275],[106.44215733600018,13.473961888000275],[106.44233311600019,13.476071256000097],[106.44391514300017,13.47642281800033],[106.44496982700028,13.475016572000058],[106.44672763500009,13.476071256000097],[106.44479404700016,13.479235309000245],[106.44743075800008,13.47976265200009],[106.44954012600019,13.480641555000247],[106.45059481100023,13.482750924000158],[106.45270417900011,13.48257514300009],[106.45270417900011,13.48573919600014],[106.44954012600019,13.487672784000068],[106.4548135480002,13.487672784000068],[106.45674713600013,13.485387635000095],[106.45991118900022,13.485563416000247],[106.4613174350001,13.487145442000312],[106.46465726900013,13.486090758000188],[106.46711819900028,13.483454047000151],[106.46905178700032,13.483454047000151],[106.47116360100026,13.48570263400022],[106.4720400590002,13.486793881000182],[106.47063381300009,13.48820012600001],[106.4715127170002,13.489254811000137],[106.47116115500032,13.491012618000184],[106.4692275670001,13.49118839900008],[106.46887600600022,13.492946206000127],[106.46729398000016,13.493297768000076],[106.46764554100005,13.496813382],[106.46887600600022,13.494879794000056],[106.47197534300008,13.49596653800009],[106.47274318200013,13.497516504999993],[106.47537989300022,13.495582917000064],[106.47678613900021,13.493473548000054],[106.47702497400027,13.49487937900011],[106.47819238500026,13.496461821000224],[106.4792470690002,13.495934478000109],[106.4797744110003,13.493121987000194],[106.48258690300023,13.49118839900008],[106.48293846400028,13.493649329000121],[106.48452049100015,13.494000890000166],[106.48329002600022,13.496989163000151],[106.48170799900024,13.498571189000046],[106.4797744110003,13.497692286000245],[106.4783681650002,13.498746970000198],[106.47801660400015,13.502086804000044],[106.47625879700027,13.501207900000153],[106.47414942800012,13.501207900000153],[106.47291896300024,13.50384461100009],[106.47168849800025,13.504371953000032],[106.47063381300009,13.5029657070002],[106.46834866400033,13.5029657070002],[106.46782132200028,13.505602418000237],[106.46641507600012,13.507360226000188],[106.46694241800012,13.510875840000196],[106.46483304900013,13.508942252000082],[106.4627236810002,13.51157896300019],[106.46149321600026,13.51245786700018],[106.4613174350001,13.508414910000141],[106.45920806600029,13.508414910000141],[106.45850494300012,13.504196173000054],[106.45569245200002,13.504371953000032],[106.45270417900011,13.501559462000202],[106.45112215300034,13.505075076000026],[106.4530557410001,13.507887568000214],[106.4530557410001,13.509996936000121],[106.45780182000013,13.51245786700018],[106.45692291700024,13.514391455000194],[106.4530557410001,13.513512551000218],[106.45498932900003,13.516852385000064],[106.4548135480002,13.519313315000119],[106.45780182000013,13.520543780000054],[106.45850494300012,13.52511407900019],[106.4534073020001,13.526520325000106],[106.4488370030002,13.530211720000082],[106.4565713550002,13.53530936100016],[106.46019773799995,13.538211055000176],[106.45910668500025,13.541657096000108],[106.45428620600003,13.544274177999924],[106.45006746800013,13.544977301000102],[106.44567295000027,13.541813248000054],[106.43952062500009,13.539000756000235],[106.43547766800017,13.542867932000192],[106.43846594100032,13.544977301000102],[106.43776281800032,13.547965573000084],[106.44092687100024,13.542867932000192],[106.44622057500013,13.54455137100021],[106.44760653800026,13.551481188000182],[106.45217683700011,13.554996802000275],[106.45323152100016,13.550953846000155],[106.45534089000014,13.55042650300014],[106.45674713600013,13.553590556000273],[106.45604401300014,13.557633513000127],[106.45041903000006,13.560621785000109],[106.44813388000014,13.55833663600022],[106.44532138900027,13.56396161900004],[106.4472549770002,13.568180357000045],[106.45147371400012,13.56396161900004],[106.45358308300027,13.563258496000046],[106.45463776700004,13.564840523000115],[106.45621979400025,13.562203812000263],[106.45815338200018,13.562555373000038],[106.46149321600026,13.560270224000064],[106.46243089100014,13.561010314000185],[106.45991118900022,13.565016304000267],[106.46448148800025,13.568707699000157],[106.46606351400013,13.571520190000072],[106.46237211900026,13.576090489000222],[106.46641507600012,13.576442051000086],[106.47028225200026,13.57310221700024],[106.47362208600018,13.569235041000098],[106.47168849800025,13.566774111000043],[106.4717287020002,13.563381773000032],[106.47327052400013,13.564840523000115],[106.47502833100029,13.56361005800018],[106.4792470690002,13.563434277000198],[106.4797744110003,13.56607098800005],[106.4755556740001,13.56976238300021],[106.4771377000001,13.570992848000145],[106.4783681650002,13.57222331300008],[106.47643457700028,13.573981121000216],[106.4774892620002,13.574860024000017],[106.47678613900021,13.57626627000019],[106.47467677000023,13.579078762000023],[106.47683666500015,13.577835850000213],[106.4774892620002,13.580485007000107],[106.48082909500008,13.576969393000198],[106.48434471000027,13.578551419000178],[106.48241112200006,13.575914709000145],[106.48100487600024,13.570992848000145],[106.48454634000026,13.566897291999936],[106.48715720200036,13.568180357000045],[106.4869814210002,13.565367865000226],[106.48397937200033,13.56062906500027],[106.48890038700026,13.560432156000132],[106.48873922800007,13.56396161900004],[106.49032125500005,13.567125672000188],[106.49295796500016,13.571520190000072],[106.49541889600013,13.570113945000259],[106.49629779900002,13.565719426000186],[106.49893451000023,13.561852251000303],[106.50227434400014,13.563434277000198],[106.50227434400014,13.56694989200011],[106.50121966000009,13.571871752000035],[106.50010573800003,13.57729988300018],[106.5019227820001,13.5783756390002],[106.50508683600017,13.575738928000078],[106.50719620400034,13.572750656000096],[106.51036025700031,13.574332682000176],[106.50912979200027,13.569235041000098],[106.51176650300002,13.56694989200011],[106.51053603800008,13.56448896100025],[106.50380822200012,13.559835633000162],[106.50743996200006,13.557490411000273],[106.51317274900012,13.561676470000336],[106.51457899500011,13.558160855000054],[106.51405580900027,13.552702717000173],[106.52384498200021,13.55440729100026],[106.52758676800019,13.55833663600022],[106.52495005800026,13.562555373000038],[106.52846567200035,13.563434277000198],[106.53302453800015,13.554496494000176],[106.53790405900023,13.554121437000234],[106.53883673500027,13.559742882000123],[106.5423523490002,13.559918663000289],[106.55325075400017,13.561324908000103],[106.55342653500023,13.555524144000216],[106.55203916400004,13.547089675999999],[106.55324150400011,13.545792020000107],[106.5568876450001,13.54793501100005],[106.55993042200024,13.549723380000131],[106.55869995700013,13.55587570600008],[106.56321084100014,13.557683325000156],[106.56537962400009,13.560270224000064],[106.56784055500023,13.556403048000007],[106.56414915900015,13.552535872000234],[106.56573118600014,13.546910889000216],[106.56942258100023,13.548141354000151],[106.56871945800017,13.543395274000034],[106.56344603599999,13.545328862000147],[106.55990549700019,13.541600577000139],[106.56221557100022,13.540407002000052],[106.56555540500025,13.54023122100017],[106.56801633500018,13.53741873000007],[106.5722350730002,13.53987966000004],[106.57144363100034,13.543408994000103],[106.57662959100017,13.546207766000222],[106.5799694250002,13.540934344000163],[106.57557490600024,13.535836703000001],[106.56889523900028,13.53284843100002],[106.56344603599999,13.53530936100016],[106.56021013400019,13.53120987299998],[106.56748899300024,13.530563281000127],[106.56977414300016,13.529332816000192],[106.56747168200016,13.525022238000233],[106.56993989000026,13.52249045200027],[106.57188351100027,13.526168763000243],[106.57522334500007,13.526696105000084],[106.57592646800018,13.529332816000192],[106.58084832800003,13.530211720000082],[106.58032098600009,13.5272234480001],[106.58471550400023,13.523883614000255],[106.58102410900025,13.516325043000137],[106.58207879300019,13.511754744000086],[106.57678894200004,13.508154836000216],[106.57568298600037,13.503934005000204],[106.57577438600023,13.501627591000243],[106.57477681900016,13.499742319000134],[106.57668294400017,13.492904050000192],[106.57997166700002,13.486688949000111],[106.5782732130003,13.483323830000217],[106.57084300600022,13.494896388000015],[106.57053259100022,13.502727952000257],[106.57208537500017,13.50715813300016],[106.56849669300007,13.509997222000152],[106.56321721200024,13.5075127610002],[106.56539111600003,13.510152501000292],[106.56477000000027,13.511394732000142],[106.56772029900023,13.514345030000172],[106.56857845100015,13.518041045000274],[106.56740815400022,13.519125384000105],[106.56500347400024,13.521720697000177],[106.56240816000016,13.524125378000093],[106.56120582000025,13.525423035000259],[106.55846387000022,13.52796356900015],[106.55661460800005,13.531458388000203],[106.55546781000001,13.53627288600012],[106.5534321370001,13.54058628600015],[106.54862099900018,13.535462955000256],[106.5484657210001,13.541984667000122],[106.55058368000013,13.543660471000223],[106.53898457300008,13.550762564000138],[106.53433534500019,13.545400801000241],[106.52612310700013,13.551272309000126],[106.52432863600009,13.55084486600002],[106.52781363300019,13.546177196000002],[106.52983225800025,13.54151883000003],[106.5265714020002,13.538723811000139],[106.52470805600021,13.541984667000122],[106.52036024800017,13.544158570000135],[106.52020496900022,13.541674108999999],[106.51849690100013,13.538879089000204],[106.51911801700018,13.530649310000229],[106.51244102600006,13.53142570400017],[106.5062298720002,13.53468656000014],[106.50560875600016,13.540587157000132],[106.51213046800004,13.544624407000214],[106.514380923,13.54832375500024],[106.51032061500021,13.551180248000065],[106.5084470410001,13.553202289000296],[106.50243996800017,13.555823746000044],[106.49955288100003,13.550525004000022],[106.50103531500011,13.546474993000032],[106.50017399700019,13.540742436000102],[106.49629202500014,13.546332474000238],[106.49504979400004,13.551922513000108],[106.49256533300016,13.553475302000066],[106.49272061100024,13.551301398000135],[106.48852808200016,13.545556080000125],[106.48340388000022,13.545245522000187],[106.48713057300009,13.552077792000162],[106.48156993600017,13.556936670000113],[106.47563993700024,13.556580879000066],[106.46619031500015,13.553835732000223],[106.46244001400001,13.548945142999955],[106.46324160800017,13.544958687000161],[106.46803127300026,13.54276106100005],[106.46911822500013,13.53965548400005],[106.47315547600002,13.54400329200007],[106.47517410100008,13.539344926000197],[106.48138525500028,13.53592879100026],[106.48293804400012,13.533599608000188],[106.48029830300024,13.53142570400017],[106.4804535820002,13.527233175000205],[106.47831840600028,13.524811426000284],[106.47967718800007,13.523972319000137],[106.48091941800018,13.524748714000253],[106.48278276500034,13.526612060000232],[106.48526722600022,13.525835666000035],[106.48635417800025,13.523817040000168],[106.48837280400014,13.524903992000034],[106.49008087100006,13.527543733000229],[106.4941181210003,13.52614622300024],[106.49303116900026,13.521798415000205],[106.49380756300027,13.519313954000168],[106.49862120800023,13.518227002000202],[106.49831065000004,13.51325807800012],[106.49349700600001,13.512947521000186],[106.49225477500008,13.512481684000193],[106.49318644800016,13.510773617000169],[106.4941181210003,13.508289155000128],[106.49660258300017,13.510618338000299],[106.49877648700019,13.506270530000265],[106.50157150600009,13.508754991000131],[106.50254314000009,13.504161815000046],[106.50203734300018,13.502388558000149],[106.50327957400012,13.500680491000125],[106.50157150600009,13.499904097000197],[106.50063983300006,13.497885472000235],[106.49831065000004,13.496487962000245],[106.49986343900017,13.493848221000064],[106.50182038000017,13.496407739000091],[106.50265845800013,13.495866846000283],[106.50514292000017,13.494624616000081],[106.50902489100011,13.49369294200018],[106.50716154500006,13.494935173000115],[106.50545347800019,13.498661866000177],[106.50747210300008,13.497730193000095],[106.5122857470001,13.497419635000156],[106.51073295900025,13.499593539000074],[106.51119879500024,13.503941347000108],[106.51492548800027,13.504096626000162],[106.51539132400009,13.501767443000176],[106.51943795400027,13.500937900000025],[106.52113664200013,13.499748818000228],[106.52113664200013,13.497419635000156],[106.51430437200011,13.497109077000033],[106.51663355500003,13.495866846000283],[106.51694411300016,13.493537664000215],[106.51383853600024,13.493537664000215],[106.51585716100018,13.491519038000163],[106.52129192100026,13.490587365000081],[106.52067080500021,13.489034577000211],[106.5180310650002,13.48794762500016],[106.51554660299999,13.48794762500016],[106.51694411300016,13.486084279000181],[106.51554660299999,13.484686769000191],[106.51585716100018,13.482978701000178],[106.52051552700024,13.482668144000229],[106.51849690100013,13.48235758600012],[106.51911801700018,13.480028403000048],[106.51725467100019,13.477854499000117],[106.51554660299999,13.480804797000161],[106.51337269900014,13.478786172000198],[106.51368325700017,13.481270634000069],[106.50793793900007,13.482047028000267],[106.50669570800025,13.48499732700013],[106.50327957400012,13.483910375000079],[106.50560875600016,13.483133980000048],[106.50669570800025,13.480804797000161],[106.50436652600015,13.479562567000045],[106.50219262200014,13.478941450999997],[106.49862120800023,13.480649519000096],[106.49908704500032,13.478009778000086],[106.49706841900027,13.478009778000086],[106.49473923700012,13.478630893000329],[106.490701986,13.476146432000107],[106.49303116900026,13.474438364000179],[106.49303116900026,13.472109182000011],[106.49489451500025,13.473817249000035],[106.4975342560002,13.474283086000113],[106.4997081600001,13.473196134000062],[106.4978448140001,13.471332787000264],[106.49815537100014,13.470090556000144],[106.50126094900023,13.469314162000032],[106.49846592900028,13.466208585000203],[106.50363201100012,13.466697817000181],[106.50576403500017,13.464345239000039],[106.50390068900006,13.46232661400009],[106.49908704500032,13.462171335000122],[106.49877648700019,13.458289363000091],[106.49660258300017,13.45844464200023],[106.49536035200006,13.459221037000077],[106.49520507300039,13.464500518000008],[106.49380756300027,13.461860777000268],[106.49101254400031,13.46294772900032],[106.49209949600012,13.467450816000053],[106.4879069670001,13.467761374000162],[106.4879069670001,13.46294772900032],[106.48386971700015,13.46387940200023],[106.48340388000022,13.460618546000248],[106.48138525500028,13.460463267000193],[106.47998774500027,13.461705498000214],[106.48154053400006,13.458289363000091],[106.47812439900028,13.458134085000026],[106.47952190900017,13.45580490200014],[106.4816958130003,13.453941555000057],[106.47688216800029,13.454717950000088],[106.47657161000015,13.453475719000068],[106.47765856200013,13.451301815000235],[106.473621312,13.450680699000088],[106.47152676600021,13.447790720000242],[106.4723790810003,13.447109286000085],[106.47425497300023,13.44871081000008],[106.47719272600031,13.447109286000085],[106.47890079300024,13.448040959000167],[106.48076414000005,13.444314266000106],[106.48293804400012,13.442606199000082],[106.48076414000005,13.442140362000004],[106.48107469700025,13.439190064000144],[106.47921135100015,13.440432295000164],[106.47714564800023,13.43945596600011],[106.47765856200013,13.43592920800016],[106.47393187000031,13.43592920800016],[106.47315547600002,13.433910583000213],[106.46989462000013,13.433755304000059],[106.46523625400019,13.431270843000206],[106.46973934100006,13.430960285000168],[106.46849711000024,13.428475823000127],[106.46865238900003,13.425991361000086],[106.47346603300034,13.430805006000199],[106.47705725400019,13.431904622000062],[106.47750328400005,13.42925221700007],[106.47936663000016,13.42878638100025],[106.48014302400023,13.427078313000237],[106.48386971700015,13.427233592000107],[106.48635417800025,13.42630191900021],[106.49085562800022,13.42500220100014],[106.48480139000023,13.419469650000224],[106.48231692800019,13.41931437100017],[106.47948595400024,13.416503228000096],[106.4804535820002,13.414345447000272],[106.48231692800019,13.413413774000091],[106.48449083200026,13.4160535150002],[106.4916336590002,13.415742957000163],[106.49303116900026,13.417140467000152],[106.49883455200009,13.416590410000026],[106.50188206400023,13.41931437100017],[106.50560875600016,13.422264669000114],[106.50654043000017,13.417140467000152],[106.51073295900025,13.417451024000272],[106.51026712200016,13.414500726000142],[106.50902489100011,13.41372433200003],[106.50778266,13.410308197000091],[106.51026712200016,13.409842359999999],[106.51508076700023,13.4106187550002],[106.51818634400027,13.404097043000078],[106.51632299700029,13.400525629000157],[106.51150935300015,13.402699533000089],[106.50886961200004,13.401767860000277],[106.51026712200016,13.396954215000065],[106.50511766700023,13.40360326700008],[106.50359013100032,13.406115668000027],[106.49955288100003,13.408910687000187],[106.49598146700023,13.408600130000252],[106.49613674600008,13.405960389000057],[106.49303116900026,13.405805110000088],[106.49101254400031,13.40797901400002],[106.48852808200016,13.405494553000068],[106.49282780200022,13.399862873000217],[106.49272061100024,13.397575331000127],[106.48999168000003,13.398999705000023],[106.48852808200016,13.402233697000085],[106.48744113000012,13.401923139000147],[106.48740889300021,13.398213640000264],[106.48480139000023,13.397420052000157],[106.48883864000013,13.393693359000181],[106.49303116900026,13.390743061000052],[106.49567091000009,13.386239974000233],[106.49349700600001,13.384531907000039],[106.48945975500024,13.385929417000028],[106.48759640900008,13.38794804200026],[106.48666473600028,13.385774138000059],[106.48433555300014,13.38841387800025],[106.48386971700015,13.391364177000114],[106.4826274860001,13.39229585000001],[106.48154053400006,13.390587782000082],[106.48014302400023,13.390121946000093],[106.47921135100015,13.394780311000233],[106.47703744700024,13.398196446000185],[106.47470826400016,13.398196446000185],[106.47331075500009,13.396954215000065],[106.47377659100019,13.391519456000083],[106.4712921290002,13.393227523000093],[106.47020517700017,13.397420052000157],[106.4705157350003,13.401923139000147],[106.46865238900003,13.402078418000116],[106.47082629300021,13.403941764000109],[106.47020517700017,13.40658150500012],[106.46616792700027,13.40627094700018],[106.46632320600023,13.408600130000252],[106.46414930200032,13.408755408000133],[106.46321762900024,13.406115668000027],[106.46197539800019,13.40658150500012],[106.46119900400006,13.404718158000037],[106.46570209100028,13.401923139000147],[106.4633729080002,13.401923139000147],[106.46228595600016,13.399749235000044],[106.46088844600015,13.399283398000236],[106.46244123500028,13.397420052000157],[106.46104372500022,13.396022542000168],[106.4607331670002,13.393848638000236],[106.4588698210002,13.397575331000127],[106.45591952300018,13.395556706000164],[106.45452201300017,13.396333100000106],[106.45265866700007,13.395711984999963],[106.45203755100013,13.398507004000209],[106.45250338800022,13.40689206200014],[106.45157171500003,13.40782373500005],[106.44815558000019,13.405494553000068],[106.4475344650003,13.414345447000272],[106.44349721400013,13.412016264000016],[106.44318665700021,13.41046347600006],[106.44163386800025,13.410152918000122],[106.44008107900012,13.412482101000009],[106.43837301200008,13.414656005000111],[106.43619910800018,13.41481128400008],[106.43604382900017,13.40797901400002],[106.43138546400021,13.405649831000218],[106.43185130000015,13.403165370000167],[106.43573327100026,13.403941764000109],[106.43992580100021,13.402854812000058],[106.43604382900017,13.400059792999983],[106.4382177330003,13.394469754000113],[106.43324881000032,13.397264773000273],[106.43309353100014,13.395090869000086],[106.42765877100007,13.393693359000181],[106.42936683800028,13.39105361900026],[106.4248637520001,13.395246148000055],[106.42859044400015,13.400836187000095],[106.42688237700023,13.40689206200014],[106.42346624200022,13.40813429300016],[106.4248637520001,13.403475927000287],[106.42191345300031,13.404562879000167],[106.42144761700015,13.402388975000235],[106.41849731900018,13.402544254000205],[106.41632341500011,13.407668456000081],[106.42098178000006,13.409687082000303],[106.42501903000024,13.414656005000111],[106.42253456900019,13.41481128400008],[106.42237929000012,13.417140467000152],[106.41942899200009,13.417606303000156],[106.41989482800003,13.42040132300022],[106.41641220300008,13.420753484000315],[106.41182032800029,13.418693255000022],[106.40887002900016,13.417295746000121],[106.40700668300016,13.418693255000022],[106.40716196200023,13.421022438000094],[106.40918058700007,13.421798832000036],[106.40918058700007,13.423972736000138],[106.40685140400021,13.425059688000005],[106.40964642400016,13.4276994290002],[106.41226445300006,13.428770441000168],[106.41523646300024,13.428941660000035],[106.41647869300024,13.43049444800009],[106.41435205900021,13.433990255000055],[106.41213088500032,13.435308093000202],[106.41213088500032,13.439190064000144],[106.41678925099998,13.43887950600002],[106.41911843400018,13.43748199700022],[106.4220687320001,13.43732671800015],[106.42424263600012,13.439190064000144],[106.4233109630002,13.442761478000051],[106.42548486700005,13.446177613000174],[106.42998795400015,13.44835151700019],[106.43091962700012,13.450991257000197],[106.42874572300005,13.453475719000068],[106.42641654000013,13.456270738000129],[106.42424263600012,13.457668248000218],[106.42315568400008,13.455960181000108],[106.41989482800003,13.45611545900016],[106.42005010700015,13.45300988200016],[106.42113705900002,13.450370142000054],[106.42129233800009,13.448040959000167],[106.41989482800003,13.449438469000242],[106.41834204000023,13.451146536000266],[106.41585757800019,13.451301815000235],[106.41446006800018,13.450059584000215],[106.4125967220003,13.448506795000156],[106.40902530800022,13.447109286000085],[106.40762779900032,13.444314266000106],[106.40327999100012,13.439500622000168],[106.40265887500024,13.434376420000035],[106.39613716300019,13.434531698000171],[106.39427381700031,13.43328946800024],[106.39598188400024,13.431270843000206],[106.394739654,13.43033916900012],[106.39380798000028,13.426923035000257],[106.39334214400029,13.425680804000152],[106.3924104710002,13.424593852000186],[106.39101296100031,13.42630191900021],[106.38930489400022,13.423506900000135],[106.38744154700012,13.426612477000148],[106.38480180700023,13.424438573000216],[106.38573348000031,13.428009987000138],[106.38837322100014,13.42925221700007],[106.38821794200018,13.431426121000257],[106.38697571100002,13.432668352000192],[106.38371485500014,13.430805006000199],[106.38200678700022,13.43033916900012],[106.38107511400014,13.432202516000288],[106.37890121000012,13.432513073000038],[106.3799881620001,13.434065862000182],[106.38156694800014,13.434141042000007],[106.38247262400014,13.439966458000072],[106.38402541300027,13.442295641000143],[106.38324901800016,13.445090661000123],[106.38123039300032,13.444935382000253],[106.3798328830002,13.442140362000004],[106.38014344100023,13.446022334000205],[106.37890121000012,13.446954007000201],[106.37952232600028,13.44835151700019],[106.38262790300021,13.448040959000167],[106.38682043200018,13.449283190000273],[106.38542292200017,13.450835978000228],[106.38619931700029,13.452854603000006],[106.38278318200034,13.45440739200015],[106.38324901800016,13.45735769000018],[106.37921176800015,13.460152710000159],[106.38666515300028,13.46108438300007],[106.38371485500014,13.464500518000008],[106.38876871000033,13.46636201600002],[106.38806266300017,13.468693047000073],[106.38557820100024,13.468848326000042],[106.38557820100024,13.472109182000011],[106.38029872000024,13.46589802700018],[106.37781425800009,13.465121633000152],[106.37950302200002,13.467440860000295],[106.37893693300023,13.468538487000075],[106.37640355900007,13.469099303000107],[106.37891051500017,13.471179155000073],[106.37890121000012,13.472109182000011],[106.37315589300002,13.471798624000073],[106.37548507600022,13.473972528000175],[106.38029872000024,13.473972528000175],[106.38123039300032,13.477078105000004],[106.37890121000012,13.482823423000198],[106.37936704700022,13.487637067000051],[106.37564035400007,13.486550115000085],[106.37470868100016,13.48235758600012],[106.36942920000016,13.480028403000048],[106.37067143100009,13.48375509600028],[106.36399444000008,13.484220932000099],[106.3615099790002,13.482047028000267],[106.35887023800021,13.483910375000079],[106.36042302700017,13.476612268000196],[106.36055134800009,13.472608524000208],[106.3582491230002,13.471488066000134],[106.3582491230002,13.476456989000127],[106.35543828200028,13.473740409000072],[106.35281436300014,13.480960076000216],[106.35452243000017,13.48251286500009],[106.35250380500011,13.484531490000037],[106.34986406400023,13.482047028000267],[106.35110629500022,13.479407288000075],[106.35017462200014,13.478009778000086],[106.35206534500006,13.474487080000117],[106.35328019900012,13.472109182000011],[106.3495535070002,13.472419739000046],[106.35185087900018,13.468047322000203],[106.35064045900023,13.467295537000169],[106.35191444000012,13.46591539100011],[106.35234852600016,13.462637171000111],[106.35328019900012,13.46279245000008],[106.35436715100022,13.463258286999988],[106.3542118720002,13.461705498000214],[106.35529882400002,13.460307989000128],[106.3534354780002,13.460618546000248],[106.35203796800002,13.459376315000142],[106.35405659300008,13.457668248000218],[106.35157213200014,13.455339065000047],[106.34970878600015,13.456891854000006],[106.35017462200014,13.45999743100002],[106.35188269000017,13.46108438300007],[106.34939822800018,13.463103008000289],[106.34256595800005,13.462481892000241],[106.34101317000025,13.464345239000039],[106.34473986200007,13.469314162000032],[106.34256595800005,13.471798624000073],[106.34085789100013,13.470401114000083],[106.34194484300016,13.473196134000062],[106.33930510200005,13.47552531600023],[106.33682064100023,13.472419739000046],[106.33511257300009,13.474127807000144],[106.33309394800025,13.473661970000236],[106.33759703500007,13.469158883000063],[106.33744175600017,13.466208585000203],[106.33557841000018,13.467916652000227],[106.33355978500006,13.470556393000052],[106.33176101000018,13.469910679000094],[106.33216227500023,13.46822721000025],[106.3346467370001,13.46543219100009],[106.3324728330002,13.466363864000272],[106.33138588100016,13.463568844000193],[106.33068879900011,13.469525783000051],[106.32750390900028,13.46838248900022],[106.32734863000022,13.470556393000052],[106.32952253400023,13.473196134000062],[106.32408777400016,13.471022230000145],[106.32499977400013,13.468686021000025],[106.32237970700012,13.469003604000093],[106.31632383200011,13.466208585000203],[106.31616855300004,13.463568844000193],[106.31803189900003,13.460152710000159],[106.31414992800015,13.45735769000018],[106.32036108200029,13.45611545900016],[106.31678966800027,13.449127911000218],[106.31228658100011,13.453475719000068],[106.3094915620002,13.448196238000222],[106.30669654300024,13.453630998000037],[106.30545431200014,13.455649623000255],[106.30902572500011,13.455960181000108],[106.31026795600022,13.460929104000186],[106.30778349500028,13.460307989000128],[106.30638598500022,13.46123966200004],[106.31088907200021,13.46294772900032],[106.31290769700004,13.466053306000063],[106.31368409100028,13.467606095000193],[106.3113549080002,13.469779999000124],[106.31880829300022,13.470556393000052],[106.31849773600018,13.473661970000236],[106.32160331300011,13.472885576000124],[106.32020580300005,13.476922826000305],[106.32480172100017,13.47553733000015],[106.32626167800018,13.479873124000079],[106.32916990800018,13.48147535300022],[106.3284355820002,13.48546316300012],[106.32439833200002,13.484686769000191],[106.32144803400033,13.488568740000133],[106.32533000500027,13.48639483600003],[106.32874614000005,13.487481788000082],[106.3279697460002,13.491053202000174],[106.32983309200009,13.494314058000143],[106.33231755400024,13.497574914000126],[106.33383069900029,13.501690345000014],[106.3324728330002,13.502388558000149],[106.32828030300024,13.501301606000098],[106.32579584200008,13.497574914000126],[106.32098219700023,13.495245731000054],[106.32393249600003,13.500369933000187],[106.3197399660003,13.500369933000187],[106.32051636100007,13.501612164000036],[106.32182364100007,13.503437002000297],[106.3197399660003,13.504407183000097],[106.31896357200017,13.502388558000149],[106.31585799500019,13.502233279000265],[106.31492632200028,13.500680491000125],[106.31430520600023,13.502388558000149],[106.31073379300025,13.503475510000015],[106.31011267700015,13.501767443000176],[106.30825898500038,13.501693649000202],[106.30685182100021,13.500680491000125],[106.30498847500021,13.501456885000067],[106.30343568700007,13.499593539000074],[106.30390152300018,13.495090452000085],[106.30265929200013,13.496953798000064],[106.30079594600014,13.497109077000033],[106.30203817700018,13.498506587000023],[106.30188289800023,13.501146328000218],[106.30359096500021,13.504407183000097],[106.3062307060002,13.505959972000056],[106.30610757800005,13.50809333700009],[106.30390152300018,13.50906554900024],[106.3009512250002,13.507046924000107],[106.30172761900022,13.505494135000248],[106.30110650400027,13.50471774100022],[106.29815620500014,13.505183578000214],[106.29520590700011,13.502078001000115],[106.29582702300004,13.504096626000162],[106.2969139750002,13.505959972000056],[106.29380839800004,13.506736366000169],[106.29442951300032,13.51030778000009],[106.2975350900002,13.50906554900024],[106.29939843600008,13.510152501000292],[106.29815620500014,13.513879194000182],[106.2970692540002,13.51481086700008],[106.2970692540002,13.517140050000151],[106.29536118600018,13.518071723000062],[106.28961586800025,13.520090348000195],[106.2871314070002,13.519158675000114],[106.28682084900018,13.517140050000151],[106.28821835900018,13.514189751000032],[106.28542333900018,13.514189751000032],[106.28169664700013,13.517140050000151],[106.2785910700002,13.5160530980002],[106.2773488390001,13.514189751000032],[106.27804542700025,13.511612376000201],[106.27936746400022,13.510773617000169],[106.27890162700012,13.508444434000282],[106.28278359900017,13.50922082800021],[106.2799885790001,13.506270530000265],[106.28185192600026,13.503164953000166],[106.28092025300029,13.503009674000197],[106.2771935600002,13.504873020000005],[106.27501965600018,13.504096626000162],[106.27657244500026,13.501612164000036],[106.2740879830001,13.501456885000067],[106.27393270400015,13.500059376000166],[106.27843579100013,13.496798520000183],[106.27517493500008,13.49369294200018],[106.27595132900021,13.48810290400013],[106.27253519400026,13.48515260500018],[106.27206935800027,13.487481788000082],[106.27007220500028,13.489911523000117],[106.27160352100017,13.494314058000143],[106.2674109920001,13.493227106000091],[106.26841982300007,13.49663791600004],[106.26678987700015,13.499127702000266],[106.26803210800031,13.500991049000064],[106.26632404000011,13.503009674000197],[106.27245693600005,13.503516873000152],[106.2753302140002,13.509376107000179],[106.27306782200017,13.512352578000261],[106.27082712700022,13.514966146000233],[106.2674109920001,13.51481086700008],[106.27036129000012,13.518537559000052],[106.27191407900003,13.516829492000213],[106.27525968300026,13.517077604000136],[106.27610660800016,13.518227002000202],[106.27548549300022,13.52024562700025],[106.27393270400015,13.523195925000195],[106.27346686700005,13.528630685000195],[106.28775252200015,13.528785964000065],[106.28542333900018,13.53282321400016],[106.27874634900016,13.533910166000211],[106.27843579100013,13.53577351200019],[106.27175880000013,13.53577351200019],[106.26958489600011,13.529562358000177],[106.26508180900029,13.532667935000276],[106.26539236700015,13.53732630100015],[106.25902593400016,13.536394628000068],[106.2655476460001,13.530959868000167],[106.26523708800008,13.52568038700015],[106.26958489600011,13.525369829000212],[106.2700507330002,13.521643136000066],[106.26896378100017,13.519624511000103],[106.26415013600004,13.518227002000202],[106.2647712520002,13.513723915000213],[106.26694515600028,13.512326405000039],[106.2619762320002,13.511239452999988],[106.2615103960002,13.50471774100022],[106.2605787220003,13.50922082800021],[106.25856009700024,13.50766803900008],[106.25747314500009,13.512481684000193],[106.2521936640002,13.503941347000108],[106.25436756800022,13.500369933000187],[106.25560979900033,13.499127702000266],[106.25126199100029,13.499438260000105],[106.24613778900024,13.494003500000204],[106.24477277000008,13.496063477000206],[106.24769057700027,13.497109077000033],[106.24769057700027,13.500835770000194],[106.25064087600006,13.501612164000036],[106.24738002000007,13.505183578000214],[106.2495539240002,13.505959972000056],[106.24800113500024,13.5075127610002],[106.25064087600006,13.50922082800021],[106.24784585600034,13.511084174000203],[106.25762842400016,13.51900339600023],[106.25250422200011,13.525059271000188],[106.25095143300027,13.541674108999999],[106.26135511700014,13.56496593700028],[106.26356411900022,13.562731154000105],[106.26707973300014,13.563258496000046],[106.26883754000019,13.565719426000186],[106.2681344170002,13.567828795000096],[106.27129847000006,13.567828795000096],[106.2714742510004,13.569059260000301],[106.26778285600014,13.5706412870001],[106.27235315500022,13.571344410000194],[106.2737594010002,13.569938164000092],[106.27709923400025,13.570289725000137],[106.27498986600014,13.573981121000216],[106.27288049700022,13.575563147000196],[106.27077112800012,13.57626627000019],[106.26883754000019,13.575387366000214],[106.26760707500026,13.576969393000198],[106.26286099600023,13.577848297000088],[106.2625094340003,13.578902981000127],[106.26602504900009,13.579078762000023],[106.26936574900029,13.581011917000282],[106.27006800500013,13.58241859500005],[106.2737594010002,13.582242815000157],[106.27217737400022,13.584527964000316],[106.26971644400007,13.585055306000157],[106.2681344170002,13.583649061000074],[106.26549770700015,13.584000622000204],[106.26391568000028,13.58241859500005],[106.26145475000013,13.582594376000117],[106.26163053100012,13.584703745000297],[106.25934538100032,13.58540686800012],[106.26180631100002,13.586988894000186],[106.26690395200026,13.587692017000094],[106.2665523910002,13.589274044000163],[106.26163053100012,13.589625605000037],[106.26459931700006,13.59121004000012],[106.26479458400016,13.592789658000257],[106.26211633100004,13.593850070000158],[106.26215787300012,13.595426369000293],[106.26040006500008,13.595777931000157],[106.25881803900009,13.594723246000015],[106.25881803900009,13.596832615000196],[106.25635710900022,13.598238861000027],[106.25943321800028,13.599474218000282],[106.25934538100032,13.601051352000113],[106.25758757400015,13.604566967000125],[106.25266571400024,13.605621651000163],[106.24984965200011,13.607682712999988],[106.24901599500006,13.61077786300011],[106.25284149400025,13.610367731000196],[106.25477508200007,13.610367731000196],[106.25653105200016,13.61275785400025],[106.25776335500026,13.609664608000202],[106.25952116200037,13.610367731000196],[106.26057584600025,13.612652880000184],[106.26127896900024,13.610367731000196],[106.26268521500006,13.612301319000224],[106.26022704600027,13.61611435500005],[106.26268521500006,13.618805206000033],[106.26257932200028,13.616741473000076],[106.26426724100023,13.614762249000094],[106.26475098800009,13.61066363000026],[106.26567348700016,13.607027897000165],[106.26409146100033,13.603512282000253],[106.26514614500022,13.603688063000234],[106.26707973300014,13.602457598000214],[106.26575306700013,13.605872982000093],[106.26743129400009,13.605270090000118],[106.26911511600022,13.603838842000272],[106.26918910200024,13.5996451070002],[106.2744625240002,13.599293545000066],[106.27305627800021,13.60210603700007],[106.26831019800025,13.607027897000165],[106.27041956700023,13.606852116000098],[106.27059534800006,13.609313046000153],[106.26778285600014,13.610895073000307],[106.26778285600014,13.613180222000025],[106.2714742510004,13.613356003000177],[106.27200159300034,13.61441068700023],[106.27126641100008,13.619057456000206],[106.27516564600026,13.617750521000076],[106.27797813800012,13.615113810000224],[106.28237265600026,13.614586468000198],[106.28500936700019,13.614586468000198],[106.28292266000014,13.619027758000144],[106.28465780600018,13.61933254800023],[106.28993122700032,13.6159927140002],[106.29414996500012,13.618102083000025],[106.29309528000019,13.622672382000076],[106.28834920100016,13.625660654000058],[106.28764715600025,13.627767165000009],[106.28905232400015,13.628297364999995],[106.2927104730002,13.624774455000008],[106.29766557900015,13.623375503999995],[106.29713823700004,13.620211451000117],[106.29854448300031,13.618277863000102],[106.30188431700023,13.619156767000078],[106.30329056300033,13.620211451000117],[106.29883741700039,13.626407902000068],[106.29538043000034,13.627945803000046],[106.29872026400008,13.629000488000003],[106.30047807100024,13.629527830000114],[106.29942338700008,13.634977032000137],[106.2983687020002,13.640250454000281],[106.30364212400028,13.641656700000013],[106.30311478200016,13.63778952400024],[106.30276322000012,13.633043444000023],[106.30416946600022,13.629703610999996],[106.30638659200017,13.628420517000066],[106.30961866900017,13.6353285940001],[106.30955944800016,13.62926640200024],[106.31237137900027,13.630016064000188],[106.31647411700018,13.63110985600018],[106.31454052900025,13.625836435000124],[106.31858348600011,13.624078627000259],[106.31629833600013,13.617750521000076],[106.31120069500034,13.617398960000031],[106.30997023000029,13.614234907000068],[106.31049757200029,13.611422415000249],[106.31349129800023,13.61108332600017],[106.31751560100022,13.610966746000017],[106.3199897310001,13.610895073000307],[106.32315403600015,13.611968565000225],[106.32456003000007,13.61194975700009],[106.325790495,13.613356003000177],[106.3278998640001,13.615113810000224],[106.32807564500004,13.61687161800009],[106.32245066200025,13.618629424999966],[106.32174753900026,13.620211451000117],[106.3228076830002,13.62157048900022],[106.32473581100024,13.621793478000285],[106.3251091560002,13.624104406000086],[106.32614205700011,13.62425440800024],[106.32702096000023,13.62302394300022],[106.3298334520002,13.622496601000194],[106.33141547900007,13.622672382000076],[106.33141547900007,13.623727066000129],[106.3300092330002,13.624957531000064],[106.3298334520002,13.62671533800011],[106.33123969800013,13.628121584000198],[106.33048488900019,13.631514325000254],[106.33271853200009,13.632019151000094],[106.33264594400029,13.635504375000252],[106.33422797000017,13.639371551000309],[106.33739202300032,13.636207497000072],[106.3352488530002,13.632591029000167],[106.33686468100021,13.629703610999996],[106.33334906700023,13.627770023000068],[106.33405219000011,13.62671533800011],[106.3370404620002,13.625836435000124],[106.33440375100028,13.62390284700028],[106.3361615580001,13.62214503900006],[106.33879826900014,13.623199724000187],[106.34118102800014,13.62455851500026],[106.34090763800023,13.622496601000194],[106.34266544500011,13.620738794000147],[106.33580999700027,13.616520056000141],[106.33457953200033,13.613531784000159],[106.341259199,13.614234907000068],[106.34618106000013,13.620387232000013],[106.34600527900031,13.615113810000224],[106.34969667400023,13.617223179000135],[106.34780764600006,13.613371439000119],[106.34864199000006,13.611773977000112],[106.35373963100014,13.615816933000133],[106.35760680700022,13.61687161800009],[106.36006773700026,13.621266136000173],[106.35373963100014,13.625484873000175],[106.35690368400017,13.629527830000114],[106.35813414900022,13.626363777000066],[106.36077086000026,13.626891119000263],[106.36270444800019,13.629000488000003],[106.36340757100007,13.633043444000023],[106.3616545960002,13.636965706000282],[106.36428647400018,13.636734840000187],[106.36674740400022,13.630934076000202],[106.36920833500008,13.630055172000041],[106.37202082600007,13.630582514000153],[106.37342707200028,13.628297364999995],[106.3776458090002,13.629879391000244],[106.37641534400026,13.632516102000096],[106.37782159000008,13.635680155000145],[106.37413019500016,13.637437963000096],[106.37676690600009,13.639195770000143],[106.3753606600001,13.641656700000013],[106.37571222100027,13.644293411000135],[106.37852471300025,13.643941849000171],[106.38010674000012,13.644469192000017],[106.37903313800015,13.641392065000062],[106.38186454700028,13.642008261000242],[106.38116142400011,13.638141085000186],[106.38573172300025,13.635855936000027],[106.3864348460003,13.638316866000082],[106.38889577600028,13.64183248100008],[106.3924113900002,13.642008261000242],[106.39364185500014,13.644820753000246],[106.3931145130002,13.651500421000208],[106.39100514500026,13.655016035000216],[106.39416919800018,13.662047264000137],[106.39627856600006,13.660113676000023],[106.40190355000036,13.663980852000066],[106.39698168900023,13.652730886000057],[106.39961840000021,13.651851982000167],[106.39996996200014,13.645699657000222],[106.40313401500029,13.64798480600021],[106.40084886500014,13.652730886000057],[106.40383713800011,13.65571915800021],[106.40612228700027,13.648512148000052],[106.40911055900008,13.649215271000045],[106.40840743600026,13.653082447000102],[106.41455976200027,13.65571915800021],[106.41280195500022,13.652730886000057],[106.41368085800022,13.65044573600025],[106.41860271900023,13.652555105000161],[106.42053630700005,13.656949623000145],[106.41719647300013,13.66064101800022],[106.4178995960003,13.663980852000066],[106.41649335000014,13.66837537000005],[106.41543866500015,13.67206676500004],[106.42088786800022,13.67048473900023],[106.42493082499996,13.675230818999992],[106.42686441300006,13.678746433000086],[106.42457926300008,13.682086267000201],[106.41807537600008,13.68437141600019],[106.41332929700005,13.685953443000258],[106.41016524400013,13.691051084000065],[106.4082316560002,13.696500286000088],[106.40911055900008,13.699312778000092],[106.41297785900022,13.696112254000226],[106.41860271900023,13.695797163000094],[106.42106364900027,13.69386357499998],[106.41930584100001,13.690875303000169],[106.42405192100014,13.688062812000084]]]]},"properties":{"id":"7227"}}]}