{"type":"FeatureCollection","features":[{"type":"Feature","geometry":{"type":"MultiPolygon","coordinates":[[[[102.21792453341718,15.727924533420335],[102.21887451171577,15.727261013455049],[102.22155341254049,15.72742051866338],[102.22441731770536,15.72663167317738],[102.22615220811318,15.725081651475904],[102.2266380479571,15.722348361545343],[102.22537258571757,15.71959120008708],[102.2243317328529,15.720116644965444],[102.22434624565656,15.722072753906588],[102.22402099609079,15.722092013889082],[102.22209120008361,15.72040879991333],[102.22098280164633,15.719900173611265],[102.22094618055243,15.719284396701624],[102.22207546657685,15.71827528211827],[102.22171590168958,15.717772623698053],[102.21966105142931,15.717138129340555],[102.21916666666348,15.716666666666853],[102.21709337022256,15.717053765191196],[102.21704630533569,15.717843153212016],[102.21787068684594,15.72014078776077],[102.21722791883363,15.720860188802263],[102.21422458224507,15.723527832031508],[102.2118497721323,15.724261338975936],[102.21102077907696,15.725448133680757],[102.21175265841723,15.727042643229325],[102.21289781358192,15.727664930555804],[102.21443060980593,15.72757351345497],[102.21613945854719,15.728186577691332],[102.21792453341718,15.727924533420335]]]]},"properties":{"id":"10285"}}]}