{"type":"FeatureCollection","features":[{"type":"Feature","geometry":{"type":"MultiPolygon","coordinates":[[[[107.19767570400015,15.124478113000066],[107.2009689500002,15.122330344000076],[107.20268716400008,15.123762190000065],[107.20555085600014,15.122903083000125],[107.20555085600014,15.119323468000161],[107.20784180900009,15.120612129000108],[107.20941684000027,15.12046894500017],[107.20683951700008,15.11660296100031],[107.20741225600014,15.114168823000071],[107.20984639300022,15.11316653100019],[107.21027594700021,15.109586917000215],[107.21414193100017,15.107868702000246],[107.21299645400026,15.105864118000213],[107.21328282300013,15.102141319000026],[107.21657606900013,15.098561704000232],[107.21671925300026,15.093120689999992],[107.22001249800016,15.089541076000117],[107.22144434400005,15.088681968000088],[107.22373529700027,15.089684261000144],[107.22459440500009,15.091259291000085],[107.2268853580002,15.090972922000105],[107.22888994200017,15.088825153000215],[107.2328991100002,15.089541076000117],[107.23375821800036,15.087106938000247],[107.23791057100019,15.084672800000007],[107.24320840000021,15.084815985000219],[107.24535616900019,15.087250123000189],[107.24893578300001,15.091259291000085],[107.25337450500015,15.092834321000012],[107.25752685800026,15.091688845000093],[107.25996099600016,15.092691137000074],[107.26611793200018,15.096986674000036],[107.2704134700002,15.095268459000152],[107.27027028500007,15.094838905000145],[107.27112939300017,15.094409352000213],[107.27571129900022,15.09369342900004],[107.2759976680002,15.092547952000302],[107.27513856100026,15.090256999000104],[107.27886136000026,15.089827445000267],[107.28186823600018,15.090400183000227],[107.28530713500024,15.088926370000053],[107.28802517300014,15.090829737000064],[107.28917064900023,15.09397979800029],[107.2878819880003,15.094838905000145],[107.28745243500018,15.096557120000114],[107.28960020300028,15.101425395999954],[107.2927502640002,15.10271405700017],[107.2927502640002,15.10085265800025],[107.29468665800019,15.09998461900011],[107.29990949300023,15.10199813400017],[107.30291636900026,15.102141319000026],[107.30439291200022,15.103839343000189],[107.30434821500003,15.109586917000215],[107.30735509100023,15.112164239000123],[107.30527792500024,15.106890756000155],[107.30578006100015,15.105434564000205],[107.3064959830003,15.101854950000046],[107.30721190600022,15.1002799190002],[107.30334592300008,15.09970718100007],[107.29690261700014,15.09899125800007],[107.29260707900008,15.09784578100006],[107.29332300200034,15.092404767000275],[107.29189115600016,15.086963754000209],[107.29518440200016,15.089111522000195],[107.29403892500014,15.085961461000139],[107.29833446200021,15.085245539000056],[107.29661624800016,15.082668216000329],[107.2927502640002,15.083240955000207],[107.29203434100012,15.079661340000229],[107.29045931100009,15.083813693000167],[107.28888428000036,15.087393307000227],[107.28773880400016,15.084815985000219],[107.28859791100027,15.081093186000217],[107.28802517300014,15.077227202000174],[107.28573422000014,15.081809109000218],[107.28217638600009,15.084237176000201],[107.28229779000017,15.081809109000218],[107.28100912900024,15.081665924000092],[107.27900454400029,15.086534200000187],[107.27699996000015,15.083813693000167],[107.27084302400019,15.08123637000007],[107.2719885000001,15.077799941000052],[107.27270442300008,15.075795356000185],[107.27442263800006,15.074793064000218],[107.27571129900022,15.074793064000218],[107.2782886220003,15.074649880000095],[107.28287052800013,15.073218034000107],[107.2863069580001,15.073790772000066],[107.28945701900031,15.072788480000185],[107.29031612600025,15.069638420000047],[107.2927502640002,15.068492943000038],[107.29289344900022,15.067204282000262],[107.29418211000021,15.065915621000045],[107.2937525560001,15.062765560000258],[107.29504121700015,15.05775410000021],[107.29776172400025,15.055463146000193],[107.29761854000029,15.052599455000035],[107.30334592300008,15.045440226000181],[107.3049209530001,15.045869780000018],[107.3056368760003,15.044294749000272],[107.30764146000033,15.042862904000103],[107.30392705300014,15.044414534000225],[107.30060629400023,15.044647176000211],[107.30080519900011,15.042269273000102],[107.30477776800026,15.040428766000133],[107.30275115600026,15.03738884700006],[107.30305955400021,15.032553614000207],[107.30134133900006,15.035274121000228],[107.30105496900015,15.039283289000224],[107.29790490900038,15.04386519600007],[107.29518440200016,15.048876656000118],[107.29432529400006,15.055176777000128],[107.29289344900022,15.055892700000115],[107.28974338800012,15.052169901000198],[107.2911571120002,15.057009325000053],[107.29002975700027,15.058183653000043],[107.28802517300014,15.057038177000123],[107.28831154200029,15.058899576000044],[107.29174797200025,15.060331422000033],[107.2908888640001,15.065342882000166],[107.28730925000005,15.066917913000097],[107.28616377300003,15.069924789000027],[107.283729636,15.070211158000177],[107.27886136000026,15.069638420000047],[107.27184531600025,15.070211158000177],[107.27069983900034,15.072645296000232],[107.26840888600023,15.075795356000185],[107.26855207000008,15.08009089400015],[107.26597474800027,15.08037726300013],[107.26611793200018,15.08452961600024],[107.26455228600017,15.086872014000079],[107.2612496570002,15.086963754000209],[107.25108355200027,15.087679676000207],[107.24779030600027,15.085818277000016],[107.24478343000013,15.081952293000072],[107.2430652150002,15.079374971000249],[107.24335158500034,15.074793064000218],[107.24521298400018,15.070783896000137],[107.2427788460001,15.068063389000201],[107.23848330900003,15.072502111000105],[107.23705146300026,15.076797648000166],[107.2343852680003,15.07800731100015],[107.23304229500016,15.076224910000207],[107.23189681800008,15.078659048000162],[107.2287467580002,15.07980452500017],[107.22803083500023,15.075365803000082],[107.22387848200029,15.076654464000043],[107.22216026700013,15.073218034000107],[107.21943976000003,15.071356635000015],[107.21643288400028,15.071499819000138],[107.21557377600007,15.070067973000235],[107.2150010380004,15.068636128000065],[107.21328282300013,15.06920886600021],[107.21127823900028,15.068636128000065],[107.21142142400024,15.065915621000045],[107.21070550100015,15.064483775000227],[107.21271008500017,15.06133371400027],[107.21099187000019,15.058756392000092],[107.21070550100015,15.062479191000193],[107.20626677900023,15.061190530000061],[107.20540767100002,15.059185945000024],[107.20082576500008,15.060045053000323],[107.19209150600003,15.058899576000044],[107.19481201300025,15.056322254000222],[107.19671688700001,15.052455380000112],[107.2019712420001,15.049019840000156],[107.20555085600014,15.055463146000193],[107.20497811800018,15.056608623000201],[107.20884410100021,15.056465438000075],[107.21271008500017,15.056751808000143],[107.21457148400029,15.057897284000063],[107.21729199100022,15.059615499000031],[107.22007491300027,15.058299252000197],[107.22201708200001,15.059758684000158],[107.22101479000028,15.067633836000098],[107.22774446600013,15.06405422100012],[107.22516714300016,15.062192822000213],[107.22788765000027,15.054604039000168],[107.23118089500028,15.047015256000293],[107.23490369400017,15.039856027000084],[107.23834012400019,15.036562782000004],[107.23962878600034,15.032267245000227],[107.23819694000017,15.02811489200029],[107.23819694000017,15.023389801000135],[107.23876967800012,15.019667002000219],[107.24163337000013,15.017089680000126],[107.24363795400032,15.016230572000197],[107.24335158500034,15.012364588000239],[107.24506980000032,15.008498605000199],[107.24678801400026,15.005921282000116],[107.2495085210002,15.005205360000033],[107.24879259900032,14.999764346000148],[107.24936533700028,14.993893778000157],[107.25222902800019,14.993321040000282],[107.25251539800033,14.988309579000244],[107.25022444400022,14.985589072000025],[107.24922215200016,14.98115035000012],[107.2509403670002,14.97871621300007],[107.24693119900016,14.97656844400008],[107.24850622900024,14.974277491000151],[107.24779030600027,14.971556984000216],[107.25008126000009,14.969122846000246],[107.24793349100028,14.965256862000118],[107.24707438400017,14.95995903300009],[107.24764712200013,14.95723852600024],[107.25366087400008,14.952942989000093],[107.25065399800033,14.946213313000257],[107.24750393700012,14.947788344000188],[107.24392432300013,14.955233942000206],[107.2409174470001,14.953945281000074],[107.2427788460001,14.951224774000124],[107.24335158500034,14.9470724210002],[107.24292203100023,14.94220414500009],[107.23461732500019,14.944781468000087],[107.23447414100028,14.949506559000156],[107.23404458700023,14.953515727000052],[107.23189681800008,14.953515727000052],[107.22846038800006,14.954804388000184],[107.22774446600013,14.95695215700026],[107.22573988100012,14.956522603000153],[107.22546748200014,14.954071004000085],[107.22516714300016,14.951367958000077],[107.22244663600029,14.949936113000177],[107.22015568300017,14.949792928000136],[107.21886702200024,14.950365666000195],[107.21815109900015,14.952227066000106],[107.21714880700026,14.953802096000217],[107.21399874600033,14.955090757000164],[107.21271008500017,14.953372542000196],[107.21041913200023,14.954661204000061],[107.2091304700003,14.955949865000022],[107.20669633300017,14.957524895000134],[107.20483493300034,14.95666578800028],[107.20340308700017,14.955233942000206],[107.19939391900007,14.954947573000041],[107.19543233800013,14.953399310000108],[107.20068258000029,14.944065545000186],[107.20726907100013,14.933469886000125],[107.2117077930001,14.92588110300008],[107.21686243800028,14.917003659999992],[107.21929657500024,14.915428629000147],[107.2204420520001,14.909414877000131],[107.21686243800028,14.910417169000098],[107.21628969900021,14.913137676000048],[107.21356919200028,14.913137676000048],[107.21313963900022,14.916001368000195],[107.21127823900028,14.916860475000234],[107.21070550100015,14.919151428000063],[107.20798499400038,14.920296905000072],[107.20640996300008,14.925165181000182],[107.20311671800019,14.925737919000142],[107.20223254800013,14.92689839200014],[107.19968028800022,14.926597026000167],[107.19853481200008,14.931751671000256],[107.19552793600022,14.931894856000014],[107.19338016700024,14.939054085000322],[107.19065966000014,14.939913192000262],[107.19151876700008,14.94134503800015],[107.18808233800021,14.945354206000232],[107.18421635400009,14.945783760000069],[107.18364361600013,14.950795220000117],[107.17848897100023,14.951797512000269],[107.1804935550002,14.953658912000094],[107.18020718600027,14.95723852600024],[107.17877534000021,14.95695215700026],[107.17877534000021,14.954374834000262],[107.1769139400001,14.954518019000034],[107.17748667900034,14.955949865000022],[107.17476617200012,14.9563794190003],[107.17405024900032,14.9585271870001],[107.16932515800025,14.959243110000102],[107.1661750970002,14.95909992500006],[107.16646146600024,14.9563794190003],[107.16560235900013,14.955949865000022],[107.16381816200024,14.958185100000222],[107.16314767500009,14.957924855000186],[107.16316822100029,14.953945281000074],[107.16018858600032,14.956776308000187],[107.15728662200016,14.957336203000153],[107.15602192400004,14.95983620000014],[107.15575667600015,14.9607128680002],[107.15686924400009,14.96096224700014],[107.15944542200029,14.962249986000288],[107.16173637500017,14.961104510000197],[107.16417051300024,14.963825017000218],[107.1638841440002,14.968120554000194],[107.16259548300022,14.972416091000156],[107.1628818520002,14.973704752000202],[107.16030452900023,14.97842984400009],[107.16145000600031,14.97986168900016],[107.16259548300022,14.978573028000028],[107.16359777500011,14.979145766000173],[107.16173637500017,14.981436720000005],[107.16130682100018,14.984443596000204],[107.16030452900023,14.984873150000297],[107.16044771400007,14.982439012000256],[107.15887268400033,14.983154935000158],[107.15872205400026,14.984551294000227],[107.15787039200026,14.984586780000058],[107.15600899200015,14.988309579000244],[107.15429077700017,14.989025502000146],[107.15400440800013,14.987593656000158],[107.15271574700009,14.987307287000178],[107.15056797800028,14.99045734800022],[107.15042479400014,14.99375059300003],[107.15199982400028,14.995468808000183],[107.15257256200024,14.99289148600009],[107.15400440800013,14.99317785500007],[107.15443396200024,14.99532562400006],[107.1535748540002,14.997616577000159],[107.15557943800005,14.995755177000248],[107.15815676100013,14.99103008600018],[107.15944542200029,14.992032378000061],[107.15815676100013,14.99503925500008],[107.15758402200007,14.999907530000087],[107.1568681000002,15.002771222000064],[107.15386122300006,15.005062175000177],[107.15171345500008,15.008212236000219],[107.14942250100015,15.01279414200016],[107.14942250100015,15.015944203000302],[107.14641562500006,15.018521525000295],[107.14412467200006,15.021814771000194],[107.14369511800012,15.024105724000123],[107.1416905340001,15.02453527800023],[107.14068824200032,15.025394385000084],[107.14083142700017,15.02811489200029],[107.13868365800019,15.029546738000008],[107.1361063360001,15.029546738000008],[107.13825410400014,15.03026266100018],[107.13839728900038,15.033126352000068],[107.13997231900012,15.032839983000187],[107.14001250500027,15.031701752000146],[107.1425891470004,15.029429186000058],[107.14555651800023,15.0299762920002],[107.14469741000008,15.033842275000069],[107.14607494500032,15.032617800000182],[107.14756110200008,15.033842275000069],[107.14856339400004,15.030405845000132],[107.15056797800028,15.029260369000028],[107.14727473300022,15.026969415000195],[107.14834861700032,15.025895531000245],[107.1509975320001,15.02611030800007],[107.15253197700022,15.024155467000071],[107.15128390100026,15.021671585999982],[107.15197384600035,15.02106909900023],[107.15758402200007,15.022673878000134],[107.15973179100027,15.021242032000146],[107.15744083800016,15.016946495000099],[107.16145000600031,15.012650958000222],[107.1643136980002,15.01193503500005],[107.16359777500011,15.009357712000053],[107.16517280500003,15.00649402100025],[107.1657455430001,15.005491729000013],[107.16789331200025,15.006064467000144],[107.16918197300024,15.004059883000025],[107.16961152700028,15.002341668000057],[107.1717592960002,15.000050715000128],[107.16674783500034,14.999048422999977],[107.16717738900016,14.996900654000171],[107.16975471200007,14.996184731],[107.16713024300029,14.99560675400032],[107.16732057400029,14.993893778000157],[107.16860923500028,14.9907437170002],[107.17018426500019,14.990314163000093],[107.16961152700028,14.988739132999982],[107.17247521900018,14.986877734000245],[107.17405024900032,14.984873150000297],[107.17546926500015,14.982214322000218],[107.17677075600008,14.98200945800015],[107.17734349400021,14.983727673000118],[107.17877534000021,14.982152643000276],[107.17775584100033,14.979800727000097],[107.1790617090002,14.979432136000057],[107.17920489400032,14.976138890000243],[107.18321406200019,14.970841061000215],[107.18750959900015,14.964970493000138],[107.19295061300014,14.957811264000114],[107.19524156600025,14.95695215700026],[107.19753252000018,14.9585271870001],[107.19968028800022,14.958384003000248],[107.2009689500002,14.95995903300009],[107.20154168800033,14.96210680200008],[107.20311671800019,14.964684124000158],[107.20254398000023,14.968406923000174],[107.20101232700026,14.972345459000167],[107.2005393960001,14.973561568000164],[107.19853481200008,14.974277491000151],[107.1979620730003,14.976425259000223],[107.19882118100011,14.98014805800014],[107.20082576500008,14.982725381000236],[107.20225761100008,14.984014042000098],[107.19953710400031,14.984586780000058],[107.19953710400031,14.987307287000178],[107.19925073500022,14.989884610000175],[107.2009689500002,14.990600533000162],[107.20082576500008,14.991602825000143],[107.19824844300015,14.992461932000168],[107.19939391900007,14.993893778000157],[107.20397582600023,14.992748301000333],[107.2061235940001,14.993321040000282],[107.21084868500017,14.993893778000157],[107.21414193100017,14.996900654000171],[107.21571696100025,15.001339376000075],[107.21356919200028,15.008212236000219],[107.21099187000019,15.01164866600007],[107.20741225600014,15.01193503500005],[107.20469174900009,15.011505481000299],[107.2005393960001,15.011219112000234],[107.20082576500008,15.013510065000247],[107.20240079500022,15.015085095000089],[107.2031931920001,15.017398895000042],[107.20039621100025,15.018091972000107],[107.19710296600019,15.019953371000284],[107.19624385800003,15.022960247000213],[107.19681659700026,15.024392093000287],[107.19996665700015,15.023962539000095],[107.20025302700012,15.027398969000203],[107.20483493300034,15.028401261000269],[107.20483493300034,15.03183769100012],[107.20211442600029,15.034701383000183],[107.20025302700012,15.033699091000216],[107.19853481200008,15.029117184000171],[107.19610067400018,15.03054903000016],[107.19495519700016,15.033842275000069],[107.19509838200023,15.035703675000065],[107.19767570400015,15.038996920000244],[107.19939391900007,15.042433350000081],[107.19982347300012,15.045583411000038],[107.19667341200014,15.045297041000154],[107.19366653600022,15.04386519600007],[107.19681659700026,15.042862904000103],[107.19524156600025,15.039426474000166],[107.19338016700024,15.037708259000013],[107.1898005520001,15.037421890000218],[107.1879391530002,15.038853735000117],[107.18822552200018,15.042719719000061],[107.18722323000028,15.045726595000161],[107.1846459080003,15.045869780000018],[107.18379126500028,15.046168905000172],[107.18350043100028,15.042719719000061],[107.18120947800017,15.044437934000214],[107.1777730480002,15.044581118000252],[107.17891852500023,15.047015256000293],[107.17734349400021,15.04959257900012],[107.17476617200012,15.051453978000211],[107.17247521900018,15.054174485000146],[107.17304795700014,15.059329130000052],[107.17118655700025,15.06348148300016],[107.16732057400029,15.060617791000013],[107.1650296200003,15.056322254000222],[107.16402732800012,15.056608623000201],[107.16187956000013,15.060188237000176],[107.16199286000008,15.063053111000073],[107.1657455430001,15.064483775000227],[107.1624522980002,15.067633836000098],[107.15930223700033,15.06734746600003],[107.15744083800016,15.071929373000145],[107.15772720700014,15.079374971000249],[107.15744083800016,15.084100062000317],[107.15987497600028,15.083240955000207],[107.16145000600031,15.079518155000102],[107.16044771400007,15.073218034000107],[107.16374095900025,15.072502111000105],[107.16817968100023,15.072358927000252],[107.17018426500019,15.073647588000114],[107.16760694300027,15.077227202000174],[107.1657455430001,15.082668216000329],[107.16903878900027,15.083240955000207],[107.17204566500018,15.081522740000239],[107.17762986300019,15.08095000100009],[107.17969384200015,15.078862568000133],[107.17877534000021,15.075079434000102],[107.18278450800008,15.074506695000053],[107.18292769300032,15.078659048000162],[107.18536183100028,15.075365803000082],[107.18908463000017,15.072072557000098],[107.18908463000017,15.069638420000047],[107.1902301060002,15.068206574000058],[107.19352335100038,15.070211158000177],[107.19466882800012,15.068349758000267],[107.20111213400023,15.064197406000162],[107.20168487200019,15.067777020000221],[107.20655314800032,15.069924789000027],[107.21013276300019,15.073218034000107],[107.21313963900022,15.076654464000043],[107.21514422300007,15.081809109000218],[107.21600333000018,15.086820569000167],[107.21313963900022,15.090256999000104],[107.21299645400026,15.09541164400001],[107.21027594700021,15.094838905000145],[107.21113505500014,15.096843489000179],[107.20998957800006,15.098848073000212],[107.20784180900009,15.10085265800025],[107.2087009170003,15.103859533999994],[107.20698270200015,15.110016471000051],[107.20497811800018,15.112021055000184],[107.2038326410001,15.115171115000322],[107.20325990300032,15.116746146000068],[107.20068258000029,15.116173407000204],[107.198391627,15.117605253000193],[107.20213260200003,15.118889950000167],[107.20154168800033,15.12018257600019],[107.19882118100011,15.120039391000148],[107.19624385800003,15.122330344000076],[107.19767570400015,15.124478113000066]]]]},"properties":{"id":"6961"}}]}