{"type":"FeatureCollection","features":[{"type":"Feature","geometry":{"type":"MultiPolygon","coordinates":[[[[84.64693684895852,23.83834120008703],[84.64680555555574,23.838194444444724],[84.64635470920186,23.838597547743205],[84.64445746527801,23.84131361219646],[84.64442979600702,23.841771375868404],[84.64914930555582,23.844597981771173],[84.64919053819452,23.843904079861275],[84.6486024305556,23.843062201606088],[84.64863715277804,23.842478976779788],[84.64803114149314,23.841937391493303],[84.64806966145832,23.841286756727683],[84.64693684895852,23.83834120008703]]]]},"properties":{"id":"19506"}}]}