{"type":"FeatureCollection","features":[{"type":"Feature","geometry":{"type":"MultiPolygon","coordinates":[[[[81.69728906250018,23.31892382812518],[81.69625000000005,23.317750000000075],[81.69255859375002,23.31781054687505],[81.69231640625011,23.317939453125078],[81.68957421874998,23.31807128906263],[81.6894414062501,23.32031445312495],[81.6891914062501,23.32078710937509],[81.68930859374998,23.321689453125032],[81.6894414062501,23.321935546875025],[81.68955859375004,23.323439453125147],[81.68969140625026,23.323685546875055],[81.68980859375014,23.32443945312511],[81.69019140625014,23.324935546875096],[81.69030859374985,23.325189453125077],[81.69069140625012,23.325685546874894],[81.69080859375006,23.32593945312496],[81.69094140625012,23.326185546875053],[81.69110937500002,23.32689160156265],[81.69201562500015,23.327108398437588],[81.69219140625003,23.327435546875094],[81.69236718749997,23.327810546875213],[81.69244140625014,23.327689453124975],[81.69255859375002,23.327435546875094],[81.69269140625002,23.327189453125],[81.69280859375002,23.32593554687506],[81.69294140625013,23.32568945312515],[81.69305859375007,23.32543554687517],[81.69319140625001,23.325189453125077],[81.69330859375017,23.324685546875102],[81.69344140625012,23.32443945312511],[81.69355859375017,23.323935546875134],[81.69369140625,23.323689453124956],[81.69380859375016,23.32343554687506],[81.6939414062501,23.323189453125067],[81.69410937500012,23.32248339843754],[81.69443359375018,23.32231054687506],[81.69493359375016,23.322074218750075],[81.6949453125001,23.321816406250193],[81.69444140625015,23.321158203124952],[81.69470312500013,23.320669921875023],[81.69541796875009,23.320333007812607],[81.69594140625,23.319689453125193],[81.69617187500003,23.319200195312618],[81.69643359375002,23.319060546875093],[81.69728906250018,23.31892382812518]]]]},"properties":{"id":"19789"}}]}