{"type":"FeatureCollection","features":[{"type":"Feature","geometry":{"type":"MultiPolygon","coordinates":[[[[83.21109781901046,24.232585923936938],[83.21118489583344,24.23112379286046],[83.21004150390647,24.231133490668697],[83.20902777777789,24.23013888888927],[83.20632893880222,24.230333997938644],[83.20584120008695,24.231396687825836],[83.20514404296867,24.232019653320762],[83.20457655164941,24.235213080512423],[83.20523871527772,24.23665608723995],[83.20665391710062,24.236740383572354],[83.20664442274315,24.235041571723386],[83.20732313368066,24.234281955295486],[83.21003580729197,24.233534681532362],[83.21109781901046,24.232585923936938]]]]},"properties":{"id":"19379"}}]}