{"type":"FeatureCollection","features":[{"type":"Feature","geometry":{"type":"MultiPolygon","coordinates":[[[[105.37069166395096,14.9543082682287],[105.37134935166782,14.955278320312075],[105.37449191622935,14.955717230902437],[105.37571950276364,14.956549479166256],[105.37568084716466,14.958443467881622],[105.37601789686099,14.959428168402397],[105.37596832275054,14.961858181423239],[105.37316290961044,14.964886067707965],[105.37165832519216,14.964855143228803],[105.3706599934865,14.961410047742675],[105.37069827609284,14.95953504774279],[105.37153055826505,14.957919379339998],[105.37180277506198,14.956659613715019],[105.3698905775249,14.957438151041273],[105.36952423095394,14.959688585069017],[105.3684314303895,14.960691731770467],[105.36674340141823,14.960113932291264],[105.3649051242372,14.958200412326036],[105.36360351562169,14.957919379339998],[105.36290276421138,14.960446506076039],[105.36234110514013,14.960985785589884],[105.36151387532234,14.960968967013486],[105.36092549641623,14.959756401909345],[105.35820203992725,14.957139756944017],[105.35668660481466,14.95653049045103],[105.3555779690179,14.95839789496489],[105.35447865803727,14.958931206596816],[105.34996792263124,14.958161892360678],[105.35071967230576,14.957052951388476],[105.35369517008147,14.955101996527517],[105.35402499728403,14.953738064235608],[105.35192304822797,14.953056098089831],[105.35121944851036,14.95232367621496],[105.35016269259674,14.950145399305356],[105.34866017659172,14.948701714409282],[105.34790662977096,14.945668945312178],[105.34620259602528,14.944842122395471],[105.34497721353861,14.944867078992516],[105.34366214328011,14.945758463541267],[105.34234700520497,14.948768988714875],[105.34101070827595,14.94941731770794],[105.3398473442895,14.949019097221836],[105.33917110866642,14.946935221353883],[105.33593278672632,14.94791395399264],[105.33541944715378,14.946743164062127],[105.33735968695416,14.944879014756538],[105.33794548882045,14.942801649305238],[105.33790496825841,14.940814887152314],[105.33517361110805,14.938468424478813],[105.33466946071715,14.938478732638558],[105.33430443657446,14.940721028645385],[105.33360005696298,14.942088216145578],[105.33117394341028,14.943747287325934],[105.33014166937605,14.943164605034355],[105.33070285372932,14.942075195312185],[105.33011389837995,14.940932074652366],[105.32897908528341,14.939804687499674],[105.32936855739715,14.937903103298282],[105.32605994330217,14.93497612847186],[105.32440731472136,14.936096462673262],[105.32387932671125,14.938262261284294],[105.32288794623159,14.940186631944101],[105.32035939534202,14.94013509114545],[105.3149533420108,14.937211371527397],[105.3144628228051,14.933697374131569],[105.31319688584765,14.931829969617795],[105.31291944715397,14.930691731770438],[105.31082373724715,14.930419379339966],[105.31038692897883,14.931319986978835],[105.31045189751225,14.934504123263523],[105.30846547444324,14.936807183159289],[105.30958611382081,14.937080620659401],[105.31183054605796,14.939070638020425],[105.31245357936965,14.940990668402407],[105.3120512220564,14.942166341145565],[105.3139769151446,14.941813151041202],[105.31591478135536,14.943377278645428],[105.31629689534171,14.94572482638857],[105.31845360649632,14.945680881076015],[105.31936296250782,14.946149088541446],[105.32053999158737,14.94813205295091],[105.32235046386407,14.949010416666283],[105.32291388617287,14.949629448784378],[105.32201568603213,14.951373155381617],[105.32005252413953,14.952010091145482],[105.31791388617316,14.952358398437113],[105.3160492282411,14.953599175346781],[105.31316416422194,14.954302842881603],[105.31178351507921,14.953591579860671],[105.31014166937607,14.95406846788157],[105.31074547661362,14.955832790798311],[105.31068654377927,14.95872016058992],[105.30807105170018,14.95903971354123],[105.30624172634239,14.960428059895463],[105.30625434027453,14.961046006944102],[105.30829433864713,14.960523003471934],[105.31092956542645,14.962121310763422],[105.31298648410049,14.962078993055329],[105.31689938015094,14.961277669270402],[105.32146596272455,14.960974934895589],[105.32235833061756,14.961684570312059],[105.32151221380983,14.962932942708093],[105.31977003309126,14.963498263888539],[105.3170109388532,14.964919704860677],[105.3163354831241,14.965622287326028],[105.31839779323664,14.966436089409441],[105.32098812526803,14.965686306423251],[105.3247058783605,14.965643988714902],[105.32514689127291,14.966552734374602],[105.32513275146155,14.967245008680209],[105.32428066677207,14.968502061631625],[105.32431294758786,14.97008463541627],[105.32621212429152,14.968551432291278],[105.32813903808258,14.966545681423128],[105.32964050292654,14.96595377604126],[105.33084445529178,14.965978190103854],[105.3313105943437,14.966939019096756],[105.33057942708004,14.969074978298266],[105.33425262450842,14.96775716145791],[105.33825263129015,14.968782552083027],[105.33874721950636,14.969939778645426],[105.33457509358394,14.973484700520402],[105.33459713405725,14.974564887152368],[105.33428839789187,14.975163845485696],[105.33238989935663,14.975125325520438],[105.33151401095611,14.975425347221957],[105.33083374023104,14.977521158853762],[105.33013610839535,14.978191731770423],[105.32959523518568,14.979858398437145],[105.32795861137933,14.980830078124697],[105.32559193928697,14.981584743923264],[105.32514166937605,14.982838541666226],[105.32920857747084,14.98323621961768],[105.32960645887258,14.985274522569085],[105.33162631564366,14.984250759548232],[105.33401635063686,14.98136121961771],[105.33653055826508,14.980141601562096],[105.33808576795471,14.979087456596815],[105.3440255059106,14.978191731770423],[105.34469536675013,14.978205295138451],[105.34604441324544,14.981659613714868],[105.34921512179588,14.982706705728773],[105.34959503173494,14.985815429687108],[105.3495566474036,14.98769639756901],[105.34787041557851,14.988747287326007],[105.34555179171778,14.987552625867707],[105.34363250732119,14.985555013020388],[105.34232669406154,14.985131293402418],[105.34104278564124,14.983795030381572],[105.33819166395088,14.985969509548156],[105.33739112005989,14.987190212673326],[105.34015733506627,14.990485568575963],[105.34013271755308,14.991690538194007],[105.33924296060869,14.992080620659266],[105.33578579372514,14.990897352430096],[105.33428693982958,14.990125325520395],[105.33241024440875,14.990163302951018],[105.33125278048735,14.991169704860837],[105.33281534830397,14.992194552951133],[105.33346944172874,14.99322428385382],[105.33284901936528,14.994428710937129],[105.329422234426,14.995555555555185],[105.32726325140752,14.9948638237843],[105.32788848876626,14.996690538194088],[105.3272985161644,14.997636176214854],[105.32374721950643,14.996530490450937],[105.32189225938279,14.995697157117661],[105.32288862440012,14.99716688368025],[105.3231916639509,14.999046766492683],[105.32255469427835,14.999658745659403],[105.32095319959544,15.000413953992606],[105.31966508653105,14.999308268228859],[105.31847500270933,15.000202365450988],[105.32140187581055,15.001356879339923],[105.32291429307415,15.000969509548298],[105.32521945529206,15.00098253038152],[105.32709710014862,15.00293674045102],[105.32707804361647,15.00387044270795],[105.32466196695648,15.005304904513551],[105.32343349880333,15.005703124999656],[105.32291944715391,15.006268988714908],[105.32407480875352,15.00737901475648],[105.32585944281371,15.008469509548192],[105.32959679497284,15.006786024305171],[105.33076222737319,15.00680989583303],[105.33208055283987,15.009030490451167],[105.33366444905269,15.010691731770436],[105.3347338528072,15.007833116319063],[105.33810126410256,15.004106987846896],[105.34244160969749,15.003721245659364],[105.34356628417638,15.003141818575983],[105.34402499728421,15.003947482638566],[105.34177144368184,15.005444335937028],[105.34097500270954,15.007086046006691],[105.33902499728404,15.009302842881553],[105.33844814724083,15.010765516492768],[105.33848982068892,15.012805989582901],[105.34125278048722,15.013191731770434],[105.3420805528398,15.01359103732598],[105.33990817599519,15.014880642360922],[105.33952443440452,15.016846245659352],[105.33708611382067,15.01822428385384],[105.3382456122471,15.020547417534388],[105.33819098578235,15.023225911457928],[105.33753221299597,15.024504665798219],[105.33645996093443,15.025024414062102],[105.33568298339529,15.02342285156206],[105.33385057237095,15.021662326388508],[105.33291944715384,15.022005208332942],[105.33475263807193,15.024570855034355],[105.33541388617303,15.02627983940934],[105.33484924316079,15.02737575954825],[105.33069722493164,15.028763563367662],[105.3323436482714,15.02956271701342],[105.33596279567834,15.032794596353924],[105.33767272948907,15.031497395832957],[105.33907721625124,15.029354926214893],[105.34079084607995,15.028231336805206],[105.34184193928698,15.028772786457964],[105.34179731580619,15.03095920138857],[105.34214640299163,15.031979166666318],[105.34552897135094,15.03245117187467],[105.34624721950618,15.033240559895475],[105.34539130316509,15.03490234374965],[105.34149681938706,15.03606065538159],[105.33998901366854,15.035544162325976],[105.33928070068035,15.03628146701351],[105.33931213378602,15.037821723089877],[105.34167907714536,15.039698350694039],[105.34364671494907,15.040177951388486],[105.34727966308279,15.039481336805125],[105.34805914984494,15.04029296874971],[105.34742346869248,15.043396267360691],[105.34650821261599,15.044602864582913],[105.34768334282458,15.045731879339883],[105.35034406873612,15.045423719617787],[105.35180277506205,15.04653049045099],[105.35422851562177,15.046869032117613],[105.3534783596431,15.050300564235712],[105.3543647596538,15.051608072916238],[105.35602389865122,15.052636176214818],[105.35831502278333,15.052049153645427],[105.36043633354714,15.052092013888512],[105.36041083441509,15.053341471353818],[105.35773345946953,15.053994140624624],[105.35560628254879,15.057239040798251],[105.35373579236872,15.059035915798333],[105.35317223442618,15.059024522569047],[105.35211513942815,15.056845703124537],[105.3498583306176,15.056530490451152],[105.34913499619907,15.055427517360783],[105.34861117892481,15.052744140624682],[105.34689768472973,15.051385633680226],[105.34387695312179,15.048365342881524],[105.34145172118818,15.04764160156212],[105.340419447154,15.04822428385377],[105.34124762640747,15.04983181423583],[105.34167419433263,15.052017144096993],[105.34402533636828,15.054275716145568],[105.34430277506189,15.055697157117606],[105.345419447154,15.057080620659377],[105.34569166395104,15.057838541666314],[105.34451860215611,15.059384223089964],[105.34654975043097,15.06059027777738],[105.34652262369488,15.061920030381586],[105.34505377875124,15.063855794270495],[105.34067484537448,15.065150824652449],[105.34069766574103,15.066269531249674],[105.34449798583657,15.066515299478738],[105.34739674885745,15.064082031249697],[105.35137464734939,15.064896918402383],[105.35180277506205,15.066316731770499],[105.34955305311084,15.067652452256539],[105.34848300509671,15.067630750867679],[105.3468950059648,15.068274739583018],[105.34644816080421,15.07056369357602],[105.34360422769853,15.071366102430147],[105.34319722493169,15.072685004339874],[105.34455864800034,15.07532769097189],[105.34363091362516,15.07669650607609],[105.34423872205625,15.077280815971747],[105.34684777153555,15.07793077256909],[105.34679721408102,15.080408528645492],[105.34715342203467,15.081100260416292],[105.34926018608624,15.080560438367726],[105.35171030680002,15.078899197048287],[105.352167324487,15.075625542534326],[105.35379452175246,15.074558919270473],[105.3556194390159,15.074595811631553],[105.35635999891164,15.076878255208001],[105.35740190293726,15.07819173177046],[105.35853610568248,15.077011176214924],[105.35995012071086,15.07414116753452],[105.36167426214965,15.0734749348955],[105.36210137260989,15.07522732204832],[105.36207153320001,15.076688910589795],[105.36013054741429,15.077647569444053],[105.36014258490334,15.078236219617722],[105.36127000596466,15.079319118923237],[105.36448055690889,15.07931749131906],[105.3649833848709,15.081893446180302],[105.36393449571065,15.08240234374962],[105.362363382972,15.082080620659411],[105.35936465792875,15.082064887152555],[105.35808742946719,15.082392035589962],[105.35619137233837,15.081225585937275],[105.35481943765947,15.08125379774279],[105.35242685953475,15.083744032117679],[105.35174577500757,15.086136067707898],[105.34815975612733,15.088082139756565],[105.34764166937609,15.088898654513528],[105.35003712971692,15.090263129339903],[105.35042144775068,15.09183919270798],[105.3509836154482,15.092930772569147],[105.35180803086715,15.092913953992749],[105.35284267849059,15.093267686631663],[105.35319166395064,15.095446506076001],[105.3523428683778,15.096261935763508],[105.35151146782445,15.097939995659345],[105.35156856960393,15.09902506510386],[105.35327789306328,15.097286241318983],[105.3554683430958,15.096252712673305],[105.35892466226889,15.097138671874674],[105.35930277506188,15.098914930555082],[105.35802575005104,15.102336697048258],[105.35576446532875,15.103070746527322],[105.3530431450707,15.105902777777374],[105.35381981743384,15.10627983940934],[105.35648800319765,15.106225043402404],[105.35719367132921,15.106589084201062],[105.36128126356024,15.105697699652396],[105.36351579453898,15.106822374131553],[105.36535647921758,15.10873860677043],[105.36599548339532,15.111359592013486],[105.36596252441083,15.112975260416292],[105.36438290065874,15.114492730034428],[105.36313391791114,15.113849283853824],[105.36262563069332,15.114896918402351],[105.36177564832568,15.115691731770454],[105.36068050808072,15.115127495659294],[105.36070285372935,15.114032660589928],[105.36009809705624,15.113197157117654],[105.35771053737747,15.11568196614543],[105.35572981092324,15.116324869791399],[105.35444444444121,15.114364691839981],[105.35331271701077,15.114947374131646],[105.35460279676354,15.116545681423219],[105.35459177652686,15.118191731770452],[105.35403906927851,15.118722873263636],[105.35525017632065,15.120136176214928],[105.35708068847325,15.11874728732596],[105.35789157443244,15.118763563367722],[105.35956329345393,15.12171223958292],[105.36041388617289,15.126684570312122],[105.359547559947,15.127962782117763],[105.36069722493156,15.129858398437236],[105.36120246039181,15.131415473090001],[105.35901943630316,15.136535915798248],[105.35899787054805,15.13819173177049],[105.35733612060241,15.137352973089932],[105.3565569051074,15.137369249131524],[105.35344167073234,15.140176323784416],[105.35277794731675,15.141544596353796],[105.353317837182,15.142592230902508],[105.35519894069787,15.143203124999772],[105.35756852891402,15.146067165798343],[105.35791388617295,15.146916775173196],[105.3565193684864,15.148754882812185],[105.3565319485102,15.149370659721825],[105.35903055826512,15.149858398437104],[105.3598624335365,15.15028700086772],[105.36238484700218,15.148169487846872],[105.36385348849515,15.148199327256663],[105.36459693060672,15.149333224826009],[105.36457743326505,15.150288628471984],[105.36366560193895,15.15073133680518],[105.36235290527034,15.152097439235732],[105.36236456976681,15.152670355902373],[105.36306111653315,15.15402235243026],[105.36367804632917,15.156552734374685],[105.36303771972334,15.157358398437083],[105.36066748724707,15.155776909721993],[105.35762281629465,15.15793240017318],[105.35700724283524,15.15982910156211],[105.35506249321506,15.161104058159381],[105.35380225287221,15.163242730034355],[105.35624738904849,15.164863823784344],[105.3566035630935,15.164856770832884],[105.35623755560673,15.166284722221832],[105.35402499728403,15.167358398437145],[105.35346944172849,15.168469509548174],[105.35291378444768,15.171530490451062],[105.35329603406794,15.172272135416321],[105.35378055148354,15.17176812065928],[105.35446180555252,15.170364040798376],[105.35638888888568,15.171023220485822],[105.35763888888553,15.170595703124675],[105.35876702202367,15.17098198784683],[105.35934668646607,15.172176649305129],[105.35901458739923,15.173798285589939],[105.35902164035045,15.175578342013438],[105.35791944715399,15.177380099825996],[105.36514353433924,15.183692491319064],[105.36712500677842,15.185754665798143],[105.36766320122283,15.18686414930535],[105.36765394422426,15.189348415798221],[105.36884789360587,15.191109483506594],[105.37145955403318,15.191619466145553],[105.37374749077358,15.190691731770457],[105.37433088514214,15.190703667534308],[105.37429755316512,15.192336154513583],[105.37140333387262,15.194389105902388],[105.3718504503008,15.196133897569084],[105.37181169297642,15.199467230902528],[105.37272057426983,15.200807834201044],[105.37539679632917,15.199470486110812],[105.37572408040037,15.197126193575969],[105.37697207980366,15.195481228298192],[105.38004075791767,15.196872287325988],[105.38070295545478,15.198202582464916],[105.38155310736434,15.198185221353796],[105.3815020073753,15.195680881075972],[105.38294776068491,15.194291992187189],[105.38518161349495,15.194314778645506],[105.38680121527474,15.195149197048138],[105.38735833061756,15.194553493923266],[105.38680277506197,15.193474934895491],[105.3865305582652,15.191926540798292],[105.38793633354717,15.189852973089813],[105.38790740966468,15.18843587239543],[105.38572123209318,15.186335720485715],[105.38654720729946,15.185117187499642],[105.38892272948917,15.183926323784277],[105.3905804443327,15.18435112847179],[105.39096944172852,15.182358398437117],[105.39141499836924,15.181530490451038],[105.393714497881,15.182463107638426],[105.3965717569956,15.184511718749576],[105.39651943630307,15.187075195312147],[105.39681983099709,15.187658420138547],[105.39796942816523,15.187635091145495],[105.39992943657458,15.185645073784372],[105.40098415798283,15.185141601562151],[105.4015249972841,15.186808268228688],[105.40266320122291,15.188808593749556],[105.40263468424169,15.190205620659356],[105.4049976603159,15.192476128471881],[105.40366526285473,15.19412651909684],[105.40180277506201,15.194580620659323],[105.39956631130312,15.196111111110852],[105.39958645290469,15.19709743923572],[105.40436889648109,15.197421874999662],[105.40619967990133,15.196180555555188],[105.40784979925886,15.197636176214928],[105.4108989122146,15.194953884548283],[105.41199842664619,15.195520290798186],[105.41235833061731,15.197363823784357],[105.41266879611217,15.197913953992682],[105.41483825683284,15.196828884548253],[105.41636979844529,15.195592990450976],[105.41568684895506,15.192871636284423],[105.41570763481658,15.191854383680223],[105.41640672471473,15.190974934895408],[105.41874589707808,15.192347005207893],[105.4200261094804,15.19430284288157],[105.42222496880115,15.193410915798182],[105.42603498670454,15.196353624131547],[105.4265249972843,15.197363823784357],[105.42753167046126,15.19802408854136],[105.4288434516026,15.199991861978717],[105.42789971245352,15.201548394096847],[105.4261268785232,15.202428927951033],[105.42558447943466,15.204100477430217],[105.42607801648998,15.20505859374957],[105.42930833604285,15.205969509548268],[105.43014607747082,15.206537543402447],[105.43184136284415,15.204243706596884],[105.43281521267053,15.203308376735762],[105.43592346191113,15.20291937933986],[105.44487921820448,15.20459147135378],[105.44897196451515,15.204542100694127],[105.45167426214951,15.205691731770429],[105.45208055283959,15.204025065103792],[105.45306633843015,15.203752712673221],[105.45374721950637,15.205168728298162],[105.45236389159825,15.206543511284366],[105.4545420328744,15.207971462673228],[105.45485833061733,15.207598198784368],[105.4542185804547,15.205729166666316],[105.456026441783,15.203991970485717],[105.45807834201068,15.20403374565953],[105.45976867675469,15.205179578992812],[105.46401960584527,15.206956922742592],[105.4649936930305,15.206455078124733],[105.4654342990419,15.204198133680151],[105.46541351318032,15.203178710937124],[105.46284946017468,15.201497395833016],[105.46178622775292,15.200390624999628],[105.46181037054791,15.199208441839914],[105.46348639593853,15.199781901041362],[105.46485833061755,15.197342122395412],[105.46416971842112,15.196680772569039],[105.46066453721463,15.197636176214928],[105.45957499185872,15.197074652777403],[105.46026930066964,15.194491102430149],[105.45933502196962,15.193112521701195],[105.46013610839552,15.191476236978815],[105.45853814018781,15.18994086371491],[105.45647742377056,15.191002604166286],[105.45350209553706,15.190997178819003],[105.45262502034197,15.190402560763502],[105.4526568603483,15.188842230902353],[105.45013332790487,15.187783203124624],[105.44922977023325,15.186405164930221],[105.44709086099934,15.1847092013887],[105.44456000433732,15.183171657985795],[105.44319722493154,15.17985839843712],[105.44262498643334,15.179014214409378],[105.44264200846052,15.178180338541367],[105.4435472276443,15.178198784721872],[105.44655354817374,15.181269531249583],[105.448273281518,15.181234266492694],[105.45243404811956,15.183625217013557],[105.45374721950637,15.181235894096886],[105.45264255099531,15.181258680555203],[105.45027269151163,15.179173719617708],[105.44956390380534,15.177037217881548],[105.44778764512492,15.175330946180296],[105.44734798854924,15.17397623697876],[105.44737308078012,15.17274631076367],[105.44843651665255,15.17117730034687],[105.44699496798731,15.169792751735741],[105.44428137884884,15.170691189235782],[105.44262468125774,15.17236924913162],[105.44206746418953,15.172357855902405],[105.44041944715408,15.169553493923246],[105.44154222276146,15.167374131944186],[105.44152431911581,15.16649739583292],[105.44064554849925,15.165652669270443],[105.4377440728048,15.16571234808984],[105.43625264485362,15.164580620659493],[105.43593054877059,15.164587131075962],[105.43484734428952,15.165714518228839],[105.43487945556316,15.167287868923282],[105.43455983479501,15.168848198784332],[105.43461808946088,15.171702473957879],[105.43302263047647,15.17367892795096],[105.43034932454114,15.170896267360746],[105.42921936034836,15.171283094617735],[105.42868398030262,15.173479275173278],[105.42819179958454,15.173469509548255],[105.42653055826494,15.1747401258677],[105.42808536105352,15.175494249131631],[105.4284694417286,15.176171874999582],[105.4272508409255,15.17777777777745],[105.42874721950628,15.179863823784316],[105.43015265570435,15.18099229600665],[105.4301305474144,15.18207519531208],[105.4305285644501,15.182847764756588],[105.42901163736676,15.183842230902457],[105.4265249972843,15.18791395399262],[105.42625278048737,15.189324544270448],[105.42745652940212,15.19048122829821],[105.42733120388127,15.191525065103733],[105.42565087212145,15.190677625867707],[105.42460364447376,15.189587673610717],[105.42296868218003,15.188942599825936],[105.41921885172198,15.184758572048267],[105.41823635524864,15.185264756944036],[105.4159871758325,15.1848041449649],[105.41456966823674,15.182891710069043],[105.41459035237321,15.181878255207934],[105.41619567870791,15.17939181857615],[105.4158333333302,15.178333333332958],[105.41459889729512,15.177932942707955],[105.4137900797493,15.176739366319026],[105.416802775062,15.173150499131594],[105.41640641953884,15.171592339409287],[105.4142602878114,15.170857747395402],[105.4125813802053,15.172131618923217],[105.40968682182827,15.173566080728818],[105.40895565456512,15.172863498263453],[105.41090915255748,15.171583116318985],[105.41266510009453,15.169895833333129],[105.41262546115118,15.16795301649266],[105.41345001220398,15.166253255208048],[105.41401699489697,15.166241861978833],[105.41565321180238,15.166905381944034],[105.41702626545893,15.166459960937104],[105.41799241807408,15.163888888888508],[105.41736389159834,15.162668728298257],[105.41801062689566,15.161931423610824],[105.42059902614696,15.160094943576027],[105.41935228135517,15.158452148437078],[105.42119723849495,15.156531575520546],[105.4223497178788,15.15654188368012],[105.42278523762687,15.155696072048272],[105.42207519530925,15.152343207464966],[105.4220528496605,15.149340277777398],[105.42333584255326,15.146783311631552],[105.4251634385819,15.145674913194071],[105.4275949774819,15.14568142361081],[105.43018280028983,15.146263020832848],[105.43174645317603,15.14623155381905],[105.43305555555222,15.146566840277472],[105.43529357909827,15.14599338107601],[105.43818803574979,15.147814127603866],[105.43821309407238,15.14575358072878],[105.43791317409634,15.144583333332903],[105.43826802571309,15.143198784721775],[105.43736962212145,15.14318033854127],[105.43680555555247,15.14515299479136],[105.43483707003813,15.145142144096795],[105.43302174885756,15.143253038193976],[105.4318872409365,15.142668185763483],[105.42989532470395,15.144018554687108],[105.42908443874458,15.144035373263506],[105.4265396457217,15.14320909288152],[105.42624606662022,15.142639431423248],[105.4266035291852,15.141595052082991],[105.42566511365786,15.14069335937458],[105.42450324164176,15.138298611110798],[105.42266944037252,15.140135633680245],[105.42157219780486,15.14015787760384],[105.42052334255314,15.13979871961773],[105.42003387450839,15.141306966145493],[105.41828362358635,15.142493489583032],[105.41655768500104,15.140697157117685],[105.41342610676779,15.141744791666298],[105.41264166937603,15.140991210937202],[105.41337714300911,15.139104817707931],[105.41482201469958,15.138008355034387],[105.41763610839516,15.137095269096775],[105.41735365125535,15.136503363714993],[105.4154397243893,15.135575086805162],[105.41540384928075,15.133816731770438],[105.416286824541,15.130887586805187],[105.41791388617318,15.129324544270403],[105.4163448757565,15.126928168402443],[105.41391499836911,15.127913953992675],[105.4128692287837,15.124689670138622],[105.413943718801,15.122475043402403],[105.41668626573019,15.121584743923378],[105.41923207600601,15.117912326388506],[105.42040245903556,15.117908528645586],[105.42230448404612,15.119735785589924],[105.42290276421105,15.120968967013468],[105.42400604247743,15.120991753471884],[105.42525499131617,15.120144856770409],[105.42594723171337,15.12013075086773],[105.42655097113388,15.12042371961762],[105.42814276800905,15.122080620659318],[105.42864908853855,15.120819227430161],[105.42764166937607,15.120136176214928],[105.42653055826494,15.119775390624554],[105.42700225829785,15.118474934895488],[105.42946889241225,15.120133463541464],[105.43123664007916,15.120169813367724],[105.43206431070647,15.119308268228764],[105.43291944715392,15.11958062065932],[105.43398952907651,15.120305989582917],[105.43527777777476,15.11964246961773],[105.4363300238683,15.121247287325957],[105.43735833061763,15.120121527777442],[105.43567576090183,15.11844726562461],[105.43389716254032,15.118483615451055],[105.4318080647756,15.11763617621493],[105.43098843044399,15.117652994791328],[105.42958611382048,15.115915798610644],[105.43069166395063,15.11350206163165],[105.42958041720598,15.113458116319109],[105.42833333333024,15.114756401909332],[105.42709133571717,15.113463541666292],[105.42626420762494,15.11348036024269],[105.42514166937607,15.11240180121483],[105.425413886173,15.110691731770473],[105.42589433457786,15.109759114582985],[105.42403167724277,15.107969292534293],[105.42401401095591,15.107103407117592],[105.42470082600582,15.106388346353924],[105.42670491536163,15.105738389756581],[105.427200012204,15.104212239582878],[105.42971750894858,15.10170410156205],[105.43013610839515,15.100413953992728],[105.43188893635747,15.098325737846864],[105.43288645426114,15.096269531249604],[105.43399787054787,15.095697157117613],[105.43514166937624,15.095969509548254],[105.43729885524849,15.09706380208307],[105.43881334092552,15.097452256944052],[105.43985833061734,15.095691731770586],[105.44374721950632,15.093351236978748],[105.4434749348928,15.092913953992749],[105.44235310872065,15.093202582464983],[105.44126190185224,15.093180338541217],[105.43980455186303,15.094286566839955],[105.43822499592764,15.092642144096914],[105.43765828450219,15.092630750867627],[105.43517310248168,15.094296332464893],[105.43379740396827,15.094324544270407],[105.43232323540255,15.093441840277563],[105.42959035237314,15.093823242187],[105.42960279676342,15.095676540798195],[105.42875037298953,15.096254340277397],[105.42713158501189,15.0954204644094],[105.42666120740782,15.095410698784377],[105.42571665445641,15.097357855902402],[105.42374640570418,15.097398003471852],[105.423791164819,15.095204535589943],[105.42237314859713,15.090975477430192],[105.42165578206058,15.090960828992706],[105.42097500270953,15.09236382378434],[105.41902499728397,15.0945806206593],[105.41824167887037,15.096195203992636],[105.41724466959309,15.097233072916325],[105.41569834390967,15.095747070312157],[105.41568579779417,15.095131293402346],[105.41691019693693,15.092305230034398],[105.41887356227969,15.089717339409319],[105.41821387396627,15.089031032985801],[105.41737972683066,15.089014214409232],[105.4157406955263,15.089858398437244],[105.41376698811538,15.089212782117642],[105.41235833061731,15.090136176214827],[105.41151089138131,15.091545681423199],[105.41089928520731,15.093430447048192],[105.40996459960607,15.094856228298227],[105.40931406656583,15.09486924913162],[105.40877946641385,15.093831922742737],[105.40974802652667,15.092402886284248],[105.41057356092344,15.089990776909517],[105.40906294080642,15.08663682725657],[105.40819722493163,15.083645290798287],[105.40924340141831,15.08272081163156],[105.41169111463424,15.08457790798586],[105.41317728678055,15.084608289930188],[105.41361952039628,15.083749999999597],[105.41300889756636,15.082564561631514],[105.41708055283968,15.079662000867685],[105.41661983913534,15.079053819444141],[105.41523278130094,15.0786040581594],[105.41431752522479,15.07725368923569],[105.41427513969947,15.074065212673275],[105.4156413438553,15.072643229166417],[105.41800649006834,15.07231282552037],[105.41858208550045,15.0699517144093],[105.41930497910934,15.06957953558998],[105.42101172552847,15.070163845485737],[105.42358388264651,15.07011121961763],[105.42607950846039,15.071802842881596],[105.42632609049176,15.07141547308997],[105.42597500270969,15.070691731770467],[105.42403611924587,15.068741861978793],[105.4223583306173,15.06819715711785],[105.42041290282893,15.066519097221928],[105.41937228732317,15.066540798610703],[105.4176023017005,15.066108940971887],[105.4152100626595,15.0648768446177],[105.41348649766397,15.064841579860726],[105.41238308376424,15.067080620659354],[105.41167002359717,15.065783962673308],[105.41222581651166,15.063070746527416],[105.41126868353624,15.062074652777355],[105.40879889593859,15.062125108506649],[105.40736389159846,15.060745985242704],[105.407720743812,15.059582248263652],[105.40963680690882,15.058445095485666],[105.4114750162727,15.056531575520523],[105.41458943684589,15.05696614583296],[105.4171399943003,15.059025065103768],[105.41743594699128,15.058298068576079],[105.41639444986649,15.056522352430136],[105.41434268527249,15.055176866318988],[105.41290825737534,15.053468424478908],[105.4129306708409,15.05236979166635],[105.41210144042643,15.052352973089867],[105.40991278754015,15.052913953992672],[105.40880764431094,15.052420789930196],[105.40679602728622,15.050134006076007],[105.4074636501704,15.048183593749599],[105.40613599988833,15.043874240450947],[105.40703609890082,15.042937282985733],[105.40928056504677,15.042924804687075],[105.41041388617285,15.04237467447875],[105.41014166937603,15.04180284288148],[105.40860666910496,15.040796440971846],[105.40611955430441,15.038406575520455],[105.40726257323902,15.036188151041216],[105.40570010714734,15.034252387152478],[105.40769554985567,15.032641601562148],[105.40873077392266,15.03456922743014],[105.40930592854508,15.034865451388484],[105.41053276909415,15.0340337456594],[105.41120473225615,15.034020182291187],[105.4142050509951,15.034925672742787],[105.41763248019438,15.033369140624742],[105.41765865749457,15.032086588541276],[105.41386684841254,15.032146267360673],[105.41128431531806,15.030453016492714],[105.40985402424823,15.028681098089947],[105.40988067626623,15.027375217013613],[105.40764217800242,15.02627224392323],[105.40792416042419,15.024826931423249],[105.40902065700644,15.023773328992604],[105.40985833061742,15.022113172742806],[105.4087905883757,15.022049696180218],[105.40711459689348,15.022913411458006],[105.40599799261847,15.022936197916238],[105.40403055826508,15.021045464409497],[105.40626488579332,15.019300130207895],[105.40706153021611,15.017658420138488],[105.40955556233408,15.01628417968719],[105.41096944172872,15.014198133680154],[105.41051466199761,15.01390896267327],[105.40962368435012,15.01483615451356],[105.4074263848166,15.015967881943993],[105.40542731390744,15.015521375867706],[105.40540323892904,15.014341905381542],[105.4058836195172,15.01335177951357],[105.40843217637482,15.012115342881557],[105.41014166937603,15.010974934895387],[105.4112472195063,15.009890950520415],[105.41067765977314,15.009569769964926],[105.40959184434351,15.009591471353886],[105.40920145670245,15.00883409288167],[105.41050435383815,15.0078450520829],[105.41315697563707,15.006558159721877],[105.41398759629695,15.005760091145405],[105.41298492431312,15.004281141492712],[105.41444749619919,15.002469075520494],[105.41541954887921,14.999863823784295],[105.41539733886387,14.998776041666218],[105.41620276556748,14.99793728298576],[105.41801683213649,14.997900390624679],[105.42069722493162,14.998191731770547],[105.42286499023132,14.998747287325983],[105.42374630397913,14.997952473957966],[105.42402499728419,14.996525065103825],[105.4254194471541,14.9948638237843],[105.42595614962804,14.993210177951056],[105.42680277506187,14.992636176214873],[105.42959594726236,14.99233289930524],[105.43108869764237,14.990213216145577],[105.43208055283961,14.989731987846952],[105.43176144069784,14.988902994791317],[105.43041388617306,14.989580620659453],[105.42940344916141,14.990943467881635],[105.42765943738837,14.991390516492658],[105.42666249592767,14.990907118055205],[105.42561442056981,14.989308268228797],[105.42475477430233,14.990296766492662],[105.42277320013775,14.99478786892324],[105.42207533094304,14.995147026909336],[105.41905276828012,14.995147026909336],[105.41738515217767,14.994338107638484],[105.4162232462534,14.992421874999692],[105.41626976860576,14.990141601562158],[105.4156916639507,14.990413953992729],[105.4134825303789,14.99256890190945],[105.41312784830407,14.994385850694044],[105.41185278998174,14.995610894096757],[105.4098748440181,15.000969509548298],[105.40873582627736,15.000694444444093],[105.40902499728426,14.995691731770464],[105.40955922444331,14.99360731336779],[105.40838321261609,14.993001302082902],[105.40626359727335,14.993861219617685],[105.40458055283958,14.993197157117578],[105.40391109890098,14.992500542534316],[105.40103597004875,14.995262586805211],[105.40260162353198,14.996423611110714],[105.40412997775283,15.000051540798225],[105.40264166937621,15.001252712673349],[105.39802575005106,15.004209526909378],[105.39958055283958,15.00650282118012],[105.39874721950625,15.008747287326045],[105.3983572726747,15.011938476562108],[105.39715053981891,15.014705946180115],[105.3967679511143,15.017056206596877],[105.39595855712585,15.019051649305197],[105.39569722493175,15.024308268228808],[105.3954137844477,15.025970052082968],[105.3957567681176,15.032224392360746],[105.3954029676618,15.032953559027433],[105.39393673366644,15.031427408853816],[105.39105112711283,15.032913953992619],[105.38877766926763,15.032395290798362],[105.38785285101667,15.031030815971903],[105.38708045111454,15.027918836805185],[105.38706102158952,15.02446234808994],[105.38743425157028,15.022169596353748],[105.38807434081698,15.020197482638565],[105.3900694105329,15.017370876735711],[105.38852433946076,15.015286458332952],[105.38597551133583,15.014050021700939],[105.38640387640751,15.010124782985713],[105.38680277506197,15.009302842881553],[105.38863101535063,15.0071251085066],[105.389024997284,15.004302842881572],[105.39114803737752,15.001143120659393],[105.39061906602316,14.99735405815936],[105.38877811007737,14.997391493055176],[105.38778154160914,14.996078559027367],[105.38846849229296,14.99407118055521],[105.38849199082782,14.992919921874545],[105.38818108452367,14.992913411457991],[105.38711944579748,14.994018554687003],[105.38556657578906,14.994010959201077],[105.38388600667,14.995150282117706],[105.38160508897269,14.99510362413153],[105.37947055392468,14.995969509548232],[105.37570078531596,14.995310329860686],[105.37568610296987,14.994592013888465],[105.37625800238382,14.994297417534398],[105.37985694037215,14.994370659721824],[105.37984334309598,14.991907009548271],[105.3846030680306,14.986245117187096],[105.38457533094297,14.984886067707919],[105.38588965521583,14.982943793402441],[105.38430833604272,14.980573459200983],[105.38602105034411,14.979035373263528],[105.39096839056756,14.978521050346828],[105.39098500569335,14.977706163194057],[105.38859368217985,14.977123480902392],[105.38770304361643,14.974865451388439],[105.38708882649408,14.974852973089966],[105.38585116915917,14.975691731770425],[105.38354675292643,14.974997829860712],[105.38280344644889,14.973554687499544],[105.38335703531564,14.971848958332927],[105.38442901611026,14.97148166232607],[105.38763648138783,14.972363823784349],[105.3892693752679,14.972374674478914],[105.39010213215809,14.97197048611072],[105.39047824435434,14.97042751736062],[105.39241458468635,14.969278428818967],[105.3951175943977,14.966597222221964],[105.39548255072364,14.965173068575922],[105.39537468803925,14.959887152777341],[105.3965306599903,14.959291449652468],[105.39794603135542,14.95929633246503],[105.39985565185216,14.96128417968714],[105.40172719319335,14.959335937499745],[105.40305555555241,14.958881293402357],[105.40509809705642,14.959580620659253],[105.40596944172844,14.958842230902448],[105.40518669975822,14.95831163194417],[105.40162631564348,14.956988932291253],[105.4009720526769,14.955718858506529],[105.40064008924381,14.953001844617717],[105.39809760199321,14.955136176214964],[105.3962664455805,14.953773871527417],[105.39588650173309,14.953036024305064],[105.39682783338455,14.951647677951016],[105.39678612602754,14.949602864582957],[105.40180277506201,14.946337348089841],[105.40120629204321,14.945531141492623],[105.39975365532447,14.946515842013483],[105.39515889485355,14.946541341145434],[105.39403147379224,14.945458441839833],[105.39446217854507,14.943001302083019],[105.39295823838646,14.942226562499599],[105.38941056992965,14.943948025173256],[105.38848598903772,14.946796874999606],[105.38684912787235,14.94735731336776],[105.38599222818684,14.94737467447871],[105.38549231634866,14.946894531249711],[105.3851045057477,14.943720703124512],[105.38292568630331,14.942663845485683],[105.38289723713885,14.941269531249702],[105.38437815347979,14.94014594183983],[105.38621534559147,14.940108506944028],[105.38788675943684,14.940969509548353],[105.38930277506202,14.939161783853791],[105.38812418619457,14.93817599826339],[105.38659450954557,14.938207465277372],[105.38434278699762,14.937658420138504],[105.38125278048736,14.934689670138454],[105.38174085828669,14.933498263888438],[105.38377302381397,14.932913411457946],[105.385760837128,14.933593749999545],[105.3871665445931,14.93286946614549],[105.38874535454315,14.933939887152434],[105.39282277424823,14.935284830728776],[105.39456746418935,14.937913411457856],[105.3951398044131,14.937925347221778],[105.39624654133789,14.935170355902358],[105.39626956515511,14.934041341145559],[105.39458611382045,14.932423502603754],[105.39509945339299,14.931252712673327],[105.39692165798297,14.932355143228705],[105.40072380913298,14.932074110242667],[105.40276143391591,14.934194878471871],[105.40422651502499,14.93267035590253],[105.40581549750121,14.933747287326042],[105.40680277506218,14.931557617187053],[105.40595397948906,14.930682508680235],[105.40510080972987,14.928962131075949],[105.40552056206295,14.926812065971774],[105.40654113769202,14.926790907117635],[105.40835920545484,14.928683268228824],[105.40943610296998,14.925496961805138],[105.41180277506183,14.924729817708098],[105.4115305582649,14.924025065103905],[105.40955274793524,14.922851019964853],[105.40833133273318,14.921049262152295],[105.4095495266354,14.920421549478732],[105.41158616807391,14.919925130207972],[105.4129010348818,14.917919379339907],[105.41430833604292,14.918469509548231],[105.41876603867959,14.923349609374611],[105.4199857923688,14.923940972221914],[105.42071309407234,14.926864691839882],[105.42068057589765,14.928457031249636],[105.42252760145092,14.929858398437261],[105.42336686875777,14.929275173610776],[105.42230706108629,14.927711588541271],[105.42338341606657,14.926124131944078],[105.42265502929362,14.92239257812463],[105.42208611382071,14.921525065103737],[105.42069722493162,14.920190429687239],[105.42128370496644,14.919836154513419],[105.42315093993832,14.919874131944042],[105.42460628933046,14.919300130207859],[105.42307457817608,14.917828776041262],[105.4242674085796,14.916009114582948],[105.42887105305661,14.912641601562072],[105.42874742295677,14.91351291232597],[105.42763610839549,14.914580620659265],[105.42666466606661,14.916450737846773],[105.42796023898327,14.91710015190948],[105.43033610025705,14.91957302517315],[105.43180277506193,14.919602864582856],[105.43153055826494,14.918747287325985],[105.42819722493184,14.916002061631488],[105.42948140461922,14.914628906249646],[105.43032870822154,14.914217664930248],[105.43080054388801,14.913244900173225],[105.43403622097114,14.910136176214891],[105.43404666476445,14.907686089409353],[105.43348924424598,14.906537543402521],[105.43184634738182,14.905974934895454],[105.43176296657671,14.907027452256543],[105.43263610839514,14.908315429687121],[105.43221835665938,14.909412977430208],[105.4300141737165,14.907740342881567],[105.4274425252245,14.910300564235683],[105.42571760389225,14.912627495659407],[105.42408894856456,14.913184678819022],[105.42240698920025,14.913181423610737],[105.42013610839527,14.914025065103758],[105.41887786864916,14.914877929687151],[105.41628533257065,14.914868706596863],[105.41487175835218,14.914410264756555],[105.41484720865574,14.913208007812244],[105.41639149983396,14.910929904513438],[105.41458611382049,14.90869357638853],[105.41762207030919,14.907768012152431],[105.41765265570453,14.906270073784341],[105.41722222221907,14.905821940103777],[105.41654720729937,14.906524522569129],[105.41572323269006,14.906541341145356],[105.414394056529,14.906086154513503],[105.41254167344508,14.910266384548251],[105.41098809135983,14.912635633680324],[105.41015560573706,14.912652452256552],[105.40874721950624,14.910974934895435],[105.40811560736435,14.909672851562107],[105.40579800075639,14.909220377603717],[105.40514824760956,14.907959526909465],[105.4051642184755,14.905425889756586],[105.4043167114227,14.905408528645367],[105.40160115559567,14.909274631076016],[105.4022362603051,14.911130099826124],[105.40080871581708,14.912501627603788],[105.40485595702805,14.915303819444134],[105.40486945257939,14.91596408420095],[105.40374721950641,14.918469509548231],[105.40341762966253,14.920830620659387],[105.40006069606895,14.923191731770459],[105.39830091688063,14.922559678819056],[105.39762478298289,14.921247287325983],[105.39764689127273,14.920163845485831],[105.39736389159853,14.919580620659346],[105.39569858126865,14.917980685763496],[105.39567599826077,14.916873914930292],[105.39612687852312,14.915484483506589],[105.3970814683669,14.914992404513484],[105.3992672051294,14.915552842881738],[105.39983700222106,14.913329535589952],[105.39902777777476,14.912912326388536],[105.39794657388987,14.913469509548236],[105.39660257974927,14.912291124131613],[105.39597500270932,14.910457356770365],[105.39626166449321,14.90953396267328],[105.39763610839512,14.908213433159275],[105.39514400905696,14.9063628472218],[105.39511962890313,14.905168185763515],[105.39542500813471,14.904575195312106],[105.39538553873402,14.90264160156218],[105.39674282497501,14.901337348089939],[105.39496327717771,14.898992513020545],[105.39422166612107,14.897163628471759],[105.39471388074762,14.8951448567704],[105.39567033555463,14.895125325520354],[105.39755567762276,14.895889756943944],[105.39832828097562,14.89398546006899],[105.39684224446304,14.891100802951016],[105.39898939344297,14.890035264756634],[105.40082346597993,14.887763129339845],[105.40172071668522,14.885141601562054],[105.399052497013,14.886802842881494],[105.39764390733203,14.886357421874564],[105.39761908636822,14.885141601562054],[105.398458319767,14.884335394964921],[105.39896162244682,14.882864583332875],[105.39847279866214,14.882356228298278],[105.39724500867746,14.883188476562097],[105.39395724826065,14.882817925346785],[105.3920628187361,14.88122775607603],[105.39001047769855,14.880203450520554],[105.38903055826515,14.88164876302045],[105.38931064181551,14.883242187499576],[105.3901361083953,14.885653754339842],[105.38939965141842,14.886522894964912],[105.38717559814151,14.88656846788163],[105.38598632812179,14.885991210937078],[105.38542612711282,14.884903971353737],[105.38505099826065,14.882337239582967],[105.38669721814986,14.87815158420112],[105.3873244900141,14.87508897569397],[105.38667626274642,14.87375271267328],[105.38449310302408,14.875115017360741],[105.38099032931521,14.875130750867683],[105.37880167642899,14.875691731770388],[105.37736582437842,14.874397243923255],[105.37734798854925,14.873523763020359],[105.37804958767052,14.871361762152333],[105.37958055283971,14.869890950520386],[105.3781972249316,14.869176432291269],[105.38069166395067,14.866802842881711],[105.38263610839513,14.866035698784316],[105.38014166937606,14.863972439235766],[105.38107153998149,14.863407660589786],[105.38281094020934,14.864002821180193],[105.38629760741887,14.864586588541314],[105.38844231499237,14.86569173177051],[105.3893011474577,14.864938693576121],[105.38935336642473,14.862379557291192],[105.38818610296974,14.861258138020418],[105.38683546277886,14.858474392360748],[105.38514200846029,14.857652994791408],[105.38512488470812,14.856814236110765],[105.3863998752137,14.856377495659316],[105.38786390516182,14.857901475693922],[105.38959072536565,14.85790798611076],[105.39192057291345,14.858705512152412],[105.39264166937605,14.857641601562108],[105.39340806748797,14.855698784721724],[105.39536926269224,14.855713433159309],[105.39616204155507,14.855328776041233],[105.39763610839512,14.853116319444013],[105.39660010443461,14.852515190971857],[105.39523735893792,14.852981770832926],[105.39238528781138,14.850958658853827],[105.39708055283987,14.845962999131572],[105.39678771972345,14.845372178819076],[105.39487979464732,14.84346354166621],[105.39348649766376,14.843491753471724],[105.39280303954766,14.842165256075887],[105.39526679144635,14.840528971353692],[105.39627400715844,14.83797526041613],[105.39767561170473,14.837633463541238],[105.39766998290705,14.833753255207924],[105.39610714382266,14.834067925346858],[105.39433146158532,14.833491753471932],[105.39348924424579,14.83268229166626],[105.3930157470671,14.831706271701137],[105.39168087429167,14.831059027777357],[105.3910360378658,14.828413628471779],[105.38959838866865,14.82629286024266],[105.3895617336664,14.82449707031222],[105.39233686658744,14.822677951388457],[105.39282602945659,14.821727973089935],[105.39212083604289,14.820994466145422],[105.38906762016816,14.823736979166284],[105.38866387260967,14.821256510416234],[105.3876491631369,14.82125813802034],[105.38680833604272,14.820017903645407],[105.38798451741226,14.814074435763544],[105.38874023437191,14.811866861978714],[105.38873111300668,14.80990831163156],[105.38928120930657,14.808774414062128],[105.39097585042006,14.807406684027384],[105.3939461262988,14.806235351562137],[105.39452501084756,14.804451497395448],[105.39596944172868,14.801573893228849],[105.39524312336906,14.799308268228714],[105.3945805528397,14.800136176214878],[105.39402038573908,14.802122395832981],[105.3926861233148,14.804806315103733],[105.39184912787235,14.805677625867617],[105.39016309949758,14.806527777777376],[105.38752363416555,14.806850585937141],[105.3854138861731,14.81013617621494],[105.38459269205427,14.812318250867648],[105.38455108642259,14.814357638888495],[105.38541944715385,14.817358398437165],[105.3859573364227,14.823406575520593],[105.38708055283954,14.827042643228765],[105.38529039170689,14.827329101562086],[105.38322035047415,14.826620551214887],[105.3818027750618,14.827080620659302],[105.37958611382047,14.828552517360706],[105.38032945420699,14.829858398437139],[105.38209133571726,14.82901963975658],[105.38429477267468,14.829035915798258],[105.38636277940233,14.828197157117614],[105.38819722493159,14.829858398437139],[105.38884965684363,14.831869032117666],[105.393191663951,14.837405056423222],[105.39274695502061,14.83869900173572],[105.39067196315884,14.839596896701025],[105.38932566324567,14.839569769964882],[105.38929880777678,14.840885959200975],[105.39111667208866,14.842077907985797],[105.39245530869894,14.843883463541175],[105.39374721950625,14.844863823784294],[105.3954135809972,14.845404730902331],[105.39543507893544,14.846457790798226],[105.39326307508358,14.848717990451007],[105.39113722059139,14.849580620659339],[105.38971822102556,14.847206488714875],[105.38631730821064,14.847760416666205],[105.38569166395067,14.84930284288167],[105.38528703477314,14.852201063367673],[105.38478444416987,14.852724609374661],[105.38281063503374,14.851923828124725],[105.38217244465815,14.852536892360817],[105.38169063991674,14.854513346353812],[105.37947055392468,14.85541395399268],[105.3777444457975,14.853546549478821],[105.37699256048953,14.850948893228804],[105.3775074598494,14.849444444444046],[105.37697136772695,14.847878146700992],[105.37738803439336,14.847019314235752],[105.37873009575426,14.84572970920108],[105.37670172796979,14.84321723090234],[105.37554392496432,14.841266818575946],[105.37309668646608,14.841260308159292],[105.37255333794158,14.839586046006644],[105.37206909179352,14.83986490885377],[105.3712637329069,14.841525065103752],[105.37002244737087,14.840721571180083],[105.36847568087776,14.837114800346882],[105.3684479437903,14.835754665798163],[105.36893195257935,14.83434027777733],[105.36626335991426,14.834286024305214],[105.36546257866425,14.83511935763849],[105.36300737168742,14.835804578992722],[105.3626196289031,14.836557074652376],[105.36265797932631,14.83843478732598],[105.36181193033528,14.840520833332945],[105.36178012423736,14.842080078124624],[105.36287224663297,14.84210232204812],[105.36400482177422,14.84171440972186],[105.36689436170465,14.842184787325934],[105.36788055419603,14.843132595485798],[105.3686219957107,14.844571940103691],[105.36737972683048,14.84459689670102],[105.36627990722346,14.844030490450933],[105.36543484157662,14.845219726562036],[105.36539710150524,14.84706922743014],[105.37013610839509,14.849174804687038],[105.36977342393354,14.850463324652338],[105.36655354817381,14.850397135416301],[105.36569722493184,14.851220160590003],[105.36692287868587,14.85455566406209],[105.36970635307833,14.856802842881464],[105.37100301106457,14.856524522569075],[105.37260762532222,14.855697699652453],[105.37454023572806,14.855658637152288],[105.37513566758585,14.856230468749558],[105.37511908636847,14.857913953992679],[105.37731597900083,14.860079210069074],[105.37802086723846,14.86111924913159],[105.37666110568264,14.862911241319026],[105.3759508599143,14.864374999999683],[105.37433054605819,14.865932074652363],[105.37349165174388,14.868168402777357],[105.37213500976227,14.869580620659292],[105.36963860405504,14.86854654947878],[105.3676085408496,14.866885850694075],[105.36680277506198,14.865697157117694],[105.3657809787293,14.863289930555169],[105.36515831841055,14.862642144096824],[105.36432556152025,14.862625325520426],[105.36377499050232,14.863154296874526],[105.36229671901813,14.866350368923321],[105.36341057671129,14.86972764756905],[105.36513610839509,14.873715820312114],[105.36439524332351,14.875218098957959],[105.36382229274844,14.878153211805298],[105.36159037271804,14.8793028428815],[105.3599299791093,14.8787999131941],[105.35875345865563,14.87766927083294],[105.35875834146819,14.876536458332964],[105.35669711642461,14.875519205728764],[105.35430901421105,14.873224826388466],[105.35429195827581,14.872389865450927],[105.35475365532452,14.871041124131494],[105.35147321912652,14.871712782117612],[105.3495266723601,14.870141601562167],[105.3479844495952,14.871832682291313],[105.3475653076139,14.873467881944066],[105.35036244709974,14.873436414930083],[105.3517416720887,14.874761827256563],[105.35236389159823,14.875969509548241],[105.35274875216689,14.877548285589867],[105.35457221136826,14.878454318576019],[105.3554138861729,14.880529513888504],[105.35503818087804,14.883060980902286],[105.3517636447452,14.88491753472185],[105.35097544351888,14.885674913193967],[105.35096459282457,14.8862065972218],[105.35291944715382,14.886525065103726],[105.35454254150082,14.887080620659333],[105.35783623589086,14.88626030815928],[105.36037139892247,14.886242404513425],[105.36154476589334,14.886528320312095],[105.36346774630769,14.888114691840016],[105.36348042805676,14.888735894096854],[105.36264166937602,14.889564344617654],[105.36304073757267,14.890410698784407],[105.36427978515295,14.890436197916287],[105.36736389159827,14.88708604600653],[105.36789991590419,14.885434027777464],[105.36974982367312,14.884030490451025],[105.37088812933709,14.884493272568974],[105.36994625515095,14.88632161458294],[105.3706345282628,14.887037760416419],[105.37417548285268,14.886130642360826],[105.37513610839537,14.887053493923275],[105.37481787787218,14.888065863714914],[105.372211235891,14.88954372829825],[105.3728477308454,14.890855577256602],[105.37570441351662,14.892091471353794],[105.37783294677419,14.892414279513474],[105.37902065700646,14.891273328992654],[105.3801170857715,14.889047309027319],[105.38137105305665,14.888197157117645],[105.38279720729926,14.889294162325925],[105.38346944172869,14.892576497395439],[105.38251549614475,14.893171657985846],[105.37867787678707,14.893173285589853],[105.37545834011169,14.896523980034345],[105.37486755370773,14.896535915798182],[105.37338436550229,14.89563693576342],[105.3687777709928,14.895680881076132],[105.36791388617306,14.896247287325949],[105.36762186685863,14.896848958332924],[105.36625278048743,14.898164605034282],[105.36774875216682,14.89893391927042],[105.36849290635521,14.900467664930233],[105.37013644747961,14.902892252603792],[105.37067871093419,14.905116644964863],[105.37125267876209,14.905713975693999],[105.37483534070853,14.90567491319402],[105.37569098578243,14.906497395833071],[105.3757255384626,14.90819118923568],[105.3730318874751,14.908165690103715],[105.37022996690203,14.910639105902476],[105.3664344957107,14.913181966145459],[105.3648949178029,14.913213433159342],[105.36179334852099,14.911825086805194],[105.36014166937613,14.911791449652398],[105.36210496690208,14.914324544270372],[105.36289486354949,14.915952690971835],[105.36482364230355,14.917052951388385],[105.36596944172865,14.918153754339855],[105.36392720540053,14.9198583984371],[105.36270989311734,14.919407552082987],[105.36131164550474,14.917952473957982],[105.35918450249252,14.916530490451038],[105.35750267876202,14.916890733506591],[105.35663350422843,14.919569227430145],[105.35449147541996,14.919918077256497],[105.35293765597564,14.920671657985693],[105.35125278048727,14.923014865451094],[105.35188307020096,14.924178602430146],[105.35345231797649,14.925207790798268],[105.35470692952171,14.928388671874671],[105.35592949760982,14.929018554687076],[105.35784098306962,14.929057617187055],[105.35949147542001,14.928492296006524],[105.36015825059386,14.93044053819419],[105.36012471516611,14.932082790798148],[105.36180277506176,14.934558376735808],[105.36127153184353,14.935154622395416],[105.3571816338401,14.936392144096786],[105.35517968071528,14.934308268228932],[105.35263610839516,14.934858398437072],[105.35083190917638,14.936227213541443],[105.34751149495114,14.936295030381501],[105.34429687499673,14.935407986110746],[105.3454138861729,14.937641601562106],[105.34928897433483,14.940972222221816],[105.35226389566722,14.941624891492708],[105.35289547390099,14.942851019964891],[105.35288753933051,14.946149088541446],[105.35372870550927,14.948741319444082],[105.35588019476668,14.949292534721948],[105.35831549750125,14.947641601562083],[105.35893181694573,14.948025173610787],[105.35987833658535,14.949619683159355],[105.3639242892763,14.949537217881556],[105.36511630587799,14.95011555989538],[105.36618472628814,14.95152343749966],[105.36672678629233,14.953747287325996],[105.36873172335837,14.9529134114579],[105.37055555555222,14.952777777777357],[105.37069166395096,14.9543082682287]],[[105.37065063476231,14.952439236110735],[105.37089423285263,14.952682834201056],[105.37055555555222,14.952777777777357],[105.37065063476231,14.952439236110735]],[[105.37887647840401,14.911067708332993],[105.3793726264075,14.909716796874562],[105.3802777777747,14.909444444444091],[105.38216471353851,14.91110839843708],[105.38290211995141,14.913557942707968],[105.38469312879462,14.914843749999633],[105.38588890923106,14.91675292968722],[105.38686496310433,14.917593858506592],[105.38679172091682,14.918505316839855],[105.38460805256844,14.919017469617813],[105.38134236653318,14.916701931423205],[105.38047573513123,14.915696072048306],[105.38107391357093,14.91406684027747],[105.37887647840401,14.911067708332993]],[[105.38574842664619,14.90549750433992],[105.38538336859474,14.903767361110695],[105.38611256916997,14.90209852430516],[105.38666666666356,14.901944444444013],[105.38748246934355,14.903001302082927],[105.38883382161148,14.902801649305161],[105.38928768581522,14.904199761284318],[105.38814551459106,14.906431206596935],[105.38748877630971,14.906787651909312],[105.38574842664619,14.90549750433992]],[[105.37893096923531,14.881780056423267],[105.37822167290247,14.881837022569115],[105.37709865993602,14.881210394964995],[105.37681589762033,14.878699544270347],[105.37888888888583,14.877777777777439],[105.3812415907087,14.879317491318986],[105.38253495957812,14.879213324652412],[105.38164601643544,14.879979383680094],[105.38096045599733,14.881797960068951],[105.38102227104704,14.882567274305174],[105.38058939615573,14.88346191406221],[105.379742872447,14.882479383680263],[105.37893096923531,14.881780056423267]],[[105.3827811686165,14.85459581163154],[105.3836111111078,14.854444444444127],[105.38316443548948,14.856293402777496],[105.38416459824967,14.86079698350673],[105.38401401095618,14.862671440971795],[105.38330234103401,14.862613932291225],[105.38275919596046,14.860223524305184],[105.38235076903962,14.859871419270462],[105.38075690375106,14.857043185763516],[105.3827811686165,14.85459581163154]],[[105.36725969102335,14.965463324652518],[105.36609876844315,14.965291883680251],[105.36407460530282,14.966637369791314],[105.36264570447824,14.966426323784248],[105.36210120306745,14.965641276041339],[105.36349009195632,14.963767903645461],[105.36419704860785,14.962127821180161],[105.36527777777471,14.961944444444228],[105.3677121310732,14.963324652777374],[105.36817657470377,14.96475531683987],[105.36725969102335,14.965463324652518]],[[105.37463277180657,14.977004123263512],[105.37078101263782,14.975294053819141],[105.37021169026386,14.975954861110793],[105.36863043890745,14.976660156249608],[105.36616539848845,14.975985785589856],[105.36522979735994,14.974899631076056],[105.36735076903969,14.973739691839839],[105.37096188015104,14.97235080295114],[105.37277777777453,14.972222222221873],[105.37370802137278,14.973100585937061],[105.37461907280502,14.97455512152743],[105.37463277180657,14.977004123263512]],[[105.36411583794191,14.984959852430066],[105.36392968071496,14.98621961805513],[105.36295884873803,14.986509874131727],[105.36147413465389,14.984914822048253],[105.36098805745141,14.983727213541329],[105.36067735459764,14.983772786457891],[105.36043453640096,14.982189127603789],[105.36201619465831,14.980967881944167],[105.36249999999697,14.980833333332981],[105.36318983289621,14.981429036457854],[105.3635313245953,14.982655707464843],[105.36337287054792,14.983727756075979],[105.36411583794191,14.984959852430066]],[[105.37999999999701,14.984444444444094],[105.38068240695222,14.985083550346872],[105.37789323594498,14.986782226562113],[105.37733439127297,14.987407769096862],[105.37546742756868,14.98833007812459],[105.37440093993828,14.986563585069021],[105.37500125460818,14.985458984374645],[105.37696614583021,14.984703233506622],[105.37999999999701,14.984444444444094]],[[105.37549977620134,15.05819064670105],[105.37530744764231,15.059163953992694],[105.37318271212794,15.058651801214907],[105.3729395887556,15.05525065104132],[105.37388888888555,15.054999999999708],[105.3743284776443,15.055393880207887],[105.37460235595373,15.056104058159448],[105.37516181097763,15.056504991319017],[105.37549977620134,15.05819064670105]],[[105.35690155028968,15.072058376735754],[105.35650254991012,15.073516167534322],[105.35531161837795,15.074295247395384],[105.35446970621442,15.073318142360634],[105.35380191378809,15.071821289062257],[105.35471598306967,15.070532226562136],[105.35611111110794,15.070277777777434],[105.35690155028968,15.072058376735754]],[[105.40499999999687,15.07111111111071],[105.40539560953462,15.071553819444077],[105.40601426865996,15.071516927083081],[105.40594458685669,15.072685546874695],[105.4044628228049,15.07336588541628],[105.40375779893336,15.072221137152368],[105.40499999999687,15.07111111111071]],[[105.37622239854286,15.082999674478856],[105.37421898735565,15.082750651041252],[105.3729422675207,15.08368326822874],[105.37142574733846,15.084116753471989],[105.370317450626,15.083690321180285],[105.36874192979278,15.084048394096854],[105.3678405083518,15.08338975694403],[105.36802808973218,15.081882052951002],[105.3698457505935,15.080543619791328],[105.36906911213876,15.079222547742674],[105.37019375270958,15.078748914930244],[105.37222222221911,15.078611111110689],[105.37357296413509,15.079389105902393],[105.37432122124241,15.081164822048251],[105.37630103216932,15.082367621527368],[105.37622239854286,15.082999674478856]],[[105.38613332112303,15.128108723957894],[105.38501173231023,15.127856987846997],[105.38449907090617,15.126487087673254],[105.3848353746171,15.124986979166337],[105.38583333333034,15.124444444444123],[105.38678012423722,15.126568467881697],[105.38613332112303,15.128108723957894]],[[105.45632968478421,15.194367404513528],[105.45515424940012,15.193795030381608],[105.45599609374673,15.192642686631672],[105.45777777777451,15.192499999999654],[105.45761179605805,15.193827039930312],[105.45632968478421,15.194367404513528]],[[105.45094536675018,15.199959852430197],[105.45123213025946,15.200993381076145],[105.44954132079769,15.202298719617758],[105.4484900919563,15.201481119791339],[105.44880201551334,15.199370117187158],[105.44999999999666,15.199166666666272],[105.45094536675018,15.199959852430197]]]]},"properties":{"id":"358"}}]}