{"type":"FeatureCollection","features":[{"type":"Feature","geometry":{"type":"MultiPolygon","coordinates":[[[[104.64016384548327,15.918687879774552],[104.64128146701105,15.917613932291971],[104.64291178385119,15.917647298177215],[104.64374728732363,15.917053493923802],[104.64093641492778,15.914251302083557],[104.64097547742759,15.91234727647597],[104.64213921440674,15.91178249782999],[104.64263617621233,15.91122531467046],[104.64108669704584,15.908939073350922],[104.64175238714975,15.906993815104428],[104.64013617621234,15.904863823785021],[104.63986382378178,15.90387098524333],[104.64095757378178,15.90225775824672],[104.63849934895532,15.899212510850958],[104.63958062065674,15.896802842882238],[104.64043185763612,15.89568060980919],[104.64129828558757,15.895698242187777],[104.64628038194152,15.89794487847243],[104.64958441839983,15.899031846788404],[104.65071343315677,15.898174913194637],[104.6519471571153,15.898200141059405],[104.65542480468454,15.901819661458546],[104.65656467013596,15.901796332465409],[104.65651963975395,15.899588758680835],[104.6573583984347,15.898047960069817],[104.65481499565672,15.897341579861447],[104.65306152343456,15.895516221788398],[104.64930826822629,15.89430284288207],[104.64474772135114,15.893649088541892],[104.64280653211515,15.891628417968988],[104.6432204861085,15.891230468750251],[104.64497884114283,15.89065999348989],[104.64707031249705,15.890702582465607],[104.64794542100398,15.890403103298908],[104.64875271267081,15.890419650607939],[104.64902506510137,15.888996582031538],[104.64681586371242,15.889041612413365],[104.64492838541398,15.887456868489807],[104.64386176215007,15.888006456163396],[104.64260525173316,15.887052951389236],[104.63871365017084,15.887062717014075],[104.6383333333304,15.886666666666812],[104.63515679253177,15.887075195312647],[104.62986382378196,15.888706325955113],[104.63182996961515,15.891308593750324],[104.6317995876706,15.89280056423641],[104.63095269096934,15.894049479166824],[104.62946668836534,15.894770507812765],[104.62745225694172,15.89425428602452],[104.6266644965248,15.89466010199672],[104.62763617621229,15.896546766493344],[104.626484917532,15.897689344618257],[104.62656846787914,15.898747287326543],[104.62862196180296,15.898044433593995],[104.63072591145576,15.898764377170394],[104.63124728732365,15.899890950521097],[104.62878580728889,15.902256130642542],[104.63016384548322,15.902924533420375],[104.63344292534421,15.902857801649418],[104.63448187933741,15.903939073350926],[104.63486056857343,15.906265733507283],[104.63547146267067,15.906852756076503],[104.63730251735811,15.907741156684253],[104.63819173176793,15.90879069010434],[104.63761990017085,15.910461154514152],[104.63762695312212,15.912540961371832],[104.63938802083058,15.914994032118273],[104.63898654513613,15.918527832031586],[104.63790690103863,15.919565429687736],[104.63824110242777,15.920541449652944],[104.63938964843462,15.921525065104433],[104.64041395399025,15.920397677951726],[104.63978515624714,15.919793836805837],[104.64016384548327,15.918687879774552]]]]},"properties":{"id":"10272"}}]}