{"type":"FeatureCollection","features":[{"type":"Feature","geometry":{"type":"MultiPolygon","coordinates":[[[[103.24463243272564,14.914404466417324],[103.24561740451404,14.913061794705115],[103.24741048177086,14.911400316026644],[103.24913492838559,14.908466932508787],[103.25228868272578,14.905024973551733],[103.25310302734388,14.90329930623406],[103.25269558376735,14.902644178602628],[103.25150146484387,14.903276028103448],[103.24901936848951,14.902049594455477],[103.24440348307306,14.902144470215077],[103.2431024848091,14.900740390354073],[103.24275689019132,14.899337683783884],[103.24424831814238,14.896027526855775],[103.24195068359373,14.895661536322876],[103.24022759331595,14.896265563965173],[103.23793891059043,14.895655602349379],[103.23552924262142,14.89607518514012],[103.23323052300341,14.895674930148914],[103.23227240668396,14.893214365641398],[103.23125081380218,14.892267846001758],[103.2288213433159,14.891803978814252],[103.22650146484366,14.890277777778024],[103.22484998914925,14.891061909993638],[103.22337592230937,14.890421956380507],[103.22238118489591,14.891962093777323],[103.22303466796873,14.892911376953393],[103.22335069444458,14.897195095486268],[103.22494466145841,14.898672197130196],[103.22591824001753,14.900611504449017],[103.22775499131942,14.902313300238987],[103.22905327690975,14.905647616916426],[103.2294127061634,14.907972581651649],[103.22830647786466,14.908997701009397],[103.22794759114598,14.910877838134937],[103.228868001302,14.912078043619985],[103.22920681423633,14.914206322564354],[103.23140597873262,14.913477511935966],[103.23357937282984,14.915144178602688],[103.23563340928811,14.915471360948615],[103.23779052734372,14.917942640516713],[103.2407226562502,14.917951863607001],[103.24463243272564,14.914404466417324]]]]},"properties":{"id":"10309"}}]}