{"type":"FeatureCollection","features":[{"type":"Feature","geometry":{"type":"MultiPolygon","coordinates":[[[[81.56172950299393,23.491302413692125],[81.56199704411179,23.491034822232734],[81.56334368949197,23.491034841744067],[81.5641552467167,23.4913023620212],[81.5641552467167,23.49157436936487],[81.56550193701261,23.4915743734163],[81.5660414264187,23.491302407466975],[81.5660414264187,23.48995570331887],[81.5660414264187,23.489688200774665],[81.5660414264187,23.488876679545427],[81.56576946466473,23.488341533924896],[81.56442277917463,23.488341540590227],[81.5641552467167,23.488069539435827],[81.56388327811734,23.487529975334695],[81.56388327811734,23.486990463740014],[81.5641552467167,23.48699042605567],[81.56442277917463,23.486722914779776],[81.5646903106805,23.486450896144348],[81.5646903106805,23.486183302636718],[81.56442277917463,23.485915808473905],[81.56388327811734,23.485643755711365],[81.56388327811734,23.4853762523948],[81.5641552467167,23.48483670018709],[81.5641552467167,23.4845646899237],[81.5641552467167,23.484297186005136],[81.5641552467167,23.4834900769864],[81.56334368949197,23.48321805865615],[81.5611899825598,23.482410906967374],[81.55822468480616,23.48241097842825],[81.55633847584576,23.48241095499108],[81.55579891662231,23.482143382683844],[81.5552593535094,23.482143399320663],[81.55418021565893,23.4829505219939],[81.55391273035335,23.48321801609383],[81.5536407246087,23.483490040766313],[81.5536407246087,23.48402963524856],[81.55391273035335,23.484297115469374],[81.55445221945442,23.484297191916227],[81.55445221945442,23.484029602567773],[81.55579891662231,23.484029584547514],[81.55633847584576,23.484297157941896],[81.55660603619643,23.484564663872547],[81.55687803118823,23.48510423628339],[81.55687803118823,23.485915838747104],[81.55768513915623,23.486722920142867],[81.55876422658426,23.486722874679145],[81.55957131425001,23.48699044060838],[81.560650374549,23.488341584212407],[81.56091791951147,23.488609084088694],[81.56091791951147,23.489148681445627],[81.560650374549,23.489416181860605],[81.56011084633545,23.489688216558122],[81.55957131425001,23.48995574207204],[81.55930376448154,23.490227744816465],[81.55930376448154,23.490495333922453],[81.55957131425001,23.491034841187172],[81.55984329849812,23.491034814147824],[81.56011084633545,23.49157441082201],[81.56011084633545,23.49265350822118],[81.55984329849812,23.494000188078772],[81.55957131425001,23.494539714863976],[81.55876422658426,23.49534681469308],[81.5584922384285,23.495614333784317],[81.55795261100505,23.495614343072887],[81.55795261100505,23.49615393142865],[81.55822468480616,23.496153914746984],[81.55903177828426,23.495886320700507],[81.5603783932294,23.495074782313438],[81.5611899825598,23.494000146172382],[81.56145752559999,23.49238154492201],[81.56172950299393,23.491302413692125]]]]},"properties":{"id":"38919"}}]}