{"type":"FeatureCollection","features":[{"type":"Feature","geometry":{"type":"MultiPolygon","coordinates":[[[[75.3902500000003,25.570639648437492],[75.39069140625006,25.5704423828125],[75.39093359375013,25.570307617187623],[75.39182421875003,25.57017187500017],[75.39369140625004,25.568192382812498],[75.39390625000001,25.56771191406264],[75.39418359375011,25.567557617187546],[75.3944414062502,25.567442382812615],[75.3946835937501,25.567307617187637],[75.39594140625005,25.567192382812536],[75.39658203125012,25.566692382812647],[75.3972578125001,25.56685351562507],[75.39744140625007,25.567182617187598],[75.39759765625021,25.56786523437509],[75.39805859375011,25.568192382812498],[75.39831640625007,25.5683076171876],[75.3985585937501,25.568442382812577],[75.39881640625023,25.56855761718751],[75.39905859374997,25.568692382812472],[75.39981640625021,25.568807617187673],[75.40005859375023,25.56894238281265],[75.40056640625008,25.569057617187482],[75.4014414062502,25.56980761718755],[75.4014414062502,25.56855761718751],[75.40069140625005,25.567681640625196],[75.40085156250015,25.566992187499935],[75.40118359375023,25.56680761718748],[75.40180859375013,25.566666015625103],[75.40169140625008,25.566307617187505],[75.40155859375014,25.566067382812534],[75.4014414062502,25.565307617187713],[75.40130859374997,25.565067382812572],[75.40114062500024,25.564692382812623],[75.40055859375016,25.564807617187554],[75.3996835937501,25.565557617187707],[75.39880859375015,25.564567382812683],[75.39860156250015,25.564108398437455],[75.39744140625007,25.563057617187624],[75.3969335937501,25.562942382812693],[75.3966914062502,25.56280761718763],[75.39621093750017,25.56259375000012],[75.39605859375015,25.56231738281258],[75.39589062500013,25.56194238281246],[75.39539453125016,25.562115234375128],[75.3950976562501,25.562775390625063],[75.39456640625005,25.563192382812602],[75.39430859375014,25.563307617187704],[75.39386718750009,25.563552734374966],[75.39345703125028,25.563585937500108],[75.39326953125013,25.563249999999968],[75.3935585937501,25.56273437500012],[75.39344140625005,25.56230761718747],[75.39330859375022,25.5620673828126],[75.39319140625022,25.561807617187497],[75.39300000000017,25.561500000000223],[75.39080859375011,25.56155761718759],[75.3905664062502,25.56169238281265],[75.3899023437501,25.56184277343759],[75.3896914062502,25.56231738281258],[75.38955859374997,25.56255761718755],[75.3894023437501,25.56290332031253],[75.3890585937501,25.563057617187624],[75.3889257812501,25.564492187500036],[75.38856640625019,25.564692382812623],[75.38830859375022,25.564807617187554],[75.38806640625003,25.564942382812532],[75.3875703125,25.5651640625002],[75.38744531250009,25.566711914062594],[75.38805859375012,25.567192382812536],[75.39042968750007,25.56731347656249],[75.39105859375022,25.568072265625005],[75.39092578124999,25.569492187500018],[75.3905664062502,25.56969238281262],[75.39030859375012,25.56980761718755],[75.38943359375023,25.570557617187703],[75.38850000000016,25.57041406250009],[75.38830859375022,25.570067382812653],[75.38819140625023,25.56980761718755],[75.38805859375012,25.56956738281258],[75.38794140625006,25.56930761718766],[75.38780859375024,25.56906738281269],[75.38769140625007,25.568807617187673],[75.3874335937501,25.568692382812472],[75.38698437500008,25.568442382812577],[75.3863085937501,25.56855761718751],[75.3860664062502,25.568692382812472],[75.3855703125001,25.568914062500156],[75.3855078125001,25.569686523437767],[75.38671484375024,25.56982519531246],[75.3871914062502,25.570432617187663],[75.38734375000004,25.571096679687585],[75.38781640625004,25.571307617187486],[75.38805859375012,25.571442382812634],[75.3883164062502,25.571557617187665],[75.3885585937501,25.571692382812543],[75.38902734375026,25.571900390625117],[75.3894414062502,25.572432617187488],[75.38955859374997,25.572942382812585],[75.39005859375007,25.573581054687608],[75.38994140625007,25.57456738281266],[75.3896914062502,25.575015625000205],[75.38988281250008,25.57530761718752],[75.39042187500004,25.575105468749967],[75.39055859375028,25.573932617187708],[75.39069140625006,25.573692382812638],[75.39080859375011,25.573432617187635],[75.39098046875003,25.57312500000009],[75.39080859375011,25.572817382812545],[75.39069140625006,25.572307617187718],[75.39030859375012,25.571817382812583],[75.39019140625007,25.571557617187665],[75.38994140625007,25.57110937500012],[75.3902500000003,25.570639648437492]]]]},"properties":{"id":"27052"}}]}