{"type":"FeatureCollection","features":[{"type":"Feature","geometry":{"type":"MultiPolygon","coordinates":[[[[80.57317437065959,23.647172037760612],[80.57413316514769,23.64609890408012],[80.57352491590686,23.64325195312513],[80.57369839138445,23.640340983073102],[80.5731944444444,23.6398611111113],[80.57082553439662,23.63999213324675],[80.57025661892331,23.640301378038387],[80.56592949761253,23.64004340277812],[80.56544935438367,23.64108954535611],[80.56388020833302,23.64023695204017],[80.56204433865,23.64034627278666],[80.56167446560337,23.641038004557544],[80.56392632378439,23.641733262803996],[80.56384765624975,23.64305324978318],[80.5663357204858,23.643881022135616],[80.56669677734348,23.64232923719632],[80.56863308376714,23.643381483290128],[80.56854946560318,23.644784749349128],[80.56737440321152,23.645324028863058],[80.56695224338094,23.645914306640833],[80.56762112087674,23.647145046658196],[80.56943949381494,23.646658121745006],[80.57069444444423,23.646633572048856],[80.57220106336777,23.646643066406426],[80.57317437065959,23.647172037760612]]]]},"properties":{"id":"19607"}}]}