{"type":"FeatureCollection","features":[{"type":"Feature","geometry":{"type":"MultiPolygon","coordinates":[[[[76.80377373589394,23.308098687066334],[76.80490600585918,23.307711181641082],[76.80740858289911,23.308138020833866],[76.80833062065958,23.307252061632397],[76.8061138237845,23.306386176215696],[76.80292317708327,23.305763210720954],[76.80200547960047,23.304409315321692],[76.802878282335,23.303500840929274],[76.80627102322055,23.303996582031658],[76.80749633789046,23.302819417318133],[76.80751410590258,23.301947564019514],[76.80531860351564,23.30249728732683],[76.80250271267337,23.302158881293863],[76.8041449652778,23.300336778429184],[76.80250271267337,23.29993638780425],[76.80388617621517,23.29899102105084],[76.8036058213975,23.298597005208663],[76.80222683376721,23.298625217014276],[76.80041666666662,23.29625000000044],[76.7989481608071,23.29640950520877],[76.79733846028668,23.302838812934453],[76.79805080837681,23.306316460503922],[76.79837022569447,23.30925672743109],[76.80007826063346,23.310552842882416],[76.80204603407125,23.310216200087183],[76.80328097873254,23.30961697048666],[76.80377373589394,23.308098687066334]]]]},"properties":{"id":"19795"}}]}