{"type":"FeatureCollection","features":[{"type":"Feature","geometry":{"type":"MultiPolygon","coordinates":[[[[107.65168613009862,14.631540629069463],[107.65155999077601,14.631388888889404],[107.6503227403418,14.632373962402909],[107.64901333278974,14.632941894531797],[107.64748772515097,14.634778306749553],[107.64621222601878,14.635331488715835],[107.64584275987298,14.635976799859549],[107.64777988009902,14.638078579373271],[107.6524817572691,14.635771518283903],[107.65257724338002,14.63483520507863],[107.652261488172,14.632018602159818],[107.65168613009862,14.631540629069463]]]]},"properties":{"id":"22325"}}]}