{"type":"FeatureCollection","features":[{"type":"Feature","geometry":{"type":"MultiPolygon","coordinates":[[[[103.08163194444452,14.649856465657749],[103.0816476779514,14.649079318576582],[103.08577365451382,14.650546773274868],[103.08751220703127,14.649841579861246],[103.08915500217009,14.643767123752369],[103.0891335720485,14.639389817979861],[103.0878903537326,14.638888888889113],[103.0812641059027,14.639064297146462],[103.08053195529507,14.6443084377714],[103.07919189453119,14.644313015408073],[103.07998128255204,14.646259053548391],[103.0791590711805,14.647048916286991],[103.0757291666666,14.646463894314522],[103.07522650824663,14.645940687391587],[103.07525444878459,14.644580756293621],[103.07439805772563,14.64205257839646],[103.07272922092037,14.642086622450265],[103.07162896050349,14.644319491916562],[103.07065700954891,14.644299655490641],[103.07014485677084,14.643243815104313],[103.06909667968765,14.642363891601903],[103.06858751085062,14.644740058051454],[103.07025417751751,14.646802775065268],[103.07057888454867,14.648797166612653],[103.07304334852441,14.64874688042552],[103.07301513671885,14.647361891004948],[103.07389946831617,14.647086113823946],[103.07384440104178,14.649774237738882],[103.07418158637174,14.651750759548833],[103.07723605685752,14.65378180609818],[103.07834309895819,14.654318983290068],[103.07917154947907,14.654302096896984],[103.08275987413217,14.652350836860052],[103.08273871527794,14.65131493462468],[103.08163194444452,14.649856465657749]]]]},"properties":{"id":"10331"}}]}