{"type":"FeatureCollection","features":[{"type":"Feature","geometry":{"type":"MultiPolygon","coordinates":[[[[76.93415625000009,26.381471679687493],[76.93518359375005,26.380558593749967],[76.93555859375019,26.380386718750145],[76.93526953125016,26.380195312500092],[76.93481640625018,26.380441406250185],[76.93455859375021,26.380558593749967],[76.93391406250012,26.381058593750126],[76.93343359375021,26.380941406250074],[76.93294140625002,26.380558593749967],[76.93245703125015,26.380335937500178],[76.93219140625015,26.379848632812553],[76.93236718750015,26.379231445312698],[76.93268359375011,26.37905859375003],[76.93315625000011,26.378841796875093],[76.93369140625018,26.37819140625018],[76.93375000000017,26.377999999999943],[76.93355859374995,26.37805859375007],[76.93281640625005,26.37869140625007],[76.93214843750016,26.378846679687555],[76.93119140625018,26.379944335937623],[76.93130859374995,26.380191406250006],[76.93194140624999,26.380933593750086],[76.93207421874999,26.382352539062452],[76.93272656250011,26.38280859374997],[76.93335937500004,26.382647460937633],[76.93394140625006,26.381941406250036],[76.93415625000009,26.381471679687493]]]]},"properties":{"id":"31188"}}]}