{"type":"FeatureCollection","features":[{"type":"Feature","geometry":{"type":"MultiPolygon","coordinates":[[[[77.8207649739588,25.080175781250063],[77.82111979166709,25.076105143229185],[77.8197211371531,25.073120117187543],[77.8194523111982,25.070825737847244],[77.81801866319503,25.066592881944572],[77.817916666667,25.064861111111085],[77.81719455295169,25.065506184895966],[77.81729275173635,25.06715603298619],[77.81582546658004,25.068881293402768],[77.81556342230922,25.07084092881955],[77.81455240885455,25.072288411458274],[77.81473415798641,25.076729600694478],[77.81215494791687,25.07921223958334],[77.80727864583363,25.078842773437657],[77.80667453342036,25.079204644097416],[77.80804606119838,25.079833984374986],[77.81348795572964,25.080400933159794],[77.81494900173632,25.080925021701347],[77.81611979166692,25.083048502604285],[77.81612657335094,25.084287109375026],[77.8177699110245,25.08360351562507],[77.8203822157121,25.083285590277868],[77.82165879991348,25.08266710069458],[77.8207649739588,25.080175781250063]]]]},"properties":{"id":"9503"}}]}