{"type":"FeatureCollection","features":[{"type":"Feature","geometry":{"type":"MultiPolygon","coordinates":[[[[76.30394140625023,23.156939453125133],[76.30405859375011,23.156437500000123],[76.30205859374999,23.15431445312511],[76.30194140625,23.15406054687513],[76.30182421875006,23.15393945312516],[76.30169140625011,23.155064453125163],[76.30136718750006,23.15553515625018],[76.30094140625013,23.15531054687507],[76.2984335937501,23.155189453125203],[76.29819140625008,23.155060546874992],[76.29793359375012,23.15493945312521],[76.29757031250014,23.15474609375012],[76.29749999999993,23.15325000000017],[76.29705859375,23.153310546875062],[76.29694140625011,23.153564453125128],[76.29680859375011,23.15381054687495],[76.29664843750007,23.154149414062687],[76.29630859375013,23.15431054687494],[76.29606640625022,23.15443945312505],[76.29555859375003,23.154560546875103],[76.29544140625015,23.155064453125163],[76.29530078125018,23.155329101562458],[76.29480859374999,23.155560546875066],[76.29456640625008,23.155689453125092],[76.29291406250005,23.15581054687506],[76.29237500000002,23.155525390624973],[76.29203125000006,23.155708007812578],[76.29206640625014,23.156574218750123],[76.29256640625013,23.156810546875107],[76.2928085937501,23.156939453125133],[76.29306640625012,23.1570605468751],[76.29330859375003,23.157189453125042],[76.29356640625022,23.157310546874996],[76.29380859375001,23.157439453125207],[76.29479687500012,23.157560546875175],[76.29568359375011,23.156810546875107],[76.29594140625014,23.156689453125054],[76.2961835937501,23.156560546874942],[76.2975859375002,23.156439453124975],[76.29805859375014,23.156689453125054],[76.29852734375018,23.156909179687517],[76.29905859375012,23.157587890625095],[76.29880078125015,23.15807910156262],[76.29830859375002,23.158310546874958],[76.29754296875021,23.158959960937665],[76.29757031250014,23.159666992187482],[76.29906640625009,23.15981054687508],[76.29930859375,23.15993945312512],[76.29964843750011,23.160100585937627],[76.29980859375027,23.160439453125008],[76.30003906250002,23.16087500000019],[76.29980859375027,23.161310546875114],[76.29969140624999,23.161627929687498],[76.30004296875009,23.161810546875003],[76.30083203125005,23.161166992187688],[76.30105859375013,23.160685546875],[76.30169140625011,23.15993945312512],[76.30180859375011,23.15943554687496],[76.30199218750008,23.159090820312557],[76.30294140624997,23.158939453125157],[76.30305859375014,23.15868554687499],[76.30319140625014,23.15843945312517],[76.30330859375002,23.157685546874944],[76.30394140625023,23.156939453125133]]]]},"properties":{"id":"19885"}}]}