{"type":"FeatureCollection","features":[{"type":"Feature","geometry":{"type":"MultiPolygon","coordinates":[[[[77.28555447048612,24.565845913357776],[77.28618733723951,24.56550214979447],[77.28798665364579,24.565609402127265],[77.28860324435752,24.56524000379828],[77.28726860894076,24.564627346463183],[77.28634087456592,24.56247802734424],[77.28419569227421,24.56252309163459],[77.28272433810773,24.56191118028481],[77.28195231119784,24.561995815701536],[77.28251383463547,24.562497490777417],[77.28235677083339,24.5627699788417],[77.28139675564225,24.56217085096621],[77.28214409722224,24.56150309244849],[77.28083251953106,24.560668979221376],[77.28056125216997,24.5566273668081],[77.27988905164912,24.55602667914539],[77.27832980685767,24.55611958821666],[77.27634006076394,24.555816921658632],[77.27365288628457,24.552168884277833],[77.27499213324668,24.551351114909423],[77.27378065321173,24.550795118544485],[77.27222710503472,24.549215325250074],[77.27188883463529,24.5481199476459],[77.27063422309013,24.54581129286069],[77.27028564453113,24.54481194390243],[77.27111979166679,24.54361768934514],[77.27109944661461,24.543276095920575],[77.26924384223096,24.543386671278867],[77.26806342230915,24.542334730360764],[77.27119222005209,24.541202528212366],[77.27376708984369,24.538320549859435],[77.2730362955729,24.536571485731855],[77.27307400173598,24.535940958659438],[77.275129937066,24.534997355143844],[77.27610324435753,24.533325534397292],[77.27702528211793,24.533063354492654],[77.27810411241305,24.53364959716849],[77.27898084852424,24.533597344293042],[77.28105333116306,24.532720065647226],[77.28300754123248,24.53151190863767],[77.2824921332464,24.53056335449267],[77.2822300889757,24.528168063694153],[77.2833506944443,24.52765367296068],[77.28331488715284,24.527049492730484],[77.2801817491318,24.527236226400348],[77.27945231119773,24.528503044976688],[77.2811189778644,24.52999220106385],[77.2813810221352,24.53063649495489],[77.28062744140638,24.532023247613452],[77.27878011067716,24.531913113064775],[77.27581163194432,24.532307807075227],[77.27456841362826,24.533176201714895],[77.27413818359358,24.534569668240437],[77.27243028428805,24.535097079807386],[77.27092692057275,24.53900763617669],[77.26910780164931,24.54005442301488],[77.26802042643217,24.539989624024003],[77.2664301215278,24.541670260959663],[77.26432562934016,24.5419366455083],[77.26195231119803,24.53872361924965],[77.26302435980912,24.538231540256632],[77.26214653862857,24.537447170681915],[77.26258531358494,24.53414683024134],[77.26482815212674,24.531510382758782],[77.26526991102438,24.530547756619356],[77.26692097981763,24.529586486816854],[77.2673586697048,24.52770558675182],[77.2671706814235,24.524552069770493],[77.26554768880195,24.524174465603807],[77.26526258680539,24.523553161621578],[77.26456773546019,24.522932298448893],[77.26381754557283,24.52050289577963],[77.26390516493049,24.519032558865547],[77.26471435546878,24.516506686740925],[77.26297010633678,24.516100870768724],[77.26158786349814,24.51534973144581],[77.26168036566824,24.513796997070855],[77.26230970594608,24.512638888889327],[77.26004638671859,24.50944146050398],[77.25877170138872,24.50815249972925],[77.25803005642351,24.506536526150654],[77.25644422743048,24.50552795410202],[77.2561189778647,24.504279174805163],[77.25719089084183,24.503787163629084],[77.25758368598085,24.502098931207144],[77.25652777777768,24.50152777777832],[77.25611585828997,24.50189578586206],[77.25528564453109,24.505199279785813],[77.25748480902766,24.507164272732837],[77.25889838324636,24.510052863227457],[77.2605129665798,24.511495429145455],[77.26085245768215,24.51259518093589],[77.26075561523433,24.514219970703692],[77.25971611870662,24.51415802001999],[77.25917453341995,24.514427558051707],[77.26131252712682,24.517186414931018],[77.26253784179673,24.518114488390253],[77.26253526475674,24.521009284125995],[77.26364420572921,24.523473442925848],[77.26354098849836,24.52520511203396],[77.2644523111978,24.526381089952736],[77.26499213324635,24.52770463731609],[77.2635911729599,24.528137274848646],[77.26365288628458,24.52917368571022],[77.26277655707449,24.52995666503959],[77.26250786675328,24.53139668782603],[77.26138020833318,24.531659071181068],[77.26139756944448,24.53195146348797],[77.26028021918407,24.53294986301067],[77.25993747287308,24.536237759060754],[77.25827189127617,24.53693664550822],[77.25853013780372,24.532507798937147],[77.25778564453108,24.533341132270508],[77.2568094889323,24.533789130317345],[77.25602891710051,24.53714382595534],[77.25526991102416,24.537492201063827],[77.25500786675352,24.5381948852544],[77.25616509331607,24.540066833496596],[77.25610080295141,24.54114495171494],[77.25433390299466,24.541690606011798],[77.25307115342892,24.542376742893325],[77.24903808593766,24.54300520155222],[77.24861897786437,24.542419060601688],[77.24981608072923,24.541349351671542],[77.24964124891503,24.54028557671498],[77.24775702582477,24.54213724772181],[77.24650363498253,24.541261766222334],[77.24598076714406,24.542955017090293],[77.24321180555538,24.543386535645055],[77.24250786675353,24.54417446560376],[77.23859903971359,24.544508124457906],[77.23862657335067,24.544045444065233],[77.24004869249117,24.54360629611594],[77.2405476888022,24.543047756619515],[77.24196573893212,24.54271782769142],[77.24192979600699,24.54211547851608],[77.23887003580708,24.542196282281367],[77.23778401692712,24.542786424425486],[77.23622856987853,24.542828708225414],[77.23528564453139,24.5433411322704],[77.2330803765191,24.543948601617217],[77.23220065646692,24.545331861708405],[77.23279649522553,24.550040283203586],[77.2343381076387,24.549948391385072],[77.23632378472226,24.551577623155893],[77.2375223795573,24.550236206055118],[77.237428249783,24.548656887478856],[77.23813652886284,24.548063354492626],[77.23964491102433,24.548883022732667],[77.24007161458323,24.550264926487017],[77.24373711480027,24.55064690483988],[77.24539360894076,24.55209065755264],[77.24443576388873,24.553326653375038],[77.24445610894085,24.55366834852491],[77.24559068467889,24.553600735135177],[77.2463309733071,24.55442925347276],[77.24736789279504,24.554905192057916],[77.24780883789069,24.553477478027986],[77.24896525065091,24.552742004394972],[77.25003417968756,24.551545647515724],[77.24992553710925,24.549722290039597],[77.2522127278647,24.549452243381594],[77.25473280164911,24.55169087727913],[77.25540351019978,24.55165089925184],[77.25610324435749,24.550800238715695],[77.25443657769105,24.550285576714955],[77.25417453342024,24.549815199110796],[77.2565459526908,24.5493725585942],[77.25556342230911,24.547670288086536],[77.25674018012145,24.54809254964239],[77.26173353407106,24.548183729384192],[77.26163574218734,24.549823777941057],[77.25998630099818,24.55129760742237],[77.26001464843742,24.551773410373798],[77.26249077690991,24.551625840929404],[77.26276991102438,24.547867499458036],[77.26175292968756,24.5464114718972],[77.25830959743908,24.54611755371141],[77.25877495659736,24.545701666938484],[77.26056342230882,24.545285576714875],[77.26157999674459,24.54457550048879],[77.26247897677942,24.545581631131228],[77.26361735026043,24.545564202203238],[77.26491482204884,24.544859144423256],[77.26618462456602,24.545314771864724],[77.2677250162761,24.54522298177133],[77.26888102213533,24.546118910048236],[77.27025200737833,24.546748080783928],[77.27055447048613,24.550936041938414],[77.27344129774295,24.553881869846506],[77.2733246527778,24.555839606391558],[77.2739360894096,24.557744004991804],[77.2755634223088,24.558047756619473],[77.27589111328129,24.558761732313954],[77.27702229817706,24.559481201172403],[77.27784396701381,24.559432203505224],[77.2774340820313,24.557513834635955],[77.27819498697906,24.557230021159413],[77.27898844401042,24.559800211589064],[77.28161539713525,24.563431972928015],[77.28555447048612,24.565845913357776]]]]},"properties":{"id":"4967"}}]}