{"type":"FeatureCollection","features":[{"type":"Feature","geometry":{"type":"MultiPolygon","coordinates":[[[[103.73798448350394,17.30675211588577],[103.73966444227122,17.305936957465548],[103.74153049044835,17.305975206163524],[103.74375623914645,17.304574924045454],[103.7443310546848,17.304586588542023],[103.74436821831316,17.308191731771302],[103.74790066188953,17.30764702690999],[103.75064127603886,17.30685384114608],[103.75352349175066,17.305396050347596],[103.7553860134519,17.30413330078153],[103.75801866319168,17.301393229166948],[103.75913492838245,17.299690483941248],[103.76014160155952,17.299030490451784],[103.76099690754918,17.297876790365038],[103.76096408419849,17.296263292100974],[103.76133138020529,17.295189887153114],[103.75987494574363,17.29379041883712],[103.75958604600393,17.293131781684394],[103.76181450737553,17.290990939670422],[103.7617987738686,17.290225151910008],[103.75793484157694,17.291510959201673],[103.75686740451104,17.29223442925381],[103.7542721896672,17.294935438368398],[103.75208577473668,17.29430257161482],[103.75100151909427,17.294324815538587],[103.75031141492784,17.293969455295496],[103.75071940103876,17.291977539062728],[103.7516636827227,17.28921902126784],[103.75404378254919,17.28790120442747],[103.75474229600391,17.2857486979171],[103.75708089192418,17.28350179036491],[103.75743842230614,17.281669921875306],[103.75706108940668,17.280937500000235],[103.76116672091732,17.27754123263921],[103.76181966145563,17.27623074001768],[103.76292182074357,17.27569607204893],[103.76254720051779,17.274969075521156],[103.75999050563959,17.274586046007272],[103.75949544270529,17.275606553819742],[103.7585763888861,17.27605224609404],[103.75580593532683,17.277144911024664],[103.75513888888608,17.276801215278127],[103.75430555555252,17.277230631510747],[103.75329644096936,17.276710883246935],[103.75256022135122,17.27369113498297],[103.75064073350384,17.272760145399587],[103.74942735459771,17.273582628038554],[103.74988009982357,17.27490559895884],[103.74984944661176,17.2764108615455],[103.7489870876706,17.27680284288222],[103.74734781900767,17.276241861979514],[103.74665825737546,17.27625596788228],[103.74612386067426,17.278448621962085],[103.74717936197615,17.281658257378737],[103.74934136284415,17.283804253472624],[103.74930257161148,17.28570827908011],[103.74784016926779,17.2864176432295],[103.74548936631638,17.285613064236458],[103.74496826171574,17.286155598958672],[103.74652506510134,17.29003146701416],[103.74444010416366,17.2931073676218],[103.74095350477162,17.294041612413466],[103.73994547525754,17.294020996094147],[103.73943522135139,17.29244900173653],[103.74023898654215,17.288875596788586],[103.73908989800051,17.28736111111145],[103.74032470702824,17.285733778212077],[103.74207628037905,17.284050835503947],[103.74238009982341,17.283424750434392],[103.74234673393815,17.281791720920467],[103.74098578558741,17.28181939019133],[103.73989176431988,17.28107774522607],[103.73956488714967,17.28007080078153],[103.73959716796591,17.278484157986426],[103.73872504339991,17.277334526910053],[103.73601453992765,17.27645507812541],[103.73541937933734,17.275570203993396],[103.73766086154208,17.272616102431],[103.74153320312209,17.271672092014242],[103.74255886501433,17.27114393446206],[103.74204264322626,17.268474934896247],[103.74038791232371,17.26904134114625],[103.73777994791371,17.268988172743406],[103.73619303385115,17.26939480251761],[103.7351416015596,17.268153754340773],[103.73570800780968,17.266499023437802],[103.7356895616289,17.263646375868348],[103.73408040364293,17.262591688368346],[103.73364935980615,17.260822482639227],[103.7349254014728,17.258939887153147],[103.73765190971918,17.257864583333657],[103.73763292100395,17.256936035156542],[103.73590738932009,17.25651529947949],[103.7328762478268,17.254953884548982],[103.73141004774024,17.25606662326429],[103.72961344400758,17.257936469184344],[103.72901394313945,17.257627495660074],[103.72903428819157,17.256620008680898],[103.73133327907689,17.253881293403126],[103.73200873480604,17.252489691840708],[103.7308517795108,17.251731228299036],[103.7295751953097,17.250402560764286],[103.72959743923329,17.24931369357668],[103.72918565537893,17.248917914496857],[103.72687608506666,17.248006998698415],[103.72621961805257,17.247323676215558],[103.72627414279216,17.244649522569745],[103.72608208550068,17.24403049045165],[103.7217564561603,17.248791775173956],[103.71843695746256,17.24986897786492],[103.71754937065671,17.249850802951784],[103.71653049044849,17.249275716146144],[103.71794596353882,17.247915581597596],[103.71957926432012,17.24454915364626],[103.72178439669838,17.242430555556055],[103.7248744032087,17.241519639757357],[103.72765842013584,17.241518825955353],[103.72763590494489,17.240402832031677],[103.72569715711504,17.23925374348994],[103.72712076822646,17.237886284722563],[103.72908745659444,17.237926432292014],[103.73105143228887,17.238937988281563],[103.73291937933729,17.239302842882395],[103.73458062065706,17.240697157118376],[103.73557047525739,17.24101833767395],[103.73654188367769,17.240686035156543],[103.73652072482335,17.239657931857963],[103.73427842881662,17.237057834201664],[103.73319173176785,17.23653049045184],[103.7311070420977,17.234732801649585],[103.73069878471924,17.232846679687768],[103.73267957899006,17.232086046007282],[103.7345456271672,17.232724880642778],[103.73605278862547,17.22974555121553],[103.73711480034413,17.228725043403045],[103.73852511935459,17.228753797743565],[103.74062581379914,17.230890028212073],[103.74152506510117,17.230393608941228],[103.7396487087644,17.227920735677387],[103.7392686631915,17.226362847222518],[103.73759006076094,17.225548502604468],[103.73792751735826,17.224562445746884],[103.7404220920109,17.22290825737882],[103.74512695312208,17.222902832031536],[103.74625678168096,17.22376003689277],[103.74681939018811,17.22317437066002],[103.74680067274002,17.222257486979473],[103.74564995659452,17.221503092448273],[103.74430311414622,17.22153076171898],[103.74305772569144,17.220889214410008],[103.74385036892099,17.219720052083673],[103.7474118381048,17.21844780816005],[103.74976264105615,17.218495822482964],[103.75164062499695,17.21811116536489],[103.75458414713248,17.220700412326707],[103.75485839843466,17.220209689670597],[103.753747016056,17.21764133029538],[103.75376112195889,17.216961263021147],[103.75520236544847,17.215061848958584],[103.7564038085907,17.215473090278152],[103.75938476562195,17.215412326389213],[103.76014729817408,17.212625054253806],[103.76291802300037,17.21152289496561],[103.7659884982609,17.215430501302436],[103.76741427951114,17.215426161024695],[103.76819173176776,17.214988335503875],[103.76637369791362,17.21364040798646],[103.7650675455699,17.212281087239916],[103.76544731987545,17.21117160373298],[103.76734076605626,17.209352213542033],[103.7704679361951,17.211567111545435],[103.77096950954595,17.211487087673902],[103.77039713541356,17.20981526692735],[103.76765353732335,17.207748752170446],[103.76707953558727,17.205138346354573],[103.76747260199355,17.204375271267722],[103.77001546223673,17.204896104601076],[103.77046929253189,17.206758083767667],[103.77147515190674,17.208241916233007],[103.77237467447614,17.211561957465605],[103.77251790364298,17.213469509548915],[103.77374728732363,17.21263617621574],[103.77458604600392,17.212363823785083],[103.77489149305254,17.212045898437708],[103.77485487195898,17.210254991319815],[103.7740250651012,17.209030490451724],[103.77342095268793,17.206666666666933],[103.77377902560485,17.20562038845513],[103.77624945746251,17.20457953559061],[103.77738091362542,17.204857855903086],[103.77736626518791,17.20308430989614],[103.78007188584772,17.20220621744815],[103.77958062065684,17.20125271267399],[103.77930826822612,17.199858398437826],[103.77837890624696,17.197993706597515],[103.77409423827825,17.195850694444715],[103.77286376952841,17.19627170138922],[103.77122829860829,17.197380642361423],[103.77059814452835,17.1986791992192],[103.76975911458035,17.199025065104564],[103.76930826822607,17.197636176215596],[103.76865614149025,17.196673990885785],[103.76685845268818,17.196090494791946],[103.76452365451078,17.196518012153092],[103.76290852864301,17.19568603515674],[103.76231933593468,17.19569824218776],[103.76108696831287,17.19698106553851],[103.76237711588251,17.197826877170357],[103.76235460069157,17.198923882378807],[103.76041395399002,17.199302842882318],[103.75972032334792,17.19966010199687],[103.7618028428789,17.203065049913562],[103.7609491644935,17.20347927517396],[103.76013102213241,17.20433078342046],[103.7600865342853,17.208394368490048],[103.75934922959797,17.20958062066005],[103.7573139105875,17.207871907552416],[103.75497667100396,17.206339518229427],[103.75347493489292,17.202937282986483],[103.7562527126706,17.199863823785023],[103.75652506510116,17.19924180772601],[103.7531274414034,17.197641601562793],[103.7517781575493,17.199914550781585],[103.75086859808752,17.20078830295175],[103.75010877820895,17.20039686414958],[103.74928900824344,17.19870713975726],[103.74833333333035,17.193888888889205],[103.74607964409441,17.19403971354197],[103.7448472764726,17.194875217014243],[103.74487467447628,17.19621744791702],[103.74832112629898,17.199994032118383],[103.74618353949361,17.202540418837117],[103.74486382378191,17.203224283854524],[103.74627007378163,17.20457519531287],[103.74624593098676,17.205758463541954],[103.74430257161171,17.20762559678846],[103.7443212890594,17.208550889757277],[103.7449283854136,17.210324435764136],[103.74403049044835,17.21180826822966],[103.74303765190686,17.212913953993407],[103.74179172091706,17.212069227430845],[103.74097493489305,17.212919379340605],[103.7402652994763,17.213263888889216],[103.73956407334785,17.212902560764206],[103.73859320746217,17.211252712673883],[103.73721435546568,17.212187500000354],[103.73594889322626,17.21122748480937],[103.73540310329557,17.210102810330227],[103.73543240017094,17.208671332465627],[103.73624728732332,17.206093207465642],[103.7354063585042,17.20485270182317],[103.73461317274021,17.204868977864848],[103.73429551866022,17.20746799045176],[103.73337022569163,17.211078559028152],[103.73221544053555,17.21152506510444],[103.7315082465249,17.206465657552414],[103.73018934461524,17.20390516493093],[103.7277617730006,17.20268961588569],[103.72594726562218,17.20122477213566],[103.72457519530971,17.202652994791976],[103.72458658853876,17.20321967230943],[103.72809434678535,17.205519476996912],[103.72888861761865,17.208777669271115],[103.72846516926793,17.210430772569808],[103.72759711371233,17.210412868923953],[103.72653049044843,17.209302571614927],[103.7258018663168,17.209317491319695],[103.72457492404206,17.21014919704895],[103.72459526909424,17.21114257812529],[103.72582600911156,17.212958170573316],[103.72624728732356,17.21597493489611],[103.72680826822634,17.21680284288236],[103.72733100043123,17.218946940104445],[103.72643391926803,17.22027045355945],[103.7242309570282,17.22115804036484],[103.72244059244494,17.222516547309382],[103.72098036024002,17.2240364583337],[103.72040283202827,17.22402479383713],[103.71956895616037,17.222341579861464],[103.71771620008397,17.222354058160036],[103.71658827039644,17.220633951823302],[103.71344156900759,17.218162977430993],[103.71348225911166,17.21616943359406],[103.7140964084173,17.213774142795543],[103.71486382378171,17.21264160156275],[103.71596950954583,17.209426540799],[103.71497151692412,17.207954372830315],[103.7141406249971,17.207641601562855],[103.71339925129914,17.211452365451834],[103.70986924912907,17.211797146267727],[103.7092917209171,17.212094726562796],[103.7093023003442,17.21432969835098],[103.70816975911148,17.214858398437883],[103.70545979817413,17.21322781033024],[103.70403049044856,17.214462348090706],[103.7053811306395,17.216454806857925],[103.70449327256657,17.217764756944902],[103.70489095051786,17.21846950954908],[103.70596978081292,17.217913682726035],[103.70678141275758,17.21793023003498],[103.70824517143811,17.21733669704892],[103.7098752170111,17.217369791666997],[103.70984727647269,17.21873643663237],[103.71041937933742,17.219580620660025],[103.71069173176798,17.221048448351155],[103.707447916664,17.222253689236553],[103.70670600043101,17.22302598741352],[103.70779188367752,17.22513346354198],[103.70641954209785,17.226942003038545],[103.70510362412895,17.22736897786497],[103.70348605685459,17.227335883246994],[103.7016343858476,17.229802517361378],[103.69801215277474,17.22777750651082],[103.6961971028617,17.229666612413638],[103.69558512369505,17.230928276910063],[103.69324788411157,17.231587456597524],[103.69089002820888,17.231254611545467],[103.68819688584787,17.232641872830158],[103.68731852213241,17.232648383246982],[103.68608506944159,17.23328369140667],[103.68569715711524,17.233906792535137],[103.68933051214972,17.2361067708337],[103.69029703775746,17.235608723958748],[103.69221896701097,17.236911349826727],[103.69263617621223,17.238197157118393],[103.69326090494499,17.239118923611386],[103.70002631293116,17.23959201388928],[103.70126383463256,17.240430772569653],[103.70206976996232,17.24373697916704],[103.70264919704576,17.244591742621807],[103.70319715711511,17.24458034939269],[103.70430365668105,17.245330674913603],[103.70513617621228,17.246279839410207],[103.704302842879,17.247080620660142],[103.70402506510143,17.248219943576686],[103.70259711371241,17.248190646701715],[103.70153049044856,17.247080620660142],[103.70030490451094,17.246277126736388],[103.69843885633381,17.246915961371897],[103.695651312931,17.246344943576716],[103.69398491753182,17.247609320746875],[103.69084147135132,17.24824300130237],[103.6916550021671,17.249822319878817],[103.69537489149016,17.250186089410022],[103.69745334201085,17.251594780816305],[103.69735785589992,17.256269531250254],[103.69656955294855,17.257026909722555],[103.6951942274276,17.25609456380235],[103.69443901909423,17.25145480685792],[103.69354112412898,17.251917317708788],[103.6931949869763,17.254043511285104],[103.69174641926801,17.25543538411499],[103.68870822482356,17.25542046441022],[103.6875279405352,17.256648763021133],[103.68822211371227,17.257673068576793],[103.68986952039651,17.25847222222255],[103.68985107421574,17.25938612196208],[103.68764539930251,17.261505262587093],[103.68736382378168,17.26210530598989],[103.69097303602123,17.264221462673987],[103.69344455294836,17.2633753797746],[103.69398030598674,17.26502685546903],[103.69230821397284,17.26827229817738],[103.691513671872,17.269035915798966],[103.69069986978886,17.26901936848992],[103.68983072916362,17.26960856119824],[103.68828396267085,17.271967773437765],[103.68653049044858,17.272668728299024],[103.68758707682005,17.273683810764226],[103.68991292317432,17.27290364583378],[103.69072509765337,17.272920193142724],[103.69154161241042,17.27377007378513],[103.69151801215,17.274920789930874],[103.69061876084797,17.276666666667026],[103.69105523003188,17.2775138346357],[103.69294650607353,17.27625271267408],[103.69489013671571,17.2772539605037],[103.69482666015321,17.274148220486367],[103.69515218098681,17.27287814670173],[103.6951451280353,17.27136420355933],[103.69696234808717,17.27097493489633],[103.69819417317402,17.271809895833613],[103.69908908419833,17.27134901258711],[103.70152506510126,17.273197157118304],[103.70264024522285,17.273754882812824],[103.70319173176782,17.272875976562815],[103.69996907551777,17.269779730903224],[103.70375271267054,17.26486382378505],[103.705340169268,17.261988932292013],[103.70795735676788,17.2595860460073],[103.71006944444159,17.26172254774336],[103.71406656900731,17.259530978732926],[103.71596950954583,17.26097520616355],[103.71707004122973,17.26098036024338],[103.71826361761865,17.2605718315977],[103.7215747070284,17.257659233941226],[103.72251112195889,17.258633897569695],[103.72303385416379,17.261311306423963],[103.72430826822634,17.26319173177113],[103.7253993055526,17.26604899088578],[103.72339355468463,17.267975802951682],[103.71832004122976,17.268684082031598],[103.71708875867759,17.26805013020865],[103.71478624131655,17.26748860677121],[103.71283365885111,17.266304524739937],[103.70956949869512,17.269044596354433],[103.70958658853877,17.269875217014246],[103.71043619791382,17.269857855903112],[103.71147840711504,17.268773057725966],[103.71251790364275,17.268197157118408],[103.71536973741021,17.269849446615098],[103.71695990668096,17.270365668403073],[103.71976996527476,17.27247884114618],[103.72041395399017,17.273556586371953],[103.71923773871251,17.27699273003516],[103.72107394747965,17.281161295573426],[103.72252224392074,17.279653591580214],[103.72350721570879,17.280161132812808],[103.72402506510113,17.281279839410033],[103.72341118706302,17.282471516927416],[103.7237768554659,17.283539496528164],[103.72502604166365,17.284302842882298],[103.72709282768793,17.28346435546902],[103.72821370442406,17.284041883681027],[103.72874728732361,17.285141601562856],[103.73041937933718,17.28708062066005],[103.73141791449379,17.28905137803858],[103.73180284287898,17.291808268229644],[103.73309326171571,17.29412217881989],[103.73197021484069,17.29740288628514],[103.73078830294841,17.29941541883713],[103.72896484374698,17.300300021701688],[103.72634195963238,17.299762912326756],[103.72455810546577,17.300219997830155],[103.72375271267057,17.301351996528055],[103.72516547308723,17.302278103299145],[103.72852050780952,17.30293240017413],[103.73300021701098,17.30546386718774],[103.73583902994486,17.308295084635702],[103.73798448350394,17.30675211588577]],[[103.74899793836519,17.213759223090605],[103.74942138671568,17.213038736979485],[103.74873453775754,17.21209879557327],[103.74816107855602,17.210546875000418],[103.74829779730621,17.2094463433164],[103.750678982202,17.207901204427486],[103.7523456488685,17.207345648871794],[103.7530555555526,17.207222222222626],[103.7532847764729,17.20750840928858],[103.75619683159417,17.20873535156285],[103.75769341362539,17.20993245442733],[103.75817898220183,17.210887044271203],[103.75613226996248,17.213446180555877],[103.75374728732336,17.214128146701825],[103.75297960069159,17.213169216580113],[103.7524899631047,17.21323025173642],[103.75209879556988,17.214598795573167],[103.75165500216733,17.215123426649612],[103.74899793836519,17.213759223090605]]]]},"properties":{"id":"1898"}}]}