{"type":"FeatureCollection","features":[{"type":"Feature","geometry":{"type":"MultiPolygon","coordinates":[[[[76.44550659179711,25.93144124348983],[76.44496297200536,25.929926486545327],[76.44502237955763,25.928930392795266],[76.44473008897594,25.92860324435786],[76.44360324435777,25.92834120008696],[76.4430735948354,25.92539171006949],[76.44152777777802,25.922361111111215],[76.43795220269126,25.922666286892394],[76.43721435546885,25.923325466580025],[76.43598863389767,25.926680230034975],[76.43528564453132,25.927785644531355],[76.43320298936655,25.929413519965365],[76.43371880425363,25.930537109375237],[76.43462036132846,25.930590820312702],[76.4363777669274,25.929784342447945],[76.43772637261301,25.92834120008696],[76.44110907660635,25.928653700086883],[76.4421428765194,25.929577365451436],[76.44277398003479,25.930569661458478],[76.4438068305125,25.93000840928832],[76.44418877495693,25.931434461805722],[76.44411119249148,25.93273573133696],[76.44519680447073,25.93332546658],[76.44550659179711,25.93144124348983]]]]},"properties":{"id":"18872"}}]}