{"type":"FeatureCollection","features":[{"type":"Feature","geometry":{"type":"MultiPolygon","coordinates":[[[[80.58287251790355,25.120693359375394],[80.5858280436199,25.118883463542005],[80.58670084635398,25.118607313368443],[80.58729044596348,25.117970920139214],[80.58721571180533,25.116086697048942],[80.58799065483916,25.115368381076735],[80.58871860080265,25.116910807292015],[80.58971693250865,25.11714572482677],[80.5891259087455,25.1154595269101],[80.59056125217015,25.11500542534762],[80.59054328070741,25.114550781250486],[80.58777248806436,25.114172092014343],[80.58726528591572,25.11256998697948],[80.5858280436199,25.112227647569867],[80.58528306749102,25.111034613715674],[80.58584886338943,25.10942057291706],[80.58583991156652,25.107751193576775],[80.58834275987388,25.106490342882267],[80.59333862304683,25.105838758681088],[80.59388359917531,25.104439019097654],[80.59432176378007,25.10403320312544],[80.59402777777777,25.103194444444895],[80.59277248806401,25.10332790798644],[80.59193067762587,25.104236653646225],[80.59196417914498,25.105080837674066],[80.58909071180548,25.10470648871575],[80.58730143229141,25.103894314236612],[80.58303310818135,25.1067957899309],[80.58310451931399,25.108596462674157],[80.58246093749992,25.109192708333765],[80.58083828396244,25.10912814670172],[80.58010715060757,25.10991753472271],[80.57943691677517,25.11166558159752],[80.57999376085061,25.113254123264355],[80.57888319227416,25.11360568576427],[80.57895392523844,25.115390625000416],[80.5785846625432,25.116444227431046],[80.57556084526883,25.119408094618365],[80.57656148274728,25.11999457465322],[80.5777882215709,25.11915039062538],[80.57846605088955,25.119177517361436],[80.58287251790355,25.120693359375394]]]]},"properties":{"id":"9500"}}]}