{"type":"FeatureCollection","features":[{"type":"Feature","geometry":{"type":"MultiPolygon","coordinates":[[[[105.13475443522029,14.412737698025666],[105.13605565388863,14.412292277018665],[105.139659745957,14.412660658095149],[105.14986277262258,14.412611151801599],[105.15202387491738,14.410361870660168],[105.15392856173915,14.406435885959624],[105.15827431572691,14.403032701280935],[105.16014470418165,14.402298923069054],[105.1608627658409,14.40150878906293],[105.16029000176192,14.400958455404108],[105.15930277506394,14.400978597005647],[105.1563911946603,14.40208055284343],[105.15516292995764,14.401447821723565],[105.15119272867699,14.403493041992718],[105.14980599297306,14.403464762370248],[105.15086276584069,14.40038675944065],[105.15029859754665,14.39929158528706],[105.14867785983503,14.399324679905035],[105.14850443522002,14.396666666667258],[105.14729699028751,14.396430935330415],[105.14528496636174,14.394904242622061],[105.14458214653754,14.397070041233192],[105.14302644517588,14.396015489366818],[105.14170166015506,14.397836642795596],[105.14478498670675,14.400169677734965],[105.14474553425967,14.402103000217522],[105.14225721571066,14.403752780490976],[105.14139638264842,14.404024997287905],[105.1397572157106,14.402913886176691],[105.13890131632357,14.402641669379861],[105.13891520182156,14.405844455295622],[105.13804036458222,14.406268853082139],[105.13669118245318,14.406241319444902],[105.13518890380735,14.407015245226233],[105.132124888101,14.405066392687061],[105.13009806314986,14.402956882053417],[105.12755967881813,14.40467753092507],[105.13118476019847,14.411877848307753],[105.13475443522029,14.412737698025666]]]]},"properties":{"id":"10351"}}]}