{"type":"FeatureCollection","features":[{"type":"Feature","geometry":{"type":"MultiPolygon","coordinates":[[[[77.89139843750016,23.297877929687587],[77.89077343750014,23.2974414062501],[77.89030859375023,23.297558593749983],[77.88984765625011,23.297808593750148],[77.88931640625017,23.297428710937567],[77.88924999999998,23.296500000000165],[77.88855859375016,23.296558593750106],[77.88831640625014,23.296691406250133],[77.88732031250007,23.296845703125044],[77.88730078125022,23.29718261718766],[77.88830859375005,23.298316406250024],[77.88819140625017,23.298816406250097],[77.88780859375007,23.29930859375],[77.88769140624996,23.29981640625006],[77.88705859374991,23.30055859375004],[77.88683593750014,23.301043945312628],[77.88656640624995,23.30119140625014],[77.88605859375005,23.301308593750193],[77.88556640624998,23.30169140625003],[77.88519140625002,23.30186328125012],[77.88530859375001,23.30294140625007],[77.88544140625018,23.303183593749992],[77.88555859375006,23.303691406249953],[77.88569140625012,23.303933593750045],[77.88584765625004,23.304607421875076],[77.88670312500014,23.305308593750127],[77.88769140624996,23.305191406250074],[77.88793359375003,23.305058593750047],[77.88841406250006,23.304838867187684],[77.88869140625016,23.304441406250106],[77.88881640624996,23.30181738281263],[77.88918359375018,23.301558593750002],[77.88944140625014,23.301441406249864],[77.88993359375004,23.301058593750113],[77.8904062500001,23.300842773437466],[77.89055859375006,23.30018359375019],[77.89069140625017,23.2999414062501],[77.89080859375017,23.299433593750038],[77.89155859374992,23.29855273437518],[77.89139843750016,23.297877929687587]]]]},"properties":{"id":"26937"}}]}