{"type":"FeatureCollection","features":[{"type":"Feature","geometry":{"type":"MultiPolygon","coordinates":[[[[80.47912550184432,23.74980821397601],[80.47961466471347,23.74919731987866],[80.48146870930978,23.749297553168773],[80.48262559678798,23.74837103949676],[80.4824568684896,23.74701416015641],[80.48442905002153,23.74618313259569],[80.4841820610894,23.74581800672766],[80.48276238335475,23.7455708821617],[80.48162163628459,23.74473754882824],[80.48000583224817,23.74578084309931],[80.47844828287751,23.745974527995074],[80.47723761664494,23.74407145182313],[80.47748460557702,23.742206895616548],[80.47797254774295,23.740937500000285],[80.47736111111115,23.73958333333357],[80.4758789062499,23.73976874457486],[80.47475402832006,23.740669487847455],[80.47551737467418,23.74677924262174],[80.47390428331155,23.74758870442733],[80.47606499565947,23.750046115451596],[80.47723761664494,23.750540228949802],[80.47758870442672,23.75137356228325],[80.47928073459187,23.751055772569686],[80.47912550184432,23.74980821397601]]]]},"properties":{"id":"19550"}}]}