{"type":"FeatureCollection","features":[{"type":"Feature","geometry":{"type":"MultiPolygon","coordinates":[[[[101.71026543511297,14.385426093207585],[101.70665323893232,14.381499091254454],[101.70744154188347,14.380741644965397],[101.70942084418405,14.380419447157308],[101.71167643229163,14.378998616536776],[101.7133151584201,14.376788058810845],[101.71330362955726,14.37621941460516],[101.71205702039916,14.375000000000142],[101.70989515516496,14.376169162326562],[101.70742323133683,14.375535685221479],[101.70636528862835,14.376252780490603],[101.70458875868056,14.376599595811854],[101.70087578667537,14.380084364149567],[101.70359619140609,14.385430636935922],[101.70564086914058,14.38538886176228],[101.7069399685328,14.386269463433422],[101.70772800021709,14.387893812391695],[101.70948689778643,14.390250786675537],[101.7102990722656,14.389832356770938],[101.71026543511297,14.385426093207585]]]]},"properties":{"id":"10354"}}]}