{"type":"FeatureCollection","features":[{"type":"Feature","geometry":{"type":"MultiPolygon","coordinates":[[[[108.35112023400009,12.81612023400001],[108.35193110700024,12.815062815000005],[108.3539693980002,12.815143605000117],[108.35652841200019,12.816194738000135],[108.35687593800006,12.817653714000059],[108.35737023500022,12.817120234000143],[108.35775953300018,12.81675953100006],[108.35824046700029,12.816240469000192],[108.35888929700022,12.81563929700009],[108.35937023500006,12.815120234000318],[108.35962976500022,12.814879766000217],[108.36026971100031,12.813888756000111],[108.36167532300018,12.813629766000275],[108.36283324400014,12.814242480000246],[108.3631202350002,12.813547134000089],[108.36233210800034,12.812057716000226],[108.36187023500023,12.811629766000252],[108.36142686500014,12.811151247000183],[108.36250426500018,12.809585533000131],[108.36437035400004,12.809659498000215],[108.36481537600017,12.808253870000172],[108.36758590700018,12.80703940400005],[108.36887976500029,12.806629766],[108.36954175200029,12.806279476000057],[108.37037023500025,12.804870234000163],[108.37128812400019,12.803673256000067],[108.37293101500032,12.80261235600004],[108.37340836000001,12.802631277000188],[108.3740560680001,12.803330332000115],[108.37437023500021,12.80456618100014],[108.37337023500024,12.805870234000224],[108.37262976500026,12.807083855000187],[108.37412976500016,12.807370234000246],[108.3748382800002,12.807745144000009],[108.37512023500008,12.810294338000247],[108.37435593800015,12.81215504100011],[108.37333760500027,12.812635634000259],[108.37263929700012,12.813389297000086],[108.37211322400023,12.8138767290001],[108.37267532300021,12.814120234000171],[108.37370800400018,12.813573791000252],[108.37524847400013,12.813634849000152],[108.37511206800022,12.817076288000067],[108.37515696000017,12.817370234000052],[108.37562023500007,12.816870234000064],[108.37587976500024,12.816629766000062],[108.37662023500022,12.815620234000207],[108.37723040800014,12.81537976600002],[108.37940385400029,12.81614154900008],[108.37994036100028,12.817278357000177],[108.38037023500013,12.81580631500006],[108.37974046700006,12.814009531000252],[108.37937976500027,12.812120234000162],[108.37887023500022,12.811379766000172],[108.37862976500028,12.809933819000179],[108.37962976500015,12.80862976600001],[108.37987023500014,12.807370234000246],[108.38015018800033,12.806571499000157],[108.38166985700022,12.806631733000074],[108.38322156500018,12.807699493000044],[108.38362023500011,12.808129766000206],[108.38461292600019,12.809049545000022],[108.38487023500014,12.81012976600023],[108.38524715800017,12.810842083000182],[108.38712023500014,12.81092292800021],[108.38520039000022,12.808132942000114],[108.38487976500025,12.807120234000166],[108.38435078400008,12.805610991999998],[108.3843988150002,12.804399122000092],[108.3840563160002,12.803879766000108],[108.38227361700015,12.804504595000196],[108.38072091700022,12.803240959000092],[108.38004790900013,12.800826582000255],[108.38043351700023,12.799726402000005],[108.38035961200032,12.797861715000266],[108.38090880600029,12.797352859000256],[108.38084739300027,12.795803516000234],[108.38005851400018,12.79507257800006],[108.37756332800015,12.794282597000148],[108.37788177500013,12.793374031000113],[108.3771086350001,12.791912930000194],[108.3771568110001,12.790697399000251],[108.37687023500027,12.789879765000194],[108.37662235300022,12.78780827700021],[108.3753309360001,12.786611717000241],[108.37539855600019,12.784905743000039],[108.3747225110001,12.7836281390002],[108.3743797650001,12.781120235000273],[108.3737394670002,12.778527130000114],[108.37114308100016,12.778630039000191],[108.37001383500015,12.778585281000318],[108.3692728460002,12.77909516900013],[108.36868272700016,12.779373672000261],[108.36500679800022,12.78036402000022],[108.36272251600022,12.780114177000073],[108.35997423800009,12.779578798000188],[108.35872502100014,12.779186187000292],[108.35725000000022,12.778500000000278],[108.35687023500012,12.77862023500009],[108.35504570800006,12.779416447000244],[108.35323577300025,12.779344707000178],[108.35287976600003,12.780193684000253],[108.35341571400014,12.781722801000114],[108.35337004500016,12.782875000000146],[108.35339121200033,12.78340903900002],[108.35575586700023,12.78331531100008],[108.35612023500025,12.784212048000114],[108.354625158,12.785597309000067],[108.35437976600011,12.786739658000172],[108.35571204600004,12.787120235000131],[108.35772003200029,12.786594086000207],[108.35865943100012,12.786631321000172],[108.35861928900025,12.787644062000041],[108.35657310900027,12.788131458000223],[108.35587976500008,12.788879765000232],[108.35480631600015,12.789870235000109],[108.35332799900007,12.789352089000047],[108.35237500000008,12.789389862000249],[108.3518750000002,12.789370045000112],[108.35098319800014,12.789405392000106],[108.34925000000018,12.790012871000286],[108.34809614600024,12.78960845200021],[108.34704941200008,12.787390518000024],[108.3474126450001,12.786004284000072],[108.34837976600002,12.785379765000187],[108.34863887800012,12.785100113000226],[108.34859815000024,12.784072578000291],[108.34812023400028,12.783629765000256],[108.34696044500018,12.781656975000004],[108.34635170700025,12.781379765000253],[108.34571093600024,12.78273750300005],[108.34437023400008,12.783370235000277],[108.34353167900017,12.78381395300012],[108.34282467800008,12.78412023500006],[108.34159404599998,12.783469048000185],[108.34163089900008,12.784398827000288],[108.34296097900008,12.785026546000182],[108.34546604200025,12.784148533000092],[108.34587023400027,12.785313046000084],[108.34454398300025,12.786169472000068],[108.34303345100003,12.786647709000107],[108.34212976600023,12.787879765000085],[108.34180851400012,12.788177422000203],[108.34065566300032,12.788721500000278],[108.34037415300011,12.789903328000193],[108.3392480550003,12.790946716000093],[108.3388797660003,12.792167000000163],[108.34005614100019,12.793876549000132],[108.33955792000026,12.795298023000143],[108.33724046900008,12.795740467000158],[108.33537976600022,12.796879766000288],[108.33472275400007,12.797189837000275],[108.33435460400014,12.798735401000258],[108.33439258000024,12.799693544000121],[108.33548703100016,12.800120234000346],[108.33621091600034,12.797833815000175],[108.33917560400025,12.79795132300012],[108.34012023400024,12.797620233999993],[108.34154840900018,12.797280046000182],[108.3426576330003,12.795562321000162],[108.34352297600023,12.79192945500023],[108.34528030800024,12.791629765000039],[108.34652389500027,12.792485504000226],[108.34687027900017,12.795380142000198],[108.3471797830002,12.79536787400015],[108.34902004800014,12.794394100000048],[108.35035901300014,12.794075161000038],[108.35242200100024,12.79335208900008],[108.35316932500027,12.793381710000133],[108.35306092800025,12.796116493000184],[108.3522240200002,12.797332718000277],[108.34983800100011,12.797658806000257],[108.34913929700022,12.79913929700028],[108.34838079600016,12.80057273100013],[108.34962976600005,12.800870234000143],[108.35048820500018,12.80146094300008],[108.35087023400027,12.803240168000215],[108.34961045300011,12.804882990000152],[108.3496345620002,12.805491215000117],[108.35112976600024,12.806370234000198],[108.3519373870001,12.806925976000088],[108.35186299900008,12.808802786000214],[108.34944293800012,12.809188303000127],[108.34912976600017,12.809971983000139],[108.35279652600033,12.810556099000237],[108.35399084500003,12.809924126000269],[108.35446129800025,12.808927277000208],[108.35436259700012,12.80643706900004],[108.35357115200011,12.804510273000133],[108.35387976600023,12.8036297660002],[108.35420039000022,12.80261705800008],[108.35487976600021,12.801629766000104],[108.35537023400028,12.800870234000143],[108.35594503000024,12.800598965000262],[108.35662023500007,12.799870233999997],[108.3574230730002,12.7996160550002],[108.35891178900002,12.798591640000168],[108.35978091800027,12.796750029000208],[108.36037976500009,12.795879765000137],[108.36134952200021,12.794378017000227],[108.3626753230001,12.793879765000042],[108.36378351600027,12.794466167000067],[108.3641951940003,12.796194458000244],[108.36512023500009,12.795870235000066],[108.36594833800021,12.795608055000045],[108.36723886100023,12.794925175000202],[108.3676202350002,12.796129765000046],[108.3678933370002,12.796908955000205],[108.3690190620002,12.796864336000155],[108.36937023500022,12.796120235000231],[108.37080370700025,12.794358845000062],[108.37137023500023,12.794443684000072],[108.37074046700033,12.796240467000231],[108.37002729000014,12.798493078000092],[108.36952765300023,12.798956017000123],[108.36647594500008,12.800396242000176],[108.36603177600031,12.801337393000153],[108.3640707210001,12.801884035000086],[108.36337976500013,12.802629766000067],[108.36208300000024,12.803370234000042],[108.36039254400018,12.80220699700017],[108.36007595800018,12.804523483000253],[108.35822013100037,12.804965538000062],[108.35753012500018,12.806034065000091],[108.35711988100022,12.809462374000162],[108.3553787540001,12.811075617000242],[108.35512550700022,12.812402075000207],[108.35451973700006,12.812963349000015],[108.35287824800017,12.81261991700002],[108.35233210900006,12.812641563000213],[108.35163929700033,12.813389297000086],[108.35086070300028,12.814110703000182],[108.35023411400024,12.814786963000088],[108.3498797660001,12.81737976600013],[108.34937023400025,12.818120234000105],[108.34912976600017,12.818512053000205],[108.34994228400015,12.81808210900006],[108.3504560170002,12.817527653000283],[108.35112023400009,12.81612023400001]]]]},"properties":{"id":"6576"}}]}