{"type":"FeatureCollection","features":[{"type":"Feature","geometry":{"type":"MultiPolygon","coordinates":[[[[78.7761409505213,25.089719509548644],[78.77694363064259,25.08888400607637],[78.77806966145883,25.0891634114584],[78.7780585394971,25.088052842882007],[78.7777712673616,25.08721408420145],[78.77721950954898,25.087224934895843],[78.77694715711843,25.086097547743137],[78.77825792100734,25.08546169704873],[78.77973822699701,25.085840928819422],[78.78041395399336,25.087233615451495],[78.78128499348995,25.08721571180554],[78.78194824218795,25.084165581597233],[78.78137858072952,25.083325195312497],[78.78083062066011,25.083336046006963],[78.7802804904517,25.082941080729242],[78.78062689887187,25.081669379340426],[78.78388264974004,25.083489583333375],[78.78471950954898,25.083041992187546],[78.78139160156283,25.081152886284727],[78.78333604600729,25.08083604600698],[78.7838861762157,25.080541992187634],[78.78137505425397,25.079152560763944],[78.78055826822961,25.08000271267362],[78.77859212239619,25.08110839843762],[78.77783745659755,25.080322808159735],[78.77745903862896,25.07838433159735],[78.77598714192763,25.07621310763895],[78.7743991427956,25.075825737847325],[78.77330268012187,25.075830078125065],[78.77084879557324,25.07332085503478],[78.7705582682294,25.069136827257026],[78.7720277235247,25.06772515190974],[78.7731030273442,25.067203233507115],[78.77499728732667,25.067181532118155],[78.77369710286487,25.065932617187656],[78.7709692382816,25.065162760416882],[78.76943332248314,25.06640299479173],[78.76856119791708,25.066385091145875],[78.76631076388915,25.069105360243057],[78.76470838758709,25.069733615451526],[78.76472520616349,25.070564236111167],[78.76387478298645,25.07054687500012],[78.76389241536484,25.069691840277898],[78.7667030164935,25.066648220486144],[78.76666151258704,25.064608832465282],[78.76555284288222,25.0627804904515],[78.76528049045172,25.06191351996526],[78.76728732638915,25.06194010416685],[78.76721652560818,25.05846679687511],[78.76615912543465,25.059011501736236],[78.76569444444468,25.0579166666667],[78.76471950954894,25.05945855034726],[78.76388617621572,25.059441731770946],[78.76305826822968,25.060002712673665],[78.76215711805608,25.05998426649326],[78.76096435546904,25.061593424479142],[78.75811604817741,25.063283962673637],[78.75774468316004,25.06518608940975],[78.75776963975719,25.069977213541762],[78.75875732421903,25.07347222222228],[78.75748155381976,25.07673502604176],[78.75750352647626,25.077809244791794],[78.75860839843793,25.08058539496527],[78.75805989583378,25.082018229166692],[78.75946261935806,25.081658528645946],[78.76113064236151,25.081669921875147],[78.76169731987878,25.0822596571181],[78.76234700520885,25.083599175347416],[78.76528049045172,25.083886176215373],[78.76916422526094,25.086391601562568],[78.77054741753508,25.08636338975697],[78.77209120008709,25.087891710069485],[78.77471218533017,25.088530815972362],[78.77687201605946,25.087791341145916],[78.77582872178849,25.089166124132035],[78.7761409505213,25.089719509548644]]]]},"properties":{"id":"9504"}}]}