{"type":"FeatureCollection","features":[{"type":"Feature","geometry":{"type":"MultiPolygon","coordinates":[[[[74.13592339409828,25.725617404514253],[74.1366512044278,25.723460557726227],[74.13541666666757,25.72236111111168],[74.13442898220572,25.72248453776085],[74.13348795572998,25.72368218316032],[74.1325599500876,25.723566623264276],[74.13165852864674,25.723913302951814],[74.13121663411542,25.723361545139298],[74.13012993706664,25.724000108507525],[74.1294599066849,25.7251193576393],[74.13140435112936,25.725540093316354],[74.13328884548699,25.7263536241325],[74.13509521484465,25.726651204427483],[74.13592339409828,25.725617404514253]]]]},"properties":{"id":"18916"}}]}