{"type":"FeatureCollection","features":[{"type":"Feature","geometry":{"type":"MultiPolygon","coordinates":[[[[82.23333957248272,27.770809326172483],[82.23044433593745,27.76854899088599],[82.2297896321613,27.767789171007507],[82.22820868598072,27.76718912760481],[82.22763888888872,27.76652777777835],[82.22680826822929,27.766679280599575],[82.22527832031241,27.767997368707213],[82.22501030815957,27.76917697482702],[82.22389919704855,27.76967285156313],[82.2241563585068,27.770288085938134],[82.2256296115452,27.771045735677703],[82.22621554904524,27.769732530382527],[82.22780124240435,27.77129462348158],[82.2313629828561,27.77176066080783],[82.23147867838551,27.77320122612916],[82.23084364149284,27.774339463976247],[82.23214680989568,27.77507541232704],[82.23271660698796,27.776352267795787],[82.23398044162352,27.776816406250745],[82.2349896918403,27.776100802951987],[82.23775092230912,27.77547349717942],[82.23785319010406,27.77420043945378],[82.23545355902783,27.773600667318263],[82.2338840060763,27.772617458767954],[82.23333957248272,27.770809326172483]]]]},"properties":{"id":"18525"}}]}