{"type":"FeatureCollection","features":[{"type":"Feature","geometry":{"type":"MultiPolygon","coordinates":[[[[71.28249430338545,33.17443956163214],[71.28569444444472,33.17097222222242],[71.28471693250853,33.171105821397774],[71.28284315321164,33.172542724609485],[71.2810287136501,33.17167195638041],[71.28111680772557,33.17389404296891],[71.28009921603714,33.174374186198094],[71.27905185275588,33.17381998697931],[71.27785556369363,33.172528889974274],[71.27721693250871,33.172227511936015],[71.27661078559018,33.17083862304713],[71.27476216634093,33.17177110460098],[71.27444973415797,33.172931043836925],[71.27611640082469,33.1733280436201],[71.2773664686413,33.17398952908002],[71.27917873806413,33.17594550238735],[71.27914055718318,33.176909315321424],[71.28141479492174,33.17721693250897],[71.28252651638437,33.175252278646],[71.28249430338545,33.17443956163214]]]]},"properties":{"id":"16719"}}]}