{"type":"FeatureCollection","features":[{"type":"Feature","geometry":{"type":"MultiPolygon","coordinates":[[[[76.26295640733483,23.242145860460525],[76.26551296657979,23.241316189236528],[76.26724433051211,23.239132486979642],[76.26788967556402,23.237143690321616],[76.2693762207031,23.235302191840717],[76.26860839843724,23.234169379340727],[76.26833604600691,23.232497287326822],[76.26710476345457,23.230971815321567],[76.26583062065967,23.230558268229615],[76.26555826822911,23.230258789062916],[76.26640869140621,23.229441731771217],[76.26639227973081,23.226640353733146],[76.2675298394096,23.22611382378514],[76.2687727864583,23.226754150391102],[76.26944173177068,23.226277669271212],[76.2677151150173,23.224002278646225],[76.26806694878465,23.223319363064633],[76.26973632812476,23.223330213759112],[76.26971733940971,23.222397189670545],[76.26778049045114,23.221625840929136],[76.27115044487837,23.217738172743537],[76.2733303493923,23.216309000651478],[76.27388617621509,23.21538208007847],[76.27116916232617,23.215938585069992],[76.27069444444439,23.215138888889427],[76.26919962565083,23.21534762912377],[76.27028618706586,23.216391601563018],[76.27026787651911,23.217293158637702],[76.26902018229137,23.21777506510452],[76.26858479817682,23.215989040799087],[76.26790907118036,23.21555826822957],[76.2674715169268,23.21735337999165],[76.26750840928813,23.219161105686112],[76.26607435438362,23.221751030816293],[76.26444675021699,23.22331475151954],[76.26376736111112,23.224949951172377],[76.2626142035588,23.224356011285053],[76.26332980685757,23.222265218099366],[76.26202446831596,23.220836046007307],[76.2603280978731,23.223052842882353],[76.25995659722221,23.221149359809417],[76.2581884765622,23.220836046007307],[76.25860799153642,23.224180772569866],[76.25639160156246,23.224196506076723],[76.25721950954866,23.226133083767735],[76.25399224175342,23.22790066189266],[76.2527804904511,23.229196506076804],[76.25377861870632,23.230155571831887],[76.25587497287316,23.2308357747401],[76.25638617621505,23.231418728299033],[76.25325005425341,23.234497205946596],[76.25109727647552,23.235848795573304],[76.25112006293395,23.236964111328604],[76.253351236979,23.23842692057346],[76.25332912868933,23.239508327908425],[76.25143066406233,23.241332329644564],[76.24984212239585,23.240255533854608],[76.24932739257784,23.239194742838862],[76.24777506510392,23.23889160156287],[76.24597439236092,23.23738009982675],[76.24485351562495,23.23694715711848],[76.24444376627602,23.238628065321606],[76.24385145399307,23.239197184245228],[76.24233669704839,23.239932047526395],[76.24305284288195,23.242780490451835],[76.24416422526028,23.24442016601614],[76.24455607096334,23.246027832031643],[76.24686523437478,23.246478542752214],[76.24822943793387,23.247181396484947],[76.25916937934025,23.243613823785196],[76.26295640733483,23.242145860460525]]]]},"properties":{"id":"9679"}}]}