{"type":"FeatureCollection","features":[{"type":"Feature","geometry":{"type":"MultiPolygon","coordinates":[[[[79.2499845377607,24.903595750597404],[79.25069851345526,24.902618569268654],[79.2499845377607,24.901404249403726],[79.24952419704883,24.899793429905046],[79.24807834201411,24.89894354078561],[79.24630235460077,24.898722635905543],[79.24524251302105,24.899496858385348],[79.24392686631941,24.898723458184676],[79.24384060329871,24.89941491868811],[79.24459689670155,24.900450202094746],[79.24309326171877,24.900637240940227],[79.24240451388911,24.899777247111544],[79.241356608073,24.89933567471023],[79.24041666666668,24.898472222222765],[79.23920952690978,24.898682276408465],[79.23901312934035,24.900262120565372],[79.24019721137162,24.902211719089593],[79.2420621744794,24.903573922051848],[79.24352511935766,24.903569971720856],[79.2439702690975,24.903926315308112],[79.24456678602431,24.90534194098639],[79.24963080512148,24.90443514506076],[79.2499845377607,24.903595750597404]]]]},"properties":{"id":"19192"}}]}