{"type":"FeatureCollection","features":[{"type":"Feature","geometry":{"type":"MultiPolygon","coordinates":[[[[69.70393945312517,34.66443875122083],[69.70404882812508,34.663938751220854],[69.70356445312515,34.66418875122085],[69.70317382812507,34.66431124877943],[69.70268164062517,34.66405737304699],[69.70268945312503,34.66367343139652],[69.70293945312497,34.6631887512207],[69.70306054687521,34.662686248779536],[69.70318945312502,34.66243875122082],[69.70331054687497,34.66218624877929],[69.70402343750013,34.66133773803709],[69.70493945312515,34.66118875122078],[69.70532226562509,34.66092875671414],[69.70556054687498,34.66043624877953],[69.70568945312513,34.660188751220815],[69.70581054687514,34.65993624877929],[69.70619726562526,34.65942700195325],[69.70668945312516,34.65918875122068],[69.70793554687512,34.65806124877949],[69.708583984375,34.657903167724754],[69.70881054687496,34.657436248779376],[69.70894335937518,34.65717884826657],[69.70943945312516,34.65693875122068],[69.71068554687511,34.655811248779486],[69.71099218750001,34.65566275024415],[69.71131054687513,34.65529904174812],[69.71106054687496,34.6548137512208],[69.71093945312501,34.654116973877066],[69.71137890625002,34.65346644592299],[69.71181054687511,34.6536887512208],[69.71206445312501,34.65381124877938],[69.71256054687515,34.65418875122069],[69.71370117187516,34.654311248779536],[69.71418554687514,34.65406124877937],[69.71468945312503,34.65393875122088],[69.71493554687495,34.65381124877938],[69.71518945312513,34.6536887512208],[69.71543554687523,34.6535612487794],[69.71618945312517,34.65343875122072],[69.71643554687515,34.65331124877932],[69.71668945312504,34.653188751220725],[69.71706054687516,34.652957183837856],[69.71630468750007,34.65205479431155],[69.71631445312514,34.65152195739759],[69.7169023437502,34.651188751220886],[69.71756054687515,34.651688751220874],[69.71791796875013,34.65181124877945],[69.71806054687514,34.65093624877953],[69.71840234375006,34.65043875122083],[69.71906054687511,34.65093875122072],[69.71931054687516,34.651061248779314],[69.72006054687509,34.65034111022945],[69.71943554687496,34.65018875122067],[69.71907031250007,34.649999832153426],[69.71893945312505,34.647061248779465],[69.71881054687523,34.64681375122066],[69.71868945312517,34.64656124877931],[69.71856054687512,34.646313751220674],[69.71843945312517,34.645811248779424],[69.71781054687509,34.64506375122082],[69.71768945312519,34.64392404174815],[69.71793945312501,34.64343875122066],[69.71806054687514,34.6431862487793],[69.71820117187517,34.642914840698396],[69.71818554687516,34.64218124389643],[69.71768554687523,34.64193875122079],[69.71743945312514,34.641811248779476],[69.71649218750017,34.64168875122081],[69.71583203125013,34.64213563537609],[69.71568945312518,34.64331375122087],[69.715302734375,34.64382299804683],[69.71481054687516,34.64406124877948],[69.71381445312514,34.64493875122078],[69.71334765624991,34.64506124877944],[69.71258203125015,34.6444799041749],[69.71243945312503,34.64331124877934],[69.7121308593751,34.64285829162621],[69.71143554687515,34.642688751220774],[69.71118945312517,34.64256124877946],[69.71093554687522,34.642438751220695],[69.71068945312513,34.64231124877938],[69.71018554687512,34.64218875122087],[69.70993945312503,34.6420612487793],[69.70943554687508,34.64193875122079],[69.70743945312498,34.640061248779375],[69.70718554687508,34.63993875122087],[69.70693945312516,34.639811248779296],[69.70593554687522,34.63968875122079],[69.70568945312513,34.63956124877947],[69.70518554687513,34.63943875122081],[69.70493945312515,34.63931124877931],[69.70443554687498,34.63918875122073],[69.70368945312512,34.638561248779425],[69.70343554687511,34.63843875122066],[69.70168945312517,34.636811248779495],[69.70143554687522,34.63668875122082],[69.70093945312513,34.63631124877942],[69.70068554687512,34.63618875122066],[69.70042968750002,34.6360561523439],[69.70007617187505,34.635327972412156],[69.6989355468751,34.63518875122078],[69.69804492187515,34.63444073486349],[69.69756445312512,34.63468875122072],[69.69667382812506,34.6348112487793],[69.69618945312496,34.63456124877949],[69.69593554687495,34.63443875122081],[69.69543945312515,34.63406124877942],[69.69493554687509,34.633938751220654],[69.69393945312513,34.633061248779285],[69.69193554687521,34.63293875122078],[69.69117578125005,34.63230073547362],[69.69093945312514,34.631811248779414],[69.69081054687521,34.631563751220796],[69.69068945312515,34.63131124877944],[69.6905605468751,34.63106375122081],[69.69043945312515,34.63056124877937],[69.6895097656251,34.629504699707226],[69.68997070312511,34.62889611816421],[69.68993554687509,34.62715631103518],[69.68937109375017,34.626938751220834],[69.68918945312501,34.62731375122077],[69.68846289062517,34.6281775512696],[69.68667382812507,34.62831124877937],[69.68609375000025,34.62801220703139],[69.68593945312514,34.62706124877933],[69.68581054687493,34.626813751220794],[69.68568945312498,34.62392404174811],[69.68603515625003,34.623250000000084],[69.68581054687493,34.622813751220676],[69.68568945312498,34.62206124877943],[69.68481054687507,34.62106375122083],[69.68468945312512,34.62056124877948],[69.68356054687493,34.6193137512209],[69.68343945312498,34.619061248779275],[69.68285546875009,34.618338348388704],[69.68193554687505,34.6181887512209],[69.68168945312513,34.61806124877931],[69.68118554687518,34.61793875122082],[69.68093945312515,34.61781124877942],[69.6799355468751,34.617688751220825],[69.67968945312512,34.61756124877934],[69.67822265625003,34.617438751220746],[69.67756445312514,34.61793875122082],[69.67731054687519,34.61806124877931],[69.67691015625027,34.61826782226572],[69.67668945312508,34.61781124877942],[69.67606054687516,34.6170637512209],[69.67593945312515,34.61681124877927],[69.67581054687506,34.61656375122082],[69.67557812500004,34.616083999634014],[69.67468554687505,34.615938751220895],[69.6734394531251,34.61481124877943],[69.67318554687509,34.61468875122077],[69.67293945312511,34.61456124877927],[69.67268554687516,34.614438751220774],[69.67243945312512,34.61431124877937],[69.67143554687507,34.61418875122078],[69.67117968750009,34.614056152343835],[69.67093945312521,34.61356124877939],[69.67081054687506,34.61331375122077],[69.67057421875026,34.61282446289066],[69.66918554687507,34.61268875122093],[69.66892968750008,34.6125561523439],[69.66868945312521,34.61206124877937],[69.66856054687506,34.61181375122082],[69.6684394531251,34.61131124877939],[69.66831054687518,34.61106375122077],[69.66818945312522,34.61081124877933],[69.66806054687507,34.61056375122078],[69.66793945312511,34.61006124877926],[69.66781054687502,34.60981375122081],[69.66760742187515,34.60939291381847],[69.66718554687517,34.609188751220884],[69.66693945312514,34.60906124877938],[69.66668554687502,34.60893875122072],[69.66593945312522,34.608311248779245],[69.66568554687504,34.60818875122092],[69.66493945312507,34.60756124877936],[69.66468554687506,34.60743875122077],[69.6641054687502,34.606998718261806],[69.6639394531251,34.60631124877932],[69.66381054687517,34.60606375122077],[69.66368945312522,34.60581124877942],[69.66338085937517,34.60535829162595],[69.66268554687517,34.605188751220766],[69.66218945312497,34.60481124877937],[69.66193554687507,34.60468875122088],[69.66168945312509,34.604561248779376],[69.659935546875,34.60443875122071],[69.65910351562522,34.603740356445456],[69.6589394531251,34.60306124877944],[69.65881054687489,34.60281375122081],[69.65868945312522,34.60231124877937],[69.65831054687501,34.60181375122076],[69.65814062500002,34.60111024475097],[69.65743554687506,34.60093875122092],[69.65712695312507,34.60077929687512],[69.65537500000008,34.60081504821788],[69.65512109375013,34.60080987548835],[69.65493945312508,34.60006124877937],[69.65472265625007,34.599938751220705],[69.65399609375012,34.60048956298827],[69.65318945312495,34.59981124877939],[69.65243554687513,34.59968875122088],[69.65218945312509,34.599561248779395],[69.650435546875,34.5994387512208],[69.64935351562517,34.598486038208065],[69.64918945312505,34.59781124877928],[69.64900000000003,34.5975],[69.64856054687513,34.597561248779385],[69.64843945312518,34.598200958252065],[69.64868945312506,34.59868624877939],[69.6489160156249,34.599153167724666],[69.64956445312518,34.5993112487794],[69.65031054687515,34.599938751220705],[69.6505644531251,34.60006124877937],[69.65081054687514,34.600188751220784],[69.65156445312496,34.60031124877936],[69.65181054687505,34.600438751220764],[69.65206445312495,34.60056124877927],[69.65231054687504,34.60068875122076],[69.65256445312505,34.600811248779436],[69.65281054687503,34.60093875122092],[69.65306445312521,34.601061248779246],[69.65452539062497,34.60239524841329],[69.65431054687488,34.602811248779275],[69.65418945312521,34.603200958252046],[69.6544394531251,34.60368624877937],[69.65456054687505,34.60493875122077],[69.6546894531252,34.60518624877932],[69.6548476562501,34.605834732055726],[69.65531445312521,34.60606124877924],[69.65589453125014,34.60650128173829],[69.65606054687501,34.607188751220775],[69.65618945312511,34.60743624877932],[69.65631054687506,34.60768875122068],[69.65718945312508,34.608686248779364],[69.65731054687504,34.609188751220884],[69.65768945312496,34.609686248779326],[69.65781054687503,34.60993875122068],[69.65907617187506,34.61132456970225],[69.65956445312511,34.611561248779466],[69.66018164062527,34.612029678344825],[69.66031054687514,34.61468875122077],[69.66043945312506,34.61493624877947],[69.66056054687502,34.61518875122083],[69.66068945312512,34.615436248779375],[69.66083398437493,34.616328506469685],[69.66131445312513,34.61656124877938],[69.66256054687514,34.617688751220825],[69.6630644531252,34.61781124877942],[69.66331054687501,34.61793875122082],[69.66356445312513,34.61806124877931],[69.66381054687517,34.6181887512209],[69.66431445312523,34.61831124877948],[69.66456054687504,34.61843875122071],[69.66556445312497,34.618561248779386],[69.66681054687504,34.61968875122075],[69.66806445312514,34.61981124877943],[69.66831054687518,34.61993875122083],[69.66864843750014,34.620102081298825],[69.66881054687516,34.62043875122099],[69.66957421875006,34.6213240203859],[69.6700644531251,34.62156124877936],[69.67031054687507,34.621688751220674],[69.67056445312497,34.62181124877927],[69.67106054687517,34.62218875122075],[69.67156445312523,34.622311248779425],[69.67181054687492,34.62243875122083],[69.67214843750023,34.62260208129899],[69.67231054687502,34.622938751220715],[69.67256445312515,34.62306124877939],[69.67281054687524,34.623188751220795],[69.67381445312523,34.62331124877947],[69.67416210937515,34.62349055480976],[69.67431054687509,34.624575958251995],[69.67406054687493,34.62506124877932],[69.67393945312497,34.62562931823737],[69.67431445312522,34.625811248779286],[69.67456054687503,34.62593875122079],[69.67531445312514,34.626061248779365],[69.67582226562504,34.62644766235357],[69.67606054687516,34.626938751220834],[69.67643945312514,34.627436248779276],[69.6765605468751,34.62843875122077],[69.67668945312508,34.6286862487794],[69.67681054687503,34.62893875122067],[69.67693945312513,34.62918624877929],[69.67716601562509,34.62965316772467],[69.67781445312508,34.629811248779404],[69.67831054687517,34.630188751220714],[69.67856445312512,34.63031124877929],[69.67907226562508,34.6306976623535],[69.67931054687509,34.63118875122068],[69.67968945312512,34.631686248779374],[69.67989257812516,34.632107086181634],[69.68031445312513,34.63231124877949],[69.68056054687517,34.63243875122072],[69.68106445312523,34.63256124877938],[69.68131054687493,34.6326887512208],[69.68181445312499,34.632811248779376],[69.68206054687519,34.63293875122078],[69.68231445312509,34.633061248779285],[69.68306054687505,34.63368875122076],[69.68331445312523,34.63381124877934],[69.68356054687493,34.633938751220654],[69.68506445312514,34.63406124877942],[69.68531054687506,34.63418875122082],[69.68556445312495,34.634311248779326],[69.68581054687493,34.63443875122081],[69.68606445312517,34.63456124877949],[69.6866445312501,34.635001281738354],[69.6868105468752,34.635688751220684],[69.68743945312511,34.63643624877929],[69.68760937500016,34.63713975524908],[69.68831445312517,34.63731124877938],[69.68881054687509,34.637688751220864],[69.68906445312498,34.63781124877937],[69.69006054687512,34.638688751220826],[69.69031445312501,34.638811248779334],[69.6905605468751,34.63893875122065],[69.69106445312528,34.6390612487795],[69.69157226562524,34.63944766235362],[69.69191601562514,34.64015316772472],[69.69256445312502,34.640311248779454],[69.69282031250006,34.640443847656215],[69.69306054687522,34.64093875122083],[69.69318945312514,34.64118624877938],[69.6933105468751,34.64193875122079],[69.69386132812505,34.642619445800875],[69.6934804687501,34.64318058776861],[69.69081054687521,34.64331124877934],[69.69056445312518,34.64343875122066],[69.68917382812506,34.64356124877942],[69.68868945312514,34.64331124877934],[69.68743554687521,34.64318875122083],[69.68718945312517,34.64306124877952],[69.68693554687493,34.64293875122067],[69.6864394531253,34.64256124877946],[69.68618554687518,34.642438751220695],[69.68570507812493,34.64219073486338],[69.68481445312514,34.64293875122067],[69.68356054687493,34.64306124877952],[69.68331445312523,34.64318875122083],[69.68256054687507,34.64331124877934],[69.68206445312515,34.643688751220736],[69.6810820312501,34.643811248779315],[69.68018945312511,34.64306124877952],[69.67929882812516,34.64293875122067],[69.67881445312523,34.64318875122083],[69.67842382812503,34.64331124877934],[69.6779394531251,34.64306124877952],[69.67629882812506,34.64293875122067],[69.67581445312513,34.64318875122083],[69.67517382812505,34.64331124877934],[69.67468945312513,34.64306124877952],[69.67443554687517,34.64293875122067],[69.67418945312514,34.64281124877944],[69.67393554687524,34.642688751220774],[69.67368945312526,34.64256124877946],[69.67229882812515,34.642438751220695],[69.67181445312511,34.642688751220774],[69.67142382812503,34.64281124877944],[69.67093945312521,34.64256124877946],[69.66993554687517,34.642438751220695],[69.66968945312513,34.64231124877938],[69.66818554687515,34.64218875122087],[69.66793945312511,34.6420612487793],[69.66718554687517,34.64193875122079],[69.66612695312509,34.6410064849853],[69.6653144531252,34.64168875122081],[69.66467382812502,34.641811248779476],[69.6641894531252,34.64156124877931],[69.66393554687491,34.64143875122073],[69.66317578125003,34.64080073547373],[69.66293945312512,34.640311248779454],[69.66217578125006,34.63942597961427],[69.66168554687502,34.63918875122073],[69.66141406250014,34.63904893493648],[69.66060156250003,34.6390655364991],[69.66042968750023,34.64011763000492],[69.65992382812502,34.640561248779434],[69.65943945312509,34.640311248779454],[69.65918554687514,34.64018875122069],[69.6589394531251,34.640061248779375],[69.65843554687504,34.63993875122087],[69.65818945312506,34.639811248779296],[69.65793554687505,34.63968875122079],[69.65768945312496,34.63956124877947],[69.65718554687501,34.63943875122081],[69.65617578125003,34.638549850463974],[69.65593945312506,34.63806124877945],[69.65506054687503,34.637063751220765],[69.65493945312508,34.636811248779495],[69.65417578125002,34.63592597961441],[69.65360156250014,34.63564791870127],[69.65343945312512,34.63531124877929],[69.65317968750023,34.63492768859878],[69.652685546875,34.63468875122072],[69.6524394531252,34.63456124877949],[69.65210156250001,34.63439791870131],[69.65193945312521,34.63406124877942],[69.65160742187507,34.6335733337402],[69.64972265625008,34.63343875122068],[69.64906445312519,34.633938751220654],[69.64742382812497,34.63406124877942],[69.64693945312493,34.63381124877934],[69.64643554687515,34.63368875122076],[69.64613671875017,34.63353421020521],[69.64462109375026,34.633565124511705],[69.64438867187525,34.63451652526864],[69.64383203125001,34.6348112487793],[69.6429394531252,34.63406124877942],[69.64218554687503,34.633938751220654],[69.64193945312505,34.63381124877934],[69.64168554687504,34.63368875122076],[69.64143945312506,34.63356124877944],[69.6411855468751,34.63343875122068],[69.64093945312507,34.63331124877945],[69.64043554687501,34.63318875122077],[69.64018945312492,34.633061248779285],[69.63943554687503,34.63293875122078],[69.63918945312506,34.632811248779376],[69.6389355468751,34.6326887512208],[69.63868945312507,34.63256124877938],[69.63843554687512,34.63243875122072],[69.63818945312508,34.63231124877949],[69.63768554687502,34.63218875122081],[69.63743945312504,34.63206124877941],[69.6367226562501,34.631938751220815],[69.63606445312516,34.63243875122072],[69.63581054687515,34.63256124877938],[69.63556445312517,34.6326887512208],[69.63531054687527,34.632811248779376],[69.63481445312507,34.63318875122077],[69.63331054687515,34.63331124877945],[69.6323144531249,34.63418875122082],[69.63131054687514,34.634311248779326],[69.63031445312507,34.63518875122078],[69.63006054687511,34.63531124877929],[69.62981445312508,34.63543875122086],[69.62784765625005,34.63556124877945],[69.62718945312517,34.63506124877938],[69.6269355468751,34.6349387512208],[69.62618945312491,34.634311248779326],[69.62468554687527,34.63418875122082],[69.624439453125,34.63406124877942],[69.624185546875,34.633938751220654],[69.62368945312514,34.63356124877944],[69.62318554687508,34.63343875122068],[69.62293945312504,34.63331124877945],[69.62268554687509,34.63318875122077],[69.62225000000004,34.632964019775414],[69.62181445312504,34.63318875122077],[69.62056054687517,34.63331124877945],[69.62031445312513,34.63343875122068],[69.61956054687514,34.63356124877944],[69.61906445312505,34.633938751220654],[69.61841601562512,34.63409683227539],[69.61818945312515,34.63456375122068],[69.61731054687513,34.63556124877945],[69.6171894531249,34.636623947143775],[69.61754296875014,34.636811248779495],[69.61843554687513,34.63606124877943],[69.61868945312514,34.63593875122076],[69.61893554687524,34.63581124877945],[69.6194394531249,34.635688751220684],[69.6196855468751,34.63556124877945],[69.62018945312505,34.63543875122086],[69.62043554687509,34.63531124877929],[69.62157617187503,34.63518875122078],[69.62206054687508,34.63543875122086],[69.62256445312502,34.63556124877945],[69.62281054687512,34.635688751220684],[69.62320117187502,34.63581124877945],[69.62368554687501,34.63556124877945],[69.62440234375023,34.63543875122086],[69.62506054687512,34.63593875122076],[69.62531445312507,34.63606124877943],[69.6255605468751,34.63618875122066],[69.62756445312507,34.63631124877942],[69.62781054687511,34.63643875122082],[69.62981445312508,34.63656124877933],[69.63006054687511,34.63668875122082],[69.63031445312507,34.636811248779495],[69.6305605468751,34.636938751220725],[69.63170117187505,34.637061248779304],[69.63218554687509,34.636811248779495],[69.63268945312515,34.63668875122082],[69.63293554687513,34.63656124877933],[69.63318945312508,34.63643875122082],[69.63343554687512,34.63631124877942],[69.63393945312518,34.63618875122066],[69.63418554687527,34.63606124877943],[69.63568945312491,34.63593875122076],[69.63618554687511,34.63556124877945],[69.63643945312506,34.63543875122086],[69.63693554687515,34.63506124877938],[69.63740234374998,34.6349387512208],[69.63807226562514,34.635447662353585],[69.63831054687503,34.63593875122076],[69.63857031249998,34.63632231140136],[69.63906445312492,34.63656124877933],[69.639810546875,34.637188751220805],[69.64006445312518,34.63731124877938],[69.64031054687527,34.637438751220785],[69.64281445312517,34.63756124877929],[69.64356054687514,34.63818875122077],[69.64456445312518,34.63831124877943],[69.644810546875,34.63843875122066],[69.64506445312517,34.638561248779425],[69.64557226562502,34.638947662353715],[69.64581054687514,34.63943875122081],[69.64593945312507,34.63968624877943],[69.64606054687513,34.63993875122087],[69.64643945312505,34.64043624877931],[69.64656054687501,34.640688751220665],[69.6466894531251,34.6409362487793],[69.64683984375014,34.64216702270518],[69.6483144531251,34.64231124877938],[69.64906054687512,34.64293875122067],[69.64931445312507,34.64306124877952],[69.64975000000007,34.64328598022462],[69.65018554687512,34.64306124877952],[69.6516894531251,34.64293875122067],[69.65233984374996,34.642445419311485],[69.65282031250004,34.64269384765622],[69.6530605468752,34.64318875122083],[69.65318945312495,34.64343624877938],[69.65331054687502,34.643688751220736],[69.65368945312505,34.64418624877952],[69.65381054687501,34.644438751220875],[69.65393945312522,34.64468624877942],[69.65406054687506,34.64518875122067],[69.65418945312521,34.645436248779305],[69.65438281250013,34.64583660888694],[69.65405468750006,34.64632231140159],[69.65334960937511,34.64666372680679],[69.65318945312495,34.647277313232365],[69.65368945312505,34.64793624877939],[69.65381054687501,34.64818875122083],[69.65406445312519,34.64831124877932],[69.65432617187511,34.64844616699237],[69.65489843749995,34.64843446350095],[69.65507617187527,34.64734646606445],[69.65582617187508,34.64668875122088],[69.65631054687506,34.64693875122079],[69.65706445312506,34.647061248779465],[69.65756054687515,34.647438751220676],[69.6578144531251,34.647561248779525],[69.65806054687513,34.64768875122084],[69.65831445312509,34.64781124877935],[69.65862500000006,34.64797158813482],[69.65901757812512,34.64776959228527],[69.66027539062512,34.64889405822767],[69.66006054687503,34.64931124877937],[69.65993945312496,34.64969895935067],[69.66071679687516,34.649683074951355],[69.661060546875,34.650075958252],[69.66079882812514,34.65058515930187],[69.6608144531252,34.65136126709004],[69.66145117187509,34.65156124877937],[69.66193554687507,34.65131124877939],[69.66282617187508,34.651188751220886],[69.66338867187525,34.65147831726084],[69.663619140625,34.65242701721188],[69.66581445312514,34.652561248779435],[69.66631054687505,34.65293875122083],[69.66670117187525,34.653061248779494],[69.66718554687517,34.65281124877933],[69.66743945312513,34.652688751220836],[69.66793554687504,34.65231124877944],[69.66832617187512,34.65218875122076],[69.66881054687516,34.65243875122067],[69.6700644531251,34.652561248779435],[69.67043554687504,34.652758026123095],[69.67005468750008,34.65332231140151],[69.66956054687492,34.6535612487794],[69.66929687500001,34.65369783020023],[69.66931445312522,34.65456347656256],[69.66980273437522,34.65481124877944],[69.67118554687502,34.6535612487794],[69.67143945312515,34.65343875122072],[69.67168554687518,34.65331124877932],[69.67218945312507,34.653188751220725],[69.67243554687505,34.653061248779494],[69.67293945312511,34.65293875122083],[69.67318554687509,34.65281124877933],[69.6738261718751,34.652688751220836],[69.67431054687509,34.65293875122083],[69.67506445312497,34.653061248779494],[69.67550000000008,34.65328598022468],[69.67593554687508,34.653061248779494],[69.6763261718751,34.65293875122083],[69.67700000000022,34.65328598022468],[69.67743554687493,34.653061248779494],[69.67893945312508,34.65293875122083],[69.6792617187501,34.65277212524417],[69.67988867187509,34.65324794006354],[69.68006054687518,34.65390231323252],[69.6795605468752,34.654561248779444],[69.67943945312496,34.65487931823742],[69.67981445312515,34.65506124877933],[69.68012109375005,34.65521929931653],[69.68031054687506,34.65582595825205],[69.68006054687518,34.656311248779375],[69.67993945312523,34.656700958252074],[69.68018945312511,34.65718624877938],[69.68031054687506,34.658075958252056],[69.68006054687518,34.65856124877938],[69.67993945312523,34.658813751220734],[69.67971484375002,34.65925000000014],[69.67993945312523,34.65968624877938],[69.68007812500005,34.66082557678217],[69.68064843749997,34.66110208129888],[69.68081054687505,34.661438751220686],[69.68093945312515,34.66168624877939],[69.6810605468751,34.66243875122082],[69.68118945312509,34.662686248779536],[69.68131054687493,34.6631887512207],[69.68152734375005,34.66331124877938],[69.6821855468751,34.66281124877939],[69.68266601562496,34.662578506469885],[69.68281054687517,34.66168624877939],[69.6835195312502,34.66084330749507],[69.68432617187514,34.66068875122089],[69.68481054687507,34.66093875122078],[69.68620117187513,34.66106124877929],[69.68668554687522,34.66081124877938],[69.68718945312517,34.66068875122089],[69.6879355468752,34.66006124877933],[69.68868945312514,34.659938751220736],[69.6890000000001,34.65977841186526],[69.6893203125002,34.659943847656194],[69.68958789062518,34.66049234008793],[69.68995117187504,34.66081124877938],[69.69043554687508,34.66056124877939],[69.69093945312514,34.66043875122081],[69.69118554687512,34.66031124877949],[69.69143945312501,34.660188751220815],[69.6916855468751,34.66006124877933],[69.69193945312512,34.659938751220736],[69.6924355468752,34.65956124877934],[69.69268945312515,34.65943875122085],[69.69293554687519,34.65931124877953],[69.69364062500014,34.65913975524913],[69.69381054687508,34.65843624877934],[69.69393945312513,34.658188751220806],[69.69406054687519,34.65793624877945],[69.69455468750013,34.657286102294975],[69.69431054687507,34.65681375122081],[69.69418945312512,34.65636697387707],[69.69462890625002,34.65571644592299],[69.69506054687511,34.6559387512208],[69.6963984375,34.65606948852552],[69.69706054687506,34.656825958252014],[69.69671484375019,34.65749999999994],[69.696939453125,34.65793624877945],[69.69706054687506,34.658188751220806],[69.69718945312516,34.65843624877934],[69.69735937500005,34.65913975524913],[69.698064453125,34.65931124877953],[69.6985605468752,34.65968875122084],[69.69916210937507,34.6598351135256],[69.69981054687523,34.66057595825205],[69.69956054687512,34.66106124877929],[69.69943945312517,34.66252731323242],[69.69993945312515,34.663186248779425],[69.70006054687511,34.66493875122073],[69.70018945312515,34.66518624877935],[69.70031054687522,34.665438751220705],[69.70056445312517,34.66556124877938],[69.7008105468752,34.665688751220785],[69.70106445312516,34.66581124877946],[69.70156054687507,34.66618875122067],[69.70181445312497,34.66631124877935],[69.70207031250024,34.66644384765638],[69.70231054687511,34.666938751220826],[69.70247851562513,34.66726219177251],[69.70205273437509,34.66782299804707],[69.701333984375,34.66817149353031],[69.70118945312512,34.669063751220875],[69.70106054687497,34.66931124877951],[69.70093945312513,34.67055540466325],[69.70117382812506,34.67081124877936],[69.70131054687513,34.66968624877936],[69.70143945312512,34.66943875122074],[69.70156054687507,34.66893624877939],[69.70169335937507,34.66867884826675],[69.70218945312516,34.668438751220776],[69.70243554687514,34.668311248779276],[69.70318945312502,34.6681887512207],[69.70387695312516,34.66763249206551],[69.70406054687513,34.6670490417482],[69.70381054687508,34.66656375122071],[69.70368945312512,34.66631124877935],[69.70356054687514,34.66606375122073],[69.70343945312513,34.66581124877946],[69.70319140625017,34.66532980346696],[69.70393945312517,34.66443875122083]]]]},"properties":{"id":"1615"}}]}