{"type":"FeatureCollection","features":[{"type":"Feature","geometry":{"type":"MultiPolygon","coordinates":[[[[77.12571384006063,23.156931830512548],[77.12907009548613,23.15598524305595],[77.13024074978276,23.154054768880513],[77.13110839843753,23.15169650607689],[77.13031467013869,23.151248643663692],[77.12886569552953,23.151951633030052],[77.12783976236975,23.153019476997002],[77.12700859917541,23.153447672526426],[77.12776082356768,23.151129150391],[77.12852444118928,23.150002712674024],[77.1271131727431,23.15029717339455],[77.1246043565537,23.15232245551256],[77.12333604600698,23.151491021050745],[77.12403483072907,23.150002712674024],[77.12256008572027,23.150572916667116],[77.1220909288194,23.15249728732674],[77.12083889431412,23.15152018229199],[77.12097222222226,23.149861111111463],[77.11944173177093,23.149997287326826],[77.11890747070302,23.150553249783442],[77.11779785156236,23.150913221571642],[77.11916395399291,23.153564860026492],[77.11875298394094,23.154477539062924],[77.11666937934027,23.155714382595846],[77.11694932725678,23.15612521701425],[77.11805284288207,23.156102701823286],[77.11694715711783,23.157481011285142],[77.11746676974812,23.158052842882327],[77.12571384006063,23.156931830512548]]]]},"properties":{"id":"19887"}}]}