{"type":"FeatureCollection","features":[{"type":"Feature","geometry":{"type":"MultiPolygon","coordinates":[[[[78.14916124131989,26.39288818359391],[78.14872775607662,26.39179904513911],[78.14674289279552,26.392494574653],[78.14582139756996,26.39210828993066],[78.14585042317745,26.391374240451597],[78.14423583984407,26.389425184462013],[78.1429399956601,26.38947645399321],[78.14166124131972,26.389172092014036],[78.14025390625025,26.388026529948036],[78.13920220269128,26.389161241319655],[78.13665527343781,26.388762749566098],[78.13669406467059,26.387784288194524],[78.13556016710098,26.388339029948213],[78.1342325846359,26.388347167968874],[78.13329915364622,26.388051757812804],[78.13248291015671,26.387170681423797],[78.12927435980927,26.38772922092032],[78.12652777777802,26.38597222222232],[78.12583875868077,26.386610785590463],[78.12622911241348,26.387511935764053],[78.1267282443579,26.387492133246738],[78.12911241319475,26.388753526475895],[78.131695963542,26.38916531033003],[78.1326871744794,26.390235188802237],[78.13507703993074,26.391580403646017],[78.13562282986155,26.392611490885614],[78.13548122829903,26.396181640625187],[78.1361056857643,26.397505425347376],[78.13667209201421,26.39777235243075],[78.1387445746532,26.39989935980924],[78.14100287543428,26.401094292534808],[78.14233479817747,26.3992784288196],[78.14605007595506,26.397507866753656],[78.14751247829909,26.39715955946194],[78.14866617838587,26.39609076605936],[78.14722927517406,26.39475938585096],[78.14719618055582,26.39392795138916],[78.14774359809056,26.393337131076564],[78.14916124131989,26.39288818359391]]]]},"properties":{"id":"4891"}}]}