{"type":"FeatureCollection","features":[{"type":"Feature","geometry":{"type":"MultiPolygon","coordinates":[[[[76.16387600368913,24.548042704264873],[76.16973510742181,24.544179517958383],[76.16998711480014,24.54335615370063],[76.1690916612412,24.541256069607684],[76.16859822591144,24.54084618462511],[76.16790581597238,24.53924947102911],[76.16726888020824,24.53872043185814],[76.16569444444454,24.536527777778332],[76.16526489257811,24.536653815375928],[76.16501288519967,24.537235073513997],[76.16438897026885,24.53775329589901],[76.16276489257811,24.538042704264896],[76.16251288519967,24.5382902696403],[76.16401706271697,24.538623826769054],[76.16475748697914,24.539515211317806],[76.1647669813365,24.540855441623833],[76.16394517686606,24.543042297363797],[76.16209391276035,24.54415381537592],[76.16096516927055,24.54279490153047],[76.15984578450522,24.54251285129166],[76.15945732964391,24.54323086208825],[76.16005940755187,24.544833407932373],[76.1599713812935,24.54569688585123],[76.15909925672739,24.546421407064287],[76.15928276909713,24.54822255452534],[76.1600142415364,24.548830193414148],[76.16212117513001,24.549431593153756],[76.16387600368913,24.548042704264873]],[[76.16038791232634,24.545921902127233],[76.16124999999997,24.545694444444948],[76.1621853298611,24.546443549262676],[76.16247707790777,24.547420722114197],[76.1603350151909,24.547850172255252],[76.15974514431431,24.547485961914603],[76.16038791232634,24.545921902127233]]]]},"properties":{"id":"19290"}}]}