{"type":"FeatureCollection","features":[{"type":"Feature","geometry":{"type":"MultiPolygon","coordinates":[[[[79.78316015625003,23.80669140625018],[79.783375,23.806682617187633],[79.78437890624994,23.806722656250102],[79.78468359375009,23.80656054687512],[79.7851914062501,23.80643945312515],[79.78543359375007,23.80631054687521],[79.78593359375006,23.806074218750055],[79.78597265625021,23.805121093750145],[79.78580859375009,23.804814453125076],[79.7856914062501,23.80381054687504],[79.7855585937501,23.803564453125034],[79.78541796875007,23.802666992187568],[79.78491796875014,23.80243261718762],[79.78475000000012,23.802250000000114],[79.78342578125014,23.80231738281269],[79.78319140624993,23.802814453125066],[79.78305859375027,23.803060546875074],[79.7829414062501,23.803314453125054],[79.78269140625005,23.803785156249972],[79.78323046875013,23.80448828125006],[79.78305859375027,23.804810546875004],[79.78283203125002,23.805292968750067],[79.78231640625009,23.805689453124998],[79.7818320312501,23.805916992187704],[79.78119140625009,23.806708007812617],[79.7813710937501,23.807432617187516],[79.78167968750003,23.807444335937575],[79.78193359375027,23.807310546875172],[79.78219140625006,23.80718945312495],[79.78243359375008,23.807060546875093],[79.78269140625005,23.80693945312504],[79.78316015625003,23.80669140625018]]]]},"properties":{"id":"19528"}}]}