{"type":"FeatureCollection","features":[{"type":"Feature","geometry":{"type":"MultiPolygon","coordinates":[[[[101.58866929795713,15.568739691840491],[101.59104125976259,15.566777615017529],[101.59221815320873,15.566872287326547],[101.59338731553507,15.566442871094011],[101.59465033636852,15.567431911892513],[101.59668836805255,15.566874186198092],[101.59737250433713,15.565071343316177],[101.59855088975374,15.563914116753594],[101.59937499999702,15.560030653212095],[101.59904541015314,15.555929904514159],[101.59833333333032,15.555277777777988],[101.59677910698466,15.556205512152914],[101.59540635850382,15.556517469618285],[101.59336073133383,15.557379014757245],[101.59252441405928,15.558349609375256],[101.59356499565652,15.55967827690992],[101.5934261067678,15.561407335069589],[101.59380981444994,15.562809516059218],[101.59313937716692,15.564401584201605],[101.59133599175047,15.564332139757283],[101.58976820203677,15.565206976996734],[101.5883468966982,15.567476128472421],[101.58866929795713,15.568739691840491]]]]},"properties":{"id":"22229"}}]}