{"type":"FeatureCollection","features":[{"type":"Feature","geometry":{"type":"MultiPolygon","coordinates":[[[[76.83396932525662,26.302217563670794],[76.83396932525662,26.301527632362095],[76.8331644053965,26.299802804090675],[76.83241697981234,26.29894038995519],[76.83000222023267,26.297675515889622],[76.82707001217139,26.29819296437084],[76.82597762093295,26.298020481543702],[76.82569014955428,26.29704307885656],[76.8262075980355,26.294858296379772],[76.8244252754885,26.29445583644967],[76.82350536707727,26.29388089369253],[76.82304541287155,26.29324845665984],[76.82160805597894,26.2926735139027],[76.81982573343194,26.292616019627232],[76.81959575632882,26.290833697080075],[76.81890582502055,26.289453834462932],[76.81925079067472,26.287786500467263],[76.81877985618698,26.287629522304798],[76.82096991644997,26.286609971788508],[76.82202487521735,26.28697970920146],[76.82451958550362,26.286985948350747],[76.82670667860268,26.286605088975776],[76.82777248806471,26.285680067274413],[76.82610582139816,26.285283203125132],[76.82544989691851,26.283598904079923],[76.82444430881091,26.283638509114994],[76.82417195638041,26.28245062934063],[76.82555976019992,26.28250569661502],[76.82847683376761,26.281718207465474],[76.82943915473126,26.282227647569627],[76.83086886935811,26.282494574653086],[76.83151489257844,26.28179741753509],[76.83236165364636,26.279622938368405],[76.83391126844631,26.277481553819612],[76.83432962872288,26.275290599511592],[76.83494672794401,26.27536773691392],[76.83736148752334,26.272550517404156],[76.83805141883195,26.27140063189016],[76.84092613261762,26.26823844672603],[76.84207601813156,26.267778492520463],[76.84293843226757,26.266513618454624],[76.84086863834162,26.267146055487416],[76.83897132724351,26.268468423828736],[76.83701652186917,26.26800846962307],[76.83615410773339,26.267031066936113],[76.83598162490645,26.265478721491746],[76.83615410773339,26.264271341701914],[76.83770645317779,26.263466421841812],[76.83770645317779,26.262489019155026],[76.83678654476628,26.260419225229256],[76.83523419932246,26.259556811093873],[76.83437178518645,26.259671799645176],[76.83621160200917,26.26093667371083],[76.83626909628501,26.262316536327887],[76.83494672794401,26.265363732940443],[76.83488923366801,26.26622614707601],[76.83448677373818,26.266571112730546],[76.83178454277939,26.266628607006012],[76.82896732326961,26.26892837803466],[76.82925479464805,26.27082568913302],[76.82977224312995,26.27191808037155],[76.83164184570333,26.27391031901068],[76.83203436957498,26.277189941406462],[76.82972751193611,26.279727647569715],[76.82903876410623,26.279994574652918],[76.82838248638606,26.27949138582177],[76.82798992058284,26.2761151624982],[76.82931228892406,26.275137759811145],[76.82971474885395,26.274505322778268],[76.82919730037273,26.27358541436722],[76.82517270107272,26.274447828502787],[76.82586263238167,26.27715005946125],[76.82649506941416,26.277610013666646],[76.82545288085979,26.280511881510435],[76.82274414062536,26.281790364583443],[76.8228366427953,26.284122450086826],[76.82246093750015,26.284470486111175],[76.82156019422766,26.284434678819565],[76.81622992621564,26.285549858941224],[76.81240464952262,26.284209255642722],[76.81189520941874,26.2826000976564],[76.81110582139783,26.282227647569627],[76.81051161024342,26.280968424479198],[76.8105683051219,26.279538845486414],[76.81139458550368,26.278337944878572],[76.81138224283885,26.2780281575523],[76.80925523546065,26.27807969835085],[76.80858005099842,26.276042751736625],[76.80305026584213,26.27556098090291],[76.80095364040844,26.274645996093923],[76.79810777452266,26.274696723090486],[76.79717000325562,26.275025499131985],[76.79633911132842,26.274992404514094],[76.79472751193603,26.273883463541807],[76.79300645616345,26.27360948350723],[76.79110582139779,26.272783203125343],[76.78960096571231,26.271158854166984],[76.79002644856811,26.269944932726105],[76.79075073242214,26.269273817274623],[76.79222669813399,26.268806423611565],[76.79355590207504,26.2688591355232],[76.79480271039014,26.269467357294005],[76.7969874928672,26.269927311499572],[76.7985398383116,26.269927311499572],[76.79980471237687,26.27205459970081],[76.80020717230698,26.2717096340469],[76.80020717230698,26.27096220846255],[76.80060963223687,26.27061724280837],[76.80164452919976,26.271249679841077],[76.8022194719571,26.270502254256982],[76.80227696623248,26.27004230005123],[76.8013570578211,26.26952485156984],[76.80049464368565,26.268259977503902],[76.79911478106843,26.268087494677133],[76.79715997569431,26.267225080541294],[76.79784990700276,26.266305172129805],[76.79968972382565,26.266132689302665],[76.80112708071854,26.265615240821447],[76.80239195478387,26.264580343858654],[76.80394430022815,26.26423537820439],[76.80262193188699,26.263200481241597],[76.801028872952,26.26384857730953],[76.80227593316019,26.26036404079899],[76.80191080729216,26.259673936632026],[76.80031914605084,26.259737141927516],[76.80000528971377,26.263338758680874],[76.79944932725724,26.263894585503763],[76.79887518988741,26.263871799045532],[76.7971458604604,26.26471679687546],[76.79538045247435,26.26409803602472],[76.79500528971377,26.265283203125264],[76.79440904405388,26.266149631076615],[76.79275051540836,26.266661241319753],[76.79278862847283,26.265699869792044],[76.79417846679704,26.26329182942733],[76.79578504774318,26.26134114583357],[76.79610582139779,26.259994574653135],[76.79708591037368,26.258716634115032],[76.79680555555578,26.25791666666693],[76.79632581922775,26.258068576389235],[76.79531928168413,26.259154730903305],[76.79471693250892,26.259439019097357],[76.79444973415863,26.26083875868079],[76.79379345816452,26.262130219574132],[76.7940552848062,26.261475652970276],[76.79342284777326,26.261590641521764],[76.79250293936187,26.260728227386195],[76.79181300805325,26.26164813579723],[76.79146804239909,26.261073193040275],[76.79181300805325,26.260383261732017],[76.79123806529608,26.259003399114775],[76.79106558246926,26.260210778904522],[76.78968571985237,26.260670733110445],[76.79077811109053,26.258198479254943],[76.79072061681487,26.256761122362235],[76.78836335151053,26.260383261732017],[76.7883058572352,26.25768103077364],[76.78727096027208,26.25750854794633],[76.78721346599676,26.25934836476914],[76.78669601751486,26.259175881941914],[76.7858910976552,26.25791100787633],[76.7860060862067,26.259750824698955],[76.78525866062259,26.26032576745601],[76.78520116634658,26.260613238834623],[76.78336134952374,26.26101569876481],[76.7820964754583,26.260498250283234],[76.7834188437997,26.25963583614775],[76.78445374076259,26.258370962081898],[76.78456872931386,26.25716358229215],[76.78445374076259,26.25670362808623],[76.78324636097247,26.25601369677797],[76.78307387814542,26.256301168156583],[76.7837063151782,26.25693360518902],[76.78382130372941,26.257796019324772],[76.78313668483995,26.258395060853232],[76.78202427737679,26.25878488477713],[76.78123406132252,26.258370962081898],[76.77755442767747,26.25796850215208],[76.77531215092463,26.258025996427733],[76.7749096909944,26.258255973530694],[76.77479470244307,26.25934836476914],[76.77364481692896,26.259693330423133],[76.77341483982613,26.26009579035322],[76.77536964519996,26.260383261732017],[76.77749693340147,26.259808318974606],[76.77887679601841,26.259808318974606],[76.77962422160269,26.260958204489057],[76.77973921015436,26.262280572830107],[76.77807187615869,26.26423537820439],[76.77775933159742,26.26649359809032],[76.77623753285965,26.266828714234677],[76.77590010678918,26.266283641351748],[76.77348534720923,26.265018767286264],[76.77302539300356,26.26409885887469],[76.77141555328367,26.262259042052236],[76.7702081734939,26.261971570673623],[76.76848334522279,26.263063961912067],[76.76808088529256,26.262259042052236],[76.76796589674112,26.260534213780915],[76.76928826508251,26.258866879785245],[76.76940325363424,26.257257040065227],[76.7678509081899,26.257257040065227],[76.76217094125471,26.263373927533948],[76.76083862304714,26.263914659288346],[76.7619497341586,26.26443901909734],[76.76247545030415,26.265006510416967],[76.7635306803389,26.26496473524334],[76.76643703884614,26.26586697048657],[76.76635457356784,26.26795003255225],[76.76722751193623,26.270272352430695],[76.76749471028663,26.27194986979198],[76.76793104383697,26.272494574652924],[76.76851339367133,26.27188211687377],[76.76976389416834,26.2717958754603],[76.77167195638029,26.270827907986202],[76.77207817925384,26.271688910590626],[76.77308010525226,26.27167317708377],[76.77360582139798,26.271105685764226],[76.77615234375017,26.27061957465314],[76.77678249783028,26.272610134548714],[76.77810913085969,26.271908094618254],[76.77970336914089,26.271971299913304],[76.78139702690979,26.27334960937516],[76.78275322808204,26.27329589843768],[76.78469767252645,26.275284288194612],[76.78502780490467,26.27527126736122],[76.78500610351571,26.27668294270869],[76.78529043344204,26.27667169272597],[76.78515668517846,26.276920082358288],[76.78308689125308,26.275942679670976],[76.78164953436013,26.277265048012467],[76.77802739499035,26.276000173946798],[76.77699249802762,26.276460128152365],[76.77572762396241,26.27778249649387],[76.77187550748957,26.279047370559525],[76.77089810480246,26.27996727897066],[76.76911578225545,26.282554521377648],[76.76911578225545,26.284624315303404],[76.76986320783945,26.286119166471863],[76.77112808190523,26.286176660747415],[76.77187550748957,26.284681809579055],[76.77158803611107,26.28358941834044],[76.77181801321396,26.28249702710208],[76.7733128643824,26.280829693106497],[76.77434776134524,26.28042723317658],[76.77952224615925,26.28019725607389],[76.78291440842597,26.28036973890076],[76.78532916800563,26.28186459006929],[76.78711149055258,26.28209456717225],[76.79010119289003,26.280484727452233],[76.79125107840392,26.280254750349272],[76.7919410097123,26.280254750349272],[76.79452825211925,26.281002175933637],[76.79562064335781,26.280542221727984],[76.79435576929214,26.27950732476519],[76.78854884744558,26.277380036563855],[76.7880888932398,26.276920082358288],[76.7853866622817,26.27755251939091],[76.78549779117125,26.276663488274806],[76.7864111328129,26.274973415798783],[76.78797512478374,26.275035264757364],[76.79039496527807,26.27444986979188],[76.79512274848148,26.276847873264117],[76.79723280164981,26.27735053168435],[76.79823771158894,26.277882215711898],[76.7998381890196,26.277462836371754],[76.80130506727451,26.27668674045161],[76.80249525282161,26.277505696615023],[76.80566134982658,26.277531738281354],[76.8067414008249,26.27810329861154],[76.80744249131979,26.278859863281383],[76.80864664713565,26.28090820312525],[76.80857801649339,26.28263888888911],[76.80967298719648,26.283155653212177],[76.81000379774335,26.284200846354352],[76.81106838650223,26.285187174479205],[76.81238226996547,26.287521158854318],[76.81361599392395,26.287472330729386],[76.81472751193613,26.288605685764097],[76.81560289171048,26.290094943576378],[76.81661621093761,26.291033799913308],[76.81693915473116,26.293060980903235],[76.81753757052988,26.294191623264126],[76.81746514214424,26.29601996527809],[76.81582194010477,26.296795247395963],[76.81584079318591,26.29727159288204],[76.81805338541702,26.29718370225696],[76.82115505642392,26.296534830729243],[76.82272854275189,26.29732231987869],[76.82314073350713,26.29862413194448],[76.8238462631634,26.298489722358184],[76.82517270107272,26.300320252572433],[76.82626509231139,26.301125172432265],[76.82798992058284,26.301585126637832],[76.82839238051267,26.302160069394972],[76.82908231182117,26.302562529324888],[76.83069215154117,26.301700115189306],[76.83184203705528,26.30210257511932],[76.83224449698528,26.304344851871946],[76.83270445119078,26.30503478318039],[76.83563665925217,26.307104577105875],[76.8369590275934,26.3076795198631],[76.83701652186917,26.308484439722932],[76.83805141883195,26.30957683096156],[76.8391438100704,26.310036785167128],[76.8403511898604,26.308081979793016],[76.83879884441629,26.30675961145171],[76.83782144172906,26.306414645797346],[76.83575164780339,26.304344851871946],[76.83511921077061,26.304114874769155],[76.83437178518645,26.303252460633317],[76.83396932525662,26.302217563670794]],[[76.77997438955279,26.266889453087018],[76.78031415291159,26.266247677854324],[76.78215396973403,26.266017700751362],[76.78261392393952,26.264292872480226],[76.78298783753112,26.2637444658793],[76.78411972797315,26.26299225453151],[76.78675351179086,26.26256804420872],[76.7882483629592,26.26446535530735],[76.78853583433792,26.267512551919722],[76.7880183858567,26.268834920261227],[76.78686850034225,26.268834920261227],[76.78525866062259,26.269754828672802],[76.78529604019704,26.270184693779683],[76.78480227036144,26.270145278714082],[76.78497118924415,26.269984805775408],[76.78410877510814,26.26889241453678],[76.78215396973403,26.268547448882515],[76.78018195006948,26.267385599557954],[76.77997438955279,26.266889453087018]]]]},"properties":{"id":"4897"}}]}