{"type":"FeatureCollection","features":[{"type":"Feature","geometry":{"type":"MultiPolygon","coordinates":[[[[83.22241916232653,24.638943210178326],[83.22283365885411,24.638616400825057],[83.2239811197916,24.639223564996],[83.2255938042534,24.639159647623984],[83.225543891059,24.6379007975263],[83.22386149088553,24.637500000000287],[83.22389539930569,24.636643710666547],[83.22592068142362,24.636002502441713],[83.22577745225712,24.63472751193619],[83.22437934027798,24.63546729193824],[83.22386854383663,24.63438469780843],[83.22034179687498,24.634524468316314],[83.21980116102421,24.633941040039332],[83.22058295355899,24.632463751899166],[83.22336235894093,24.6311519029409],[83.22332465277779,24.63019554985928],[83.22057427300362,24.63030456542998],[83.21867106119785,24.631853502062015],[83.21713921440985,24.63104285346158],[83.2150103081598,24.631127217611123],[83.21375922309042,24.63026624891532],[83.21278320312504,24.628605821398054],[83.20847222222241,24.626629672580577],[83.20806098090273,24.625957845052312],[83.20979302300341,24.625545247396175],[83.21027235243056,24.624953002930084],[83.20911078559018,24.624449734158276],[83.20776638454876,24.6251610989045],[83.20516059027787,24.62555026584228],[83.20094455295154,24.62469672309051],[83.20052056206603,24.623798319498988],[83.20054768880223,24.621883578830577],[83.19970513237834,24.62029144287132],[83.19973008897566,24.61966396755669],[83.20077012803827,24.61870032416485],[83.20239474826397,24.619439154731168],[83.20366699218764,24.61856377495691],[83.20659857855898,24.618679979112713],[83.20860568576396,24.61693915473127],[83.2106865776909,24.615886705186952],[83.21193901909729,24.61493713378944],[83.21079779730908,24.613894178602877],[83.20966037326386,24.61504709879587],[83.2081529405381,24.614987352159616],[83.20769856770843,24.612608100043843],[83.20704969618046,24.61222751193597],[83.20639431423618,24.61361640082511],[83.20543809678813,24.614502258301016],[83.20327745225691,24.61499471028688],[83.20217393663208,24.614410841200467],[83.20225097656268,24.61247134738531],[83.19851047092024,24.6124244520402],[83.19761800130229,24.61146121554927],[83.19484374999999,24.6120416259769],[83.19444986979161,24.611756286621386],[83.19545003255209,24.609321085612265],[83.1940779622395,24.605531548394467],[83.19321153428805,24.605565897623976],[83.190583767361,24.60833601209876],[83.18822292751727,24.60860582139783],[83.18775553385424,24.60713029649567],[83.1866612413194,24.60611640082513],[83.1863818359374,24.604942355686248],[83.18541666666667,24.60402777777817],[83.18436903211821,24.604170939127968],[83.18309190538204,24.60554945204015],[83.18008870442716,24.606656053331463],[83.17327989366319,24.608647528754688],[83.17194932725684,24.60859480116129],[83.17167209201384,24.60889417860271],[83.16986111111109,24.609500291612704],[83.16875000000007,24.609110819499037],[83.16751112196178,24.60954505072735],[83.1658124457467,24.610443929036734],[83.16587727864575,24.612078247070613],[83.16332790798603,24.61305026584249],[83.16185546875013,24.613951924642294],[83.16108588324644,24.614782375759845],[83.16112196180543,24.615690782335406],[83.16356553819443,24.618877156575778],[83.16556098090271,24.62082804362022],[83.16698052300339,24.622841898600512],[83.17222764756937,24.62832804362003],[83.17444851345496,24.631356065538483],[83.1749945746528,24.630343119303674],[83.17388346354161,24.628894178602835],[83.17361653645824,24.627166307237744],[83.17495252821172,24.62592824300154],[83.17584092881955,24.624417215983456],[83.17932020399294,24.624555121528033],[83.1800081380209,24.625297478570104],[83.18333875868043,24.625828043620132],[83.18580512152792,24.628490091959932],[83.18722764756942,24.629161376953476],[83.18842122395833,24.630788845486578],[83.18888346354154,24.6341719563805],[83.19009684244796,24.63443915473131],[83.19293863932322,24.633694458008094],[83.19360568576397,24.63472751193619],[83.19595024956593,24.63517510308185],[83.19854573567702,24.637216932508892],[83.20072509765643,24.635545756022367],[83.2014767795138,24.635546569824626],[83.2023160807291,24.63202345106373],[83.2036474609375,24.631395094130127],[83.20467013888887,24.63249891493085],[83.20667209201375,24.63277248806459],[83.20696912977448,24.633402370876993],[83.2069070095487,24.634975416395818],[83.20867567274317,24.6366142442495],[83.21119601779529,24.636086934407757],[83.21246744791685,24.636095886230777],[83.21365966796887,24.636408318414013],[83.21560736762163,24.638084377713],[83.21983615451384,24.639130689833237],[83.22086263020847,24.638587578667867],[83.22180555555545,24.639605339898353],[83.22241916232653,24.638943210178326]]]]},"properties":{"id":"7621"}}]}