{"type":"FeatureCollection","features":[{"type":"Feature","geometry":{"type":"MultiPolygon","coordinates":[[[[79.13249609375012,24.82408496093764],[79.13358593750021,24.823939453125178],[79.13405859374998,24.824189453124987],[79.13529687500002,24.824310546874955],[79.13618359374996,24.823560546875072],[79.13660937500012,24.823359375000095],[79.13680859375015,24.822935546875144],[79.13697656250017,24.822623046874952],[79.13758593750006,24.822439453125057],[79.13805859375017,24.822689453125136],[79.13859375000007,24.822810546875104],[79.13880859375004,24.822537109375077],[79.13855859374999,24.822064453125023],[79.13844140625,24.82131054687507],[79.13830859375017,24.82106445312506],[79.13819140625012,24.819810546874947],[79.13805859375017,24.819564453125125],[79.13794140625001,24.818310546875097],[79.13775000000018,24.818000000000126],[79.13755859375001,24.818060546875017],[79.13681640625,24.818689453125018],[79.13505859374996,24.818810546874985],[79.13481640625011,24.81893945312501],[79.13355859375017,24.819060546875065],[79.13344140625,24.8200644531251],[79.13330078124991,24.8203242187502],[79.13292578125007,24.820309570312546],[79.13269140625025,24.819810546874947],[79.13255859375013,24.819564453125125],[79.13244140625008,24.81931054687506],[79.13233984375015,24.819189453125006],[79.13219140625009,24.81981445312502],[79.13180859374998,24.820310546875106],[79.13169140625027,24.820564453125172],[79.13124609375015,24.821145507812474],[79.13057812500014,24.82131054687507],[79.12969140625015,24.8205605468751],[79.12868359375014,24.820439453125132],[79.12827343750021,24.820221679687634],[79.12769140625008,24.82096289062497],[79.12794140625007,24.821435546875108],[79.12805859375001,24.821678710937505],[79.12705468750008,24.822815429687566],[79.12706640625024,24.823074218750094],[79.12756640625011,24.823310546874993],[79.12780859375013,24.823439453125104],[79.1280664062501,24.823560546875072],[79.12830859375018,24.823689453125013],[79.12856640625009,24.823810546874967],[79.12880859375016,24.823939453125178],[79.12906640625008,24.824060546875145],[79.12930859375015,24.824189453124987],[79.12956640625006,24.824310546874955],[79.12993359375017,24.82451562500019],[79.12955859374998,24.825060546875108],[79.12944140625027,24.82543261718753],[79.13151562500016,24.82556054687508],[79.13214453125002,24.82512597656263],[79.13230859375014,24.824435546874994],[79.13249609375012,24.82408496093764]]]]},"properties":{"id":"19213"}}]}