{"type":"FeatureCollection","features":[{"type":"Feature","geometry":{"type":"MultiPolygon","coordinates":[[[[71.18892089843737,34.33719441731816],[71.19127441406252,34.333604787190964],[71.1940711127385,34.331291181776606],[71.19705539279519,34.33044949001756],[71.20235019259965,34.32972500271292],[71.2099317084417,34.33083290947836],[71.21555833604609,34.33110833062088],[71.21763563368054,34.33146265665712],[71.22221672905815,34.33139728122326],[71.22389166937936,34.33028055826844],[71.22451809353302,34.32898927476698],[71.2280836995441,34.3258860948353],[71.23718004014765,34.328607855903016],[71.23899834526893,34.328886108398734],[71.24123026529927,34.32753260294622],[71.24885959201399,34.31937360975502],[71.2525400119359,34.31719041612443],[71.25374823676194,34.3166042751739],[71.25876322428391,34.316706610785786],[71.26083055284292,34.31610833062092],[71.26524461534294,34.315389760335506],[71.26694166395393,34.314279463026566],[71.26583611382372,34.31150168524873],[71.2666838921439,34.30941151936871],[71.26811218261733,34.30803927951408],[71.27250278049073,34.307502780490736],[71.27475735134536,34.306527303060264],[71.27918755425353,34.299122111003015],[71.2814835611978,34.29627782185898],[71.28939602322063,34.292786526150365],[71.29337049696167,34.28947752210857],[71.29710076226112,34.28741799248607],[71.30068406846786,34.284616817898495],[71.30159722222217,34.2836663818362],[71.30194166395384,34.27944166395427],[71.3022500271268,34.27823855929935],[71.3030864800348,34.276614820692586],[71.30760233561185,34.273754509820165],[71.30980278862833,34.27302425808401],[71.31407647026927,34.269881608751334],[71.31522854275167,34.26794092814153],[71.31639180501284,34.26333591037353],[71.3163854302301,34.25885833740273],[71.31528015136709,34.257796393500755],[71.31489264594168,34.256602206760235],[71.31332499186189,34.255841674804955],[71.31247531467025,34.253571336534506],[71.31252448187936,34.25116183810795],[71.31164469401043,34.24899288601375],[71.31170701768659,34.24594028049073],[71.31055277506496,34.24305833604622],[71.31016140407965,34.23825781928194],[71.30610500759562,34.23376976860915],[71.3060886637368,34.23070482042128],[71.30528055826832,34.22721944173206],[71.30442999945737,34.225568372938554],[71.30445285373273,34.22444908989817],[71.30312004937056,34.22232961018911],[71.30134853786879,34.22164167616131],[71.29972683376732,34.21995378282368],[71.30083611382364,34.21694722493517],[71.30166388617627,34.213431294759445],[71.29997897677939,34.21108852810349],[71.29765930175799,34.20994662814694],[71.2972250027129,34.208608330620905],[71.2957958306205,34.206913892958184],[71.29448323567706,34.20627709282796],[71.29024814181864,34.20279798719638],[71.28852640787741,34.20100592719207],[71.28804300943997,34.19853000217044],[71.28806070963552,34.19683000352671],[71.289628838433,34.1947633870445],[71.29083055284266,34.19388610839869],[71.29444166395402,34.1924972195099],[71.29615193684899,34.19222500271297],[71.30001858181416,34.193624911838484],[71.30137030707479,34.19359731038439],[71.30368604871964,34.194746195475446],[71.30501946343296,34.19471900092253],[71.3066746690537,34.19303022596594],[71.30665289984816,34.19196306016737],[71.30861687554241,34.188477444119215],[71.30861456977001,34.18774651421471],[71.30973598904106,34.18525916205536],[71.30971354166653,34.184158325195554],[71.30888800726976,34.18417517768039],[71.30861389160137,34.18333055284312],[71.30747653537318,34.18192159016955],[71.3066638861761,34.180280558268436],[71.30600084092893,34.17829983181447],[71.30678195529518,34.17399420844224],[71.30638041178369,34.173608432346185],[71.30609720865871,34.17133741590746],[71.30504123263896,34.16922610812739],[71.30640041775186,34.165508626302255],[71.30749721950954,34.163330552843064],[71.30928127712681,34.16227149115707],[71.31070000542556,34.1618111165367],[71.31110833062044,34.16138610839867],[71.31478481716564,34.16028055826857],[71.31723619249121,34.161119622124744],[71.31695800781259,34.16552676730714],[71.31638821072053,34.16751698811876],[71.31546156141488,34.168436821831776],[71.31593377007383,34.16935340033679],[71.3155498589409,34.16972222222243],[71.31583611382362,34.16999721950978],[71.31615139431406,34.17161220974421],[71.31782585991735,34.17202043321426],[71.32240146213095,34.17159535725938],[71.32434624565983,34.170593532986516],[71.3370056152344,34.16999023437526],[71.33944722493479,34.16916944715743],[71.34305820041234,34.16722510443816],[71.34472663031679,34.16587829589871],[71.34701429578982,34.16452029758055],[71.3525541178386,34.163618435330164],[71.35416388617634,34.164169447157434],[71.35704583062076,34.164449361165595],[71.35777499728718,34.16355943467913],[71.35612372504326,34.16197292751767],[71.35333055284278,34.16166944715745],[71.35069702148448,34.16107703314911],[71.3484718831381,34.161122470432105],[71.34583611382365,34.16278055826848],[71.34482747395825,34.163107842339784],[71.34444722493478,34.163891669379595],[71.34235555013012,34.16554999457489],[71.34184631347662,34.16659969753714],[71.33877516004767,34.16812896728548],[71.33583055284274,34.1686083306209],[71.33356072319864,34.16947458903026],[71.32816847059459,34.16943257649761],[71.32335191514741,34.16970842149557],[71.32226108127165,34.17027038574244],[71.32023790147579,34.17084103054496],[71.31775831434467,34.171107889811466],[71.3171751573349,34.1705008951825],[71.31723198784701,34.16771660698811],[71.31806423611116,34.16528516981366],[71.3180708143448,34.16355695936443],[71.31916944715695,34.16166944715745],[71.31944166395388,34.16065351698164],[71.31847222222231,34.159305555555775],[71.31662421332445,34.15973551432313],[71.31215101454004,34.159737854004106],[71.3094258626302,34.16112491183847],[71.30721530490436,34.16146535237664],[71.30722513834624,34.16194712320991],[71.30667378743473,34.162476806640896],[71.30549377441392,34.164834018283656],[71.30416944715702,34.166947224935186],[71.3034907362194,34.16759935167127],[71.30405836317286,34.16981421576642],[71.30472500271262,34.17110833062098],[71.30500739203538,34.172554829915825],[71.3049913194445,34.17639723036048],[71.30444173177088,34.17638600667344],[71.30388468424482,34.177220831977166],[71.30462198893227,34.179909159342685],[71.30528611924942,34.18054721408461],[71.30592129177509,34.18185648600287],[71.3066694471569,34.18221944173199],[71.30767462836369,34.183265618218584],[71.30833055284282,34.18538720024989],[71.30721733940973,34.18722296820772],[71.30749654134118,34.18780904134138],[71.30610833062067,34.19055277506543],[71.30545688205282,34.19256022135454],[71.30436855739995,34.19308824327281],[71.3002749972874,34.19250278049074],[71.29750257703998,34.1913860066734],[71.29495171440962,34.19111494276288],[71.29162536621075,34.19278544108104],[71.29109280056409,34.19277455647806],[71.2887286376953,34.193749593099184],[71.28703647189681,34.19542897542341],[71.28666375054232,34.199724799262455],[71.28874966091578,34.20296152750673],[71.29184529622378,34.20515760633707],[71.29275105794252,34.2061003282338],[71.2953829616969,34.20759246826195],[71.29639166937918,34.208608330620905],[71.29704311794708,34.2106157769101],[71.2983257378473,34.21123806423638],[71.29862630208336,34.21553724500893],[71.29804538302946,34.21780388726157],[71.29749721950944,34.21833055284311],[71.2972250027129,34.219474351671394],[71.29860833062051,34.22083611382412],[71.29921027289501,34.22112813313818],[71.30327833387591,34.225475463867454],[71.3038248697915,34.22883280436223],[71.30459445529519,34.230039910210834],[71.3050889078776,34.23408667670394],[71.30471930609795,34.23444176567959],[71.30473124186219,34.23502499050589],[71.30830586751304,34.23826819525847],[71.30862996419282,34.2389362928606],[71.30858039008231,34.24136484781924],[71.30889180501308,34.24166398790172],[71.30947781033004,34.24453365749807],[71.31063544379353,34.24720194498725],[71.31007527669274,34.249387546115685],[71.3105634901257,34.25224972195123],[71.31056911892367,34.2546913316517],[71.31434495713964,34.2593688286678],[71.3150238715277,34.26285736084019],[71.31499064127584,34.26448716905409],[71.31444166395383,34.265552775065245],[71.31389166937922,34.26805833604625],[71.31225090874548,34.27022069295268],[71.3047588433158,34.274406043158905],[71.3019031439886,34.27698706732885],[71.30089443630621,34.279066212972324],[71.30055440266935,34.282543114556475],[71.29970241970497,34.284196896023445],[71.29751810709641,34.285256601969735],[71.29487623426641,34.287580668131824],[71.29230346679665,34.288828837077276],[71.28833611382387,34.292502780490764],[71.28728949652762,34.293010559082305],[71.28496046278198,34.29333568996887],[71.28116929796013,34.29463333129908],[71.27862114800351,34.29728546142614],[71.27433580186639,34.304042290581805],[71.27263644748277,34.30567499796575],[71.26968844943556,34.30639366997637],[71.2682524956596,34.30713338216174],[71.26517103407119,34.30750993516732],[71.2641966417099,34.30899607340521],[71.2633231608074,34.312803904215784],[71.26250542534709,34.313589579264715],[71.25537550184455,34.31436423407702],[71.25361389160142,34.31555833604632],[71.2513861083983,34.31583055284315],[71.24604166666663,34.31734480116127],[71.2441528998481,34.31862511528888],[71.24322435167093,34.321974080403876],[71.2408361138238,34.32500278049061],[71.24023478190097,34.325580563015635],[71.2378870307073,34.32634240044513],[71.2363916693794,34.32583055284323],[71.23414245605474,34.325555708143696],[71.23239617241742,34.324656117757414],[71.22881544325091,34.32389166937958],[71.22484469943575,34.3245689392093],[71.22049811469188,34.32725190904422],[71.21639187282975,34.32858439127634],[71.21354851616755,34.328886108398734],[71.21083611382383,34.32833055284321],[71.20208570692259,34.32770402696431],[71.19748114691825,34.32779800415061],[71.19244032118061,34.32897082858649],[71.19020222981757,34.330328047011065],[71.18935343424462,34.33121153089773],[71.18823092990456,34.33063329060893],[71.18460659450957,34.33196918063713],[71.18138414171008,34.33457043117974],[71.1777431911892,34.335597364637835],[71.17348266601542,34.33551042344857],[71.1662983534072,34.33131167941646],[71.16572686089413,34.330716840956285],[71.16509331597209,34.32811796400317],[71.16364203559013,34.32672361585858],[71.15986626519086,34.32581054687523],[71.15834648980015,34.325841573079586],[71.15665846082905,34.32526377360057],[71.15668626573338,34.323902367486156],[71.15583611382365,34.322143300374805],[71.15694166395392,34.31694166395428],[71.15820705837669,34.31507485283774],[71.15860833062064,34.313986833360644],[71.15691189236091,34.31162799411388],[71.15468410915784,34.30997660319049],[71.15226847330726,34.30919270833364],[71.15170030381947,34.30570246378605],[71.15223042805988,34.304153493245764],[71.15251281738259,34.30132290310358],[71.15244757758236,34.29812571207725],[71.15152221679702,34.29542222764786],[71.15106852213526,34.2930981445315],[71.14944166395404,34.29278055826862],[71.1488397216797,34.29215404934379],[71.14719231499546,34.291391669379564],[71.1458898925782,34.292062615288884],[71.14433627658426,34.29153084649002],[71.14275343153216,34.290253109402414],[71.14221510145379,34.289143490261765],[71.14138956705713,34.288350338406275],[71.14111389160135,34.287219441732105],[71.14026658799904,34.28610283745692],[71.1395779079862,34.28611689249708],[71.14028096516907,34.287481723361935],[71.14027201334622,34.28792190551782],[71.14139600965703,34.28974539862757],[71.14369439019075,34.29199722290058],[71.1472250027127,34.293330552843216],[71.14776943630667,34.29389723036057],[71.14944166395404,34.29472500271292],[71.15055833604598,34.29499721950984],[71.1508305528429,34.29529678344768],[71.1499913194443,34.29610309177001],[71.15003384060319,34.29818717108856],[71.1505637613931,34.299735395643694],[71.15046352810307,34.304647572835634],[71.14999606662323,34.305554996066846],[71.15096666124143,34.30917222764778],[71.1514029947916,34.31001922607456],[71.15771626790368,34.31382341172984],[71.15720831976981,34.31530746460004],[71.15583841959611,34.31662367079012],[71.15555833604597,34.31805833604632],[71.15499708387588,34.31888627794082],[71.15470831977004,34.320607028537765],[71.15353644477003,34.32354061550596],[71.15389919704867,34.32531165228977],[71.15665459526903,34.32664844089109],[71.157780558268,34.32749721950985],[71.1582839626735,34.32853480021184],[71.15972500271252,34.328886108398734],[71.16168986002609,34.330007120768514],[71.16330641004757,34.3316026814781],[71.16400227864594,34.33298972235812],[71.17029724121076,34.338286217583814],[71.1735710991754,34.33916414048957],[71.17783087836372,34.341139814589],[71.18002665201809,34.34166388617646],[71.18337327745209,34.33963439941435],[71.18666978624131,34.338813408745835],[71.18892089843737,34.33719441731816]]]]},"properties":{"id":"4573"}}]}