{"type":"FeatureCollection","features":[{"type":"Feature","geometry":{"type":"MultiPolygon","coordinates":[[[[107.80986538357112,12.917379286024726],[107.81081698947392,12.91732259114616],[107.81178161620997,12.91784681532151],[107.8129019504112,12.916085205078417],[107.81400383843206,12.915486518012628],[107.81552944607111,12.9178850640195],[107.81685078938696,12.918359239366666],[107.8175449625642,12.917081976996926],[107.81615119086277,12.915283338759025],[107.8164281548384,12.913948160807621],[107.8172148301858,12.912500542535085],[107.81397399902252,12.912693684896212],[107.81281785752944,12.911797688802437],[107.81004876030724,12.91147338867222],[107.80775953504687,12.909525960286913],[107.80655999077581,12.908888888889237],[107.80477342393547,12.909127875434365],[107.80473083495977,12.909841986762487],[107.80562167697386,12.910161675347595],[107.8066655137795,12.910099555121832],[107.80718499077594,12.911055501302357],[107.80736619737306,12.915208740234775],[107.80642896864057,12.916257866753853],[107.80420674641815,12.917551540798996],[107.8044782850466,12.918225640191295],[107.8063275146475,12.918796657986476],[107.806858927408,12.920277777778182],[107.80615119086261,12.922250569661898],[107.8069337971996,12.923433024088894],[107.80763258192187,12.921169704861398],[107.8086511908626,12.920702311198326],[107.80986538357112,12.917379286024726]]]]},"properties":{"id":"22759"}}]}