{"type":"FeatureCollection","features":[{"type":"Feature","geometry":{"type":"MultiPolygon","coordinates":[[[[102.43681667751426,18.199444444444865],[102.4367993164033,18.199010959201786],[102.43738769530964,18.199034288194824],[102.43853732638573,18.20105387369837],[102.43974907768805,18.200629204644585],[102.44041124131653,18.199458821614982],[102.43903320312202,18.197119818793865],[102.43975585937207,18.19625528971399],[102.4409722222193,18.19709228515663],[102.44240505642065,18.19610636393277],[102.44234971787907,18.19471191406288],[102.43995551214968,18.195126139323463],[102.43873426648994,18.194285753038628],[102.43875651041347,18.193723551432655],[102.4399099392331,18.193179117838895],[102.43984510633359,18.191542561849403],[102.44135606553513,18.189164496528207],[102.4434711371496,18.190539550781608],[102.4504079861081,18.18924926757866],[102.45299018011846,18.18700968424521],[102.4545887586776,18.186255289713912],[102.45729871961501,18.183824462891067],[102.46004774305263,18.183169623481263],[102.46099500867749,18.180736897786772],[102.46209716796588,18.179299723307793],[102.46315049912894,18.178755289713934],[102.46346679687198,18.180472547743406],[102.46236816405931,18.18149061414978],[102.46124213324364,18.184306233724428],[102.46165907117742,18.185093722873603],[102.46338840060454,18.184221733941342],[102.46375406900731,18.182306179470928],[102.46509738497954,18.180984022352817],[102.46656548393801,18.180087212457053],[102.46707790798317,18.177305230035117],[102.46631510416367,18.17586317274349],[102.46558159721909,18.171852620443104],[102.46229031032672,18.17145874023474],[102.46087836371217,18.16927218967058],[102.46010932074338,18.166533067491727],[102.45893527560443,18.168350965712207],[102.45958875867743,18.169300265842452],[102.45985568576069,18.17056993272608],[102.45789171006643,18.17103773329032],[102.45792724609058,18.171932508680896],[102.46014431423302,18.172355821398043],[102.46074273003151,18.172672526042064],[102.46075764973645,18.17576076931455],[102.45875542534415,18.17708862304721],[102.45770779079552,18.177355821398038],[102.45674533419825,18.175865342882403],[102.45422417534414,18.173329264323343],[102.45245008680243,18.17202813042573],[102.45166829426793,18.17244181315141],[102.45224338107326,18.175744900174067],[102.45191080728861,18.176244710286824],[102.45046359591717,18.175248887804216],[102.45014431423314,18.17291137695348],[102.44985432942397,18.17236382378516],[102.45018500433738,18.17046468098995],[102.44903727213247,18.16896796332513],[102.4503523762991,18.167749430338873],[102.44982476128163,18.166751980252258],[102.44985460069134,18.165112440321508],[102.44752115885123,18.163957383897937],[102.44798285589982,18.16308485243094],[102.44761854383378,18.162045627170613],[102.44652262369496,18.162089029948334],[102.44611111110831,18.16138888888925],[102.44511013454544,18.161525607639263],[102.44458821614288,18.162089029948334],[102.4438191731742,18.16205851237018],[102.44221489800034,18.16247884114624],[102.4413967556392,18.16493706597278],[102.44237820095194,18.166791856554255],[102.44235541449356,18.16736545138926],[102.442922092011,18.168744710286845],[102.44318901909426,18.171144748264453],[102.4423266601531,18.17239827473996],[102.44118923610822,18.17235324435805],[102.43997151692398,18.171708848741716],[102.43744493272274,18.164459906684428],[102.4367689344588,18.165189344618483],[102.43677951388574,18.167604709201754],[102.43744167751439,18.16885620117226],[102.43730523003157,18.17068915473132],[102.43212103949352,18.16819973415845],[102.43555555555238,18.172513970269563],[102.43801730685468,18.173293321398077],[102.43790879991033,18.176030409071572],[102.43705566405939,18.17682101779556],[102.43626871744502,18.176789822049045],[102.43339599609064,18.177911376953645],[102.43108886718429,18.17542141384594],[102.42986653645531,18.175311414930988],[102.43092475043088,18.176849500868443],[102.43124457464964,18.178235948351045],[102.42949273003157,18.179062771267837],[102.42791178385127,18.179000108507267],[102.4269807942679,18.18000488281298],[102.4243495008649,18.178150499132315],[102.42338677300037,18.1766596137156],[102.42188259548297,18.175556369358034],[102.42086181640312,18.176657986111508],[102.42156494140332,18.17767971462716],[102.42264431423317,18.178189154731314],[102.42535291883362,18.18039360894133],[102.42568901909422,18.181832817925766],[102.42426595051771,18.18177639431464],[102.4243240017332,18.183243272569868],[102.42608344183722,18.18317355685808],[102.4283344183996,18.1807442220056],[102.42973822699335,18.181486952040316],[102.43152235242766,18.181214463976033],[102.4307850477401,18.180531141493518],[102.43155354817398,18.179866400825148],[102.43207790798309,18.180977511936177],[102.43253363714976,18.18124471028682],[102.43374457464964,18.180411376953458],[102.43458875867756,18.1801441786029],[102.43573784721903,18.178997802734713],[102.43851047091712,18.178479275174],[102.43846435546575,18.179641520182685],[102.4371351453963,18.18087334526942],[102.4381890190941,18.18158365885452],[102.43763346353856,18.182633599175688],[102.43734510633371,18.184145372179188],[102.43615993923319,18.18491048177131],[102.43412272135114,18.185555555555922],[102.43516655815657,18.186522894965748],[102.43512641058729,18.187537027995205],[102.43374457464964,18.188189154731376],[102.43347547742744,18.189600016276387],[102.43089925129917,18.189497884115],[102.4304220920109,18.18968004014792],[102.43184461805251,18.190998263889284],[102.4329833984344,18.190953097873646],[102.43509412977116,18.189588623047456],[102.4356890190941,18.19007351345519],[102.43457790798314,18.191522488064635],[102.43347764756632,18.19403306749166],[102.43286078558734,18.19485582139791],[102.43075602213227,18.19374199761323],[102.42957546657672,18.19378879123306],[102.42792209201102,18.195317925347595],[102.43009440103853,18.195732693142716],[102.4290223524275,18.198189154731267],[102.42834120008374,18.20077039930605],[102.42905002169826,18.202109917535196],[102.42991048176785,18.20207587348122],[102.42986897786162,18.20007798936672],[102.43069417317403,18.198518744575125],[102.43096679687179,18.1965224880648],[102.431295030379,18.195902506510805],[102.43353190103855,18.195991075304164],[102.43344536675048,18.199007703993416],[102.43498969183739,18.20083509657165],[102.43541124131642,18.202711588542073],[102.4335842556392,18.205366889106386],[102.4347403971324,18.206244710286853],[102.43584581162898,18.204376491970805],[102.43814805772254,18.203936903212252],[102.43846679687212,18.20281643337721],[102.43679714626441,18.199937472873614],[102.43681667751426,18.199444444444865]]]]},"properties":{"id":"10149"}}]}