{"type":"FeatureCollection","features":[{"type":"Feature","geometry":{"type":"MultiPolygon","coordinates":[[[[100.28481345282219,21.915450032552627],[100.28591630723295,21.914866536458774],[100.28697206284838,21.91532389322964],[100.28864961411776,21.917074110243703],[100.29234046087888,21.915520833333773],[100.29238655937624,21.914357910156724],[100.29187462700295,21.91289713541724],[100.29286807589634,21.911825086806033],[100.29620659721778,21.911002332899784],[100.29671971638552,21.910526801215795],[100.29721162583647,21.9084616427957],[100.29818327161561,21.906625434028257],[100.29571819728855,21.906154785156744],[100.29570010714636,21.904301757813002],[100.29529379950188,21.902750922309608],[100.2961948649046,21.903723415799163],[100.29735159979478,21.904128960503996],[100.29740844726123,21.902694769965763],[100.29679662068261,21.901805555556095],[100.29763359917106,21.90058919270885],[100.29625528970914,21.8990633138026],[100.29677005343538,21.896844075521372],[100.2990416632716,21.89513861762211],[100.29749999999561,21.89416666666719],[100.2945775858519,21.894331597222717],[100.2932149420802,21.894974772135953],[100.29026479084862,21.897708062066528],[100.28949022080744,21.898907606337374],[100.28790941026037,21.900372450087318],[100.28795308430543,21.901474338108144],[100.28692733764208,21.904308810764377],[100.28292531330956,21.91226833767412],[100.28258336384661,21.914414876302573],[100.28142406887073,21.917595486111694],[100.28250233967682,21.917973361545663],[100.28348281859914,21.917510579427613],[100.28481345282219,21.915450032552627]],[[100.28515424939874,21.91223388671932],[100.28549087523973,21.91049370659782],[100.28767661200229,21.91054226345537],[100.28985622829427,21.909601508247064],[100.29111111110686,21.9094444444451],[100.29206797281458,21.91073432074704],[100.29108776515963,21.91173909505258],[100.28739520602332,21.912860514323526],[100.28613284640417,21.91301757812559],[100.28515424939874,21.91223388671932]]]]},"properties":{"id":"9816"}}]}