{"type":"FeatureCollection","features":[{"type":"Feature","geometry":{"type":"MultiPolygon","coordinates":[[[[76.4703020562068,27.804226752387407],[76.47013888888918,27.803750000000235],[76.46961046006956,27.803921440972587],[76.46916937934046,27.80528049045168],[76.46831841362868,27.805838487413467],[76.4671341959639,27.80796752929716],[76.46500271267402,27.80838365342919],[76.46569864908892,27.809682074653068],[76.46757826063381,27.811108398437838],[76.46809204101592,27.81081692165823],[76.46805270724852,27.80888631184932],[76.46870537651941,27.806444769965637],[76.47026719835074,27.80593790690132],[76.4703020562068,27.804226752387407]]]]},"properties":{"id":"18521"}}]}