{"type":"FeatureCollection","features":[{"type":"Feature","geometry":{"type":"MultiPolygon","coordinates":[[[[108.19863301594947,12.644893663194864],[108.1982909478073,12.640772026910142],[108.19614630805032,12.636989746094045],[108.19517110188721,12.63611111111149],[108.19318027072396,12.636314290364922],[108.192542521158,12.638050944010871],[108.19285122341492,12.64023627387185],[108.19433044433507,12.642597927517741],[108.19548278808477,12.641260308160156],[108.19721021864044,12.641555718316312],[108.19795647515085,12.644839409722564],[108.19863301594947,12.644893663194864]]]]},"properties":{"id":"22851"}}]}