{"type":"FeatureCollection","features":[{"type":"Feature","geometry":{"type":"MultiPolygon","coordinates":[[[[78.68171902126781,29.631285400391036],[78.68299126519136,29.628059692383232],[78.68656087239614,29.627986857096715],[78.68850179036488,29.629163886176784],[78.68968098958376,29.62868316650436],[78.69025661892394,29.62756561279336],[78.6903187391496,29.624518703884988],[78.68887668185792,29.624167175293422],[78.68824544270862,29.62286573622002],[78.68696723090315,29.62224568684941],[78.68280788845524,29.619337497287717],[78.682502712674,29.617774997287754],[78.68173231336837,29.616279229058478],[78.68221950954896,29.615274997287756],[78.68407362196214,29.61297797309068],[78.68469129774334,29.611704813639847],[78.68779188368083,29.611352640788155],[78.68967502170167,29.613312513563784],[78.69166341145856,29.61335310194275],[78.69169162326412,29.61196611192534],[78.69083604600743,29.61138610839889],[78.6894574652782,29.611050008138548],[78.68943033854205,29.6097317843971],[78.69144856770859,29.608913167318093],[78.69441514756991,29.60885264078817],[78.69471950954912,29.609169548882775],[78.69514431423644,29.609160902235644],[78.6956849500871,29.61027499728786],[78.696115993924,29.608707648383685],[78.69609239366375,29.60755906846842],[78.69748101128502,29.60611389160198],[78.69870713975726,29.60794698079468],[78.69946153428847,29.60722222222276],[78.69787082248317,29.60501227484869],[78.69994710286491,29.60496988932337],[78.7013956705733,29.60591963026313],[78.70137505425404,29.60693305121562],[78.70243109809061,29.607477179633676],[78.70282226562531,29.60595075819262],[78.70139160156273,29.603085462782516],[78.70284478081626,29.601947224935344],[78.70435818142394,29.602340766059484],[78.70526394314285,29.60416354709244],[78.70583034939293,29.604175109863704],[78.7058420138894,29.603603413900075],[78.70490044487892,29.601775851780033],[78.7054752604171,29.60117770724871],[78.70860812717038,29.600566101074648],[78.70861816406276,29.600066019694424],[78.7069471571186,29.599658643934816],[78.70786024305593,29.597453748915456],[78.71130533854208,29.594213901096268],[78.71297987196206,29.593351203071165],[78.71527262369821,29.594281141493425],[78.71528103298667,29.593864847819404],[78.71444010416693,29.593056945801237],[78.71508436414982,29.589651523166594],[78.71663682725719,29.588058336046416],[78.71739718967044,29.588725179036842],[78.71841335720543,29.59027499728772],[78.71971950954892,29.589531656901414],[78.71861382378538,29.586696573893676],[78.71968967013916,29.585002780490896],[78.72083604600752,29.585274997287655],[78.7225461154517,29.58665547688841],[78.72520100911484,29.585287848578886],[78.72583604600752,29.58527489556262],[78.72663682725747,29.5861083306211],[78.72739800347276,29.58416944715745],[78.72945963541693,29.584443325466992],[78.7307926432297,29.585830552843248],[78.73087348090306,29.584807230631924],[78.72972520616358,29.581097751193994],[78.72805826822949,29.57949612087718],[78.72971950954891,29.57782945421046],[78.72860595703182,29.57666710747648],[78.72944715711836,29.57555833604644],[78.72999728732688,29.57416388617665],[78.73166395399338,29.57214402940582],[78.7311138237852,29.57166388617665],[78.73000678168435,29.571304626465334],[78.72997477213588,29.569739379883217],[78.73072970920177,29.56935045030427],[78.73239800347247,29.57102199978337],[78.73471950954891,29.571587897407156],[78.73440782335118,29.57231740315798],[78.7322249348961,29.57441453721826],[78.73333631727476,29.576386210124085],[78.73319444444476,29.580972222222698],[78.73416829427114,29.578874749078096],[78.73638536241347,29.578919982910605],[78.73639458550375,29.578466762967068],[78.73499131944502,29.577785949707533],[78.73498589409772,29.576391669379717],[78.73778049045168,29.576663886176632],[78.7383414713544,29.576952887641525],[78.73971950954919,29.5755854627825],[78.73778374565998,29.57460276285849],[78.73775824652822,29.573351203071212],[78.73861789279559,29.57276858859632],[78.7407872178824,29.57388610839898],[78.7408582899308,29.573087192111984],[78.74003445095516,29.572229715983482],[78.73867865668447,29.57178978814062],[78.7379847547746,29.570442674425365],[78.73888237847271,29.568229437934406],[78.73891384548634,29.5666965399852],[78.73808512369843,29.565473870171814],[78.73914740668462,29.56334743923648],[78.74024793836853,29.562780558268628],[78.74080729166698,29.56327100965754],[78.74268690321216,29.566411810981364],[78.74362006293435,29.569138726128827],[78.7435866970491,29.57077897813639],[78.7441696506082,29.573053181966614],[78.74414713541731,29.57415622287367],[78.74521972656274,29.57452334933855],[78.74615532769124,29.573142835829444],[78.74609266493118,29.570068189833236],[78.74665473090326,29.56833641899992],[78.75082356770864,29.569100545247792],[78.75078586154544,29.572185397678453],[78.75178629557323,29.57286349826427],[78.75315863715329,29.572156439887536],[78.75649956597258,29.574230957031645],[78.75896891276076,29.5764434475373],[78.7585139973962,29.577772962782475],[78.76036376953172,29.577474500868448],[78.76249891493089,29.578874443902393],[78.76287597656287,29.580036451552047],[78.76749728732668,29.58305833604642],[78.76889160156301,29.58333055284335],[78.77069824218793,29.584533318414046],[78.7732964409727,29.58785858154343],[78.77371202256981,29.590294019911468],[78.77132405598988,29.590245259603236],[78.76835693359439,29.59249667697523],[78.7669843207469,29.592524685330247],[78.76460611979198,29.591117248535497],[78.76227023654567,29.591092258030102],[78.76085422092038,29.592452765571124],[78.76081976996576,29.594142557780387],[78.76211751302137,29.597767130534322],[78.76283799913242,29.597781846788592],[78.76241210937533,29.593615722656594],[78.76435302734407,29.593576117621964],[78.76794786241342,29.59432681613545],[78.76841389973984,29.594811638726597],[78.77028049045182,29.594447224935365],[78.77229953342052,29.593423970540897],[78.77336073133725,29.594489983453073],[78.77636881510458,29.593902791341506],[78.77693549262196,29.593358323839496],[78.77692057291719,29.59064019097262],[78.77722032335114,29.589717000325933],[78.77876708984402,29.590513882107658],[78.78189832899332,29.591316324870206],[78.78748752170188,29.59168100992879],[78.79111789279543,29.59285909016971],[78.79109700520891,29.593885769314696],[78.79139160156276,29.59389177110505],[78.79261176215331,29.59296583387639],[78.79544813368082,29.594379984538108],[78.79600911458371,29.596108330620993],[78.79679443359416,29.595549587674057],[78.79596516927117,29.593891669379758],[78.79892171223983,29.594166666667107],[78.80148003472269,29.595025872124992],[78.80361382378501,29.596108330620993],[78.80564046224012,29.59748213026303],[78.80943820529544,29.59789476182769],[78.80943033854194,29.599163547092445],[78.81127495659749,29.598229471842856],[78.81994357638936,29.59999599880676],[78.8210812717019,29.599992099338465],[78.82607313368104,29.60192104763493],[78.82897271050379,29.60454861111151],[78.82984049479202,29.604101596408825],[78.83111382378527,29.604719441732172],[78.83252278645884,29.605856797960485],[78.83472140842039,29.606923455132858],[78.83499972873298,29.608349507650075],[78.8358344184031,29.609151306152782],[78.8367399088547,29.613578762478696],[78.83497721354203,29.615272318522543],[78.83777452256973,29.618036126031356],[78.83776367187554,29.619163547092484],[78.83832600911515,29.61917500813847],[78.8389078776045,29.617740376790707],[78.8388699001741,29.615880737305105],[78.83953993055584,29.614499918620197],[78.84110839843808,29.613990953233923],[78.8406098090284,29.61278171115491],[78.83926079644127,29.612754177517857],[78.83871310763922,29.614441663954395],[78.83707817925401,29.613483208550903],[78.83666937934052,29.608886108398806],[78.83629340277801,29.607049594455745],[78.8373969184033,29.605901048448743],[78.83917127821215,29.60647684733118],[78.84305284288237,29.608891669379815],[78.84489637586856,29.60950778537368],[78.84766330295182,29.607505154080258],[78.84909179687551,29.607476026747364],[78.85030083550376,29.608062676324195],[78.85135904947984,29.609163886176646],[78.85290744357687,29.60879536946652],[78.85204047309051,29.607516649034764],[78.85562635633724,29.60712707519579],[78.85832980685817,29.604474995931326],[78.85834174262177,29.603891906738667],[78.85778591579904,29.603880547418072],[78.85649820963576,29.604543897841197],[78.8556480577262,29.603727315267378],[78.85528049045186,29.602219441732274],[78.85416232638929,29.60055592854863],[78.85471950954914,29.599474351671404],[78.85241943359406,29.598822258843768],[78.85055826822949,29.597602064345082],[78.85084662543423,29.597196994358015],[78.85302978515656,29.597241550022147],[78.85378770616344,29.59651329888284],[78.85278049045198,29.595830552843225],[78.84806369357685,29.595542026096297],[78.8480468750005,29.594719712999563],[78.85444173177112,29.594421590169674],[78.85361382378497,29.593608330621166],[78.85275906033038,29.59333095974442],[78.8519143337679,29.592451646593233],[78.84530327690996,29.593098246256915],[78.84348876953155,29.594475097656655],[78.84148546006978,29.595160827637088],[78.84080674913227,29.59237640380897],[78.83856960720519,29.590570509169353],[78.83725206163248,29.59194166395436],[78.83573404947967,29.591580369737855],[78.83526584201437,29.59109286838151],[78.83362304687532,29.59029602050822],[78.8330851236984,29.589736124674886],[78.83155761718777,29.589213256836345],[78.82239556206636,29.59194166395436],[78.82166395399352,29.591113891602006],[78.82110839843793,29.589725002713223],[78.82064208984409,29.587336764865825],[78.81869954427142,29.586706373427134],[78.81930013020892,29.58485555013064],[78.82027506510465,29.583918796115924],[78.81952690972255,29.583065728081934],[78.81860351562531,29.583046908908784],[78.81643500434089,29.584163886176626],[78.81333333333376,29.583607381185374],[78.81250244140656,29.583891771104987],[78.81144368489615,29.58389628092489],[78.80999728732687,29.583613891602113],[78.80864718967044,29.582589484321247],[78.80572292751779,29.58367214626783],[78.79672661675394,29.581413879394944],[78.7951006401913,29.580625000000424],[78.79415825737905,29.579719543457358],[78.79417236328155,29.579022318522505],[78.79333062065999,29.57861389160186],[78.79259711371574,29.57675462510892],[78.79110839843801,29.576391669379717],[78.79075873480954,29.57567101372652],[78.78748806423644,29.573037312825946],[78.78601209852465,29.572321302626193],[78.78465277777812,29.570050320095817],[78.78581434461833,29.568891669379724],[78.78860541449703,29.569866536458704],[78.78865044487904,29.567649773492263],[78.78718234592063,29.566919759114967],[78.7852617730039,29.566958957248687],[78.78636447482691,29.56550598144581],[78.78639756944497,29.5638868204757],[78.78361382378543,29.563546685113437],[78.78555853949692,29.562485894097605],[78.78718614366355,29.562486572265968],[78.78806098090323,29.562911105686126],[78.78923638237896,29.56470380995053],[78.7911078559031,29.564741990831564],[78.79055826822949,29.563363240560278],[78.79091471354198,29.562229071723564],[78.79249186197958,29.562196892632798],[78.79318630642413,29.563628268772106],[78.79444444444502,29.56360260009808],[78.79498616536503,29.56471944173218],[78.79554009331648,29.564207221137707],[78.79609727647599,29.56305833604638],[78.79767768012178,29.5634398735899],[78.79956542968782,29.56471944173218],[78.80069878472253,29.564287990994373],[78.79814615885451,29.5616984727652],[78.79666368272623,29.561113857693556],[78.79665879991367,29.560302768283876],[78.79699951171924,29.559600016276534],[78.79943739149329,29.557768249512222],[78.80149631076418,29.559163886176677],[78.80277506510461,29.558198852539505],[78.80198866102475,29.555607265896697],[78.80138075086839,29.554974636502138],[78.79999755859407,29.555002882216087],[78.7989187282989,29.554447224935274],[78.7972070312504,29.554775017632792],[78.79610839843772,29.555830552843233],[78.79479003906275,29.55805135091188],[78.79091796875028,29.55807932535855],[78.78946044921926,29.55760637071438],[78.79190700954913,29.556419440375834],[78.79249294704906,29.555856526693148],[78.79319986979218,29.554450208876375],[78.79250813802108,29.55443610297344],[78.79142008463575,29.554996541341595],[78.7908251953128,29.55500868055603],[78.78975206163247,29.55389166937968],[78.78833062066028,29.554163886176596],[78.78746202256977,29.554752638075485],[78.78500325520864,29.554702453613643],[78.78500325520864,29.55529201931462],[78.78366292317733,29.55526465521963],[78.78277506510457,29.55555277506548],[78.78197509765656,29.556385430230478],[78.78084689670195,29.556408454047812],[78.77972195095518,29.55582892523914],[78.77850368923637,29.55665469699474],[78.77669053819474,29.556691691081113],[78.77555826822956,29.55519958496147],[78.77641845703178,29.554123467339792],[78.78077853732671,29.551991678874032],[78.78166395399339,29.551141018338072],[78.78111083984405,29.550828857422204],[78.77989257812524,29.55165469699483],[78.77863118489611,29.551680433485643],[78.77750949435793,29.550602789985163],[78.777481011285,29.54921108669744],[78.77783881293445,29.548165893555094],[78.77723497178866,29.546993950738255],[78.78166368272636,29.547786220974785],[78.7816780598964,29.547080620660168],[78.77916937934074,29.545569288466197],[78.7799945746531,29.545127733019143],[78.78135904947973,29.54583055284317],[78.78139187283037,29.545275573730905],[78.78083604600718,29.544196573893686],[78.78117323133719,29.542780558268674],[78.78166937934091,29.543330552843443],[78.78203477647597,29.544456787109738],[78.78384901258718,29.54441975911493],[78.78444417317738,29.54472625732477],[78.78591037326427,29.54413146972692],[78.78719889322949,29.546096462673944],[78.78860785590311,29.546125217014364],[78.78805311414979,29.54385979546481],[78.78722493489616,29.54225212944921],[78.78794786241363,29.541113891601952],[78.78972493489633,29.541386108398967],[78.79134819878524,29.541941663954475],[78.79173719618106,29.54127590603342],[78.7897463650178,29.540277608236096],[78.78552354600728,29.539714355469187],[78.78392876519135,29.53974690755244],[78.78332519531298,29.539436102973468],[78.78167507595523,29.53945278591624],[78.78127848307324,29.538682691786434],[78.78324951171922,29.536023864746568],[78.78721950954903,29.534441663954496],[78.79054985894149,29.53403472900432],[78.79056396484398,29.533336351183138],[78.78236924913236,29.533725552029452],[78.77787516276098,29.533215094672798],[78.77500271267397,29.53639166937971],[78.77136067708366,29.53862338595978],[78.7705916341151,29.53942386203383],[78.76696614583366,29.539497850206573],[78.76653727213571,29.53861389160204],[78.7660970052087,29.5388932969839],[78.76611952039983,29.53999721951],[78.76471950954894,29.539725002713155],[78.7643589952261,29.53861389160204],[78.76388617621572,29.538886108398785],[78.76352566189283,29.53999721951],[78.76165825737897,29.53972415500263],[78.76168646918458,29.53833655463363],[78.7597222222225,29.539170871311157],[78.75864095052114,29.53861389160204],[78.75457817925403,29.539420640733894],[78.75277804904547,29.538328993055956],[78.75169650607668,29.538886108398785],[78.74966362847275,29.537517598470387],[78.74615180121558,29.538886108398785],[78.74583604600721,29.53555277506561],[78.74472493489625,29.532540791829817],[78.74499728732681,29.53166388617666],[78.74657958984412,29.53127811008069],[78.74570610894128,29.5304386732316],[78.74668782552115,29.52941680908239],[78.74914550781304,29.527805413140555],[78.74972493489614,29.527225002713095],[78.75006212022603,29.526186387804174],[78.75499186197945,29.526085747613237],[78.75634819878516,29.527497219510025],[78.75750271267393,29.52639166937965],[78.75777506510465,29.525830552843303],[78.75986653645887,29.52458889431469],[78.76138617621555,29.523096347385348],[78.76103922526093,29.520562574598927],[78.75979031033026,29.520537109375482],[78.75804226345511,29.521119350857617],[78.75255506727459,29.52108106825129],[78.75083604600721,29.521669447157507],[78.7479375542541,29.522074076335144],[78.74694118923648,29.52303151448612],[78.7469523111985,29.523581271701786],[78.7463916015628,29.52500278049078],[78.74333848741347,29.5259935167105],[78.74333631727464,29.527224799262513],[78.74266086154537,29.52858303493977],[78.7407004123269,29.528965725369346],[78.73971950954919,29.52944166395433],[78.73916395399354,29.529997219509937],[78.73889160156298,29.531113891601976],[78.73782497829907,29.532138739692186],[78.73722493489609,29.533336113824205],[78.73641194661505,29.534159545898916],[78.73548258463566,29.5346104600698],[78.73499159071238,29.53556355794305],[78.73500840928867,29.53638231065578],[78.73404215494841,29.53671305338588],[78.73334716796907,29.53528055826868],[78.73264431423652,29.53667243109848],[78.73195285373302,29.536658325195717],[78.73143880208366,29.53765621609203],[78.73256049262196,29.53823404947957],[78.73324842664985,29.53681630452516],[78.7347089301218,29.538336452908425],[78.73554144965308,29.53831946479005],[78.73640028211841,29.53958621554945],[78.73639675564274,29.541363898383707],[78.73527506510462,29.54305277506559],[78.73492404513914,29.544134691026855],[78.73285888671913,29.545777214898436],[78.7310188802089,29.54514736599438],[78.72976047092047,29.54600036621143],[78.72836317274377,29.545280558268573],[78.7277804904518,29.546312832302917],[78.72864637586835,29.546874321831922],[78.73389078776094,29.546981336805956],[78.7377316623267,29.54500278049082],[78.73783230251772,29.546706169976545],[78.73730197482669,29.548881971571618],[78.73416395399332,29.550830552843422],[78.73308051215307,29.55190409342501],[78.73231553819474,29.553444315592856],[78.72987440321216,29.552737833659194],[78.72651692708385,29.552766215006955],[78.7254096137157,29.554997219510057],[78.72688368055586,29.554014858670172],[78.72885145399349,29.554969448513887],[78.72943277994833,29.555528021918747],[78.72794759114632,29.557073838976123],[78.72580512152828,29.55834560818181],[78.7244471571187,29.559725002713108],[78.72194715711854,29.561391669379745],[78.71945665147607,29.562599995931365],[78.71945827908021,29.564155273437876],[78.71836317274344,29.56471944173218],[78.71760904947965,29.56353254530198],[78.71610839843785,29.564441663954426],[78.71555094401074,29.56529184977252],[78.71445855034753,29.565269571940505],[78.71387179904568,29.565833333333714],[78.71550835503515,29.56749053955113],[78.71639160156289,29.567497117784725],[78.71802652994845,29.56860531277161],[78.71889187283043,29.568886142307235],[78.71889187283043,29.56944702148475],[78.71688205295206,29.573209771050713],[78.71306206597271,29.575376858181798],[78.71164794921933,29.5758357069232],[78.71085232204885,29.576663886176632],[78.7102351888025,29.57637288411499],[78.70891872829915,29.575002780490834],[78.70778049045188,29.575529513889336],[78.70868652343793,29.576549750434623],[78.71003987630237,29.57724690755252],[78.71303385416721,29.577241617838965],[78.7138861762156,29.576663886176632],[78.71576931423638,29.576052754720436],[78.71722710503505,29.575097113715714],[78.7172192382815,29.57470886230513],[78.71833062066017,29.573330552843288],[78.72000840928874,29.571952785916153],[78.72073052300377,29.569727138943577],[78.722205132379,29.569697062174853],[78.72298990885471,29.57122077094219],[78.72250271267424,29.572225002713168],[78.72194742838573,29.57275851779559],[78.72260525173667,29.574114379883184],[78.72444173177118,29.574710286458725],[78.72416937934062,29.57555833604644],[78.72166395399344,29.576663886176632],[78.71885145399344,29.578369411892766],[78.71454345703168,29.578281487359334],[78.71210259331653,29.5796653578021],[78.71166937934075,29.580558336046337],[78.71055284288244,29.58138610839896],[78.70866726345534,29.583348659939617],[78.70611463758732,29.58329654269798],[78.70610378689267,29.583836534288807],[78.70833062066018,29.58427127414332],[78.70804985894151,29.585025397407065],[78.70583658854204,29.584980231391427],[78.70582763671908,29.58542212592279],[78.70704996744846,29.58601518419097],[78.7061233181428,29.587500508626775],[78.70431342230941,29.58794165717265],[78.70305257161507,29.58915330674958],[78.70306125217056,29.589588792589325],[78.70161756727455,29.590289238824127],[78.70031005859406,29.5916501532665],[78.69907199435809,29.592461785211],[78.69805148654555,29.594181043837224],[78.69586778428848,29.59524041069936],[78.69377278645877,29.59666052924301],[78.69280653211857,29.59668026394364],[78.68965684678855,29.596013285319486],[78.69009711371561,29.59472703721839],[78.68770914713579,29.595234646267855],[78.68642496744818,29.593898145888062],[78.68363986545191,29.593841281467434],[78.68309326171922,29.594902242025142],[78.68512668185795,29.595299207899714],[78.68417670355936,29.599086235894475],[78.68414713541696,29.60054128011123],[78.6852525499136,29.601110772027255],[78.6877750651046,29.601462877061977],[78.68687364366369,29.602595384386262],[78.68318169487904,29.603495381673525],[78.6823605685768,29.60428415934284],[78.68185031467064,29.60585676405205],[78.68083604600727,29.607225002713008],[78.67877278645861,29.607627766927607],[78.67750379774336,29.608847215440974],[78.677492133247,29.609419453939253],[78.67802490234428,29.610518086751796],[78.67971950954913,29.612170545790377],[78.67833604600744,29.61305833604635],[78.67721950954902,29.61333055284328],[78.67528103298642,29.615536126031273],[78.67525824652833,29.616653306749612],[78.67635769314282,29.61777360704241],[78.67875434027829,29.61835784912148],[78.67944091796917,29.619690958659262],[78.67940999348988,29.621826951769023],[78.68012505425386,29.624030659993906],[78.68166395399354,29.624529995388983],[78.68139160156275,29.625558336046495],[78.68063883463586,29.62803402370929],[78.67918077256994,29.62806376139369],[78.67751953125028,29.6263921101892],[78.67609781901072,29.626363118489948],[78.67416937934055,29.62831431071018],[78.67470079210094,29.629441155328067],[78.67556993272606,29.62945892334028],[78.67553629557338,29.627803548177468],[78.67662597656275,29.626669447157525],[78.67748670789959,29.627398715549518],[78.67786078559075,29.629695739746495],[78.67891086154546,29.631297607422255],[78.68025933159745,29.63175913492877],[78.68171902126781,29.631285400391036]],[[78.68781385633727,29.59722496880468],[78.68958333333356,29.59708333333387],[78.6908338758686,29.597712470161028],[78.69109564887177,29.598590528700512],[78.6887814670142,29.59892734103782],[78.68697862413237,29.598703104655385],[78.68640435112897,29.598081190321565],[78.68781385633727,29.59722496880468]],[[78.77426405164962,29.544049852159645],[78.77389919704913,29.541656324599046],[78.77340793185803,29.541121453179713],[78.77222357855939,29.541961229112772],[78.77161241319473,29.541620347765175],[78.77197129991359,29.53964209662601],[78.77582302517393,29.537211880154572],[78.778194444445,29.536805555555986],[78.77804443359409,29.5376272583012],[78.77640625000029,29.538120490180546],[78.77445475260461,29.539413892958407],[78.77542127821218,29.53998965793224],[78.77703748914954,29.539396124946094],[78.77833984375033,29.539432746039893],[78.77921685112895,29.53975474039757],[78.7798391384554,29.541821560330277],[78.7791506618926,29.54305555555601],[78.77993353949691,29.544673461914414],[78.77693793402815,29.544432746039888],[78.77573920355931,29.54487294515029],[78.77426405164962,29.544049852159645]]]]},"properties":{"id":"1705"}}]}