{"type":"FeatureCollection","features":[{"type":"Feature","geometry":{"type":"MultiPolygon","coordinates":[[[[107.61728834364058,12.387089029948214],[107.61732415093203,12.384408908420482],[107.61676534016809,12.383760308160134],[107.61597242567163,12.384335394965504],[107.61541334364043,12.386795247396236],[107.6140287950295,12.386504448785175],[107.61348761664394,12.385031195746862],[107.61425693088015,12.383003743489837],[107.61555575900522,12.38067599826421],[107.61567050509862,12.379246961805876],[107.6149299452031,12.377587348090543],[107.61390428331069,12.376396755642702],[107.61267110188706,12.375555555555792],[107.61186164008163,12.376252983941313],[107.61242153591459,12.377777777778292],[107.61090705023756,12.381775987413477],[107.61050882975147,12.385827636718957],[107.61245951334544,12.39069525824685],[107.61402906629658,12.397891981337125],[107.61551886664384,12.398011610243458],[107.61623718261606,12.396723904080247],[107.61609965006423,12.395013563368337],[107.61696634928293,12.392730034722518],[107.61891079372734,12.390075954861487],[107.61865363226909,12.388739691840712],[107.61728834364058,12.387089029948214]]]]},"properties":{"id":"10481"}}]}