{"type":"FeatureCollection","features":[{"type":"Feature","geometry":{"type":"MultiPolygon","coordinates":[[[[78.7502528211808,23.828613688151435],[78.75039089626736,23.82629706488764],[78.7496953667534,23.82501695421044],[78.7505642361111,23.82389553493975],[78.7505449761284,23.82357042100736],[78.74942328559044,23.82363715277822],[78.7490277777778,23.823194444444937],[78.7477406141497,23.823928087023006],[78.74664550781259,23.823862847222685],[78.74602674696197,23.8245555284293],[78.7461197916667,23.826118570964],[78.74551459418402,23.82638102213599],[78.74553385416667,23.825050591363237],[78.74355468749994,23.82558064778688],[78.74359727647564,23.82703626844662],[78.74296495225698,23.828200005425757],[78.74126166449653,23.8287258572054],[78.74195231119805,23.829714355469164],[78.7422143554688,23.831083848741912],[78.73814344618066,23.831775987413707],[78.73778564453127,23.833414306641103],[78.7385842556424,23.834884033203593],[78.74187445746534,23.836386990017886],[78.74361897786454,23.836658799913636],[78.74439534505231,23.83752780490498],[78.74905734592008,23.83773356119832],[78.74943657769094,23.836103244358213],[78.75003092447926,23.835252278646266],[78.75058485243059,23.83169840494837],[78.75025417751735,23.831089952257386],[78.75033013237842,23.829814181858282],[78.75165879991343,23.829047851562876],[78.7502528211808,23.828613688151435]]]]},"properties":{"id":"9612"}}]}