{"type":"FeatureCollection","features":[{"type":"Feature","geometry":{"type":"MultiPolygon","coordinates":[[[[107.93554639297074,12.308893655410799],[107.93635352335608,12.308893639716501],[107.93689311841453,12.309165604030326],[107.93743262404044,12.30916566233347],[107.93905132764061,12.308893657779919],[107.94039797859071,12.308626057079294],[107.94066551927855,12.308358525353995],[107.94255169249377,12.306739868961955],[107.94389835932915,12.305932762129743],[107.9447098524652,12.305121208201328],[107.94605652908726,12.304046596694178],[107.94605652908726,12.30350702296191],[107.94497739703954,12.302967520253972],[107.94443787769413,12.302967465414199],[107.94417033360608,12.303235060987362],[107.94417033360608,12.304046609900766],[107.94389835932915,12.304581697213095],[107.94363081572712,12.304853663844796],[107.94336327236633,12.305121266457661],[107.94255169249377,12.30566076366297],[107.94201208713994,12.305932778939408],[107.94093749059354,12.305932788804228],[107.93931886711366,12.306472304705338],[107.93877926763977,12.306739870915948],[107.93851172865342,12.307007396571265],[107.93851172865342,12.307279467754896],[107.93662549071584,12.307279449801698],[107.93635352335608,12.307007409090318],[107.93635352335608,12.306200342013241],[107.93662549071584,12.306200310220092],[107.93689311841453,12.305932781508915],[107.93689311841453,12.30512119153164],[107.93662549071584,12.30512126560528],[107.93608598655939,12.305393264804977],[107.93581401969462,12.3059328192318],[107.93554639297074,12.306472336716453],[107.93500689077908,12.306472351198991],[107.93392779893006,12.305660777341274],[107.93338820927309,12.305121263191921],[107.93312067515458,12.304853703871274],[107.93312067515458,12.304581716283082],[107.93338820927309,12.304314115810897],[107.93500684704625,12.30431414784998],[107.93554639297074,12.304314158529621],[107.93581401969462,12.304046552934153],[107.93608598655939,12.303507010448087],[107.93608598655939,12.302695520104109],[107.93635352335608,12.30242792664356],[107.93743262404044,12.302427903289441],[107.93851172865342,12.302427958586364],[107.93851172865342,12.302160348860866],[107.93797222106352,12.301888385431496],[107.93743262404044,12.301620875115105],[107.93662549071584,12.301620868362107],[107.93608598655939,12.301081288168518],[107.93608598655939,12.30054170537744],[107.93635352335608,12.300269754981016],[107.93716065594023,12.299734640490342],[107.93823975956306,12.299734626253908],[107.93905132764061,12.299462620077392],[107.93905132764061,12.298923052756706],[107.9376333238653,12.298923087526319],[107.93716065594023,12.298923099116251],[107.93689311841453,12.298655557164892],[107.93662549071584,12.298383572170636],[107.93635352335608,12.297308909248514],[107.93662549071584,12.295957805602484],[107.93689311841453,12.295422720573313],[107.93689311841453,12.294611127435914],[107.93662549071584,12.2946111049109],[107.93608598655939,12.294611093252144],[107.93527442660147,12.294611102638228],[107.93500689077908,12.294343561864608],[107.93500689077908,12.293804010894391],[107.93500689077908,12.292724917231084],[107.93500689077908,12.291110745999731],[107.93500689077908,12.290299179144952],[107.93500689077908,12.289492067034999],[107.93527442660147,12.28922452295221],[107.93554639297074,12.28895256891451],[107.93527442660147,12.28733829884898],[107.93500689077908,12.287066319370496],[107.93392779893006,12.287066340195878],[107.93366026432395,12.286798806221881],[107.93366026432395,12.286259206645653],[107.93392779893006,12.285987226297195],[107.9341997640627,12.28571964901117],[107.93473935519839,12.28571968078549],[107.93392779893006,12.284373066431684],[107.93366026432395,12.284101003821476],[107.93338820927309,12.28383344158182],[107.93204159017998,12.283833475564947],[107.93204159017998,12.284640555124568],[107.93231355357997,12.284640555037527],[107.93231355357997,12.284373066893451],[107.93284871101318,12.284373068896912],[107.93312067515458,12.284640555313572],[107.93312067515458,12.285719659345574],[107.93284871101318,12.287873457116191],[107.93258108696884,12.288145450695055],[107.93177405727855,12.288145455083551],[107.93177405727855,12.287873424966449],[107.93069488680058,12.28787343995819],[107.93042735511696,12.28814542747186],[107.93042735511696,12.288413011391583],[107.93069488680058,12.288952504920019],[107.9312344715477,12.288952537433559],[107.93204159017998,12.28895252600742],[107.93231355357997,12.28895252064504],[107.93366026432395,12.288952531835903],[107.9341997640627,12.28949209142074],[107.9341997640627,12.290906732176836],[107.9341997640627,12.291378279095497],[107.9341997640627,12.2919178196195],[107.9341997640627,12.292996908945739],[107.9341997640627,12.293264500632688],[107.9341997640627,12.294343603732543],[107.93392779893006,12.294883174368536],[107.9341997640627,12.295690231767225],[107.93446729915595,12.29622982395486],[107.93473935519839,12.297308847465757],[107.93473935519839,12.298923115449398],[107.93446729915595,12.29892305815541],[107.9341997640627,12.29919508741915],[107.9341997640627,12.30108128077265],[107.93392779893006,12.30134883186966],[107.93366026432395,12.301348807758458],[107.93338820927309,12.30108130682612],[107.93231355357997,12.300269771734193],[107.93231355357997,12.30108125720946],[107.93204159017998,12.30188840497621],[107.93177405727855,12.302160361521317],[107.9312344715477,12.302695516084825],[107.93015539345069,12.303235034583778],[107.92961581067166,12.303235034082036],[107.92934827996416,12.302967468143308],[107.92907631928992,12.302967486986276],[107.92880869865783,12.303235004515827],[107.92880869865783,12.30512123180317],[107.92907631928992,12.306739877193777],[107.92988786225484,12.307279391934216],[107.93042735511696,12.307547020472214],[107.93150200396119,12.307546964106365],[107.93150200396119,12.30727941692507],[107.93204159017998,12.307279402986879],[107.93231355357997,12.307547005358074],[107.93312067515458,12.308358544846229],[107.93338820927309,12.309433205190587],[107.93446729915595,12.309705160804782],[107.93500689077908,12.309705217655136],[107.93500689077908,12.309433219887453],[107.93527442660147,12.309165601267821],[107.93554639297074,12.308893655410799]]]]},"properties":{"id":"40279"}}]}