{"type":"FeatureCollection","features":[{"type":"Feature","geometry":{"type":"MultiPolygon","coordinates":[[[[107.96193536761312,14.69203786142663],[107.96185516293959,14.69374123583193],[107.96212715362226,14.694133709770766],[107.96220292766643,14.695805868766845],[107.96214939755208,14.699239317883347],[107.96338014049651,14.701660630113919],[107.96418725599244,14.702472156289065],[107.96482039920673,14.702757565805646],[107.96493189114565,14.70319012661545],[107.96553393025027,14.703818865366129],[107.96616707631894,14.703983829134074],[107.9661894109734,14.704358346545513],[107.96643907092894,14.704643803948455],[107.96643907092894,14.705263547195845],[107.96589951271376,14.706231248834973],[107.96598423965575,14.70660131804755],[107.96626961681106,14.706770769310728],[107.96754495581898,14.706748481963936],[107.96825397215163,14.705330469556657],[107.96825397215163,14.70461254884454],[107.96798640667818,14.704220153489725],[107.96798640667818,14.703805427509314],[107.96754052503734,14.703163329182138],[107.96690728563472,14.70299392579683],[107.96592184734823,14.701544697858639],[107.96544468226195,14.701379725590918],[107.96474905523846,14.700719748808396],[107.96420950007575,14.699640673309762],[107.96419168672435,14.699118919427894],[107.96394202864711,14.698833546715342],[107.9639196941607,14.69803987135026],[107.96367446703509,14.697754488730885],[107.96394202864711,14.696595111801823],[107.96420950007575,14.696166994338938],[107.96420950007575,14.695181536576102],[107.96394202864711,14.694789135925706],[107.9639196941607,14.693727914825285],[107.9636744670351,14.693442536121742],[107.96365213256868,14.692648803385527],[107.96322850140695,14.691841714698777],[107.96305461839545,14.691765928663445],[107.96269347012421,14.692104758405359],[107.96193536761312,14.69203786142663]]],[[[107.96193536761312,14.69203786142663],[107.96229660538964,14.691699025095712],[107.96305461839545,14.691765928663445],[107.96313491381406,14.691587499804495],[107.96313491381406,14.688711426094576],[107.96286292221309,14.68832350002508],[107.9628405878074,14.687529706516601],[107.96248387050167,14.686811804177944],[107.96177486786523,14.686285645072388],[107.95547412291131,14.686285685473273],[107.95505050336625,14.686022600783813],[107.95487662512332,14.685643547638723],[107.95448420138077,14.685478553504689],[107.95416320999423,14.685032615776832],[107.95423898201427,14.683052842513908],[107.95406510424513,14.682678243585386],[107.95369944586686,14.68239283197655],[107.95368163314328,14.681871114280806],[107.95343189344577,14.681585736955784],[107.95343189344577,14.680426413229393],[107.95369944586686,14.67999835096056],[107.95369944586686,14.67934727060368],[107.95434151840624,14.678749783340367],[107.95477851913921,14.67784455178974],[107.95475627575928,14.675672995069315],[107.95433708782066,14.675133452896857],[107.95331597523594,14.674696482725071],[107.9527183913585,14.674054360605139],[107.95196926573814,14.673889345824843],[107.94938744156921,14.6724222820624],[107.94982443502812,14.671303043450404],[107.950199040112,14.670830402995145],[107.95056912471917,14.670665460715192],[107.95073856991408,14.670183859990484],[107.9514698798452,14.66939012843554],[107.95218337893968,14.669046789576205],[107.95289235876086,14.667758116382183],[107.95326244671745,14.667432540788058],[107.95343189344577,14.66706247013956],[107.95343189344577,14.665176250482762],[107.95380198207303,14.665153983163595],[107.95406953482666,14.665006860238373],[107.95423898201427,14.664636712645937],[107.95488105571691,14.66446731309021],[107.95505050336625,14.664097167871908],[107.95505050336625,14.662839663208157],[107.95487662512332,14.66246955383691],[107.95412749407262,14.662300160057294],[107.95369049429497,14.662032569431346],[107.95232606087994,14.662322427602327],[107.9520539887222,14.662474095376304],[107.95188454277822,14.662839701589625],[107.95176419462366,14.663651225608442],[107.95124690607781,14.663669076637932],[107.95052897869995,14.66403027939749],[107.94987796292818,14.664725934757373],[107.94933843468712,14.664997930643217],[107.9482860545312,14.66499789493365],[107.94796506983103,14.66454751902465],[107.94831281834156,14.664097153988934],[107.94829057544493,14.66354426023812],[107.9478669661256,14.663009171066875],[107.94738982994816,14.662839738816917],[107.94696622191246,14.662451762011623],[107.94678782750309,14.661658020045154],[107.94577117129136,14.66122550192953],[107.94526284449003,14.66076173789639],[107.94480795512837,14.660685954781783],[107.94463408287304,14.66031137300484],[107.94371996676196,14.65987438762083],[107.94339889657806,14.659874426655055],[107.94343904163416,14.659232292400665],[107.94310459008256,14.658875575550251],[107.94165539479619,14.65879978734608],[107.9407814325544,14.65921892717726],[107.94048712865451,14.659067326421678],[107.93842257918331,14.659067336602384],[107.93802122606961,14.659339293864804],[107.93728099817702,14.659490905930596],[107.93653191149298,14.659339309578334],[107.93615289333937,14.659508763560096],[107.93598345646853,14.659874371065346],[107.93598345646853,14.66052986392833],[107.93571592000585,14.66095348835944],[107.93588978703406,14.66177844508946],[107.93626437453507,14.661943376314921],[107.93860087815017,14.661943456964002],[107.93897989943389,14.661769542538956],[107.93914942843301,14.661354798393576],[107.9398717586786,14.661403830631693],[107.94030873813782,14.661675834468133],[107.940683331222,14.661675833695204],[107.94138342282328,14.66221094039013],[107.94229753173974,14.662210949452144],[107.94273451477127,14.662482944735748],[107.94305106340259,14.66248300491702],[107.94299310631574,14.662951206774908],[107.94245359057598,14.663918812207466],[107.94262746155445,14.66473930277677],[107.94300205756555,14.664908750226875],[107.94355947683503,14.664886450604692],[107.94470542202322,14.663758284674794],[107.945146839047,14.66421760481409],[107.94532080201986,14.664739303934546],[107.94595842601174,14.665296628595302],[107.94595842601173,14.665983355949482],[107.9461322990422,14.666357944835122],[107.94711776230582,14.666986691115211],[107.94949006670828,14.667040150495088],[107.951670520211,14.665840643979287],[107.9516169919884,14.666188504528396],[107.95043539509507,14.667325527846769],[107.95010093566958,14.668034514667925],[107.94936076808071,14.668672231319363],[107.9491913236707,14.669042310225432],[107.94828162403579,14.669751343478715],[107.94784463284421,14.67065651909665],[107.94784463284421,14.67157503585696],[107.94730510829271,14.672542713257075],[107.94741659367783,14.673546029032229],[107.94774652917853,14.67390276298218],[107.94845106792741,14.674232670122635],[107.94882567128136,14.674714323794532],[107.95054688165379,14.675418837788492],[107.95173299995594,14.675686355068558],[107.9532312518927,14.676885862706868],[107.95296369989235,14.677398644910536],[107.9520539887222,14.678103223090345],[107.95188454277822,14.678473331378619],[107.95188454277822,14.679391881908781],[107.9516169919884,14.679819942466276],[107.95163932555307,14.68037288171241],[107.95188454277822,14.680658279317111],[107.95190687636295,14.68225911819342],[107.95215661478106,14.68254450005885],[107.95217885796676,14.683066214168644],[107.95242416605598,14.683351520075382],[107.95244640926168,14.686303487799838],[107.95259804286678,14.68657107485319],[107.95287002510216,14.686838599526542],[107.95388670557867,14.687275565374977],[107.95421664825459,14.687650181269904],[107.95496577952953,14.687815156122232],[107.95566590476469,14.688354644220318],[107.95773491420226,14.68835469027153],[107.95813177286789,14.688082710911896],[107.95864907337072,14.688064868678463],[107.95894330482099,14.687815085429742],[107.96008487857702,14.687815143317344],[107.96051736663108,14.688082641757452],[107.96089198516168,14.688082642860039],[107.9610480537494,14.688203072734234],[107.9610480537494,14.688894229480349],[107.96132004369642,14.689282162130079],[107.96133785687648,14.689803887966214],[107.96158760319805,14.690089252189964],[107.96160984708767,14.691690047583593],[107.96193536761312,14.69203786142663]]]]},"properties":{"id":"39078"}}]}