{"type":"FeatureCollection","features":[{"type":"Feature","geometry":{"type":"MultiPolygon","coordinates":[[[[81.9912242296007,23.90479268391948],[81.9918699815536,23.90445475260455],[81.99318033854152,23.905383978949843],[81.99523776584212,23.90272460937524],[81.99811618381065,23.90194112141957],[81.99886189778655,23.901075439453464],[82.00031778971365,23.901192423502934],[82.0002464463976,23.90030504014787],[82.00079332139742,23.89932488335525],[81.99764350043401,23.89940016004803],[81.99708333333339,23.898750000000277],[81.99691162109386,23.89889790852891],[81.99700005425333,23.899997558594052],[81.99604451497399,23.900267469618242],[81.99530734592017,23.899411824544515],[81.99454603407096,23.89983656141517],[81.99501614040801,23.90111646864169],[81.99417697482622,23.901954752604368],[81.99292670355922,23.902489691840486],[81.98895046657984,23.900350070529782],[81.98780585394948,23.900988701714596],[81.98751030815978,23.903986206054896],[81.98973253038181,23.905267469618238],[81.99054660373261,23.9062122938371],[81.99214002821182,23.90608425564247],[81.9912242296007,23.90479268391948]]]]},"properties":{"id":"19480"}}]}