{"type":"FeatureCollection","features":[{"type":"Feature","geometry":{"type":"MultiPolygon","coordinates":[[[[76.47617336697024,23.975358683268652],[76.47609551323771,23.974389919705416],[76.47459174262124,23.974422810872895],[76.47360080295127,23.97167697482689],[76.47334364149319,23.96957872178855],[76.4749890136716,23.96816114637639],[76.47541666666658,23.966250000000485],[76.47471191406257,23.966378580729653],[76.4737556966144,23.967056477865057],[76.47169365776907,23.96689080132421],[76.4709562174477,23.967746785482262],[76.47026746961794,23.96915635850732],[76.47001030815946,23.9704212782123],[76.4706770833333,23.972237006293966],[76.47060139973959,23.97487636990057],[76.4723091634115,23.977612508138506],[76.47343831380212,23.978045247396267],[76.47617336697024,23.975358683268652]]]]},"properties":{"id":"19454"}}]}