{"type":"FeatureCollection","features":[{"type":"Feature","geometry":{"type":"MultiPolygon","coordinates":[[[[77.20832302517348,23.401427815755568],[77.20915879991301,23.399992133246954],[77.21054768880194,23.398822970920534],[77.20964124891478,23.39806342230942],[77.20603325737838,23.400314534505625],[77.2043116590713,23.400211859809502],[77.2035900878906,23.399404296875545],[77.20197428385424,23.399500596788656],[77.20167453342017,23.39911526150223],[77.20260213216127,23.39828640408024],[77.20530287000875,23.397782389323382],[77.20525404188376,23.396962348090682],[77.20249213324641,23.396674533420622],[77.2021687825522,23.39631252712715],[77.20230509440111,23.394026692708778],[77.20099799262161,23.394495713976113],[77.19967597113694,23.394455430773036],[77.19736802842888,23.393494873047317],[77.19471516927061,23.393652886285196],[77.19386840820292,23.392705213759143],[77.19389756944437,23.392215983073314],[77.19350952148434,23.391502007378833],[77.19236111111101,23.39041666666712],[77.1913810221354,23.390547688802485],[77.19071044921876,23.39160224066886],[77.18926757812486,23.392891438802522],[77.18634982638892,23.39278835720522],[77.18581271701387,23.393958740234822],[77.18588433159701,23.395160319010856],[77.18665879991326,23.396674533420622],[77.18797919379338,23.398052842882393],[77.18848185221376,23.399680718316404],[77.18969061957475,23.40076076931463],[77.19509765624983,23.401415473090807],[77.19582546657998,23.402230088976125],[77.19762641059035,23.403537055121845],[77.20167290581591,23.403880208333902],[77.20264526367171,23.40440863715328],[77.20316541883679,23.405541992187892],[77.20398695203986,23.406103244358064],[77.20443657769081,23.405474582248843],[77.20386528862835,23.404423285590667],[77.20391194661462,23.403640136719147],[77.2033241102433,23.402226833767855],[77.2034143066405,23.401396755642764],[77.20528564453113,23.403325466580313],[77.20592841254344,23.405407036675797],[77.2071203613281,23.40663547092052],[77.20759914822045,23.405592447917087],[77.20705417209186,23.40201022677995],[77.20832302517348,23.401427815755568]]]]},"properties":{"id":"9661"}}]}