{"type":"FeatureCollection","features":[{"type":"Feature","geometry":{"type":"MultiPolygon","coordinates":[[[[104.17291601562525,17.413710937500213],[104.17407128906288,17.412691406250218],[104.17443945312519,17.41318359375022],[104.17461718750027,17.413558593750253],[104.17518945312528,17.41344140625037],[104.17607714843783,17.412691406250218],[104.17655566406282,17.412933593749955],[104.17770019531278,17.412441406250224],[104.17851171875029,17.41259765625037],[104.1791414481414,17.412533017507116],[104.17925878906274,17.412328125000244],[104.1798750000003,17.41225000000017],[104.18001738149675,17.412443107091207],[104.18115109402774,17.412326736862468],[104.1816894531253,17.41169140625017],[104.18181054687514,17.41143359375029],[104.1819394531253,17.411191406250367],[104.1821669921878,17.410710937500156],[104.18307714843783,17.409941406250226],[104.18356445312517,17.410058593750108],[104.18403710937534,17.410308593750287],[104.18456054687525,17.410152343750227],[104.18368945312514,17.409308593750225],[104.18343554687524,17.409191406250258],[104.18318945312532,17.409058593750245],[104.18218554687539,17.408941406250264],[104.18171289062516,17.408691406250185],[104.17906054687538,17.40880859375025],[104.17858789062521,17.409058593750245],[104.17768554687538,17.408941406250264],[104.17743945312529,17.40880859375025],[104.17693554687528,17.408691406250185],[104.17668945312519,17.408558593750172],[104.17620703125024,17.408332031250296],[104.17581054687528,17.407816406250262],[104.17568945312533,17.407308593749946],[104.17531054687535,17.4068164062503],[104.17518945312528,17.406558593750333],[104.17506054687524,17.40631640625014],[104.17493945312529,17.40580859375028],[104.17481054687536,17.40556640625026],[104.1746894531253,17.405058593749942],[104.17456054687526,17.404816406250205],[104.17443945312519,17.404558593750238],[104.17418945312514,17.404085937500184],[104.17432128906276,17.4022812500003],[104.17493554687539,17.40180859375016],[104.17568945312533,17.401691406250364],[104.17593554687537,17.401558593750252],[104.17618945312532,17.4014414062502],[104.17666210937531,17.40119140625029],[104.1772744140628,17.4013710937502],[104.17743945312529,17.40168359375039],[104.17766894531277,17.402171875000306],[104.17823437500019,17.402558593750214],[104.17881054687538,17.402222656250174],[104.17868945312532,17.40055859375039],[104.17774218750029,17.400410156250317],[104.17752539062522,17.40000000000019],[104.17781054687524,17.399460937500308],[104.17768945312517,17.398308593750386],[104.17743945312529,17.397835937500147],[104.17756054687536,17.397183593750384],[104.17768945312517,17.396941406250193],[104.17781054687524,17.396183593750237],[104.17793945312533,17.395941406250046],[104.17817089843757,17.39544921875023],[104.1786621093751,17.395191406250163],[104.17951074218766,17.395347656250394],[104.17968945312529,17.395683593750164],[104.17985156250037,17.396363281250316],[104.18061132812537,17.39698046875027],[104.18093554687536,17.396808593750166],[104.18142089843784,17.396582031250205],[104.18181054687514,17.396015625000302],[104.1816894531253,17.394558593750162],[104.18156054687537,17.39431640625024],[104.18138183593774,17.393566406250187],[104.18060351562539,17.393535156250266],[104.18013378906286,17.39378515625016],[104.17977148437515,17.393257812500167],[104.17993945312517,17.39294140625016],[104.18006054687524,17.392683593750277],[104.18018945312517,17.392441406250185],[104.18031054687529,17.391933593750224],[104.18068945312532,17.39144140625004],[104.18081054687528,17.391183593750156],[104.1811894531252,17.390691406250156],[104.18131054687527,17.390183593750194],[104.18218945312529,17.389191406250035],[104.18231054687524,17.388933593750153],[104.18243945312517,17.38869140625033],[104.18256054687541,17.387433593750217],[104.18268945312516,17.387191406250295],[104.18283691406279,17.38626953124995],[104.18359179687539,17.385691406250174],[104.1841826171877,17.386007812500168],[104.18421289062522,17.38676953125021],[104.18393945312519,17.38728906250023],[104.18406054687514,17.38769140625037],[104.1841894531253,17.38793359375019],[104.18431054687537,17.388191406250257],[104.1844394531253,17.388433593750264],[104.18458886718773,17.38967968750032],[104.18529199218776,17.389707031250254],[104.18568945312532,17.389191406250035],[104.18592089843767,17.388699218750304],[104.18618554687512,17.38855859375022],[104.1864394531253,17.388441406250152],[104.18668554687522,17.38830859375031],[104.18743945312534,17.388191406250257],[104.18793554687525,17.38780859375015],[104.1884394531252,17.38769140625037],[104.18868554687529,17.38755859375007],[104.18906054687525,17.38738281250025],[104.1888798828127,17.386898437500236],[104.18820019531282,17.38657812500024],[104.18793945312532,17.386085937500155],[104.18806054687528,17.384933593750304],[104.1884394531252,17.384441406250303],[104.18856054687515,17.383683593750263],[104.1886894531253,17.38344140625017],[104.18885058593773,17.38276562500019],[104.18968554687515,17.382058593750372],[104.18993945312533,17.38194140625032],[104.19018554687526,17.381808593750208],[104.19043945312515,17.381691406250326],[104.1909355468753,17.38130859375022],[104.1914394531253,17.381191406250167],[104.19218554687538,17.380558593750166],[104.19256054687528,17.38038281250016],[104.19243945312533,17.380308593750257],[104.19195019531267,17.38007812500014],[104.19171484375036,17.379632812500276],[104.1922412109378,17.379269531250316],[104.19256054687528,17.379441406250322],[104.19281445312518,17.379558593750204],[104.19346679687524,17.380058593750178],[104.19400000000044,17.37992578125025],[104.19381054687531,17.379566406250177],[104.1936894531253,17.379308593750395],[104.19343945312531,17.378835937500156],[104.19356054687526,17.378433593750202],[104.19381054687531,17.377960937500333],[104.19356054687526,17.378058593750254],[104.19331445312534,17.378191406250366],[104.19215527343763,17.378328125000195],[104.19156054687531,17.379058593750216],[104.19139160156286,17.379765625000303],[104.19098535156277,17.37998046875029],[104.19018945312533,17.379308593750395],[104.18950683593786,17.379148437500348],[104.18901953125012,17.378511718750275],[104.1893105468753,17.377960937500333],[104.18918945312518,17.376808593750212],[104.18894140625034,17.376339843750245],[104.18892675781277,17.375968750000112],[104.18906054687525,17.37568359375021],[104.18918945312518,17.37544140625029],[104.1893105468753,17.37443359375017],[104.18956054687513,17.373960937500215],[104.18941992187533,17.372613281250153],[104.18868554687529,17.372441406250317],[104.1884394531252,17.372308593750205],[104.18810058593775,17.372148437499987],[104.18793945312532,17.371808593750046],[104.18770996093778,17.37137500000017],[104.18793945312532,17.37094140625028],[104.18817089843785,17.37044921875011],[104.18843554687513,17.37030859375038],[104.1889394531253,17.370191406250314],[104.18918554687528,17.3700585937502],[104.18968945312517,17.36994140625015],[104.19018554687526,17.369558593750043],[104.19060937500021,17.36935937500037],[104.19081054687516,17.3689335937502],[104.19156054687531,17.368046875000317],[104.1914394531253,17.367808593750198],[104.19106054687538,17.367316406250197],[104.19093945312531,17.367058593750315],[104.19071484375038,17.366632812500058],[104.19135937500036,17.366191406250195],[104.1918144531252,17.36630859375026],[104.1920605468753,17.366441406250274],[104.1925429687503,17.366667968750235],[104.19305859375035,17.367339843750315],[104.19268945312515,17.36803906250006],[104.19283886718787,17.368847656250338],[104.19385937500036,17.36973437500022],[104.19418554687516,17.369558593750043],[104.19443945312534,17.36944140625016],[104.19468554687526,17.36930859375032],[104.19493945312533,17.36919140625035],[104.19518554687525,17.36905859375034],[104.19543945312515,17.368941406250002],[104.19593554687529,17.368558593750265],[104.1964345703129,17.36832421874996],[104.19646289062538,17.36760546875027],[104.19631054687525,17.367316406250197],[104.19618945312519,17.367058593750315],[104.19556054687538,17.366316406250235],[104.19543945312515,17.366058593750182],[104.19531054687516,17.365816406250346],[104.19508886718788,17.365343749999937],[104.19443554687538,17.365191406250233],[104.19418945312518,17.365058593750035],[104.19368554687529,17.364941406250153],[104.19279785156286,17.36419140625027],[104.19131054687526,17.364308593750337],[104.19056445312518,17.364941406250153],[104.18856054687515,17.365058593750035],[104.18806445312518,17.36544140625014],[104.18756054687529,17.365558593750194],[104.1873144531252,17.365691406250306],[104.1870605468753,17.365808593750373],[104.18681445312532,17.3659414062503],[104.18656054687537,17.366058593750182],[104.18631445312533,17.366191406250195],[104.18606054687544,17.36630859375026],[104.18517285156273,17.367058593750315],[104.18418554687528,17.366941406250348],[104.18368945312514,17.366558593750156],[104.18343554687524,17.366441406250274],[104.18318945312532,17.36630859375026],[104.18293554687514,17.366191406250195],[104.18243945312517,17.365808593750373],[104.18193554687528,17.365691406250306],[104.18143945312514,17.3653085937503],[104.18051953125038,17.365164062500213],[104.18006054687524,17.364566406250304],[104.17993945312517,17.364308593750337],[104.17881054687538,17.36306640625037],[104.17863183593775,17.3623164062503],[104.17831640625033,17.36230468749997],[104.17756445312514,17.36294140625023],[104.17731054687525,17.36305859375021],[104.17683789062531,17.36330859375019],[104.1745029296878,17.36317968750025],[104.17431054687538,17.36281640625019],[104.1741582031253,17.361863281250294],[104.17342285156272,17.361687500000386],[104.17325000000031,17.361500000000234],[104.1715986328127,17.36157031250005],[104.1714091796878,17.36275781250025],[104.17106445312518,17.36294140625023],[104.17043945312528,17.363089843750032],[104.17056054687524,17.363191406250138],[104.17126660156273,17.363359375000158],[104.17154003906276,17.363875000000093],[104.17131054687528,17.364308593750337],[104.17118945312532,17.3648164062503],[104.17025390625017,17.365875000000287],[104.17093945312516,17.366683593750196],[104.17106054687511,17.366941406250348],[104.17118945312532,17.367183593750184],[104.17139062500021,17.367609375000256],[104.17204980468776,17.367921875000178],[104.17218945312518,17.368183593750317],[104.17241894531278,17.368671875000246],[104.17281054687524,17.368941406250002],[104.17331445312519,17.36905859375034],[104.17381054687539,17.36944140625016],[104.17606445312529,17.369558593750043],[104.17631054687527,17.36969140625024],[104.17679980468787,17.369921875000287],[104.1770351562503,17.37036718750032],[104.17656445312517,17.370691406250202],[104.17608300781293,17.370917968750263],[104.17556054687512,17.371558593750322],[104.17533300781278,17.372039062500363],[104.17456445312533,17.37269140625031],[104.17406054687527,17.372808593750193],[104.17306445312514,17.37369140625036],[104.17257910156283,17.373917968750234],[104.17231054687525,17.374308593750314],[104.17218945312518,17.37456640625001],[104.17193945312513,17.37503906250015],[104.17206054687537,17.37669140625016],[104.17256054687536,17.377343750000193],[104.17243945312529,17.37806640625024],[104.17231054687525,17.378308593750162],[104.17218945312518,17.378566406250314],[104.17181054687526,17.379058593750216],[104.17168945312531,17.379316406250368],[104.17106054687511,17.380058593750178],[104.17093945312516,17.380566406250324],[104.17081054687534,17.38080859375006],[104.17068945312545,17.381066406250298],[104.17056054687524,17.38130859375022],[104.17043945312528,17.381566406250286],[104.17031054687536,17.381808593750208],[104.17016308593784,17.38273046875028],[104.16940820312524,17.383308593750243],[104.16793554687527,17.38319140625036],[104.16768945312518,17.383058593750064],[104.16668554687524,17.382941406250183],[104.1662128906253,17.382691406250288],[104.16543945312529,17.382832031250103],[104.1656298828128,17.383398437500006],[104.16648046875017,17.383597656250302],[104.16743945312513,17.384683593750225],[104.16756054687536,17.38494140625029],[104.16779199218777,17.385378906250338],[104.16724609375032,17.385667968750326],[104.16706054687538,17.385316406250325],[104.16683105468789,17.384828125000396],[104.1662656250002,17.384441406250303],[104.16568945312528,17.384593750000192],[104.16581054687535,17.38494140625029],[104.16629980468761,17.38517187500024],[104.16655859375024,17.385660156250168],[104.16606054687523,17.386308593750215],[104.16593945312528,17.386566406250367],[104.16543945312529,17.38721875000013],[104.16556054687524,17.38869140625033],[104.16568945312528,17.388933593750153],[104.16591992187531,17.38942187500035],[104.1672255859377,17.389578125000213],[104.16781054687524,17.39034375000024],[104.16768945312518,17.390816406250195],[104.16745996093775,17.391250000000255],[104.16779003906285,17.391875000000283],[104.16756054687536,17.39230859375016],[104.16743945312513,17.39256640625004],[104.16718945312542,17.39303906250028],[104.16731054687526,17.39444140625038],[104.16779296875032,17.39466796875024],[104.16831054687523,17.395343750000322],[104.16814746093777,17.39598437500021],[104.16706445312528,17.396941406250193],[104.16681054687527,17.397058593750245],[104.16658203125039,17.397542968750358],[104.1660644531253,17.397941406250155],[104.16557910156283,17.398167968750286],[104.16531054687536,17.39855859375028],[104.16518945312512,17.3995664062504],[104.16506054687525,17.399808593750237],[104.1649394531253,17.401566406250055],[104.16481054687537,17.40180859375016],[104.16468945312525,17.402066406250214],[104.16443945312531,17.402539062500267],[104.16456054687526,17.403191406250215],[104.1649394531253,17.403683593750216],[104.16506054687525,17.40469140625025],[104.16518945312512,17.404933593750258],[104.16531054687536,17.40519140625014],[104.16593945312528,17.40593359375022],[104.16606054687523,17.40619140625037],[104.1663105468754,17.40666406250024],[104.16618945312533,17.408316406250066],[104.16606054687523,17.408558593750172],[104.16593945312528,17.408816406250224],[104.16568945312528,17.409289062500278],[104.16581054687535,17.41069140625038],[104.16593945312528,17.410933593750215],[104.16606054687523,17.411191406250367],[104.16618945312533,17.41143359375029],[104.1663105468754,17.41169140625017],[104.16643945312515,17.411933593750177],[104.1665605468751,17.41219140625023],[104.16668945312531,17.41243359375025],[104.16681054687527,17.412691406250218],[104.16718945312542,17.41318359375022],[104.1673906250002,17.413609374999936],[104.16781445312532,17.413808593750232],[104.16828710937531,17.414058593749957],[104.16918945312526,17.413941406250075],[104.16966210937508,17.413691406250265],[104.17206445312516,17.413808593750232],[104.17265527343775,17.414261718750154],[104.17291601562525,17.413710937500213]],[[104.17700000000016,17.377578125000312],[104.17787500000011,17.377500000000254],[104.17830566406272,17.37809375000026],[104.17806054687529,17.378558593750057],[104.17793945312533,17.378960937500196],[104.1783037109378,17.379648437500236],[104.17786621093776,17.380285156250324],[104.17742089843782,17.38005078125029],[104.1771894531253,17.379558593750204],[104.17706054687537,17.379316406250368],[104.17693945312513,17.37880859375032],[104.17681054687526,17.378566406250314],[104.17668945312519,17.378164062500076],[104.17700000000016,17.377578125000312]],[[104.17694238281283,17.36711328125027],[104.17769238281258,17.366941406250348],[104.17793261718785,17.366808593750335],[104.17837500000039,17.366750000000394],[104.17853808593773,17.366937500000276],[104.17931738281268,17.367058593750315],[104.17955761718773,17.367191406250157],[104.18006738281272,17.36730859375004],[104.18051757812523,17.367628906250303],[104.18043066406281,17.368703125000167],[104.17989062500024,17.36905859375034],[104.17944238281271,17.36880859375016],[104.17909667968766,17.3686523437502],[104.17894238281272,17.368308593750186],[104.17868261718783,17.368191406250304],[104.17844238281273,17.368058593750376],[104.17793261718785,17.36794140625031],[104.17769238281258,17.367808593750198],[104.17721484375025,17.36759374999994],[104.17694238281283,17.36711328125027]],[[104.1778115234379,17.366062500000254],[104.17667382812525,17.367062500000216],[104.17611230468785,17.366773437500328],[104.17593847656278,17.366062500000254],[104.17556152343778,17.365562500000095],[104.17543847656279,17.36417578125014],[104.17575000000014,17.363570312500244],[104.17737500000024,17.363500000000244],[104.17768847656279,17.36393750000029],[104.1778115234379,17.366062500000254]]]]},"properties":{"id":"10196"}}]}