{"type":"FeatureCollection","features":[{"type":"Feature","geometry":{"type":"MultiPolygon","coordinates":[[[[102.58291178385107,16.878369411892777],[102.58085747612554,16.877575683594316],[102.58155815971921,16.87621527777796],[102.58151801214976,16.874245876736524],[102.58045301649,16.872178276909963],[102.5809779188339,16.870130479601173],[102.5815584309868,16.87014241536484],[102.58331705728872,16.871972656250264],[102.58420952690668,16.871043836805796],[102.58499186197619,16.87265597873322],[102.58599772135105,16.872635633680915],[102.58596923827824,16.871247287326852],[102.58627577039633,16.870952962239883],[102.5878691948756,16.870985514323408],[102.58981879339981,16.873615451389398],[102.59076497395509,16.87402506510452],[102.59124728732323,16.872761773003816],[102.58941758897285,16.87049533420175],[102.58903049044855,16.86930284288229],[102.58794731987567,16.86770453559079],[102.5859695095456,16.866530490451552],[102.58562527126415,16.864767252604437],[102.58291232638615,16.862160915798952],[102.58291992187193,16.861786024306085],[102.58351074218453,16.86121853298654],[102.58516872829566,16.86069715711855],[102.58668267143818,16.861477050781716],[102.588476562497,16.862925075955346],[102.59086561414628,16.862876247830158],[102.59208062065662,16.862140028212266],[102.59040391709769,16.860063205295702],[102.5904635959171,16.85714979383721],[102.58958604600409,16.85537597656308],[102.59014160155951,16.853752712673824],[102.59041395399007,16.85096950954879],[102.59072347004897,16.850064832899633],[102.59378011067415,16.848730197482965],[102.59476725260109,16.846695692274665],[102.59628607855623,16.845958658854414],[102.59748318142036,16.84598334418463],[102.60133978949366,16.84890950520888],[102.6021023220458,16.850413953993623],[102.603950466577,16.84856282552134],[102.60487413194139,16.849038628472513],[102.60571397569154,16.852129177517824],[102.60676378037928,16.85313802083381],[102.60934950086536,16.851510687934365],[102.61013617621225,16.850653754340854],[102.60936442056979,16.848399251302553],[102.6098925781221,16.84789171006996],[102.61167209201088,16.847910970052368],[102.61087700737542,16.844733615451688],[102.60757731119477,16.841922743056145],[102.60616509331314,16.8400179036462],[102.60654215494512,16.83928602430605],[102.60877549912883,16.83930230034771],[102.60875922308716,16.835932074653286],[102.61043565537878,16.83514160156274],[102.61242567273993,16.837212727864852],[102.61291395399005,16.83692654079907],[102.61198459201071,16.83555555555587],[102.61352132161184,16.833244357639174],[102.61346408419823,16.830434841580356],[102.61384874131633,16.828933648003797],[102.61319715711497,16.827636176215563],[102.61205105251426,16.827062445746748],[102.61153049044813,16.825947536892883],[102.61264160155943,16.82430826822967],[102.61291395399005,16.82231499566018],[102.61153049044813,16.81902506510447],[102.61096950954553,16.81819715711856],[102.61013509114284,16.815694715712112],[102.61071289062201,16.81395968967034],[102.61069064669843,16.81287299262182],[102.61013590494483,16.811252441406552],[102.61016357421587,16.8099009874134],[102.60960096570878,16.80880859375023],[102.61070285372963,16.80735649956648],[102.61073920355605,16.804194064670483],[102.61125271267056,16.803197157118603],[102.61185763888582,16.800099012587097],[102.61127224392098,16.79724148220518],[102.60995524088233,16.795298122830076],[102.60958604600413,16.791525065104437],[102.6088159179657,16.787925618489894],[102.61036783853845,16.783391655816246],[102.61288492838221,16.7793457031254],[102.61349175346928,16.77845052083373],[102.61714491102131,16.776214192708736],[102.61802652994507,16.775296766493213],[102.61952012803513,16.77156385633711],[102.61680284287897,16.76847493489609],[102.61647623697613,16.76780192057315],[102.61653428819145,16.76495225694488],[102.61740505642078,16.7619439019101],[102.61931722004934,16.759575195313104],[102.61991563584743,16.75650851779558],[102.62350043402458,16.75009629991358],[102.62637695312188,16.748680555555737],[102.6279275173583,16.74594563802134],[102.6291303168372,16.744789767795325],[102.62861246744481,16.74226182725718],[102.62730034721918,16.740532497830415],[102.6277433268198,16.737500813802583],[102.62902506510093,16.73379828559065],[102.6277243381044,16.73236382378505],[102.62724609374706,16.733838161892734],[102.62650254991004,16.733455132379035],[102.62653618706312,16.730699869792062],[102.62595838758367,16.72984754774329],[102.62598280164642,16.72865234375027],[102.62400824652465,16.727902289496896],[102.62405300563935,16.725702582465615],[102.62177490234083,16.723434787326738],[102.62060872395543,16.721408148871816],[102.62117214626457,16.720314670139288],[102.61963840060483,16.718841145833593],[102.61902262369486,16.71790174696237],[102.61736382378152,16.71709120008724],[102.61894232855596,16.715419379340787],[102.61960042317403,16.717108561198373],[102.62145426431991,16.71709038628498],[102.62513861761832,16.7195876736115],[102.62587239583033,16.719209526910262],[102.62643202039655,16.715200466580157],[102.62566406249712,16.71254665798638],[102.62606445312204,16.70980685763925],[102.62736382378185,16.708197157118292],[102.62819173176794,16.70657145182328],[102.62619113497979,16.704188639323178],[102.62663818359064,16.702883300781465],[102.62598144530952,16.699677463107918],[102.6248583984345,16.698197157118486],[102.62420681423319,16.695524631076594],[102.6220779079832,16.695005425347787],[102.62056369357347,16.694225531684268],[102.6198418511257,16.69459743923649],[102.61902696397269,16.696277398003787],[102.6172919379309,16.694471571180955],[102.61404242621254,16.696095648871776],[102.6117320420976,16.69652506510458],[102.60974717881638,16.694459092882383],[102.61014892577847,16.692891167535052],[102.61402506510095,16.691247287326647],[102.61569715711525,16.69097493489636],[102.61708062065671,16.689831271701536],[102.61544243706297,16.68661892361179],[102.61391438801783,16.68261908637197],[102.61202989366038,16.681500379774647],[102.6112361653617,16.680674370660128],[102.6112855360212,16.676866590711967],[102.61012451171607,16.674563802083654],[102.60849500867758,16.674575195312954],[102.60578504774006,16.67219129774365],[102.60523573133392,16.669937608507254],[102.604522840709,16.66925265842039],[102.60344238280967,16.668752712674078],[102.60176188150754,16.669600423177286],[102.60003526475393,16.67134385850744],[102.59927544487559,16.670952419705173],[102.59831949869508,16.668982204861464],[102.59782253688931,16.66593017578178],[102.59635036892084,16.663989800347494],[102.59308783636854,16.662777777778246],[102.58983615451089,16.660408799913526],[102.58705973306994,16.66041341145872],[102.58463948567439,16.658576931424008],[102.58322672525756,16.658118489583615],[102.58121202256658,16.65649224175378],[102.58037977430254,16.654776746962327],[102.57384494357368,16.648497992621785],[102.57326009114294,16.646696234809596],[102.57158230251426,16.6444851345491],[102.57010660807,16.638253580729298],[102.57015787760102,16.635738932292085],[102.56942789713244,16.63353705512189],[102.5689463975668,16.630088161892672],[102.5694517686604,16.62861111111134],[102.56902479383362,16.62736355251775],[102.56904703775754,16.626279296875595],[102.568468967011,16.625157063802547],[102.5684890407957,16.62417588975724],[102.56998616536148,16.62220296223998],[102.57084716796558,16.620019259983096],[102.57186631944128,16.618676215278043],[102.57291395399002,16.616497938368255],[102.57207166883407,16.61486273871577],[102.57347493489274,16.610697157118423],[102.5740500216983,16.60691677517387],[102.57403564452827,16.60433756510453],[102.57302788628161,16.59950303819498],[102.5736990017331,16.597542860243294],[102.57094048393785,16.592850206163476],[102.56954264322607,16.59153049045193],[102.56773003471929,16.593417154948284],[102.56424886067398,16.595675184462053],[102.56052625867747,16.591800401476036],[102.55965386284427,16.591818305121976],[102.55852786668558,16.590004759353036],[102.55871676994272,16.588787382806274],[102.56018751124512,16.586418942600446],[102.56182175031509,16.586360576919176],[102.56319355621034,16.585478701701092],[102.56348751461653,16.58371495126427],[102.5641734175642,16.582735089910713],[102.56554522345922,16.58204918696285],[102.56593716800072,16.580873353338518],[102.5641734175642,16.580285436526125],[102.56319355621034,16.5795995335787],[102.56191973645062,16.576659949517378],[102.56220408574566,16.574953853747118],[102.56329154234575,16.574308282268632],[102.5662311264069,16.574896199080655],[102.56721098776043,16.574210296133245],[102.5662311264069,16.57234855956105],[102.56466334824094,16.571956615019687],[102.56289959780409,16.57117272593672],[102.56123383350294,16.56980092004143],[102.5611739067339,16.569351469273627],[102.56226236978867,16.568305664062763],[102.56466200086496,16.567526855469325],[102.56724473741039,16.565593261719044],[102.56824939194851,16.564238097063708],[102.56946466887408,16.56352980737752],[102.57103244704004,16.563235848971644],[102.57113043317523,16.560394251045793],[102.57034654409236,16.559610361962626],[102.5701505718217,16.558042583796677],[102.56887675206204,16.55706272244302],[102.56740696003132,16.55696473630755],[102.56574119572977,16.558140569931965],[102.56454482837361,16.55727922844592],[102.56554522345922,16.556278833360125],[102.56534925118834,16.554809041329563],[102.56299758393939,16.552457374080618],[102.55888216625394,16.552261401809673],[102.55849022171256,16.54716612277045],[102.55780431876516,16.546382233687567],[102.55496272083914,16.54608827528142],[102.55349292880854,16.546676192093543],[102.55084730315374,16.546480219822854],[102.54918153885214,16.545598344604315],[102.54643792706148,16.543638621897273],[102.54447820435442,16.543050705084795],[102.54261646778198,16.543050705084795],[102.5410486896163,16.542462788272758],[102.54090709699679,16.540551287909253],[102.54237284562058,16.539484634557397],[102.54398827367729,16.5391312596699],[102.54614396865563,16.54020910715903],[102.54771174682148,16.540699037836035],[102.54839764976899,16.53952320421162],[102.54898556658125,16.537563481503952],[102.54839764976899,16.536485634014994],[102.5454420501587,16.536023821575682],[102.54513536241026,16.535729166666854],[102.5451432291637,16.53533745659759],[102.5470860460039,16.53486382378506],[102.54791395399027,16.534105902778307],[102.54678304036136,16.532615559896314],[102.54556993272266,16.532027180989743],[102.54439678740133,16.532387912521315],[102.54361810383253,16.530149197260855],[102.54516410730204,16.526687020477823],[102.54536007957236,16.522473616656683],[102.54771174682148,16.5205138939492],[102.54741778841574,16.518750143512747],[102.54585001024955,16.518162226700355],[102.5435963291358,16.51659444853439],[102.54222452324072,16.51659444853439],[102.5392849391794,16.5171823653467],[102.53761917487813,16.519534032595544],[102.53663931352438,16.52021993554331],[102.53330778492173,16.518946115783237],[102.53056417313135,16.51933806032487],[102.52831049201788,16.51933806032487],[102.52831049201788,16.520611880084488],[102.53017222859009,16.522571602792155],[102.53115208994362,16.52482528390553],[102.53115208994362,16.525707159124167],[102.53301382651549,16.527568895695907],[102.53605139671211,16.529234659997343],[102.53644334125383,16.530998410434236],[102.53379505998655,16.534411750733895],[102.53290473089973,16.53373616536473],[102.53184624565674,16.533757595486676],[102.53150526258386,16.53585205078147],[102.52902289496231,16.539027506510777],[102.52925654109615,16.53937223584954],[102.52674271385203,16.540895010106894],[102.52537090795673,16.539915148752797],[102.52478299114463,16.538249384451817],[102.52527292182126,16.537367509233178],[102.52468500500893,16.536485634014994],[102.52370514365558,16.536485634014994],[102.52174542094801,16.53746549536865],[102.52115750413586,16.536779592421055],[102.52037361505282,16.534525911307327],[102.52047160118829,16.533350077682996],[102.51900180915734,16.535407786525965],[102.51900180915734,16.536093689473375],[102.51665014190851,16.533448063818383],[102.5143964607951,16.531782299516948],[102.51361257171189,16.530214521351],[102.51233875195246,16.52933264613263],[102.50998708470311,16.528646743185035],[102.50763541745457,16.525511186853393],[102.50665555610081,16.52355146414581],[102.50596965315296,16.52355146414581],[102.50430388885181,16.524335353228977],[102.50254013841496,16.526197089800718],[102.50175624933226,16.528058826373098],[102.50205020773822,16.529920562945108],[102.5029320829565,16.5313903549756],[102.50449986112235,16.5325661886002],[102.50391194431009,16.534231952901365],[102.50195222160258,16.53521181425519],[102.49999249889552,16.535603758796455],[102.49813076232309,16.536877578556528],[102.49705291483431,16.53638764787962],[102.49626902575133,16.534133966766248],[102.49734687324045,16.533742022224615],[102.49626902575133,16.532468202464727],[102.49489721985586,16.532370216329525],[102.49136971898261,16.532762160870703],[102.48784221810914,16.53207625792328],[102.48617645380781,16.53207625792328],[102.48509860631876,16.530410493621943],[102.48519659245406,16.529430632268102],[102.48392277269446,16.527568895695907],[102.480885202498,16.530802438163292],[102.48039527182098,16.533644036089143],[102.48000332727983,16.534329939036652],[102.47696575708292,16.533350077682996],[102.47608388186441,16.535505772661438],[102.47549596505226,16.536093689473375],[102.47402617302188,16.536779592421055],[102.47314429780337,16.536877578556528],[102.47138054736652,16.538249384451817],[102.46844096330554,16.541482926918746],[102.46540339310903,16.542952718949408],[102.46452151789086,16.54471646938613],[102.46461950402633,16.546872164364302],[102.46559936537992,16.549419803883822],[102.46530540697384,16.550791609779466],[102.4668731851398,16.552163415674556],[102.46785304649345,16.552457374080618],[102.47020471374245,16.552555360215734],[102.47196846417901,16.552163415674556],[102.47471207596928,16.552457374080618],[102.47676978481198,16.555396958141586],[102.47794561843685,16.555494944277058],[102.48049325795628,16.553829179975722],[102.48274693906993,16.553927166110924],[102.48500062018351,16.555102999735524],[102.4874502735677,16.554809041329563],[102.48940999627521,16.553731193840335],[102.49342742782548,16.55588688881859],[102.49489721985586,16.556278833360125],[102.4965629841574,16.554515082923402],[102.49538715053299,16.550791609779466],[102.49685694256337,16.549517790019394],[102.49950256821839,16.549517790019394],[102.50165826319673,16.550693623643994],[102.50322604136258,16.551869457268324],[102.50449986112235,16.549223831613418],[102.5048918056639,16.546970150499504],[102.5062636115592,16.546284247552265],[102.50841930653738,16.546970150499504],[102.51224076581676,16.544814455521603],[102.51665014190851,16.545402372333726],[102.51684611417934,16.548145984124105],[102.51371055784753,16.55284931862198],[102.50939916789113,16.555494944277058],[102.50743944518368,16.55696473630755],[102.50920319562053,16.558238556067437],[102.50792937586047,16.56068820945167],[102.50802736199583,16.56254994602378],[102.50988909856792,16.56352980737752],[102.5153763221488,16.563627793512993],[102.5157682666904,16.566175433032697],[102.51939375369912,16.56676334984482],[102.5221373654895,16.564117724189728],[102.52399910206125,16.565685502355862],[102.5242930604675,16.567253280521825],[102.52615479703971,16.567841197333763],[102.52831049201788,16.567939183469235],[102.5314460483498,16.565195571678856],[102.533895701734,16.564607654866833],[102.53732521647206,16.564901613272625],[102.53801111941968,16.56284390443001],[102.5392849391794,16.561570084670393],[102.54055875893945,16.562353973753005],[102.54095070348072,16.56352980737752],[102.54095070348072,16.566665363709348],[102.54144063415785,16.56999689231229],[102.539676883721,16.572838490238226],[102.54036278666851,16.574112309997773],[102.5404607728041,16.577443838600274],[102.53908896690851,16.57950154744323],[102.53840306396094,16.57979550584956],[102.53546347990024,16.578325713818813],[102.53174000675605,16.577835783141808],[102.5314460483498,16.580481408796885],[102.53085813153766,16.58136328401507],[102.52929035337152,16.580873353338518],[102.52772257520584,16.577737797006506],[102.5223333377601,16.577639810871034],[102.52007965664674,16.57950154744323],[102.51772798939763,16.577639810871034],[102.51743403099172,16.579207589037168],[102.51763000326227,16.580579394932272],[102.51371055784753,16.581069325609192],[102.51341659944129,16.582147173098136],[102.51616021123166,16.582539117640025],[102.51635618350261,16.58420488194092],[102.5157682666904,16.58577266010697],[102.51674812804404,16.587144466002073],[102.51958972596972,16.5869484937313],[102.52076555959425,16.58645856305465],[102.5223333377601,16.58685050759628],[102.5223333377601,16.58812432735617],[102.5216474348127,16.589398147115887],[102.52252931003088,16.590378008469457],[102.52360715751993,16.590573980740317],[102.52595882476876,16.58949613325136],[102.52811451974728,16.589398147115887],[102.529282328974,16.58879088631798],[102.53109727647282,16.591848687066232],[102.53063612195868,16.592743869357804],[102.52918918185449,16.594134385850865],[102.52695285372951,16.594679361979715],[102.52513861761847,16.59651150173633],[102.52464708116034,16.59902994791682],[102.52569715711482,16.600413953993595],[102.52596950954572,16.601279839410196],[102.52485243055233,16.602352973090873],[102.52486436631656,16.602942165798737],[102.52735839843453,16.60708604600714],[102.52903971353894,16.609168836805907],[102.52999376084765,16.60867757161479],[102.53056993272278,16.60572536892377],[102.53154188367753,16.604291720920443],[102.53326009114275,16.604326714409964],[102.53439588758354,16.60491183810808],[102.53603651258388,16.609071180555787],[102.537634548608,16.60984673394121],[102.53819173176797,16.610765787760755],[102.53576416015326,16.614465332031685],[102.53631754556969,16.615539822048817],[102.5404359266465,16.617097439236403],[102.54102376301793,16.61830919053837],[102.54096598307004,16.621133897569848],[102.54011366102131,16.62239149305573],[102.53783799912893,16.623883463542185],[102.53827609591721,16.62473361545159],[102.53727945963234,16.62637749566008],[102.53766194661168,16.62711968316016],[102.54047092013596,16.62709852430602],[102.54360921223653,16.62871527777827],[102.5460948350665,16.629650607639306],[102.54708062065654,16.632240125868478],[102.54623046874698,16.63349392361144],[102.54441894530956,16.634373101128716],[102.54563422308743,16.63597493489604],[102.54624728732344,16.63862901475744],[102.54529812282684,16.640029025608058],[102.5415304904486,16.641684570312762],[102.5424850802921,16.643092719184224],[102.54521837022295,16.64375895182306],[102.55015272352117,16.648770073785073],[102.55012858072612,16.6499544270837],[102.55154703775744,16.650997992622038],[102.55152153862545,16.652245008680808],[102.55003309461509,16.65444118923662],[102.54871473524,16.654868977864965],[102.54791395399027,16.654864095052588],[102.54635959201087,16.65360921224],[102.54590115017064,16.65079345703144],[102.54513617621225,16.649308268229632],[102.54441786024003,16.64676215277801],[102.54313178168101,16.645974934896188],[102.54038601345192,16.646802029080177],[102.53956949869516,16.64595214843787],[102.53957356770545,16.64396809895858],[102.53861219617752,16.642101508246895],[102.53597113714991,16.642642415364747],[102.53539713541343,16.642346733941494],[102.53541992187203,16.6412277560769],[102.53708604600396,16.6404193793406],[102.53763617621226,16.639831271701652],[102.5350838216115,16.6373790147574],[102.53226589626425,16.640136176215734],[102.52894205728873,16.63667643229185],[102.52682373046585,16.635989040798975],[102.52540256076091,16.63514160156295],[102.52542480468426,16.636236707899485],[102.52511501735799,16.63714219835117],[102.52821940103885,16.639609375000376],[102.52876898871236,16.640741916232912],[102.52874511718468,16.641909993490046],[102.52596408419836,16.64095811631954],[102.52369167751411,16.641004503038445],[102.5229028320284,16.641825629340687],[102.5229218207435,16.642758246528075],[102.52532389322604,16.64322726779541],[102.52596950954572,16.644863823785258],[102.52645046657719,16.6453260633683],[102.52764702690686,16.644709472656658],[102.53029324001423,16.646034884982868],[102.53140028211519,16.647899576823264],[102.53096923827835,16.649580891927386],[102.53095323350388,16.65287217881992],[102.53153645833018,16.654576009114734],[102.53152425129898,16.65517008463577],[102.53017632378172,16.65788221571239],[102.52843370225392,16.66045274522608],[102.52636610242749,16.660410427517633],[102.52389946831309,16.658738335503884],[102.52309733072624,16.65875488281266],[102.52350721570892,16.659952528212216],[102.52346462673293,16.662032335069895],[102.52207872178556,16.663749457465812],[102.52237250433731,16.664319390191352],[102.5239705403616,16.66428683810784],[102.52543592664628,16.66317491319471],[102.52676242404212,16.663202039930766],[102.52874538845194,16.6665424262155],[102.52630262586504,16.667727593316314],[102.52871012369516,16.670040690104557],[102.52902506510108,16.67074625651057],[102.52679741753192,16.672930772569728],[102.52679063584773,16.6746261935767],[102.52424072265316,16.67884955512207],[102.52461398654211,16.67993950737869],[102.52626980251435,16.681530490451806],[102.52622287326099,16.68383246527803],[102.52766574435461,16.684778645833617],[102.5300482855873,16.683250868055907],[102.5307619900145,16.68071967230931],[102.53154730902483,16.679561631944992],[102.53353190103857,16.67842719184047],[102.53654703775757,16.675390896267814],[102.53646402994494,16.671314290364833],[102.53951117621224,16.667974989149656],[102.54140462239278,16.667641601562863],[102.54180284287887,16.668502061632196],[102.54066921657673,16.669591200087083],[102.53992702907672,16.669576280382245],[102.53957573784427,16.671017795139136],[102.53817925346928,16.67235948350728],[102.53988009982353,16.674897189670432],[102.53984700520519,16.676519639757245],[102.54137695312207,16.678672960069804],[102.54180609808705,16.680433213976173],[102.54366427951075,16.67849907769134],[102.54492838541378,16.67935574001784],[102.54600423176802,16.67771484375045],[102.54727322048322,16.677303059896317],[102.54851345485824,16.677942165799095],[102.54997287326071,16.680691731771432],[102.55208062065682,16.678870985243208],[102.55121419270537,16.677592773438008],[102.5512532552053,16.675672200521134],[102.55456515841703,16.674024522569894],[102.55504503037892,16.674034288194648],[102.55569173176772,16.675457356771048],[102.55505479600404,16.677318250868353],[102.55650960286133,16.67871609158034],[102.558191731768,16.677358127170535],[102.55884792751428,16.677371690538564],[102.56124728732343,16.679308539497015],[102.5616861979137,16.67929958767391],[102.56362169053514,16.67575873480949],[102.56460286458056,16.676264377170625],[102.56456976996245,16.677887912326725],[102.56492594400746,16.678928493924147],[102.56877739800055,16.679305284288475],[102.5693028428789,16.679876844618562],[102.56760660806995,16.68098876953141],[102.56575547959758,16.682915310330216],[102.56180284287913,16.68319173177106],[102.5608485243026,16.683518337674016],[102.56152506510111,16.685240885417116],[102.55978868272294,16.6858043077261],[102.55902777777456,16.685412326389113],[102.55805908202834,16.685911458333607],[102.5542347547711,16.68525933159762],[102.55332438150745,16.687135687934315],[102.54953586154218,16.6882042100698],[102.54596001518811,16.691790093316314],[102.54632269964978,16.69249403211832],[102.5506179470456,16.691761610243347],[102.55313205294826,16.691812879774815],[102.553542480466,16.69349717881977],[102.5534583875839,16.6976255967884],[102.55385199652474,16.698191731771303],[102.55516411675066,16.69621961805585],[102.55708062065676,16.69485839843803],[102.55963514539624,16.69430826822962],[102.56181884765326,16.694867892795415],[102.56299153645537,16.698380805121786],[102.56376708984064,16.699886338976086],[102.5654508463513,16.699851888021186],[102.56735649956286,16.698560112847602],[102.56892605251468,16.698050944010916],[102.57003119574384,16.69690049913217],[102.56951660155946,16.694892306857838],[102.56989881727142,16.693026258680874],[102.57261230468455,16.692641601563082],[102.57346950954573,16.69340142144111],[102.57230414496232,16.69609456380259],[102.57291395399002,16.698949652778055],[102.57169514973648,16.700555555555923],[102.57293999565687,16.702195909288506],[102.57291341145523,16.70349039713581],[102.57353895398998,16.70470458984424],[102.5759223090246,16.703508843316214],[102.57857801649018,16.704052734375253],[102.58243977864302,16.70583116319493],[102.58293023003185,16.706841634114753],[102.58291341145556,16.707661132812987],[102.58121392143792,16.708485785590526],[102.58014702690664,16.708463812934298],[102.57903537326078,16.709036458333657],[102.57820638020533,16.70901963975726],[102.57680826822607,16.709539659288694],[102.57849446614264,16.71154839409759],[102.57905219183718,16.712697482639243],[102.5790152994762,16.714498155382415],[102.57676133897272,16.714865180121734],[102.57463216145541,16.715593804254055],[102.57403049044834,16.716279839410106],[102.57565212673305,16.71783772786479],[102.57657958984069,16.719400499132206],[102.57652452256642,16.72210313585107],[102.57540093315671,16.722080078125387],[102.5741430664032,16.72016194661488],[102.57287597655969,16.719586046007137],[102.57045871310439,16.720413411458665],[102.56792941622982,16.722594943576638],[102.56472547742752,16.723116319444628],[102.56168728298306,16.72109049479225],[102.56024603949353,16.71889241536506],[102.55894042968444,16.7193391927088],[102.55971788194122,16.721610514323146],[102.5603575303791,16.72488715277811],[102.55899169921557,16.727978515625423],[102.55817437065676,16.72876383463577],[102.55634412977136,16.728726399739884],[102.55583360459755,16.730299750434227],[102.55654730902475,16.73098551432328],[102.5565247938338,16.732086046007197],[102.55734971787913,16.733302951389348],[102.55692654079573,16.73402506510466],[102.5556727430525,16.7331749131949],[102.55282118055251,16.733233235677574],[102.55152235242738,16.732352701823203],[102.55015516492753,16.73238064236145],[102.54791937933746,16.730413953993548],[102.54566541883369,16.72901421440993],[102.54417778862526,16.729044596354626],[102.54289496527505,16.728174913194735],[102.54231363932021,16.72697699652808],[102.54283284504928,16.7249514431427],[102.54227267794849,16.723864203559273],[102.5409716796847,16.72430935329909],[102.53965033636851,16.723651801215738],[102.53864339192407,16.724699707031547],[102.53819037543101,16.726558973524575],[102.53591796874716,16.72651258680584],[102.5346413845455,16.725854763455303],[102.53414876301795,16.72180826822955],[102.53202962239274,16.72307318793453],[102.53088216145537,16.722295464410195],[102.53180284287893,16.719471842448527],[102.52757486978888,16.71895507812529],[102.52653049044838,16.716802842882288],[102.52553249782673,16.7154874674482],[102.52391655815686,16.716319986979556],[102.52443576388603,16.717327745225916],[102.5237472873234,16.719025065104518],[102.52313910589967,16.72173068576413],[102.51975368923317,16.72095458984407],[102.51842502169856,16.720981716580212],[102.51714626735819,16.72231255425369],[102.51911729600411,16.72475423177147],[102.51958062065685,16.72702663845527],[102.51819173176793,16.728747287326826],[102.51762939452837,16.731822645399745],[102.51593098958031,16.73264648437545],[102.51312798393835,16.73261203342038],[102.5102891710039,16.730890570746908],[102.50949273003172,16.73130072699702],[102.50886501735798,16.733876681857993],[102.50947726779222,16.734465060764308],[102.5125075954833,16.733474934896165],[102.5133292643201,16.73594807942773],[102.51680826822624,16.735141601562802],[102.51805040147289,16.734299858941412],[102.51864800346922,16.73431206597253],[102.52115234374688,16.736009385850963],[102.52241780598663,16.735576171875508],[102.52320936414648,16.73598415798672],[102.52404513888584,16.738559570312788],[102.52675048827817,16.741158854167068],[102.52814100477124,16.743240831163476],[102.52622016058726,16.744172905816313],[102.52298421223676,16.743343641493325],[102.52064995659438,16.741780870226094],[102.51769992404232,16.741841091580298],[102.51632948133377,16.741252712673912],[102.51352430555235,16.74367214626764],[102.51291937933738,16.746334364149703],[102.51529188367752,16.74861382378505],[102.51816650390302,16.747629937066463],[102.51908881293124,16.74764865451432],[102.52110568576106,16.748338758680944],[102.52364556206274,16.74883463541697],[102.52433919270518,16.751680230035035],[102.52427435980596,16.754858398437975],[102.52595947265328,16.756477593316248],[102.52626302083016,16.75741292317727],[102.52623779296593,16.758656684028125],[102.52485785589963,16.76069254557315],[102.52377902560445,16.76124728732667],[102.52065836588227,16.758736436632375],[102.51764973958043,16.75874159071229],[102.51624159070903,16.759312879774754],[102.51625325520556,16.75988335503493],[102.51793972438955,16.76070149739617],[102.5185083007784,16.761293131510755],[102.51846272786148,16.76351942274337],[102.51697916666367,16.764944932725953],[102.51767876518787,16.766303168403127],[102.52163953992752,16.766222330729505],[102.52381510416345,16.76769694010474],[102.5252981228268,16.76731689453159],[102.52638671874698,16.76768934461863],[102.52595269096943,16.77023383246555],[102.5245421006916,16.77300998263911],[102.52493625216712,16.774933539496914],[102.52485161675034,16.77907660590303],[102.52242567274013,16.780413953993346],[102.52186225043133,16.77597493489624],[102.5201391601532,16.77736599392385],[102.51917399088231,16.776711697048952],[102.51784722221939,16.77334554036507],[102.51561116536149,16.771197102865173],[102.5145136176184,16.770664605035066],[102.51288601345183,16.77069797092041],[102.51157579209783,16.772061631944695],[102.51051350911158,16.772636176215514],[102.50677490234071,16.769564073351248],[102.50568060980603,16.769586317274474],[102.50429796006662,16.77295111762207],[102.50343478732347,16.77378038194479],[102.50149034287907,16.77374077690999],[102.49804280598673,16.771650119358114],[102.49651638454557,16.768180609809377],[102.49556776258416,16.76819986979197],[102.49514160155971,16.771252712674098],[102.4948380533825,16.77184190538233],[102.4921278211776,16.77178656684066],[102.49100477430264,16.772170952691454],[102.4920290798581,16.774219021267967],[102.4915150282088,16.775720486111354],[102.49460259331292,16.778775770399506],[102.49458007812203,16.779876844618414],[102.49257839626452,16.781189507378684],[102.49168999565669,16.782544216580206],[102.49252875433714,16.783349880642604],[102.494726562497,16.784080674913398],[102.49679361978852,16.78514539930569],[102.4979161241292,16.784857855903184],[102.49963270399005,16.785150553385606],[102.50093641492774,16.78650743272587],[102.5026361762124,16.789586046007244],[102.5039114040766,16.79126681857663],[102.50430284287896,16.793027886285003],[102.50283799912884,16.794958224826914],[102.50094238280948,16.795691731771342],[102.49983100043116,16.79511908637197],[102.49815700954562,16.79166910807338],[102.49669976128158,16.792419704861473],[102.49258978949334,16.790127495660002],[102.4912584092854,16.788741590712135],[102.4901361762123,16.788197157118276],[102.48671034070881,16.785141601562856],[102.48388617621217,16.78808105468785],[102.48432345919824,16.79107231987895],[102.48429633246226,16.79239529079915],[102.48264160155932,16.794863823784993],[102.48197699652493,16.795186360677477],[102.4806005859347,16.79483344184065],[102.47903049044854,16.792314995659993],[102.47993570963254,16.790557725694796],[102.47940185546568,16.787427300347588],[102.47986382378164,16.786530490451653],[102.4807077365422,16.78287814670172],[102.48068766275745,16.781891818576682],[102.47679144964965,16.783225368923894],[102.47497721353855,16.78318820529536],[102.47326307508408,16.782026367187683],[102.4718096245629,16.78312906901087],[102.46869954426799,16.783908691406495],[102.46758599175033,16.783153754340745],[102.46765055338236,16.779990234375376],[102.47153618706287,16.775690917969115],[102.47151991102137,16.774898003472472],[102.46898030598666,16.7759966362852],[102.46733615451072,16.7759632703995],[102.4667974175317,16.77540256076415],[102.46680908202845,16.77482991536479],[102.46737521701098,16.773730740017598],[102.46864095051805,16.773116590711965],[102.46902506510119,16.772439236111467],[102.46791395398989,16.770974934896074],[102.46735270182003,16.768170030382265],[102.46636664496216,16.767222764757392],[102.46564724392047,16.767971462673856],[102.4657264539899,16.771851128472434],[102.4648312716985,16.772636176215514],[102.46296278211523,16.771808268229435],[102.46264160155945,16.775419379340548],[102.46234700520537,16.775991482205185],[102.46028293185466,16.77699300130253],[102.46183051214987,16.778503689236487],[102.4617995876707,16.780011121962232],[102.46059543185439,16.78059543185799],[102.4583360460039,16.785950520833723],[102.45640869140337,16.784488118489875],[102.45569091796577,16.781218804253825],[102.45486219617752,16.77960991753504],[102.45392632378159,16.775339626736383],[102.45434054904197,16.77331759982674],[102.45400906032674,16.772024197048793],[102.4540413411431,16.77044080946233],[102.45323215060452,16.768445366753753],[102.45289930555256,16.766401909722518],[102.45290337456302,16.76267740885453],[102.45319064669863,16.760646158854428],[102.45190836588225,16.757643771701836],[102.45244981553518,16.75500000000055],[102.45068657768817,16.75178059895852],[102.45069118923308,16.750115288628976],[102.44850477430262,16.747233615451833],[102.44915825737544,16.745324435764246],[102.44846950954573,16.744308268229773],[102.44750976562213,16.742047797309553],[102.44867377386853,16.73978841145869],[102.44768256293102,16.738752712673914],[102.44569715711489,16.74041937934072],[102.44483208550028,16.740700141059392],[102.44293538411156,16.741985948351143],[102.44399820963272,16.743553873698573],[102.44346028645535,16.74459825303856],[102.44138346353841,16.74527235243086],[102.4409749348927,16.746530490451747],[102.43985324435474,16.748497178819903],[102.43987169053528,16.749410264757245],[102.44131808810474,16.749879557292033],[102.44351942274014,16.749870605469113],[102.44459716796584,16.750992296007254],[102.4445800781219,16.753497721354435],[102.44303276909423,16.7534659830731],[102.441791720917,16.75262478298636],[102.4409640841985,16.753486328125504],[102.44099012586506,16.754762369791962],[102.44189941405958,16.756103786892567],[102.44487820095165,16.757092827691253],[102.44680040147264,16.760987141927572],[102.44564697265324,16.76154676649338],[102.44437825520563,16.76152072482678],[102.44289876301784,16.760398220486536],[102.442086046004,16.760446506076647],[102.44291395398997,16.762374945746814],[102.44132297091713,16.763146701389317],[102.4409749348927,16.764629448785215],[102.44209743923327,16.766808539496722],[102.44205566405955,16.76885470920169],[102.44142578124715,16.769302842882254],[102.44037217881643,16.766427951389204],[102.43979410806978,16.765974934896093],[102.43790635850385,16.76903618706642],[102.43675130208013,16.76901258680583],[102.43553765190669,16.768387315538533],[102.4309567599797,16.769312065972542],[102.42928927951075,16.772380642361355],[102.42811767577834,16.772356770833838],[102.42651936848657,16.768480360243274],[102.42708062065694,16.7673472764762],[102.42508843315679,16.766381022135832],[102.42375271267068,16.76402506510459],[102.42269911024002,16.76347493489618],[102.42180826822639,16.76491292317752],[102.42235785589989,16.767664388021217],[102.42001030815683,16.767616373698488],[102.41762695312187,16.767086317274746],[102.41615939669848,16.770862358941116],[102.41375271267057,16.771557617187824],[102.41505289713248,16.77280680338569],[102.41684407551762,16.772347819010832],[102.41765272352112,16.772364095052765],[102.41877983940654,16.77458062066009],[102.42062798393792,16.773628472222654],[102.42193332247942,16.77407524956631],[102.42251708984074,16.77706624348987],[102.42207139756655,16.77793158637175],[102.41879096136867,16.779273274740078],[102.41601589626444,16.77958062066017],[102.41317518445877,16.77735297309073],[102.41211425780975,16.777374674479418],[102.41010281032678,16.779063313802453],[102.41013481987565,16.78186957465327],[102.40828314886855,16.78364827473986],[102.40533718532689,16.784127875434578],[102.40401095919842,16.786150987413492],[102.40230577256628,16.786823459201713],[102.40096435546573,16.788219672309324],[102.40098714192405,16.789347330729385],[102.40184868706305,16.79017496744855],[102.405881890188,16.790162489149893],[102.40712972004931,16.791008300781556],[102.40838460286167,16.79359456380236],[102.40762222688195,16.79432704268524],[102.40580981163416,16.793843731952478],[102.4045904286161,16.795411510118427],[102.40267425530223,16.796979288284746],[102.40197746500635,16.798721264024394],[102.3997128965444,16.801160030060444],[102.39762252565626,16.802553610652268],[102.39622894506445,16.8023794130783],[102.39727413050852,16.799418054320526],[102.39762252565626,16.796805090710606],[102.3944869693245,16.79192755863876],[102.39135141299235,16.79001138532506],[102.38960943725252,16.79088237319479],[102.3918740057143,16.79349533680481],[102.39222240086255,16.79488891739645],[102.39152561056684,16.79593410284059],[102.38821585666071,16.796979288284746],[102.38751906636472,16.797676078580693],[102.38420931245858,16.798372868876385],[102.38264153429262,16.799592251894225],[102.37933178038705,16.79802447372836],[102.37811239736916,16.797676078580693],[102.37515103861122,16.798547066450524],[102.37445424831495,16.800289042190528],[102.37828659494298,16.80168262278235],[102.3831641270148,16.8023794130783],[102.38298992944058,16.80464398154021],[102.38159634884883,16.809347316038256],[102.3795059779608,16.81056669905601],[102.37793819979484,16.807953735446077],[102.3758478289071,16.8063859572803],[102.3739316555934,16.808998920890048],[102.36626696233733,16.810392501482127],[102.36313140600541,16.80917311846393],[102.36138943026558,16.807953735446077],[102.35564091032356,16.8074311427241],[102.35598930547181,16.810915094204034],[102.35703449091571,16.812308674796014],[102.35250535399175,16.817534602015783],[102.35215695884389,16.819450775330026],[102.35459572487949,16.820321763199942],[102.35790547878557,16.8192765777557],[102.3617378254136,16.817882997164077],[102.36435078902335,16.81561842870181],[102.36678955505928,16.814050650535847],[102.36870572837344,16.814050650535847],[102.36905412352101,16.818405589885884],[102.36975091381734,16.81979917047778],[102.37201548227907,16.82067015834761],[102.37410585316726,16.820844355921835],[102.37654461920297,16.822412134087614],[102.37654461920297,16.824502504975825],[102.37793819979484,16.82607028314179],[102.379854373109,16.82711546858566],[102.38298992944058,16.823805714679878],[102.38368671973663,16.82223793651356],[102.38508030032878,16.820844355921835],[102.38640987504843,16.820179568562097],[102.38685058593424,16.821035427517714],[102.38929850260095,16.820407986111505],[102.39040039062186,16.820430501302283],[102.39367974175039,16.82331542968771],[102.39485839843431,16.824645996094105],[102.39430881076098,16.827661132812707],[102.39675564235804,16.82887152777812],[102.39618001301787,16.829989149305803],[102.39432969834795,16.82951470269127],[102.39276665581295,16.828455403646345],[102.39178331162904,16.828475477430757],[102.39097493489263,16.830141601562758],[102.38956597221934,16.8318202039935],[102.38696723089961,16.832453613281714],[102.38612738714986,16.83332790798653],[102.38726236978894,16.836126302083684],[102.38823594834767,16.8374093967018],[102.38819037543092,16.839647352431072],[102.38649034287894,16.841280381944898],[102.38456461588234,16.841241048177366],[102.38308241102143,16.842783745660114],[102.38068983289625,16.84356011284744],[102.37936821831275,16.84445610894157],[102.37858344183715,16.84783718533012],[102.37677625867761,16.849573296441164],[102.37736382378151,16.84985839843776],[102.37763617621229,16.85029568142393],[102.3768028428789,16.851525065104482],[102.37653049044829,16.85347493489651],[102.37593695746247,16.854664442274796],[102.37599717881668,16.857605251736615],[102.37486382378174,16.85952148437522],[102.3755734591983,16.860413953993245],[102.37819715711518,16.858752712673805],[102.38172743055267,16.855697157118385],[102.38321397569175,16.856825086805813],[102.3831914605004,16.85793050130256],[102.38168484157674,16.858661295573427],[102.38429470485798,16.861267089844276],[102.38460828992768,16.860940755208702],[102.38456325954573,16.85763075086875],[102.38556966145543,16.856663953993476],[102.38875271267065,16.857358398437924],[102.38930284287906,16.857946506076686],[102.38874538845172,16.859028320313016],[102.38968234591701,16.86026285807303],[102.39192003037905,16.861591254340595],[102.39151936848648,16.862369249132385],[102.39151936848648,16.864027777778276],[102.39290120442396,16.864698079427484],[102.39319173176804,16.862913953993328],[102.39351942274007,16.86227756076447],[102.39540662977171,16.86046440972244],[102.3940250651012,16.858752712673805],[102.39347574869478,16.85649549696214],[102.39733262803523,16.854752604166976],[102.3995269097193,16.855503743490075],[102.40043592664622,16.85455756293439],[102.40041015624686,16.853298339844144],[102.39930826822606,16.85007622612902],[102.40019965277472,16.8456445312503],[102.40144097221926,16.844308268229355],[102.4018028428791,16.84653049045177],[102.40247151692407,16.847517089844175],[102.40375054253187,16.847079535590552],[102.40461398654233,16.847357584635844],[102.40597384982314,16.844554578993595],[102.407322048608,16.84321804470528],[102.40652343749693,16.841249186198112],[102.40791395398995,16.839385579427343],[102.40643663194138,16.83841715494816],[102.40526177300072,16.837194010416994],[102.40755045572641,16.83493598090304],[102.40693712022286,16.831940646701568],[102.40757215711497,16.831330566406663],[102.40911593966726,16.830954047309348],[102.41014160155984,16.830975206163487],[102.41063368055259,16.8304627821186],[102.40956922742757,16.827352973090527],[102.40958685980596,16.826497124566657],[102.41185302734075,16.825397677951656],[102.41338758680254,16.82542914496581],[102.41577609591721,16.827146809896007],[102.41652506510096,16.826918402778077],[102.41567003037912,16.824810384114983],[102.41569742838217,16.82345838758728],[102.41738091362558,16.822641601562864],[102.41735568576067,16.82140109592065],[102.41407063801788,16.82094265408007],[102.41263047959754,16.819849989149716],[102.41263129339993,16.81823757595511],[102.41061550563953,16.817041015625264],[102.409263780379,16.815633951823443],[102.40868055555248,16.814431966146046],[102.40911621093446,16.813586425781665],[102.41065158419846,16.8141118706602],[102.41254774305256,16.812138400607935],[102.41445665147259,16.810865071615027],[102.41596978081301,16.811252983941372],[102.41764702690702,16.811270073785224],[102.41858615451068,16.810292426215653],[102.41814317491023,16.808563639323168],[102.4184865993893,16.80789713541688],[102.42060492621223,16.807940266927332],[102.42235839843434,16.80652506510441],[102.42432508680267,16.80568006727465],[102.42429714626425,16.80431369357673],[102.4247306315074,16.803472222222624],[102.42393717447615,16.80193223741371],[102.42461914062218,16.800926106771172],[102.42457736544853,16.798877766927305],[102.42339002820862,16.798301595052564],[102.42241292317388,16.797086046007493],[102.42458360459764,16.79764241536502],[102.42580159504902,16.79722574869824],[102.42816975911163,16.800837944878637],[102.43227566188946,16.803191731771136],[102.43263617621213,16.802080620660107],[102.43328260633385,16.801126844618324],[102.4350583224797,16.801581759982895],[102.43734103732342,16.80040608723992],[102.43914306640332,16.801022949219018],[102.43985839843438,16.80081542968786],[102.43901936848656,16.79957790798639],[102.43903103298314,16.799007975260835],[102.44047634548312,16.799037543403358],[102.44210286458039,16.799875488281813],[102.44206705728882,16.801632758246825],[102.44431939018781,16.804316134983196],[102.444299316403,16.80530056423669],[102.4433531358479,16.806696506076676],[102.44395046657687,16.807270507812774],[102.44597005208018,16.80623019748306],[102.44736355251436,16.80624701605946],[102.44820827907668,16.806536187066243],[102.44876302083034,16.80824625651097],[102.44874023437185,16.810476345486677],[102.44782497829553,16.81225314670189],[102.44544297959769,16.81454182942754],[102.44172281900731,16.813779839410145],[102.44053059895523,16.814394259982876],[102.44220621744498,16.81639051649337],[102.44290825737542,16.820702853732854],[102.44475206162886,16.821597222222792],[102.44569173176782,16.822668728298922],[102.44512451171582,16.823769531250292],[102.4437885199624,16.82374240451415],[102.44319715711512,16.824781087240197],[102.44464491102164,16.825730251736346],[102.44651041666387,16.827671983507273],[102.44594645181982,16.828213704427483],[102.44397488063933,16.828198242187995],[102.4425675455698,16.829663357205035],[102.44302354600384,16.830996093750514],[102.44235677083046,16.832639702691296],[102.44294135199348,16.83346950954892],[102.44575710720213,16.83180826822948],[102.44794650607341,16.834025065104427],[102.44906765407697,16.83344753689269],[102.4509280056391,16.83348551432313],[102.45124728732347,16.831525065104444],[102.45323404947604,16.829266493056025],[102.45436876084759,16.82696858723982],[102.45515380859067,16.82737304687548],[102.45597412109075,16.829900987413524],[102.45760308159427,16.831466200087306],[102.45875271267059,16.833191731771066],[102.45905409070863,16.83473551432317],[102.46141330294827,16.835310601128725],[102.46377875433714,16.837391764323215],[102.46598632812211,16.837364366319804],[102.46596327039632,16.838497178819864],[102.46330810546581,16.839977213542028],[102.46276909721936,16.84328694661488],[102.4617941623234,16.844725206163588],[102.46181070963237,16.84553114149334],[102.46352294921556,16.84483669704899],[102.46488091362542,16.844864366319953],[102.4648581271671,16.845974934896077],[102.46543619791376,16.84682725694475],[102.46820827907678,16.847913953993455],[102.46884331596928,16.846604817708652],[102.47075819227123,16.845675998264284],[102.47287000867746,16.84571912977482],[102.47432454426772,16.84315321180597],[102.47429633246222,16.8417694769971],[102.47249728732359,16.83998589409768],[102.4729261610212,16.838732910156537],[102.47763617621214,16.836497938368453],[102.47707194010107,16.835402832031463],[102.47437717013602,16.835457628038483],[102.47373046874694,16.835124511719343],[102.4737532552052,16.83400553385475],[102.47564615885128,16.83308729383731],[102.47708062065689,16.831508789062767],[102.47498589409409,16.829163953993273],[102.47373670789639,16.82959147135452],[102.47298936631634,16.829576280382312],[102.47150444878153,16.82844970703161],[102.47041395399006,16.826252712673792],[102.47008572048341,16.82457194010449],[102.46873128254933,16.82119276258713],[102.46876383463231,16.81960205078157],[102.46681043836489,16.81545057508707],[102.4654193793373,16.81152506510439],[102.46414415147254,16.809242078993478],[102.46490722655952,16.808197157118414],[102.46686604817418,16.80920627170177],[102.46737820095169,16.808150770399678],[102.46873291015314,16.80684922960107],[102.46942708333032,16.805466579861303],[102.47043592664633,16.805986328125286],[102.4709695095456,16.8070860460073],[102.47291937933701,16.80930284288216],[102.47319173176791,16.810735134548935],[102.47151367187192,16.81234727647619],[102.47238335503161,16.81363037109402],[102.47235134548336,16.81519856770872],[102.47110921223671,16.817609863281533],[102.47212402343436,16.818469509549217],[102.47396375867763,16.81655463324681],[102.47795735676769,16.815419379340454],[102.47916937933732,16.816680772569967],[102.47847493489289,16.818875325521248],[102.48182264539625,16.819870605469035],[102.48238796657708,16.821036241319717],[102.48387749565686,16.822467176649766],[102.48543565537884,16.823469509549113],[102.48699896918086,16.821842447917206],[102.48849148220208,16.820946451823346],[102.48846896701107,16.819838053385965],[102.48958062065677,16.81648166232665],[102.48845431857345,16.8142955186634],[102.48954155815679,16.81325086805596],[102.49072862412893,16.8140554470489],[102.49155463324374,16.815758463541883],[102.49301540798305,16.81716200086842],[102.49617051866025,16.81939398871569],[102.49671712239288,16.818824869791868],[102.4962367078962,16.81647976345519],[102.49625732421569,16.815480143229664],[102.49764160155937,16.81319715711875],[102.49830322265316,16.811158311632184],[102.50059326171575,16.80855523003507],[102.50334472655928,16.809118923611408],[102.50417697482342,16.812069769965703],[102.50229139539644,16.818465983073125],[102.49942735459777,16.820249294705178],[102.49987467447616,16.82155653211825],[102.4998521592851,16.82265543619816],[102.4978339301185,16.823634711372094],[102.49847493489281,16.824580620660143],[102.49874728732365,16.825616319444663],[102.4974639214378,16.827307400173794],[102.4980417209172,16.828428819444667],[102.50013129339979,16.82735243055616],[102.50084445529208,16.827367078993376],[102.501290690101,16.828286675347456],[102.5012424045108,16.830643446181057],[102.49985649956275,16.832360568576718],[102.50026068793105,16.833145073785246],[102.50293646918104,16.83346950954892],[102.50290283202824,16.831826985677424],[102.5036699761254,16.830141601562758],[102.50502902560467,16.832214626736317],[102.50603054470182,16.83117214626762],[102.50682996961493,16.82952473958366],[102.5068020290768,16.828163791233024],[102.50481933593451,16.826189507378842],[102.50416286892042,16.82483615451413],[102.50562988280925,16.821912977430898],[102.50762071397256,16.82126681857656],[102.5085064019066,16.820666775173862],[102.50981662326112,16.81796603732691],[102.51260145399013,16.817512478298966],[102.51307074652479,16.818958333333597],[102.51260009765323,16.82263970269149],[102.5170765516464,16.827049696181163],[102.51735839843425,16.8279684787329],[102.51484212239271,16.8304535590283],[102.51487467447603,16.832059190538715],[102.51430257161152,16.833469780816372],[102.51431939018781,16.834293619791893],[102.51346761067387,16.83541612413258],[102.5138072374103,16.836075032552316],[102.51757432725415,16.834586046007317],[102.5179272460908,16.837473958333575],[102.51862060546588,16.837913953993663],[102.52021755642065,16.835509168837135],[102.52118652343447,16.832522515191314],[102.522234700518,16.83201388888918],[102.52300726996245,16.83241183810817],[102.52424641926771,16.83699300130249],[102.52492865668106,16.83831759982668],[102.52625271267053,16.83874728732684],[102.527636718747,16.83958658854212],[102.52819173176786,16.839542643229663],[102.52763617621227,16.83791937934049],[102.52691677517052,16.83378716362884],[102.52737820095203,16.832891438802264],[102.52879828558721,16.832920464409966],[102.53071207681981,16.833906521267906],[102.53152506510108,16.833431532118297],[102.53015543619475,16.832115614149657],[102.52957872178521,16.83123589409739],[102.52642496744497,16.831205512153133],[102.52410373263578,16.828789333767773],[102.52464518228848,16.827919379340514],[102.52870035807004,16.830142686632385],[102.52932508680252,16.830129937066275],[102.52929578992737,16.828688964844204],[102.52843153211492,16.826163736979694],[102.5284819878444,16.823691677517758],[102.53068169487565,16.821577962240028],[102.53130832247982,16.82003390842047],[102.53264160155939,16.8187527126739],[102.53291395398995,16.818164605035136],[102.53214219834777,16.816666666667032],[102.53273166232347,16.815522732205395],[102.53446234808743,16.814863823785117],[102.53615397135113,16.81826117621543],[102.53716200086521,16.81902506510447],[102.53798746744488,16.816398654514302],[102.53933539496259,16.815974934896147],[102.54052381727135,16.81658718533042],[102.54570773654225,16.81820258246549],[102.54644151475375,16.818187662760906],[102.5456833224799,16.815972222222783],[102.54633816188945,16.81405870225737],[102.54401394313956,16.81290256076433],[102.54403618706297,16.81181369357681],[102.54312662760137,16.81004828559078],[102.54348307291374,16.809006890191355],[102.54626383463247,16.807067871093892],[102.54624186197626,16.80599039713566],[102.54661268445895,16.80454291449702],[102.54597493489288,16.801503092448186],[102.54763617621214,16.799025065104786],[102.5488126627574,16.797641601562916],[102.55172770182,16.798238661024797],[102.55254937065703,16.797815483941278],[102.55163384331317,16.795558810764163],[102.55341932508364,16.79497938368104],[102.5552661132783,16.79545274522603],[102.55828314886881,16.796979166667],[102.56013617621218,16.798474934896376],[102.56287624782695,16.798772786458898],[102.56491590711508,16.801297200521134],[102.56763346353856,16.80124159071201],[102.56907389322626,16.802101508246707],[102.56958062065686,16.8032571072051],[102.56865370008373,16.80596516927106],[102.56692437065661,16.808107367622043],[102.56767957898992,16.80874728732691],[102.57009928385108,16.807919108073207],[102.57492974175065,16.80705919053851],[102.57626383463221,16.807086317274653],[102.57681911892084,16.808230523003758],[102.576246202254,16.811250813802545],[102.5770860460041,16.813191731771113],[102.57735839843465,16.81518500434052],[102.57653103298307,16.81709743923639],[102.57754665798299,16.81707682291716],[102.57990966796561,16.81509304470515],[102.58215006510116,16.81207058376752],[102.58293891058716,16.812086588541916],[102.5845860460038,16.815136176215688],[102.58513617621233,16.816692708333633],[102.58429253471914,16.818772243924116],[102.58243815103876,16.819988064236554],[102.58027615017036,16.82051513671918],[102.57941243489293,16.82317681206642],[102.57721381293138,16.823830023871864],[102.576500922306,16.826357421875556],[102.57376708984097,16.828984103732907],[102.57320285372978,16.83014729817731],[102.57119466145545,16.832437065972513],[102.57158474392062,16.83395914713593],[102.57040988497957,16.835507269965674],[102.57045328775737,16.837623969184335],[102.57180826822608,16.839302842882446],[102.57208062065692,16.840168728298792],[102.57139295789639,16.841503634983],[102.56871337890348,16.84098144531319],[102.56874674478857,16.843769531250516],[102.56811442056974,16.844376898871857],[102.56625732421585,16.843741319444902],[102.56566379122981,16.84375352647602],[102.56321777343456,16.846299641927388],[102.56425130208035,16.847292751736262],[102.56654812282684,16.8481985134554],[102.56716579860822,16.8488414171011],[102.56679741753166,16.851000976562943],[102.56457736544829,16.853751085069817],[102.56557345919836,16.854302842882404],[102.56713080511875,16.85324707031286],[102.56863145616026,16.85288140191001],[102.5718028428789,16.849580620659907],[102.57240722655959,16.84930826822952],[102.5741438802053,16.85020290798647],[102.5746978081568,16.84906087239611],[102.57607421874675,16.848752712673928],[102.57681911892084,16.849888780382358],[102.57679280598657,16.85118218316022],[102.57455620659417,16.853775499132226],[102.57191921657679,16.855054796007238],[102.5714933268201,16.856367458767593],[102.57149793836507,16.859302842882215],[102.57040852864284,16.858741590712057],[102.5698472764727,16.858752983941528],[102.56919596353876,16.860095214844037],[102.5669504123234,16.86082411024354],[102.56890733506626,16.86309299045179],[102.57213514539606,16.86179253472247],[102.57298068576088,16.86180962456649],[102.57491943359074,16.863827853733127],[102.57864800346928,16.87015543619823],[102.57915039062212,16.872729220920476],[102.57833984374699,16.875891927083742],[102.57764214409426,16.88043077256978],[102.57849175346948,16.880413411458647],[102.57905843098663,16.879823676215963],[102.57984130859089,16.878209906684447],[102.58096950954544,16.87918457031283],[102.58001980251439,16.88058539496555],[102.5806762695282,16.88121609158013],[102.58293267143804,16.879394802517808],[102.58291178385107,16.878369411892777]],[[102.5722222222195,16.84155843099012],[102.5741666666635,16.841388888889398],[102.57484212239282,16.842492133246694],[102.57153320312207,16.842860785590545],[102.5722222222195,16.84155843099012]],[[102.58460123697628,16.807466634114988],[102.58694444444123,16.805555555556026],[102.58762098524002,16.806267903646145],[102.58839762369487,16.806585828993434],[102.58915771484058,16.807570258247026],[102.58795518662888,16.808498535156588],[102.58762803819164,16.80844997829911],[102.58686414930244,16.808910861545343],[102.58638888888575,16.80952663845534],[102.58500678168096,16.808250868055794],[102.58460123697628,16.807466634114988]],[[102.5688004557264,16.796329481337295],[102.56849256727142,16.79330891927104],[102.56958414713247,16.7928987630211],[102.57155056423304,16.79373725043429],[102.57250542534408,16.792478569878952],[102.57306477864299,16.789955512153185],[102.57373725043081,16.78957058376794],[102.57666666666344,16.789444444444683],[102.57728271484089,16.790186089410028],[102.57885253905957,16.789596082899635],[102.57971869574348,16.790536838108025],[102.5801999240422,16.79270670572943],[102.58230360242774,16.79332383897608],[102.58248372395545,16.79509141710092],[102.58187662760113,16.796491427951636],[102.5805745442677,16.79685546875048],[102.57937879774013,16.796337076823406],[102.57735921223659,16.794596082899616],[102.57574381510099,16.795609809027994],[102.57506239149038,16.797423773872012],[102.57553927951093,16.799129774305996],[102.57451497395508,16.800362684462286],[102.5712885199624,16.800959472656615],[102.57031032985824,16.80068060980939],[102.56973741319135,16.799680447049056],[102.5688004557264,16.796329481337295]],[[102.52345811631645,16.794913194444902],[102.52290527343465,16.795986056857856],[102.52193169487546,16.79596625434064],[102.52153049044827,16.794264865451836],[102.522499999997,16.793333333333905],[102.52345811631645,16.794913194444902]],[[102.464803059893,16.795669759115015],[102.46328179253189,16.795990668403235],[102.4623790147539,16.797079535590484],[102.46362684461522,16.79862331814269],[102.464009874129,16.800426703559324],[102.46245930989281,16.80225613064283],[102.46125217013602,16.80178141276086],[102.46063178168092,16.799553493923966],[102.45957302517056,16.79812554253502],[102.45883463541358,16.795474175347707],[102.45909912109065,16.793684624566183],[102.45870388454566,16.791979166666835],[102.45878363714954,16.791438259548897],[102.46069661458026,16.790655381944916],[102.46123209635132,16.78873209635465],[102.46169704860822,16.787961425781603],[102.46277777777462,16.787777777778132],[102.46497395833038,16.79451470269136],[102.464803059893,16.795669759115015]],[[102.44623453775719,16.79679009331643],[102.44531575520537,16.798302951389374],[102.44425672742759,16.79817111545165],[102.44438205294838,16.797163357205378],[102.44524359808716,16.7949216037331],[102.44638888888588,16.794722222222788],[102.44702039930272,16.795714789496927],[102.44623453775719,16.79679009331643]],[[102.46123969183745,16.82893202039979],[102.46046169704564,16.8317743598094],[102.45923285589967,16.830903049045418],[102.45941487629895,16.828638237847557],[102.45899251301788,16.82670138888936],[102.459999999997,16.825833333333648],[102.46096245659416,16.82752604166697],[102.46123969183745,16.82893202039979]],[[102.38401231553539,16.850777994792026],[102.3813557942677,16.852391493056004],[102.38068033853867,16.852307400174098],[102.37939724392092,16.85070529513915],[102.38145941839983,16.849053819444904],[102.38277777777458,16.848888888889206],[102.38376546223671,16.850123426649574],[102.38401231553539,16.850777994792026]],[[102.43771348741038,16.78179524739612],[102.43653591579564,16.780960286458566],[102.43600965711519,16.781002604167014],[102.43459364149001,16.78040635850742],[102.43109917534414,16.780049913194688],[102.43039957681978,16.778192545573205],[102.43153808593453,16.77681586371554],[102.43212239583025,16.774875488281523],[102.43179524739301,16.77459364149348],[102.43153808593453,16.77349555121566],[102.4327777777747,16.773333333333866],[102.43297064886875,16.7739737955732],[102.43403971353851,16.774295789930946],[102.43399359808714,16.774869249132138],[102.43691053602126,16.7751285807295],[102.43794379339985,16.774552137587207],[102.43866400824336,16.77460991753506],[102.44033691405937,16.775543077257353],[102.4390380859343,16.777256673177448],[102.44112521701064,16.77837185329902],[102.44068277994498,16.77957682291715],[102.44072726779208,16.780129937066476],[102.44036078558733,16.780445692274682],[102.43837917751424,16.78052463107676],[102.43771348741038,16.78179524739612]],[[102.54817192925023,16.785932074653317],[102.54935085720186,16.785164388021272],[102.55016438801792,16.78539116753528],[102.55041666666372,16.785756835938045],[102.55083333333042,16.785277777778234],[102.550949435761,16.78573079427153],[102.55126871744514,16.785659179687926],[102.55156738280962,16.786091851128646],[102.55276963975396,16.786541883681124],[102.55344672308726,16.788153754340726],[102.5517963324622,16.789278700087067],[102.5491889105871,16.78860948350713],[102.54794216579577,16.787114529080213],[102.54817192925023,16.785932074653317]],[[102.56274169921588,16.757785101997044],[102.56488037109077,16.756217990451802],[102.56651801214977,16.75634955512207],[102.56805555555232,16.75611111111148],[102.5704063585039,16.758174913194665],[102.57003200954577,16.759836154514204],[102.56738199869508,16.75993760850723],[102.56342068142075,16.758369954427252],[102.56274169921588,16.757785101997044]],[[102.56191921657691,16.736290147569903],[102.56021782768781,16.73532823350736],[102.55932101779226,16.734321289063004],[102.56132948133384,16.733747016059368],[102.56333333333035,16.733611111111443],[102.56432101779225,16.73484564887191],[102.56456787109065,16.736178114149666],[102.56327229817416,16.74040852864634],[102.56252739800041,16.741675889757502],[102.56148328992745,16.740913085937663],[102.56158393011836,16.740104709201617],[102.56260308159423,16.737453342014405],[102.56191921657691,16.736290147569903]],[[102.6208699544242,16.72549967447938],[102.62166666666386,16.725277777778103],[102.62206542968451,16.727318793403143],[102.62068359374726,16.728385687934264],[102.61968722872942,16.727094997830406],[102.6208699544242,16.72549967447938]],[[102.53229682074348,16.67020616319472],[102.5308352322019,16.670946723090623],[102.52988661024014,16.67046196831616],[102.53059895833022,16.6693676757818],[102.53249999999687,16.668888888889086],[102.53267496744499,16.66930555555595],[102.53229682074348,16.67020616319472]]]]},"properties":{"id":"349"}}]}