{"type":"FeatureCollection","features":[{"type":"Feature","geometry":{"type":"MultiPolygon","coordinates":[[[[108.21670918782459,12.624017469618366],[108.21628221299798,12.623333333333676],[108.21508158365796,12.623552246094135],[108.21495571560243,12.625118001302368],[108.21662970648774,12.629250759548924],[108.21770501030701,12.629850802951722],[108.21796217176549,12.628658311632336],[108.21700812445638,12.626948513455247],[108.21670918782459,12.624017469618366]]]]},"properties":{"id":"22860"}}]}