{"type":"FeatureCollection","features":[{"type":"Feature","geometry":{"type":"MultiPolygon","coordinates":[[[[71.19912197330964,33.04488624781142],[71.19938956367312,33.044618691107786],[71.20046862540917,33.044618751824984],[71.20074065654049,33.04407919745235],[71.20074065654049,33.04353962615572],[71.19966159556773,33.04300008388353],[71.19912197330964,33.042732530755345],[71.19723578232455,33.04246053707496],[71.19588911904091,33.04192096892223],[71.19534958220376,33.04165341314389],[71.19481004462071,33.0416534045561],[71.19373096721799,33.04165346152715],[71.19346337296483,33.04192092538088],[71.19346337296483,33.04273250668935],[71.19427050629221,33.043539631249075],[71.1945425417533,33.043807204553644],[71.19507763794846,33.04407920525881],[71.19642874578173,33.0443467135521],[71.19723578232455,33.04434669949357],[71.19750337399054,33.044079147802464],[71.19750337399054,33.04380721299765],[71.19804290784575,33.043807128951286],[71.19831494067463,33.04407916716137],[71.19831494067463,33.044618730436056],[71.19750337399054,33.0456933523746],[71.19723578232455,33.04596536954588],[71.19723578232455,33.04811908479647],[71.19750337399054,33.04839108850207],[71.19777531654782,33.04865863480309],[71.19912197330964,33.04919818172871],[71.20100824579893,33.05000534011889],[71.20208730303463,33.050005323607834],[71.20208730303463,33.049470252313796],[71.20046862540917,33.048658629404216],[71.19938956367312,33.04811909024038],[71.19938956367312,33.04785155281448],[71.19912197330964,33.04758402260235],[71.19858244094607,33.04758402157829],[71.19831494067463,33.04731203236243],[71.19831494067463,33.046772483415666],[71.19831494067463,33.04650494357347],[71.19831494067463,33.046232931594574],[71.19858244094607,33.045693355033634],[71.19912197330964,33.04488624781142]]]]},"properties":{"id":"37022"}}]}