{"type":"FeatureCollection","features":[{"type":"Feature","geometry":{"type":"MultiPolygon","coordinates":[[[[86.80537508562182,24.83747195289527],[86.80606274838217,24.837147415406122],[86.80773755306987,24.83721379113868],[86.81031513553515,24.83615501767396],[86.8123999608388,24.835658411906877],[86.81403299035296,24.833020981079983],[86.81568541548299,24.828483271526096],[86.81361374664627,24.827989802287647],[86.81206779395515,24.826321372383106],[86.81209953223632,24.823298385865186],[86.81172084300024,24.822947484579302],[86.80980284712356,24.823023507257318],[86.80861252594318,24.824243854343905],[86.8071596179569,24.823129657566653],[86.80422911665502,24.822743203302153],[86.80221671973638,24.823448549303848],[86.8016618423492,24.82284962487877],[86.80291713206273,24.81918641348011],[86.80305547841712,24.817599024699774],[86.80225998688067,24.817750900513573],[86.79957796648128,24.819121512763928],[86.79819558800912,24.820181625611127],[86.79638786231467,24.822132631334952],[86.79539000532688,24.821604609416582],[86.7954422242938,24.820283910360516],[86.79344189877284,24.82080808367327],[86.79283086904186,24.822102758016825],[86.79300231001449,24.82642928593026],[86.79438184017917,24.827454846097282],[86.79652973514467,24.82670199439923],[86.79920388879023,24.828116992771655],[86.79957796648128,24.82968764774681],[86.80043232303515,24.83083137875795],[86.80153231218432,24.830787789483892],[86.80234340159402,24.83121698531174],[86.80291129981472,24.831980891154856],[86.80215270063925,24.834145146932826],[86.80352653418961,24.835936596585626],[86.80292811839112,24.837643749905936],[86.80461879221915,24.83828817943062],[86.80537508562182,24.83747195289527]]]]},"properties":{"id":"9531"}}]}