{"type":"FeatureCollection","features":[{"type":"Feature","geometry":{"type":"MultiPolygon","coordinates":[[[[79.71691796875021,23.653182617187582],[79.71675000000019,23.653000000000077],[79.71605859375015,23.65306054687497],[79.7159414062501,23.65331445312522],[79.71580859375015,23.653560546874957],[79.7156914062501,23.653814453125108],[79.71555859375016,23.65406054687493],[79.71544140624994,23.65431445312501],[79.71530859375017,23.65456054687509],[79.71514062500015,23.655266601562616],[79.7148164062501,23.655439453125098],[79.71455859375013,23.65556054687505],[79.7143164062501,23.655689453124992],[79.71405859375002,23.65581054687496],[79.71206640625027,23.6576894531251],[79.71180859375002,23.657810546875055],[79.7116484375002,23.65814941406252],[79.71106640625007,23.658425781249974],[79.711046875,23.658932617187546],[79.71131640625006,23.659060546875097],[79.71155859374997,23.659189453125137],[79.71206640625027,23.65931054687509],[79.71255859375017,23.659689453125026],[79.71306640625025,23.65981054687498],[79.71353906250013,23.66006054687506],[79.7143906250001,23.659903320312452],[79.71460937500015,23.658983398437684],[79.71493359374998,23.658810546875017],[79.71540625000003,23.658588867187618],[79.71555859375016,23.657935546875095],[79.7156914062501,23.6576894531251],[79.71580859375015,23.657435546875035],[79.7159414062501,23.657189453125213],[79.71605859375015,23.656185546875165],[79.71655859374997,23.65553515625008],[79.71619140625009,23.654837890625103],[79.71658593750007,23.654333007812482],[79.71743359375003,23.65413183593759],[79.71746093750025,23.653452148437523],[79.71719140625007,23.653310546875048],[79.71691796875021,23.653182617187582]]]]},"properties":{"id":"19599"}}]}