{"type":"FeatureCollection","features":[{"type":"Feature","geometry":{"type":"MultiPolygon","coordinates":[[[[76.12877604166661,23.810467393663686],[76.12992072211367,23.809171956380638],[76.13086120605479,23.811426323785298],[76.13196736653643,23.8113825141064],[76.13256279839382,23.80950181749178],[76.13256944444421,23.805331895616774],[76.13208550347221,23.804883626302583],[76.13055948893233,23.805283474392766],[76.12962158203104,23.805246310764332],[76.12874999999994,23.804305555556013],[76.12787190755196,23.80447319878519],[76.12719326443133,23.805911187066428],[76.12582804361963,23.807216932509135],[76.12556084526906,23.808060845269523],[76.12522189670139,23.80832804362025],[76.12417968749978,23.80720323350738],[76.12333862304664,23.80783365885469],[76.12443915473065,23.808914794922288],[76.12330600314655,23.809449598524765],[76.12335611979151,23.81071302625928],[76.12548516167547,23.811220160590693],[76.12613708496096,23.810516493056056],[76.12607306586338,23.808901095920532],[76.12660671657963,23.80861640082513],[76.12693915473065,23.811394178602967],[76.12723870171422,23.811960313585416],[76.12808729383684,23.811926676432705],[76.12877604166661,23.810467393663686]]]]},"properties":{"id":"19523"}}]}