{"type":"FeatureCollection","features":[{"type":"Feature","geometry":{"type":"MultiPolygon","coordinates":[[[[76.5792186143664,26.036388888888936],[76.57954074435796,26.03420925564251],[76.5790277777779,26.033750000000197],[76.57861572265656,26.034068196614754],[76.57816826714449,26.035674913194626],[76.57684692382847,26.03559054904528],[76.57707763671894,26.037151150173784],[76.5763578287762,26.037706705729292],[76.57633748372407,26.03881998697932],[76.57759860568584,26.039171278211967],[76.57833984375046,26.040131564670403],[76.57969319661473,26.039599609375117],[76.5792186143664,26.036388888888936]]]]},"properties":{"id":"18854"}}]}