{"type":"FeatureCollection","features":[{"type":"Feature","geometry":{"type":"MultiPolygon","coordinates":[[[[81.14694173177085,24.703886108398777],[81.14808539496525,24.70333611382418],[81.14956231011254,24.704096950955176],[81.15110839843729,24.70245920817085],[81.14917670355905,24.700603298611398],[81.15057902018228,24.698866034614113],[81.1511408148871,24.697707960341006],[81.15110161675321,24.695786098904435],[81.14952229817678,24.69426873101159],[81.1500047471786,24.69333228217259],[81.14969238281245,24.693058336046278],[81.14813028971324,24.693863050673116],[81.14778049045114,24.695221116808042],[81.14916937934012,24.69694166395422],[81.14945787217871,24.697536180284615],[81.14943698459174,24.698562655979103],[81.14774793836798,24.698886108398696],[81.14652275933136,24.698255004883293],[81.14322740342871,24.69771853976812],[81.14150553385414,24.69592641194687],[81.1411138237847,24.694719441732076],[81.13966389973953,24.69211714002853],[81.13787394205727,24.690397406684355],[81.13578165690083,24.690002780490758],[81.13359293619786,24.690563693576692],[81.13231920030361,24.69053768581844],[81.13305826822929,24.689447224935165],[81.13339219835044,24.687736816406655],[81.13499728732612,24.686746690538612],[81.13347222222225,24.685694444444707],[81.13249728732623,24.685830552843214],[81.13193128797727,24.686996968587565],[81.13193861219614,24.688477647569826],[81.1309117296004,24.68794864230712],[81.13000271267359,24.68821228027369],[81.13086371527768,24.689482421875283],[81.13082953559032,24.69115597195122],[81.13012098524288,24.692497219509832],[81.12855183919251,24.691433546278475],[81.12722493489585,24.69279151068828],[81.12883897569438,24.693574490017653],[81.13190144856773,24.692947218153606],[81.13444173177064,24.69166388617647],[81.13617363823786,24.691113891601887],[81.13856106228278,24.69234378390881],[81.13798339843723,24.69346530490479],[81.13502766927067,24.69442443847683],[81.13110839843719,24.694719441732076],[81.1296206325953,24.695621643066687],[81.12810072157114,24.69716250949456],[81.12549126519073,24.697671915690464],[81.12303195529492,24.696850314670527],[81.12306654188345,24.69515563964889],[81.1217876519095,24.69444722493533],[81.12054999457442,24.69528615315795],[81.11972927517334,24.69526943630676],[81.11916937933998,24.695585462782503],[81.12056450737842,24.696925760905216],[81.1205417209201,24.69804192437087],[81.12112494574635,24.698902520074185],[81.12109917534693,24.700171305338856],[81.12210123697898,24.700552775065418],[81.12362006293378,24.699523213704808],[81.12597927517365,24.699169447157374],[81.1255589463976,24.70030320909318],[81.12830932617166,24.70024709065777],[81.12913723415775,24.70110887315566],[81.1306072319878,24.70138610839878],[81.13243828667513,24.699480251736517],[81.13375556098092,24.698616672092456],[81.13460896809872,24.69691094292574],[81.13640272352424,24.696947564019453],[81.13701090494769,24.698201158312003],[81.13926486545151,24.70036668565568],[81.1453342013888,24.70323194715742],[81.1449190266924,24.70403788248727],[81.14532402886263,24.704719441732138],[81.14694173177085,24.703886108398777]]]]},"properties":{"id":"9550"}}]}