{"type":"FeatureCollection","features":[{"type":"Feature","geometry":{"type":"MultiPolygon","coordinates":[[[[101.5480345323351,14.831244710286725],[101.54521443684897,14.827993096245763],[101.54333455403648,14.825326656765611],[101.54217135959178,14.822562781440126],[101.54223280164919,14.821012895372462],[101.54140909830713,14.819815724691026],[101.54109008789047,14.81841630723764],[101.5419342719184,14.816820865207418],[101.5411400010851,14.814177161322803],[101.53852620442686,14.81258961995458],[101.53863145616302,14.809933115641428],[101.53744859483484,14.807051340739164],[101.53688327365435,14.804090067545758],[101.5360518391926,14.802881757948313],[101.53290405273432,14.80165601942305],[101.53170505099811,14.7991152784561],[101.52819268120649,14.797848036024575],[101.52532741970484,14.792717149522773],[101.52385728624134,14.790977511936077],[101.52283081054676,14.7892314995661],[101.52189168294271,14.784209628635182],[101.52128363715272,14.783060607910485],[101.51991061740435,14.782625901964138],[101.5181500922308,14.780725708007907],[101.51480319552937,14.77950585259353],[101.51442342122371,14.777911376953398],[101.5133123101127,14.775689154731069],[101.51292182074641,14.775327351888265],[101.51025906032973,14.775432874891678],[101.5084529622396,14.773906555175984],[101.50717339409707,14.774887729221106],[101.50500013563365,14.774801601833929],[101.50385213216154,14.774011671278387],[101.50213202582441,14.77400872124582],[101.50164564344598,14.772830166287122],[101.50255981445295,14.771102464464178],[101.50315755208308,14.767350531684258],[101.50359293619775,14.766527777777924],[101.50327975802955,14.765935974121263],[101.50219061957475,14.76542195638035],[101.5013226996526,14.764077894422982],[101.49927246093759,14.76338701036262],[101.49820163302937,14.76192718505878],[101.495112575955,14.76083333333358],[101.49379231770834,14.761281806098197],[101.49384982638892,14.7642112223309],[101.49275675455729,14.766018880208591],[101.49386786566825,14.767633599175483],[101.49413506401899,14.76842081705756],[101.4927163357203,14.770737948947655],[101.49017510308138,14.772911376953317],[101.4890039062499,14.771647271050512],[101.48855563693579,14.767901306152595],[101.48770385742185,14.767935078939033],[101.4861389160155,14.769624023437686],[101.48487277560744,14.769573838975859],[101.4840212673611,14.770892435709882],[101.4852587890625,14.772039048936918],[101.48524495442692,14.772387593587396],[101.48336208767356,14.773276163737123],[101.48303453233515,14.774310845269298],[101.48231689453124,14.775353732639104],[101.48351765950528,14.777098659939355],[101.48220418294264,14.778811509874302],[101.48282823350692,14.779990776909969],[101.48497897677944,14.782633599175625],[101.48584743923593,14.784990336100435],[101.48769110785574,14.786698676215494],[101.48891072591144,14.78822887844531],[101.48877780490434,14.79158399793856],[101.48920627170119,14.79280659993509],[101.49081231011283,14.79318915473111],[101.49175062391484,14.793834788004716],[101.49129367404518,14.79469811333567],[101.49045979817717,14.795470784505383],[101.49051228841145,14.798207109239556],[101.49214233398439,14.802019466824206],[101.49156778971357,14.803658803304273],[101.49222317165786,14.804897376166593],[101.49531548394086,14.806580725776072],[101.49607950846345,14.808199734158194],[101.49935248480884,14.80859141031921],[101.5008017306856,14.809588623047063],[101.5024291992186,14.80997628106023],[101.50289767795121,14.811455925835645],[101.50470119900157,14.811800265842194],[101.50621405707469,14.812600826687628],[101.50839898003485,14.815524410671784],[101.51025675455733,14.815966932509],[101.51103854709177,14.817177547878899],[101.51260145399286,14.817672356499742],[101.51449327256947,14.817597384982747],[101.51660061306413,14.817964324951376],[101.51921983506926,14.81888234456406],[101.52030883789061,14.819631805420102],[101.52135728624123,14.821255289713676],[101.52333835177953,14.823599531385923],[101.52730875651022,14.826338772244071],[101.53087388780384,14.829594319661666],[101.53347601996532,14.831059112549013],[101.53805650499126,14.830978800455938],[101.53799140082484,14.832622782389464],[101.53941094292551,14.834685821533427],[101.54110880533878,14.83578223334436],[101.54107693142342,14.836588643392076],[101.54025675455736,14.838582763672179],[101.54418185763879,14.841261817084714],[101.54493950737825,14.842079484727819],[101.54589138454858,14.842380828857557],[101.54754760742165,14.844363810221651],[101.54984008789083,14.84551727294938],[101.55325290256056,14.848618893093743],[101.55383395724832,14.849849955241083],[101.55420084635412,14.852916683621117],[101.55413289388011,14.854633178711182],[101.5529808213976,14.856307440864015],[101.55032470703131,14.858066321479129],[101.5499789767795,14.859829067654204],[101.55459214952239,14.860145144992543],[101.55864881727442,14.862691836887251],[101.55941284179696,14.864310845269358],[101.56193440755206,14.86457804362],[101.56197536892361,14.862445797390563],[101.5607488335506,14.8594597201879],[101.55937554253458,14.857464057074822],[101.55948689778629,14.85465469360372],[101.56038384331592,14.852959577772552],[101.56238091362829,14.851109144422978],[101.56471625434037,14.850199771457525],[101.56524617513011,14.849527418348686],[101.56464667426215,14.848394402398299],[101.561984998915,14.847138248020002],[101.55836710611968,14.844921671549713],[101.55475870768211,14.841916334364385],[101.55378228081591,14.840404307047692],[101.55122382269943,14.838527662489284],[101.55074598524291,14.836521962484],[101.5480345323351,14.831244710286725]]]]},"properties":{"id":"1926"}}]}