{"type":"FeatureCollection","features":[{"type":"Feature","geometry":{"type":"MultiPolygon","coordinates":[[[[77.16749471028632,24.652227511936317],[77.16624999999985,24.647083333333768],[77.16549886067693,24.647321133084233],[77.16556125216997,24.648894144694538],[77.16332804361971,24.6491613769537],[77.16221340603286,24.650016174316903],[77.16076131184886,24.649958597819648],[77.15944973415802,24.65097086588591],[77.16142184787313,24.65279815673884],[77.16204454210057,24.654117363824284],[77.16306084526897,24.65443915473145],[77.1641619194879,24.655283474392917],[77.1652088758681,24.655291544596977],[77.16798868815104,24.656383599175925],[77.17055026584191,24.65405612521748],[77.16913248697907,24.653607279460203],[77.16749471028632,24.652227511936317]]]]},"properties":{"id":"19264"}}]}