{"type":"FeatureCollection","features":[{"type":"Feature","geometry":{"type":"MultiPolygon","coordinates":[[[[75.69568332248232,23.65285536024355],[75.69841064453092,23.652510308160117],[75.69830206976988,23.653861626519543],[75.6986444091796,23.65447523329054],[75.70080179850245,23.654542371962236],[75.70110080295112,23.651934136285277],[75.70201348198773,23.64934950086848],[75.70803548177057,23.64947631835983],[75.70894036187056,23.648834771050772],[75.7088728841143,23.647995062934584],[75.70699842664905,23.646821017795602],[75.70657694498695,23.645876464844193],[75.70554524739569,23.64556586371573],[75.70446384006087,23.6447991265196],[75.70412163628484,23.64403238932347],[75.7041930474173,23.643143988715806],[75.7060234917532,23.640284966363353],[75.70723253038162,23.640010308160143],[75.70879638671866,23.6387855360247],[75.70953877766917,23.63760036892407],[75.71033372667071,23.636915418837276],[75.71184305826804,23.637036675347716],[75.71248969184015,23.636562500000466],[75.71148471408421,23.635843641493608],[75.70938707139729,23.636417778863247],[75.70881659613681,23.636371934679246],[75.70787828233497,23.635282931858086],[75.70628384060299,23.63501030816016],[75.70522562662754,23.63560072157165],[75.70534810384103,23.637125108507533],[75.70493096245664,23.637872721354626],[75.70271484374982,23.637694634332163],[75.70165764702656,23.638921712240077],[75.70086296929222,23.63885782877648],[75.70165405273443,23.635230984158426],[75.70276618109804,23.63427273220536],[75.70304524739552,23.63305297851602],[75.70152777777773,23.629305555556073],[75.70082302517355,23.62971191406291],[75.70017449272987,23.631631673177523],[75.70026082356745,23.63396118164107],[75.69839179144961,23.635571424696593],[75.69667697482615,23.636066487630615],[75.69751369900158,23.638053114149812],[75.69729675292936,23.638878580729525],[75.69527852376294,23.637669135200113],[75.69442687988251,23.635760498047432],[75.69376186794679,23.63518758138062],[75.69235792371941,23.63530029296912],[75.68978013780375,23.63847941080779],[75.69057603624114,23.639165174696757],[75.68905551486537,23.640940755208803],[75.69007642957897,23.64363186306464],[75.68996975368898,23.644959852430944],[75.68804409450931,23.646618787977914],[75.68665635850684,23.64693413628521],[75.68439737955745,23.647886827257537],[75.6844713677298,23.648807373047262],[75.68628601074218,23.650370686849413],[75.68778808593729,23.65082302517399],[75.68932271321589,23.651780870226148],[75.6897747802731,23.652305501302507],[75.69148274739555,23.65337537977473],[75.69216762966565,23.654170193142733],[75.69483215332016,23.654576280382386],[75.69568332248232,23.65285536024355]]]]},"properties":{"id":"9633"}}]}