{"type":"FeatureCollection","features":[{"type":"Feature","geometry":{"type":"MultiPolygon","coordinates":[[[[75.02290387895371,25.99832058376748],[75.02255127059098,25.99486111111122],[75.02281495730105,25.992274034288414],[75.02263888888902,25.991805555555715],[75.02167563226496,25.992237413194516],[75.02089356846304,25.99215766059045],[75.02043134371459,25.99424207899321],[75.01791109191063,25.993422309027977],[75.01726119783191,25.994204644097323],[75.01789621247198,25.996475965711937],[75.01931173112675,25.996417914496632],[75.02031482060781,25.998044162326536],[75.02290387895371,25.99832058376748]]]]},"properties":{"id":"18860"}}]}