{"type":"FeatureCollection","features":[{"type":"Feature","geometry":{"type":"MultiPolygon","coordinates":[[[[108.35360507541131,12.577923719618397],[108.35524624294598,12.577858615451717],[108.35641567654002,12.578477647569898],[108.35861918131403,12.578778754340618],[108.35948208278992,12.579577907986447],[108.35983364528991,12.580689019097662],[108.360304565429,12.579300130208608],[108.36197123209527,12.577694769965731],[108.35936109754667,12.577693142361454],[108.35697123209528,12.577366536458698],[108.35310214572397,12.576193847656626],[108.35318244086281,12.573166503906549],[108.35294887966475,12.572500000000346],[108.35218716091484,12.572741156684387],[108.35113165961283,12.57607530381975],[108.34933641221684,12.578854980469131],[108.34698208278971,12.579966362847614],[108.34724900987314,12.580422092014288],[108.34979485405731,12.58240342881976],[108.35087097167863,12.582911241319806],[108.35257751464755,12.584300130208689],[108.353637898762,12.583750542535],[108.35337097167863,12.58318901909756],[108.35172003851912,12.582123209635895],[108.35115037706058,12.580497775607995],[108.35369106716476,12.58009304470525],[108.35360507541131,12.577923719618397]]]]},"properties":{"id":"22879"}}]}