{"type":"FeatureCollection","features":[{"type":"Feature","geometry":{"type":"MultiPolygon","coordinates":[[[[79.83305284288204,23.84416395399363],[79.83571668836808,23.843900689019534],[79.83642252604173,23.845356038411822],[79.8380528428822,23.844403618707034],[79.8369417317709,23.843336046007366],[79.83666937934052,23.84277506510466],[79.83541124131946,23.84236667209254],[79.83463216145864,23.841555853950226],[79.83500271267363,23.84083591037374],[79.83499674479188,23.838875596788682],[79.83558051215314,23.838314615885977],[79.83554144965282,23.83638617621571],[79.83621473524337,23.835739339193182],[79.83774902343757,23.83650553385459],[79.8386083984378,23.835525716146293],[79.83804687500012,23.834436170790397],[79.83607476128483,23.83442382812538],[79.83569444444467,23.83402777777819],[79.83416395399323,23.83416381835984],[79.83282389322929,23.836926269531645],[79.83221950954893,23.837219509548987],[79.83194444444453,23.837786322700154],[79.83138617621549,23.837774929470953],[79.83111382378476,23.838352322049147],[79.83167534722256,23.838891601562892],[79.83166341145832,23.839469943576916],[79.82964789496535,23.83942871093801],[79.82803385416682,23.841703694661902],[79.82696126302088,23.842734239366763],[79.82657280815997,23.843535698785146],[79.8269504123264,23.845010443793925],[79.82628472222248,23.845650092231338],[79.82668565538202,23.846386176215773],[79.82748318142367,23.845556233724423],[79.8289908854168,23.845188666450113],[79.82944173177108,23.84471950954905],[79.83222493489595,23.844447157118495],[79.83305284288204,23.84416395399363]]]]},"properties":{"id":"19502"}}]}