{"type":"FeatureCollection","features":[{"type":"Feature","geometry":{"type":"MultiPolygon","coordinates":[[[[73.35477322048612,33.73484008789082],[73.35582058376767,33.73397013346383],[73.35527913411457,33.73359015570763],[73.3538099500868,33.734431627061824],[73.3527235243059,33.734074639214725],[73.35140163845486,33.731931627061925],[73.34943169487863,33.72973503960537],[73.3480232747398,33.72738301595078],[73.34665391710067,33.72667948404968],[73.34535698784728,33.72565314398892],[73.34472222222232,33.72641723632837],[73.3426608615454,33.725523206923015],[73.34211263020828,33.72456604003922],[73.3418595377606,33.722083333333586],[73.34199028862858,33.720800781250205],[73.34112386067707,33.71998718261747],[73.33958604600716,33.71953586154548],[73.3391666666669,33.71856865776931],[73.33860378689238,33.71862603081624],[73.33609836154508,33.717790595160736],[73.3350214301216,33.71590454101579],[73.33387613932305,33.71556837293859],[73.33337185329881,33.714961480035015],[73.33220947265633,33.71445726182739],[73.33180555555558,33.71375000000033],[73.3308460828994,33.714031507704235],[73.33116509331634,33.71492133246548],[73.33292697482662,33.7156854926217],[73.33363226996536,33.71666517469636],[73.33324625651065,33.717339138455216],[73.3333927408855,33.71877773708805],[73.33279052734392,33.72038024902365],[73.3330948893229,33.72161329481365],[73.33417941623284,33.721931627061764],[73.33564453124998,33.72276109483535],[73.33615017361112,33.723644137912586],[73.33608100043423,33.72432325575117],[73.33695719401058,33.72526496039512],[73.33747965494788,33.726469658745884],[73.34018337673629,33.72807142469644],[73.34225477430564,33.72884975857227],[73.345012749566,33.72915384928409],[73.34612386067707,33.72970940483968],[73.34675971137173,33.73074022081191],[73.34862386067724,33.73220940483968],[73.35029296875004,33.73471232096372],[73.35024034288213,33.73522874620248],[73.35183458116322,33.736376071506214],[73.3542339409723,33.73608344184056],[73.35477322048612,33.73484008789082]]]]},"properties":{"id":"4589"}}]}