{"type":"FeatureCollection","features":[{"type":"Feature","geometry":{"type":"MultiPolygon","coordinates":[[[[80.09668750000006,25.334811523437637],[80.09693750000017,25.334688476562548],[80.09843750000002,25.333311523437615],[80.09915625000016,25.333135742187523],[80.0993125000002,25.332186523437613],[80.09943750000016,25.331938476562655],[80.09959375000008,25.33098730468761],[80.09993750000004,25.330811523437703],[80.10111328125006,25.33066699218753],[80.10155078125004,25.33002539062508],[80.10118750000007,25.329326171875067],[80.1018007812502,25.328625976562677],[80.10218750000004,25.328438476562525],[80.10242968750006,25.327944335937573],[80.1030468750001,25.32793164062504],[80.10331250000004,25.328061523437626],[80.10356250000004,25.328188476562616],[80.1038125000002,25.328311523437534],[80.10447265625012,25.328811523437608],[80.10568750000007,25.32868847656269],[80.10593750000001,25.3285615234377],[80.10693750000004,25.328438476562525],[80.10743750000003,25.328061523437626],[80.10792968750022,25.32782226562513],[80.10830078125005,25.32727539062519],[80.10806250000005,25.326813476562535],[80.10793750000008,25.325811523437622],[80.10781250000022,25.325563476562493],[80.1075742187501,25.325071289062592],[80.10718750000004,25.32481152343749],[80.10693750000004,25.32468847656257],[80.10668750000022,25.32456152343758],[80.10643750000017,25.32443847656249],[80.10568750000007,25.323811523437612],[80.10492968750012,25.323687500000133],[80.10475000000005,25.323500000000166],[80.10181250000002,25.32356152343762],[80.10106250000004,25.324188476562682],[80.10006640625008,25.324351562500055],[80.100046875,25.325174804687464],[80.10106250000004,25.32632519531262],[80.10056250000017,25.326688476562495],[80.10007031250015,25.32692773437499],[80.09981250000001,25.327311523437658],[80.09967578124989,25.328964843750143],[80.09881250000004,25.32968847656265],[80.09856250000016,25.32981152343747],[80.09831250000016,25.32993847656273],[80.09782031250015,25.33017773437514],[80.09756250000001,25.330561523437538],[80.09739843750006,25.330897460937578],[80.09682421875007,25.331176757812713],[80.09619140625009,25.331958007812702],[80.09656250000003,25.332673828124967],[80.096375,25.333261718750038],[80.09581250000016,25.333688476562585],[80.09539453125004,25.333892578125173],[80.09507031250016,25.334555664062535],[80.09473828125002,25.334727539062627],[80.09402734375001,25.33418847656266],[80.09377734375025,25.334621093749973],[80.09393750000018,25.334936523437506],[80.09406250000004,25.335188476562536],[80.09431250000003,25.335311523437625],[80.09480078125014,25.33556152343762],[80.09593750000019,25.3354384765627],[80.09668750000006,25.334811523437637]]]]},"properties":{"id":"19019"}}]}