{"type":"FeatureCollection","features":[{"type":"Feature","geometry":{"type":"MultiPolygon","coordinates":[[[[75.21544940524635,25.242580837673742],[75.21684960259338,25.241778971354265],[75.2190590243869,25.242004123263925],[75.21943159315325,25.240999891493203],[75.21843580457895,25.240290798611184],[75.21694178263343,25.240851779513903],[75.21492502848318,25.23993706597227],[75.21379223293738,25.23997612847235],[75.21391077677404,25.238812934027763],[75.21604502360034,25.237496744791855],[75.2175128512915,25.23723524305568],[75.21903320312524,25.236277126736155],[75.2188582526314,25.23456054687506],[75.21777075873504,25.23518337673616],[75.21577913072375,25.23498046875001],[75.21521660698781,25.23565755208351],[75.21404693603526,25.23637586805563],[75.21362396240252,25.23575195312506],[75.21448298136389,25.2350385199654],[75.21498714870873,25.23387586805572],[75.21642415364582,25.23270724826395],[75.21635825263135,25.23206054687506],[75.21457321167017,25.233082682291723],[75.21327916463216,25.23295084635427],[75.21236111111116,25.231250000000017],[75.21177281697615,25.231738823784752],[75.2110776095922,25.232865668402823],[75.21118464152036,25.233916015625],[75.21196375528976,25.235276150173632],[75.2107731289336,25.238317599826374],[75.20877894083654,25.238598090277776],[75.20672743055567,25.23723524305568],[75.20640174018038,25.23957953559035],[75.2077906290692,25.239986979166744],[75.20804270426456,25.24105143229167],[75.20713519626221,25.24231228298619],[75.20562644110825,25.24215874565978],[75.20501285129134,25.242530381944647],[75.20718536376958,25.245275065104238],[75.2069158766005,25.247918836805624],[75.20584108140727,25.248811848958468],[75.20556840684677,25.249660915798685],[75.20790603637724,25.24998697916672],[75.20913497924826,25.24928331163217],[75.20834618462484,25.247371961805584],[75.20944807264542,25.24494303385437],[75.21544940524635,25.242580837673742]]]]},"properties":{"id":"9489"}}]}