{"type":"FeatureCollection","features":[{"type":"Feature","geometry":{"type":"MultiPolygon","coordinates":[[[[75.28527248806446,25.460736490885495],[75.28319444444455,25.45875000000011],[75.28137520684155,25.459238281250123],[75.28139636569577,25.45977213541677],[75.27527025010872,25.459805230034846],[75.27389889187285,25.4607486979168],[75.27361640082464,25.462212456597285],[75.2787831115725,25.462504069010606],[75.28013888888913,25.46531087239596],[75.28123289320214,25.465267469618055],[75.28301400078684,25.46334526909726],[75.28412138197163,25.46282253689263],[75.28527248806446,25.460736490885495]]]]},"properties":{"id":"18991"}}]}