{"type":"FeatureCollection","features":[{"type":"Feature","geometry":{"type":"MultiPolygon","coordinates":[[[[74.03872656249999,25.516899414062678],[74.03867578125013,25.51637500000001],[74.03869921875005,25.516116210937653],[74.03894140625007,25.515693359375007],[74.03905859375013,25.51543164062504],[74.03925000000007,25.51509765625022],[74.03994140625005,25.514943359375124],[74.04018359375013,25.514806640625025],[74.04044140625021,25.51469335937513],[74.04093359375011,25.514306640625037],[74.04137109375014,25.514193359375057],[74.04180859375018,25.514443359374965],[74.04206640625009,25.514556640625216],[74.04305859374998,25.515443359375197],[74.04356640625005,25.515556640625263],[74.04380859375001,25.515693359375007],[74.04449609375015,25.515806640624987],[74.04499218750007,25.51552246093756],[74.04492968750006,25.514908203125117],[74.04443359375014,25.51469335937513],[74.0440976562501,25.514501953125176],[74.04394140625024,25.513806640625063],[74.04343359375017,25.513693359375083],[74.04244140625005,25.5128066406251],[74.04218359375014,25.51269335937512],[74.04194140624995,25.51255664062502],[74.04168359375015,25.512443359375126],[74.04144140625007,25.512306640625212],[74.04093359375011,25.51219335937496],[74.04032812500012,25.511716796875092],[74.0401914062501,25.510825195312563],[74.04069140625026,25.510193359375123],[74.04080859375014,25.509855468750047],[74.04043359375001,25.50969335937505],[74.0398476562502,25.50923242187524],[74.03969140625006,25.5086298828126],[74.03994140625005,25.508193359375113],[74.04005859375016,25.50793164062506],[74.04044140625021,25.507443359375046],[74.04050000000004,25.506749999999982],[74.03990625000014,25.506826171875005],[74.03969140625006,25.507318359375006],[74.03875000000008,25.508371093750057],[74.03919140625007,25.508931640625207],[74.03930859375001,25.510370117187506],[74.03905859375013,25.51080664062509],[74.03894140625007,25.51156835937512],[74.03880859375013,25.511806640625053],[74.03869140625008,25.51256835937508],[74.0385000000002,25.512902343749985],[74.03764843750005,25.513091796875088],[74.03744140625005,25.513568359375128],[74.03730859375017,25.513806640625063],[74.03719140625023,25.514318359375196],[74.03680859375012,25.514806640625025],[74.03669140625007,25.516068359375126],[74.03648828125014,25.516423828125113],[74.03531250000017,25.51655664062504],[74.03439062500021,25.51576074218758],[74.03409375000004,25.515073242187626],[74.03293359375013,25.514943359375124],[74.03214062500021,25.51426074218763],[74.03186718750018,25.513632812500106],[74.03143359375,25.51344335937509],[74.0310898437501,25.51324902343761],[74.03094140625004,25.513495117187617],[74.0311914062502,25.513931640625103],[74.03130859374997,25.514193359375057],[74.0314414062502,25.514431640625176],[74.03155859375013,25.515193359375118],[74.03287109375023,25.516612304687655],[74.0334062499999,25.51684472656264],[74.03355859374997,25.517193359375128],[74.03373046875006,25.517500000000013],[74.03355859374997,25.517806640625082],[74.0334414062502,25.51839453124998],[74.03381640625022,25.518556640625064],[74.03405859375013,25.518693359375064],[74.03549609375014,25.518806640625044],[74.03593359375,25.518556640625064],[74.03619140625025,25.518443359375084],[74.0364335937501,25.51830664062507],[74.0381914062502,25.51819335937509],[74.03830859375014,25.517431640625063],[74.03872656249999,25.516899414062678]]]]},"properties":{"id":"27050"}}]}