{"type":"FeatureCollection","features":[{"type":"Feature","geometry":{"type":"MultiPolygon","coordinates":[[[[78.54026638454903,25.19112575954867],[78.54194173177123,25.189719509548766],[78.54304226345536,25.189741753472262],[78.5433360460074,25.189435763888994],[78.54389133029545,25.189447157118195],[78.54861382378508,25.187780490451388],[78.54902235243102,25.18735568576396],[78.55029649522592,25.18694227430565],[78.55093288845532,25.18627983940982],[78.54999674479191,25.184462890625056],[78.54999701605928,25.18360839843747],[78.55088351779577,25.183320855034694],[78.55200222439296,25.18215657552092],[78.55165825737899,25.18081380208342],[78.55027615017397,25.180842013888935],[78.55000271267394,25.179507921007072],[78.55183837890658,25.179060329861144],[78.55251057942738,25.1766471354167],[78.55430555555577,25.176683485243046],[78.55569227430581,25.174548611111263],[78.55467909071209,25.173575303819433],[78.55250271267383,25.17361979166671],[78.55105116102467,25.172180989583453],[78.5486159939239,25.172230360243105],[78.5483360460075,25.17202256944458],[78.5494726562504,25.17052517361121],[78.55165310329883,25.170569661458302],[78.55249728732682,25.16999728732638],[78.55449300130235,25.16934950086805],[78.5552750651045,25.168742404513964],[78.55304985894125,25.168199869791664],[78.55274278428871,25.166853298611244],[78.55276936848995,25.164452582465273],[78.55306939019127,25.16387044270843],[78.55305230034745,25.163033311631963],[78.55063937717037,25.161840277777955],[78.55000081380254,25.162504882812513],[78.54721950954908,25.161391601562485],[78.54626925998312,25.160747612847416],[78.54544080946212,25.16117458767357],[78.54694742838572,25.164163953993125],[78.54692355685793,25.165324978298628],[78.54579644097268,25.166407877604314],[78.54471110026068,25.166385633680633],[78.5441693793405,25.164163953993125],[78.54328070746575,25.16285264756968],[78.54227918836833,25.162502712673685],[78.54191216362901,25.16588053385422],[78.54054633246554,25.167192925347223],[78.54027126736142,25.168619249132078],[78.53605414496568,25.168070746527846],[78.53444715711836,25.169752061632053],[78.53547661675375,25.17074110243057],[78.53401394314258,25.171471896701618],[78.53540690104208,25.173307834201594],[78.53696153428857,25.173611111111143],[78.5354182942713,25.17509385850711],[78.53695963541693,25.17723687065974],[78.53585150824702,25.177214084201424],[78.53472086588576,25.1775037977432],[78.53358371310813,25.176641167534783],[78.5313145616324,25.175513237847255],[78.52807373046917,25.174461263020902],[78.52702473958365,25.17375054253479],[78.52666937934063,25.171979166666674],[78.52891872829903,25.1716693793403],[78.53084418402838,25.172661132812536],[78.53080512152812,25.174577907986148],[78.5326277669275,25.175462239583425],[78.53374972873311,25.174294704861197],[78.53299506293425,25.1735693359376],[78.53184787326418,25.17301269531262],[78.53139160156306,25.169681532118005],[78.53198866102471,25.167937282986216],[78.53165635850749,25.16664062500007],[78.53105875651082,25.166066080729152],[78.52998019748296,25.16555826822929],[78.53001980251767,25.1674972873263],[78.52891194661507,25.168604058159772],[78.52790961371576,25.16909016927096],[78.52694715711849,25.17055826822927],[78.52607991536487,25.171108398437596],[78.52611789279567,25.16925075954866],[78.52777506510463,25.16859754774312],[78.52628987630257,25.167877061631913],[78.52442735460099,25.16469726562505],[78.52294108072945,25.164727647569563],[78.52084282769127,25.166319444444497],[78.52206922743093,25.167935655382024],[78.52390814887181,25.169748263888962],[78.52388481987876,25.170891927083417],[78.52328152126759,25.171386176215435],[78.52100938585093,25.170803493923785],[78.51564127604209,25.168819444444665],[78.5122157118058,25.167321506076476],[78.51070176866367,25.16629503038199],[78.51024522569472,25.16488823784735],[78.50873860677112,25.164399414062615],[78.50750271267415,25.16221950954865],[78.50616861979191,25.160937500000088],[78.50360812717062,25.156947157118182],[78.50353732638953,25.152357313368043],[78.5045062934033,25.149830729166723],[78.50444146050378,25.14666449652789],[78.50487901475722,25.14472493489606],[78.50559326171916,25.146196831597294],[78.50750271267415,25.145558268229237],[78.50779134114626,25.14496365017382],[78.50775146484429,25.143019205729345],[78.50554714626779,25.143052300347236],[78.50527479383717,25.136942816840318],[78.50563015408014,25.13555555555571],[78.50526448567743,25.134128146701485],[78.50529866536485,25.132452799479196],[78.50611382378517,25.13166937934031],[78.50664849175374,25.130567491319482],[78.50716769748297,25.130068901909723],[78.50610839843816,25.12972493489609],[78.50559082031273,25.128336046007036],[78.50477701822976,25.13252332899316],[78.50435058593806,25.136446940104193],[78.50274658203173,25.137224934895897],[78.50276394314258,25.140259331597278],[78.50334092881971,25.141989474826488],[78.50360215928853,25.14501681857648],[78.50194715711828,25.145884874132094],[78.50391411675369,25.147796223958423],[78.50387342664962,25.149789496527816],[78.50271538628502,25.152643771701463],[78.50280137803841,25.156854383680724],[78.50689887152825,25.163381618923594],[78.5070654296878,25.164163953993125],[78.5058360460072,25.163330620659764],[78.50518391927133,25.163343641493242],[78.50191623263939,25.161098632812596],[78.50051947699674,25.159645182291683],[78.49991210937534,25.157772894965348],[78.49776068793435,25.154123263888977],[78.4969417317711,25.15333604600707],[78.49546305338592,25.150962999131977],[78.4941582573787,25.148330620659706],[78.49421169704917,25.14570800781256],[78.4933102756082,25.14527072482646],[78.49253228081639,25.14446072048615],[78.489959038629,25.14275553385417],[78.4851334635421,25.14139431423625],[78.48305826822943,25.139719509548698],[78.48080050998286,25.13927842881951],[78.4772249348961,25.137219509548615],[78.47524848090328,25.136369900173676],[78.47416422526075,25.13639160156262],[78.47221950954892,25.135558268229175],[78.46810411241367,25.131700303819457],[78.46658338758712,25.130494791666692],[78.46499728732667,25.12972493489609],[78.46332953559076,25.128378906250035],[78.46333007812521,25.127480468750093],[78.46193657769126,25.127508680555692],[78.45995252821214,25.12616373697918],[78.4586083984378,25.125836046007137],[78.45756863064284,25.123104926215305],[78.45682807074675,25.122393663194472],[78.4541693793407,25.121663953993135],[78.44999728732662,25.12139160156248],[78.44922824435795,25.120591362847193],[78.4470884874136,25.119160698784768],[78.44043185763937,25.119047851562627],[78.43763888888932,25.117916666666744],[78.43242540147614,25.11808159722227],[78.4308802625873,25.11887749565973],[78.42888644748328,25.11944173177099],[78.42623670789962,25.120743272569598],[78.42472873263912,25.121765950520896],[78.42094753689267,25.1231949869793],[78.4202804904518,25.124362521701457],[78.4214295789935,25.12471950954874],[78.42310926649358,25.124144422743186],[78.42412380642398,25.12671657986114],[78.42444173177134,25.126386176215277],[78.42666937934044,25.12611382378472],[78.42712836371581,25.125167643229204],[78.43221950954901,25.12249728732641],[78.43428927951422,25.121898871527804],[78.43852891710114,25.12198513454871],[78.4425027126741,25.123330620659686],[78.44471950954889,25.124724934895838],[78.4466962348096,25.12529188368073],[78.44721950954906,25.125836046007137],[78.44916937934065,25.126386176215277],[78.4508043077262,25.127494032118122],[78.4530582682294,25.128330620659753],[78.45470513237873,25.129721679687634],[78.45598524305612,25.130033637153005],[78.45777506510447,25.131391601562555],[78.458358289931,25.131674804687506],[78.45916395399334,25.13165798611128],[78.46129584418449,25.133185221354267],[78.46409939236148,25.136080729166892],[78.46586968316004,25.137241210937574],[78.46934868706634,25.138216688368047],[78.47049397786506,25.139408637152968],[78.47326795789999,25.1412456597224],[78.47583604600729,25.141663953993174],[78.47818386501754,25.14281955295148],[78.48028049045175,25.143330620659725],[78.4830843098961,25.144723849826605],[78.48444715711841,25.146108398437647],[78.48558593750047,25.147845052083426],[78.48813422309078,25.15037651909722],[78.489733072917,25.152815755208366],[78.4905582682297,25.15360839843754],[78.49439507378517,25.159536132812633],[78.49582492404559,25.16417480468752],[78.498613823785,25.16833062065976],[78.49889133029566,25.169185112847245],[78.5020141601565,25.17259440104168],[78.5030867513025,25.17362467447917],[78.50389133029572,25.173608398437594],[78.50533040364618,25.17419162326398],[78.50786838107686,25.17611762152778],[78.50833604600732,25.176108398437492],[78.50971516927123,25.17775444878481],[78.51013346354196,25.178617078993142],[78.51057969835111,25.178607855902754],[78.51165825737874,25.17973036024317],[78.51916395399357,25.183613823784853],[78.52111952039976,25.18417534722228],[78.52110622829926,25.184825846354357],[78.51914767795179,25.186108398437554],[78.51860839843792,25.18554687500003],[78.51777479383728,25.185564236111333],[78.51778917100731,25.184856770833505],[78.51448187934076,25.18431803385421],[78.51416937934059,25.18528049045139],[78.50888617621573,25.186108398437554],[78.50547770182314,25.187830403645947],[78.50440538194474,25.18894639756944],[78.50389160156274,25.190590820312565],[78.50505181206651,25.19110839843755],[78.5072843424484,25.190536024305544],[78.50937961154548,25.189456922743133],[78.5130750868062,25.188336588541716],[78.5138918728301,25.18916395399316],[78.51427490234417,25.191242404513915],[78.51502007378505,25.191958007812573],[78.51588324652832,25.191940646701454],[78.51545410156277,25.18942437065988],[78.51645507812523,25.186779513888865],[78.5180853949656,25.186391601562505],[78.52505859375029,25.18916395399316],[78.52583062066017,25.188314344618036],[78.52527506510458,25.187780490451388],[78.5241528320316,25.185541992187567],[78.5241734483512,25.18452853732647],[78.52584960937523,25.1839849175348],[78.52777777777808,25.185560980902792],[78.52814941406294,25.185174153645903],[78.52729220920193,25.183510199652815],[78.52780761718773,25.18305826822933],[78.52938042534768,25.18469509548609],[78.53000298394127,25.184997287326354],[78.52999159071206,25.185550672743304],[78.53083604600741,25.18666395399316],[78.53109212239613,25.187497287326437],[78.53025065104194,25.186621636284713],[78.52944715711854,25.186685655381936],[78.5300027126739,25.187219509548683],[78.53027506510463,25.188075086805625],[78.52851969401101,25.18806043836814],[78.52778049045165,25.189116753472334],[78.52946343316003,25.189441731770913],[78.53014431423648,25.188733181423714],[78.53108995225725,25.18971733940994],[78.53166395399361,25.189959309895983],[78.53114095052106,25.188058268229142],[78.53226264105959,25.18863606770843],[78.53322699652821,25.189639756944686],[78.53444173177107,25.189287651909865],[78.53359157986162,25.188033854166733],[78.5321232096359,25.18732150607653],[78.53110812717037,25.185558268229244],[78.53110188802125,25.184685872395974],[78.53011854383706,25.183741319444565],[78.53048475477462,25.182780490451492],[78.5333921983511,25.18403862847228],[78.53694118923644,25.18665093315977],[78.53845974392405,25.19001085069455],[78.53688612196217,25.189978841145845],[78.53580593533016,25.188854709201422],[78.53472493489639,25.18891872829883],[78.53528211805585,25.190000000000154],[78.53499647352479,25.190553927951484],[78.53536214192738,25.19277506510427],[78.54026638454903,25.19112575954867]],[[78.5455810546878,25.180818142361247],[78.54763888888922,25.179583333333497],[78.54801378038255,25.180475802951534],[78.54771484375047,25.18180826822929],[78.54694444444496,25.181635742187567],[78.54597493489612,25.18185275607638],[78.5455810546878,25.180818142361247]],[[78.5275103081602,25.178600802951465],[78.52887858072947,25.17982204861127],[78.52749593099006,25.179710828993137],[78.52541069878501,25.180088975694545],[78.5231537543406,25.180069986979234],[78.52012478298647,25.17974555121529],[78.51721191406276,25.178621419270783],[78.5144615342887,25.17701985677084],[78.51332302517383,25.176676974826492],[78.50945610894146,25.17414713541679],[78.50438205295185,25.169927300347325],[78.50326063368087,25.16942708333339],[78.50005018446208,25.166057942708406],[78.4997325303822,25.164933268229262],[78.50035427517432,25.164397786458522],[78.4999178059899,25.162803276909855],[78.49856906467053,25.161081271701562],[78.49750949435818,25.161165907118104],[78.49473605685787,25.154930555555552],[78.4951388888891,25.154583333333377],[78.49799669053866,25.159690755208416],[78.50061767578168,25.16288899739594],[78.50415635850729,25.166121419270823],[78.50915825737874,25.1697341579862],[78.50970214843787,25.169690212673657],[78.51065890842048,25.17036892361115],[78.51298312717054,25.171405707465397],[78.51778808593795,25.17304524739596],[78.52473253038241,25.176934136284743],[78.52665635850744,25.178343641493214],[78.5275103081602,25.178600802951465]],[[78.49054280598986,25.14917968750001],[78.49028862847248,25.14887369791674],[78.4899023437504,25.148912760416735],[78.48887017144128,25.147670355902804],[78.4880683051218,25.14556803385426],[78.48958333333374,25.145416666666762],[78.49056830512208,25.145820312500064],[78.49140163845507,25.146931423611093],[78.49165391710105,25.14806857638898],[78.49275607638944,25.150134006076527],[78.49237169053865,25.150820312500045],[78.4916794162331,25.14998697916687],[78.49054280598986,25.14917968750001]],[[78.4642114257816,25.133446180555623],[78.46569444444484,25.13319444444447],[78.46586046006965,25.13379069010425],[78.46741509331642,25.134990234374996],[78.4684440104169,25.135411783854238],[78.4696053059902,25.13691569010426],[78.46871663411483,25.13720431857641],[78.46530924479222,25.135378146701356],[78.46474012586859,25.134426540798742],[78.46410508897591,25.13416666666666],[78.4642114257816,25.133446180555623]],[[78.45251274956618,25.122519531250177],[78.4537500000005,25.122361111111303],[78.4540961371533,25.122777777777898],[78.4552905273442,25.12304253472226],[78.45632188585117,25.123633355034755],[78.45644422743104,25.124431423611142],[78.4529858398441,25.123549804687585],[78.45251274956618,25.122519531250177]]]]},"properties":{"id":"1768"}}]}