{"type":"FeatureCollection","features":[{"type":"Feature","geometry":{"type":"MultiPolygon","coordinates":[[[[80.46453742133238,23.83652886284746],[80.46501034206781,23.836121419271166],[80.46597222222212,23.834305555555773],[80.46466000027092,23.834773084852742],[80.46287584092872,23.834629720052263],[80.46244350857197,23.83606553819469],[80.46126183403854,23.83637858072943],[80.46079016791421,23.834812011718995],[80.45936716715462,23.83417697482669],[80.45953701443128,23.83629082573806],[80.45832299126485,23.8366563585071],[80.457211880154,23.838045247396153],[80.4563992309568,23.839617784288492],[80.45741773817261,23.840072292751984],[80.46283342149505,23.841060248481114],[80.46453742133238,23.83652886284746]]]]},"properties":{"id":"19508"}}]}