{"type":"FeatureCollection","features":[{"type":"Feature","geometry":{"type":"MultiPolygon","coordinates":[[[[81.28507322874808,24.185866586061508],[81.26550698787233,24.171862635396366],[81.2443074142856,24.15545363684177],[81.24718098124632,24.149237313382585],[81.2521579353294,24.144999259836183],[81.26118526714461,24.13961567482079],[81.26294458193925,24.130369387888337],[81.26154881605063,24.11815569608747],[81.25307270895709,24.108201787921487],[81.23649584639972,24.100538942692282],[81.21379649829075,24.09306377327843],[81.19106587087893,24.08456818960569],[81.17334347685286,24.072854966644982],[81.16588778401811,24.062869779176467],[81.16041036109485,24.050781204585434],[81.15533956910431,24.05195801535676],[81.1504877322316,24.060277725937667],[81.13970108562174,24.074907597885513],[81.12671721398246,24.084497957145132],[81.11450352218131,24.085893723033692],[81.11159867591849,24.091089632234187],[81.11293188320175,24.10126249551776],[81.09663653436692,24.102783378615797],[81.09131550795641,24.09579687531813],[81.09084631841907,24.0804906614392],[81.07962176157454,24.080834733766906],[81.06638765551477,24.082261778957715],[81.0615670979445,24.09160190379758],[81.05949499012488,24.090644048143943],[81.04907189242155,24.083813941358457],[81.04307452407969,24.088083274207747],[81.0397943261863,24.081034212304857],[81.03941897455675,24.068789241201912],[81.0322760747463,24.069008196319317],[81.02235344588283,24.07850471767155],[81.0171575366825,24.0755998714081],[81.02194681495078,24.065239332309645],[81.03400411023861,24.05874149512853],[81.04284376623869,24.04723542456135],[81.04256225251609,24.038051696234035],[81.04636239582865,24.028742850696702],[81.05411907896493,24.015227230914846],[81.06385403201367,23.999608224011197],[81.06255210403262,23.9904557749864],[81.05630450127094,23.986561793766796],[81.05231668214404,23.98974815375253],[81.04749612457326,23.999088278592566],[81.04276940491027,24.011489646207693],[81.03794884733955,24.020829771047744],[81.0239445614416,24.030451409609796],[81.007805609119,24.037074364001384],[80.9999863673776,24.04854915526576],[80.98566928845449,24.047966651242078],[80.97614148780016,24.037023608119654],[80.96380267878939,24.034337716973894],[80.95981485966237,24.037524076959542],[80.96040916641007,24.05691194787279],[80.95508813999939,24.04992544457521],[80.94664331220824,24.04099195066773],[80.9332528096364,24.037316924565815],[80.92119551434834,24.043814761747015],[80.91800915436241,24.03982694262001],[80.91998742427464,24.037723555498033],[80.92777538671376,24.025228349974967],[80.91939311752745,24.018335684584784],[80.910271947805,24.020658026824364],[80.90136973319991,24.03012326887388],[80.87344319658806,24.018722838937975],[80.86515476530909,24.014891416323422],[80.85250316327361,24.002001382591473],[80.83994539914588,23.99217259163524],[80.8306052743059,23.9873520340648],[80.82729270618736,23.9941615684139],[80.83160583888147,24.007100966495173],[80.84023210426872,24.02090299111508],[80.85640894721675,24.029458729666217],[80.86989328769599,24.036194998544133],[80.8824197725215,24.045003375241762],[80.87868218781423,24.056353049296206],[80.8725284229603,24.05552031085267],[80.85916919969108,24.052865699008905],[80.84392554441709,24.055375717063285],[80.85237037220818,24.064309210970933],[80.86365748765772,24.06600596716116],[80.87781817006837,24.06148639989165],[80.88415961073727,24.06844162388697],[80.89544672618686,24.07013838007701],[80.90497452684124,24.081081423199166],[80.91527250733495,24.083829872950062],[80.92126987567698,24.079560540100772],[80.94170944015107,24.0799553683092],[80.95506866342046,24.082609980153066],[80.9726972195389,24.09126196033789],[80.9913774692188,24.100903075479053],[81.00782921456627,24.10448426367394],[81.03037216616289,24.106857361794695],[81.04589733515897,24.113531072068],[81.06139122485277,24.119184368082244],[81.07589597959063,24.125889357657357],[81.07401154758614,24.131053987555504],[81.06903459350295,24.135292041102005],[81.07123181853271,24.140331553790148],[81.07135693574244,24.14441321082481],[81.06647381956705,24.151712507147025],[81.06771318894303,24.158824127654796],[81.07504376456833,24.164727658089348],[81.08926700558354,24.162248919337046],[81.10775957944807,24.165767548926695],[81.12086856829748,24.160258846701396],[81.11554754188731,24.153272343403813],[81.10298977775872,24.143443552447664],[81.09358709431419,24.136582166360014],[81.10066743551934,24.13432238272513],[81.11402665878862,24.136976994568357],[81.13567431333686,24.143463029026506],[81.16344445343643,24.14976138766967],[81.18518594589185,24.15930866490352],[81.19165250377054,24.17034554593316],[81.18553001821894,24.170533221748144],[81.17016124573533,24.16896158276829],[81.14953400544576,24.16244426900745],[81.13859096232355,24.17197206966246],[81.13884119674358,24.1801353837311],[81.13114707221186,24.19569183203005],[81.13560408087639,24.207811685923346],[81.15916744673169,24.21015350474177],[81.17586942649908,24.22189800700518],[81.19464351408615,24.234600364922514],[81.20327601769222,24.24965634438105],[81.21224079090186,24.242231930848916],[81.21272945701824,24.224853609150074],[81.21232282608608,24.211588223788354],[81.20174333187023,24.199656045709858],[81.19505781887383,24.181476264870284],[81.20114902512287,24.180268174796524],[81.21175979864145,24.193220767133624],[81.22645222919417,24.206048242260422],[81.23802085836567,24.216928726777695],[81.25354602736243,24.22360243705046],[81.27098690766601,24.226131931684122],[81.29056245439429,24.231660110488548],[81.30624401990318,24.243435892054137],[81.31574054125522,24.25335852091804],[81.32591340453908,24.252025313634448],[81.33184821427554,24.245715152267763],[81.33279185789522,24.230521240031223],[81.32071508635275,24.220169721566506],[81.30777568827139,24.20723032348515],[81.28507322874808,24.185866586061508]]]]},"properties":{"id":"327"}}]}