{"type":"FeatureCollection","features":[{"type":"Feature","geometry":{"type":"MultiPolygon","coordinates":[[[[77.88183675130225,25.03719563802089],[77.88785074869836,25.034953342013893],[77.89200276692739,25.034992404513886],[77.89383273654536,25.033476562500013],[77.89637858072936,25.034009331597304],[77.89804660373309,25.03286132812501],[77.89943033854203,25.032423502604203],[77.90027235243079,25.03186794704868],[77.89913899739608,25.03081814236114],[77.89666286892387,25.030838758680645],[77.89332790798639,25.030005425347284],[77.89250298394134,25.0291997612848],[77.89222764756968,25.028256835937654],[77.89388346354193,25.02649414062502],[77.8917252604169,25.02543131510427],[77.89278320312528,25.023894314236173],[77.89332790798639,25.022464735243034],[77.8927720811636,25.021949327256962],[77.89280436197933,25.021133897569456],[77.89186550564253,25.019909396701465],[77.8919514973961,25.017737087673694],[77.89152777777824,25.01652777777784],[77.88941867404574,25.016711697048663],[77.88943169487888,25.017961154513984],[77.88857991536494,25.019198676215453],[77.88803032769144,25.02093478732641],[77.88620496961855,25.02227376302082],[77.88692979600731,25.02434136284728],[77.8860348849831,25.024716796875055],[77.8831730143232,25.023894314236173],[77.8827832031254,25.024743381076476],[77.88500542534754,25.025272352430576],[77.88611653645884,25.025827907986084],[77.8863834635421,25.027061631944463],[77.88523790147619,25.029226888020858],[77.88472764756986,25.030838758680645],[77.88277235243075,25.03305013020841],[77.88232720269141,25.033993598090362],[77.87941026475747,25.03628743489584],[77.87832085503513,25.03553819444447],[77.87651150173642,25.036454535590366],[77.87339409722247,25.036330837673646],[77.87278320312524,25.036819661458566],[77.87450547960114,25.037230360243058],[77.87579508463583,25.037912868923655],[77.87622070312526,25.039257269965432],[77.87815104166705,25.04016818576396],[77.87952989366354,25.03968532986123],[77.88183675130225,25.03719563802089]]]]},"properties":{"id":"9512"}}]}