{"type":"FeatureCollection","features":[{"type":"Feature","geometry":{"type":"MultiPolygon","coordinates":[[[[108.05012249899997,12.278372500000032],[108.05117152000005,12.278127500000195],[108.05260413600021,12.279618591000201],[108.05314748400022,12.279882195000155],[108.05366078200021,12.279871718000095],[108.05608457900021,12.278228741000135],[108.05637250100025,12.275872499000215],[108.05666630900012,12.275014118000158],[108.05791171600023,12.274627501000055],[108.05966347100005,12.27645075800028],[108.06071014800014,12.276092501000122],[108.06162250100013,12.275622499000136],[108.06241723600019,12.27536460500012],[108.0640425610001,12.274527317000121],[108.06517133300022,12.27253636600014],[108.06640339700019,12.271352621000162],[108.06777051900016,12.271380522000257],[108.0688725010003,12.272127501000156],[108.06962749900006,12.27237249900017],[108.07053342100008,12.272986580000094],[108.07093688200021,12.274641594000244],[108.07214267000026,12.274616987000073],[108.07343270900023,12.272649351000254],[108.07492084900028,12.274198233000249],[108.07657799100033,12.273631023000206],[108.0779019130002,12.273377501000013],[108.07889174300018,12.27388741300011],[108.08009908300008,12.273862774000108],[108.08087529000008,12.274128456000156],[108.08262250100015,12.273372499000132],[108.08387749900007,12.27287750100021],[108.08537301600026,12.271670275000162],[108.0869019090002,12.271377501000089],[108.08835854300028,12.2721278880001],[108.08866249800022,12.272121683000208],[108.08985413400032,12.270881409000083],[108.09063020300013,12.270504902000098],[108.09062209300018,12.27010750000008],[108.08973999800017,12.269260000000216],[108.08912750200014,12.26862249900023],[108.08887249800026,12.268377501000202],[108.08810041000024,12.267076864000245],[108.08735858900005,12.26636413600015],[108.086748459,12.265106512000187],[108.08713137800024,12.263612375000108],[108.08796814700011,12.263629452000188],[108.0886398700001,12.26465399200005],[108.0891637950003,12.265157372000232],[108.09150000000025,12.265109694000103],[108.09329380000023,12.265146301000286],[108.0943799510002,12.265882551000274],[108.09562500000013,12.265857143000034],[108.09666843400001,12.265878437000197],[108.09814230300029,12.266637699000142],[108.09873568000026,12.26786078100018],[108.10109145400017,12.268148643000103],[108.1024142000002,12.268121648999994],[108.10428882600021,12.267480000000106],[108.10511193100021,12.266623295000187],[108.10863230900023,12.266358320000293],[108.10861224400006,12.265375000000205],[108.10863343000014,12.26433690600011],[108.11102828200032,12.264385780000069],[108.11228029600008,12.265234465000205],[108.11262249800015,12.26485789300014],[108.11212249800028,12.264377501000268],[108.11186760700033,12.264112204000256],[108.11187802100031,12.263602102000235],[108.11329916400038,12.263631105000059],[108.11362376400021,12.264631390000133],[108.11420037100024,12.264031250000045],[108.11489230300012,12.264387699000139],[108.11537500000017,12.265382652000127],[108.11625000000018,12.265364796000071],[108.11712500000019,12.265382652000127],[108.11800000000014,12.265364796000071],[108.11896718600022,12.265384535000194],[108.11861212900024,12.264347202000252],[108.11675000000034,12.264385204000192],[108.11603185300024,12.26437054800023],[108.11480197900008,12.262494686000181],[108.11548814400012,12.261162716000015],[108.11512240600021,12.259377048000061],[108.11513107300007,12.258952579000209],[108.11638684800025,12.25938241200025],[108.11690312200014,12.259371876000259],[108.11791210200013,12.258852100000155],[108.11893546300016,12.256742725000151],[108.11966171300023,12.256127499000229],[108.1213199230003,12.256695076000199],[108.12162249800028,12.257627498999994],[108.12194025400018,12.25824431200013],[108.12388956500027,12.258624855000178],[108.12437249800016,12.259127499000115],[108.12515599100007,12.259381744000194],[108.12600000000018,12.260260204000218],[108.12637249800028,12.259872501000288],[108.12665190900029,12.259627499000189],[108.12762584700002,12.26012922300022],[108.12811750000023,12.259617500000061],[108.12866899100013,12.259087631000185],[108.13082807900034,12.259131695000107],[108.13137249800016,12.262296919000164],[108.12937249800015,12.262622499000102],[108.12890190900029,12.263372499000155],[108.12987249800014,12.262872499000181],[108.13137750200022,12.262627501000154],[108.13212249800014,12.262372499000023],[108.13287750200007,12.262127501000265],[108.13337249800017,12.26187249900022],[108.13402349100002,12.261627501000191],[108.13587274200009,12.26237759800027],[108.13699709300002,12.262354650000233],[108.1365437160002,12.26147456700025],[108.13766171300026,12.26112749900004],[108.13929303000012,12.262825396000096],[108.14012750200035,12.263372499000155],[108.14037249800018,12.263877501000195],[108.14064210500001,12.264372499000118],[108.14135825300022,12.263627123000177],[108.14212750200019,12.263377501000036],[108.1427087750001,12.263435005000176],[108.1429800720002,12.262737385000008],[108.14319805000011,12.262342461000017],[108.14380673200017,12.262723705000127],[108.14435987900023,12.264229982000145],[108.14372969100012,12.26535948599998],[108.14360017900017,12.265992946000168],[108.1445991580002,12.265518088000135],[108.14513430000008,12.26561570400004],[108.1463570940002,12.26657334100014],[108.14801065800023,12.266706207000212],[108.14887108700029,12.26669056599998],[108.14910362700024,12.266147973000116],[108.14960746400007,12.265256569000172],[108.15013429300026,12.264907915000194],[108.15066917400029,12.265714977000272],[108.15158412200029,12.266503242000212],[108.15186570700027,12.267134296000108],[108.15269030800007,12.268187222000009],[108.15258735700027,12.269468420000138],[108.15613269000008,12.2691835480002],[108.15663429300017,12.269615704000074],[108.15707614100026,12.27108325799999],[108.15802076700007,12.271610294000169],[108.15823678600023,12.271361172000255],[108.15885858200019,12.270630648000207],[108.15900000000019,12.269500000000093],[108.15840947000007,12.269972891000052],[108.15832071200029,12.270686454000028],[108.1576157070003,12.270884296000233],[108.1572299800001,12.269186464000171],[108.15488429300026,12.268115704000223],[108.15377963300014,12.267864742000242],[108.15290289300017,12.266847109000054],[108.1523657070002,12.266384296000226],[108.15213429300016,12.2661157040002],[108.15186570700027,12.265884296000067],[108.15100000000021,12.264750000000177],[108.15046011100011,12.264365165000044],[108.14976249100013,12.264403922000142],[108.14902611400024,12.265024029000202],[108.14832823200018,12.265788363000212],[108.14666568000021,12.265921951000067],[108.14608411400016,12.264753242000097],[108.14487220000015,12.263709122000037],[108.14422726400008,12.262263788000169],[108.14350000000022,12.26150000000004],[108.14263430000008,12.261657915000228],[108.1421343380002,12.262793594000229],[108.1416224980002,12.262627501000154],[108.14006298100006,12.261368614000176],[108.13889456900009,12.261392456000195],[108.13810543100018,12.26085754399999],[108.13650000000015,12.260890305000132],[108.13612750200022,12.260122501000197],[108.13574798600027,12.259385788000074],[108.13268099200016,12.260546478000009],[108.1323775020002,12.258372501000267],[108.13212249800014,12.258127499000153],[108.1318775020001,12.257872501000193],[108.13112249800017,12.257627498999994],[108.12987725800016,12.257122402000206],[108.12933656300012,12.257133438000054],[108.12802658100023,12.257808277000024],[108.1271275020002,12.256872501000046],[108.12575423400008,12.255854504000197],[108.12268109900018,12.255917221000061],[108.1211684950002,12.254891899000228],[108.12087750200018,12.253219135000109],[108.12284599300025,12.252834846000198],[108.12362249800029,12.252262901000208],[108.12052302600014,12.25271583200012],[108.12012750200009,12.253127499000158],[108.11987249800015,12.253372501000186],[108.11962750200021,12.253627499000146],[108.11806201900018,12.254787979000241],[108.11724624600012,12.255183750000214],[108.11662750200034,12.256127499000229],[108.11551928700001,12.257500366000315],[108.1142631380001,12.257907986000191],[108.11339737700021,12.259228500000035],[108.11063449100035,12.260753902000118],[108.10912249800012,12.261122501000159],[108.10846967300009,12.261458805000089],[108.10722578400029,12.263554216000188],[108.10681088300007,12.264832796000192],[108.10562249800014,12.265122499000185],[108.1033775020002,12.266127501000199],[108.10182549300006,12.266739647000051],[108.10032332600028,12.26596580500015],[108.09923286400013,12.264128851000208],[108.09987750200017,12.262877501000233],[108.10024012000022,12.260649956000051],[108.09912249800024,12.260377499000157],[108.09850569200015,12.260059750000067],[108.09812750200032,12.258122501000088],[108.09786474600006,12.257612453000164],[108.09684249900013,12.25763331600021],[108.09587773100017,12.258637463000241],[108.09712999700022,12.25924499900006],[108.09789230300024,12.259637699000223],[108.09865148200024,12.261202538000205],[108.09861898800014,12.26279458200004],[108.09751738700012,12.262047861000255],[108.09686778300019,12.262382505000133],[108.09612500000011,12.262367348000211],[108.0952300030003,12.262385612000216],[108.09450000000012,12.263890306000192],[108.09360749800018,12.26387209100011],[108.09312740300024,12.263372400000065],[108.0918966520002,12.26339751800019],[108.08993333400028,12.262386110000165],[108.08859825100032,12.262060644000243],[108.08862790700019,12.260607498000084],[108.08912750200014,12.260127499000077],[108.09013699300019,12.258587765000215],[108.09012219200028,12.25786230100023],[108.08850244900029,12.25789535900013],[108.08811780500034,12.25710251600016],[108.08812945600008,12.256531849000197],[108.08912750200014,12.255877499000235],[108.08937249800007,12.25569538100018],[108.08821663700027,12.25417209199999],[108.09097451800008,12.253835094000266],[108.09217672000025,12.253215782000098],[108.09461370100021,12.251170017000206],[108.09506587200022,12.249776600000104],[108.09612750200014,12.248377499000071],[108.09664897200028,12.247582123000171],[108.09900000000013,12.247630100000137],[108.10013221000011,12.247606995000098],[108.10113221000015,12.248647812000243],[108.10238769500009,12.248622189000073],[108.10237245200008,12.24787500000015],[108.10237780800017,12.247612499000198],[108.10342775700028,12.247103119000244],[108.10500244900018,12.247135254000057],[108.10539688100013,12.246322243000193],[108.10537240600004,12.245122780000159],[108.1056275020002,12.244377499000223],[108.10575000000014,12.243999999999986],[108.10537023200024,12.244120235000082],[108.10416812900027,12.244756325000225],[108.10288060000025,12.244148685000212],[108.10337023200012,12.243620235000094],[108.10400714900007,12.243319649000185],[108.10467927600027,12.242278805000126],[108.10537976800023,12.24162976500007],[108.10562023200006,12.241120235000196],[108.10602024100021,12.24036428800018],[108.10550000000015,12.240384911000106],[108.10508515200021,12.24036846500016],[108.10376433600007,12.241793983000164],[108.10247921800024,12.242474003000112],[108.10199546100009,12.240946030000075],[108.1009253230001,12.240379765000029],[108.10035822300026,12.240826752000245],[108.10044703700024,12.243067387000181],[108.09928031200022,12.243870235000003],[108.09886041300021,12.243368019000187],[108.09890274000023,12.242300041000107],[108.09857820100032,12.240600159000238],[108.09786151100016,12.239081561999996],[108.09612976800022,12.238370235000303],[108.09495826700012,12.237999336000158],[108.09462500000026,12.236600227000125],[108.09342200500018,12.236647911000162],[108.0926297680002,12.236370235000194],[108.09184424600019,12.236121540000227],[108.09117547600013,12.235399754000284],[108.08905165900015,12.23402829400004],[108.08956126400025,12.229138077000172],[108.08898445100019,12.227492371000068],[108.09052851900023,12.227003517000213],[108.09117442300013,12.226064865000083],[108.09206743600012,12.224172653000025],[108.09321968800023,12.223379768000058],[108.09512976800019,12.223620232000059],[108.09703795600015,12.224120232000217],[108.09713128700005,12.223621643000087],[108.09648093400025,12.223019066000234],[108.09587976800034,12.222370232000188],[108.09538127900001,12.221908355999986],[108.09535046400006,12.221130928000235],[108.09630767100012,12.22109298700012],[108.09834117900024,12.222288467000084],[108.09884164400009,12.223348907000073],[108.09975000000011,12.22338491100021],[108.10087500000012,12.22334031700008],[108.10200000000012,12.22338491100021],[108.10275000000027,12.223355179000336],[108.1035822370001,12.223388168000042],[108.10415931700007,12.223115822000068],[108.10412004900027,12.222125000000148],[108.10416358200015,12.221026665000224],[108.10323640400017,12.217884369000203],[108.10238828300024,12.217850754000168],[108.10190835600022,12.218368721000132],[108.10025000000027,12.218434456000153],[108.09837499999995,12.218360138000222],[108.09743713400016,12.218397308000092],[108.09592265300003,12.217682564000114],[108.09525191500026,12.216707817000014],[108.09562976800018,12.21562976800017],[108.09604105400027,12.21347551000018],[108.09637023200006,12.213120232000094],[108.0973797680002,12.212879768000192],[108.09862023200006,12.211870232000052],[108.0996297680002,12.211129768000077],[108.10070321700007,12.210306602000273],[108.10187023200027,12.212379768000119],[108.10260143300005,12.213442368000102],[108.10298728900008,12.215864586000151],[108.10388584100016,12.215900200000164],[108.10449869500027,12.213964485000233],[108.10512976800018,12.213379768000166],[108.10541937300033,12.21246502700015],[108.1061297680001,12.21212976800021],[108.10696695700008,12.21155368000015],[108.108374123,12.212632751000001],[108.10932467700016,12.21212976800021],[108.11062976800011,12.21237023200004],[108.11087023200028,12.212629768000014],[108.11133210800025,12.21305771600008],[108.11162976800026,12.213620232000167],[108.11187310800025,12.21540079500005],[108.11233627300018,12.213937874000251],[108.11362976800021,12.21362976800016],[108.11545566600009,12.212879768000192],[108.11719532800018,12.213236069000274],[108.11787976800011,12.213870232000247],[108.11912493900022,12.216082237000222],[108.12160707100011,12.216452362000283],[108.12163816800032,12.215667763000113],[108.12117742200039,12.214691490000249],[108.12087976800021,12.214370232000135],[108.12059530600018,12.214106667000095],[108.12009896900022,12.213054969999945],[108.11913127900019,12.212158356000188],[108.1191184690002,12.211835152000262],[108.12035768100023,12.210686951000213],[108.12041932700018,12.209131714000137],[108.11576226800034,12.208947121000051],[108.11468793500009,12.210106621000065],[108.11162023200009,12.208379768000185],[108.1113797680002,12.208120232000198],[108.10999149300008,12.2072237550001],[108.10935772700023,12.206636543000272],[108.1101422730001,12.205613457000183],[108.1091297680002,12.204675323000089],[108.10999877900022,12.204134766000223],[108.1122384720002,12.203866760000068],[108.11370118700015,12.202922203000256],[108.11361099200022,12.20064659900018],[108.11387976800026,12.19987976800006],[108.11400000000017,12.19850000000011],[108.11311126700016,12.198621460000211],[108.1138702320001,12.19932467700022],[108.11188678700003,12.199547447],[108.11186160300028,12.198912025000013],[108.11289183800014,12.197081856000281],[108.1133797680001,12.196629768000179],[108.11411582200017,12.195835365000178],[108.11479073300026,12.19656378200014],[108.11560163100026,12.194589630000038],[108.11563964100006,12.193630531000267],[108.11537057500036,12.193619873000188],[108.11467532300028,12.194370232000182],[108.11437023200025,12.193879768000102],[108.11408526600022,12.191498352000067],[108.1133797680001,12.186767136000284],[108.11366743500022,12.183899780000004],[108.1151894840003,12.181964256000086],[108.11680050700008,12.180471565000133],[108.11755179600007,12.179379768000118],[108.11664222700014,12.179886581000048],[108.1161202320001,12.180370232000186],[108.11587976800021,12.18062976800016],[108.11510117300017,12.181351173000081],[108.11303672800014,12.18357926900022],[108.11237976800012,12.182870232000084],[108.11200000000017,12.182750000000269],[108.11212249800028,12.183127502000232],[108.11221602600008,12.18771011400024],[108.1127378850002,12.190769676000258],[108.1125980910002,12.19312249800025],[108.11150188400009,12.191981552000257],[108.11087750200019,12.192661713000135],[108.11156352200013,12.19466597000023],[108.11006764200013,12.195391685000061],[108.10887500000032,12.19536734800009],[108.10835720100002,12.195377914000247],[108.10839030500009,12.197000000000173],[108.10836924000003,12.198032379000054],[108.10661094700006,12.19837249800004],[108.10533244300015,12.196422462000257],[108.10412249800012,12.196127502000095],[108.10336635600035,12.195868690000268],[108.10252925900019,12.196739952000144],[108.10312750200015,12.197622498000257],[108.10337249800014,12.198411712999999],[108.10286869000012,12.199883644000195],[108.1033775020002,12.20037249800015],[108.10376499900005,12.20077581800021],[108.10412249800012,12.201877502000144],[108.10453578900004,12.203084946000217],[108.10386474600003,12.204387543000081],[108.10250000000028,12.204359695000093],[108.10092411000008,12.20439185300026],[108.10057199100018,12.202588142000238],[108.09942897800002,12.20203361500019],[108.09862750200014,12.202266068000242],[108.09940236700012,12.203409180000051],[108.09936837000006,12.205074776000018],[108.10087750200015,12.206872498000081],[108.10112249800014,12.20730296300026],[108.09987249800011,12.208122498000208],[108.09938250000025,12.208632500000036],[108.09859701500008,12.20938718400022],[108.09669311500014,12.209348328000118],[108.09587750200032,12.209627502000117],[108.0943622360002,12.209874168000198],[108.09512750200017,12.210122498000047],[108.09580020900003,12.210469048000206],[108.09462249800023,12.213372498000183],[108.09435170700019,12.214206970000049],[108.09351560200022,12.215830009000214],[108.09258867600013,12.21535250100024],[108.09212750200012,12.214872498000219],[108.09123393200034,12.214377502000204],[108.08985585000019,12.215311638000045],[108.08988010400006,12.216500000000138],[108.08986749300007,12.217117783000006],[108.0901931840003,12.21775000000018],[108.08977390300007,12.218563904000021],[108.08822164200032,12.21931697800025],[108.08787750200034,12.220377502000161],[108.08759809100016,12.220872498000077],[108.08662465700016,12.220371033000063],[108.08586274000012,12.220887505000164],[108.08445612699998,12.220858795000098],[108.08412749900023,12.22287750200006],[108.08386264800006,12.22337249800026],[108.08337749900008,12.222372498000198],[108.08298469900026,12.221610007999999],[108.0817991490002,12.221634201000128],[108.08050500100026,12.22337999700025],[108.07928538500025,12.224179619000239],[108.07798592000009,12.224810051000276],[108.07758700200023,12.22766759500027],[108.07532749900017,12.227621483000092],[108.07412749900007,12.226372498000046],[108.07337250100014,12.225877502000216],[108.07262749900022,12.225372498000084],[108.07047958400025,12.224574394000129],[108.06770541800009,12.224631012000017],[108.06837749900004,12.225622498000263],[108.06868375000013,12.22656625400019],[108.06981625000023,12.226933746000128],[108.07012250100027,12.227877502000325],[108.07051876400001,12.229035210000092],[108.07287749900033,12.230372501000161],[108.07313702000019,12.230642612000224],[108.07450000000009,12.230614796000054],[108.07529750100016,12.230631073000069],[108.07566130400025,12.232865871000058],[108.07701250100033,12.23453973800018],[108.07848875400018,12.234899620000022],[108.07887250100012,12.235516064000223],[108.07803607600019,12.23675],[108.0788608930001,12.237966812000138],[108.07836082100013,12.239918079000205],[108.07611249900012,12.23987219200022],[108.07538872900025,12.238380337000251],[108.0750265080001,12.238127499000015],[108.07330703000022,12.239170235000145],[108.07250500100022,12.240005001000199],[108.07124666600029,12.240413334000053],[108.0703504100002,12.241923138000274],[108.06938140900021,12.242854137000123],[108.06902730200014,12.243584034000037],[108.0680331310003,12.243872501000183],[108.06748164400008,12.242173027000078],[108.06647164500018,12.241683025000313],[108.06611825600012,12.240594009000176],[108.06537250100027,12.239877499000215],[108.06487749900006,12.239122501000097],[108.06396908600024,12.238877499000253],[108.0627300000003,12.241431530000199],[108.06234934600033,12.242992985000072],[108.0623874130001,12.244858257000033],[108.06201308100023,12.24558490400021],[108.06109808700026,12.24687250100007],[108.06036779000007,12.246112392000157],[108.05938080200028,12.24613253400004],[108.05812733800016,12.245372402000214],[108.05692905000026,12.245396854000191],[108.05612749900033,12.245122501000054],[108.05537250100028,12.244877499000026],[108.05436893800018,12.24411600500018],[108.05344778100013,12.245074760000094],[108.051506907,12.24389776200023],[108.05012249899997,12.24362749900017],[108.0490457190003,12.243258938000139],[108.04785117700013,12.242352528000097],[108.0465529900001,12.242379021000161],[108.0456027720002,12.243660858000268],[108.0456661170002,12.246764683000208],[108.04532749900031,12.247753971000265],[108.04449500100029,12.249369999000223],[108.04412750100025,12.250127499000186],[108.0433370210001,12.250886978000139],[108.04214174300014,12.250862586999986],[108.04115541600007,12.251370693000112],[108.03996810200024,12.251660141000073],[108.03936780500024,12.25289748400023],[108.03940236300016,12.254590820000175],[108.03887249900012,12.25537250100011],[108.03859822100006,12.25593785100017],[108.03864245800017,12.258105434000186],[108.03812249900031,12.258872501000155],[108.0378685910002,12.259395863000108],[108.03737249900027,12.259872501000288],[108.03712750100013,12.260127499000077],[108.03679640800019,12.26044561000019],[108.03522651000034,12.26087250100008],[108.0333772600001,12.260122402000192],[108.03303755800025,12.260129337000052],[108.03338750000015,12.261151714000263],[108.03460077300016,12.262317410000165],[108.03524000000019,12.263635000000207],[108.0358874130001,12.264891743000092],[108.03587219000028,12.265637697000088],[108.03487500000008,12.265617348000006],[108.0341073060001,12.265633015000148],[108.03414623100022,12.26754029700004],[108.03311368700022,12.267875360000133],[108.03262750000025,12.268877501000276],[108.03219716100025,12.26971286600012],[108.0338775000001,12.270122499000166],[108.03414238400015,12.27039819500007],[108.03410384800017,12.272286436000243],[108.03438250000013,12.273646912000189],[108.03504750000016,12.274285833000036],[108.03610879800013,12.280192654000174],[108.03712750100013,12.281872500000077],[108.03777750000009,12.283212296000087],[108.0421185590001,12.283434405999998],[108.04337750100015,12.283127500000006],[108.04534036400034,12.281638091000133],[108.04623720700019,12.281202989000192],[108.04673798900015,12.279148759000051],[108.04933686400031,12.278641409000173],[108.05012249899997,12.278372500000032]],[[108.08394803200011,12.257162846],[108.08525000000029,12.257000000000204],[108.0853914260002,12.25736793500019],[108.08531280500009,12.258000000000166],[108.08544082600028,12.25902923200006],[108.08516471100009,12.259611172000248],[108.0837471470002,12.258777889000143],[108.08394803200011,12.257162846]],[[108.08259451700022,12.250980938000097],[108.08053466400017,12.250490284000179],[108.07987976500024,12.249525517000208],[108.0811297650001,12.249129765000234],[108.08166789200013,12.248845016000217],[108.08262023500012,12.247370235000048],[108.08300000000028,12.247250000000136],[108.08312023500028,12.247379765000119],[108.08316635500003,12.248543415000128],[108.08468034700016,12.247382427000261],[108.08569751000013,12.247920654000026],[108.08561910200021,12.24989882700028],[108.08432766300027,12.250508308000079],[108.08464791100019,12.25142200100018],[108.08461872500018,12.25215836000018],[108.08409530300034,12.252643333000066],[108.0834916920002,12.25392233700002],[108.08260081900013,12.25361008800003],[108.08264977300027,12.252375000000256],[108.08259451700022,12.250980938000097]],[[108.08809162900022,12.247478024000088],[108.0913634340001,12.247111122000007],[108.0907858730001,12.24584415100017],[108.09015427400035,12.245083794000138],[108.08943868300028,12.245156731000222],[108.08791484800022,12.243890938000291],[108.08773757200007,12.2421517490001],[108.08887500000029,12.242035812000182],[108.08987930300017,12.242138180000126],[108.0905000000001,12.242000000000246],[108.09102806100017,12.243288147000158],[108.09229878200026,12.243661041000095],[108.09289823200012,12.245043228000242],[108.0943634340002,12.245678677000242],[108.09411926300007,12.248862141000203],[108.0927222670002,12.249173138000089],[108.09211837000024,12.249111584000246],[108.09078277600022,12.249613438000196],[108.08970653500026,12.249248642000211],[108.089273125,12.248726875000202],[108.08763656600033,12.248246624000174],[108.08809162900022,12.247478024000088]],[[108.07639379100002,12.228125916000181],[108.07825000000028,12.228000000000335],[108.07871083800032,12.228575478000067],[108.07960165400024,12.22895085100022],[108.0798611720002,12.230070080000104],[108.07734892700026,12.230435726000152],[108.07677765700006,12.22972234300002],[108.0760149270001,12.22911155700011],[108.07639379100002,12.228125916000181]],[[108.08764109000035,12.225048904000133],[108.0885639110002,12.222701485000158],[108.0897500000003,12.222500000000181],[108.09014109000023,12.223108910000207],[108.09035891000016,12.223634109000045],[108.08894240600026,12.225305351000216],[108.08764109000035,12.225048904000133]]]]},"properties":{"id":"7089"}}]}