{"type":"FeatureCollection","features":[{"type":"Feature","geometry":{"type":"MultiPolygon","coordinates":[[[[80.05644003974052,28.830534803603115],[80.0580638504027,28.829434136285386],[80.05805266486246,28.82888617621606],[80.06000277625165,28.827224934896535],[80.06057207743314,28.82635674370728],[80.06420413970912,28.82274726020036],[80.06758349524594,28.821063910590965],[80.07057129753954,28.818033447266416],[80.07139166937898,28.815280490452082],[80.07249721950936,28.80916395399369],[80.07310572306304,28.807386067709004],[80.07528055826796,28.805558268229774],[80.0761407979326,28.804109157986773],[80.07667821248347,28.802453070747248],[80.07948610941546,28.796610243056335],[80.08003368801522,28.79608425564315],[80.08083055284251,28.79444173177157],[80.08303053114125,28.791499972873936],[80.0838167487249,28.789077148438196],[80.08332489013648,28.78861382378541],[80.08333622402577,28.78916937934102],[80.0824972195094,28.78999728732701],[80.08150251600452,28.791514350044153],[80.08194950527596,28.791943901910486],[80.08119288126622,28.79306003146762],[80.08001335144033,28.793036024306303],[80.07945779588474,28.7936142306864],[80.07888587951632,28.793602566189833],[80.07889177958137,28.79389160156316],[80.07750278049028,28.794136827257574],[80.07833900451655,28.79333333333419],[80.07805135091135,28.793056911892975],[80.07832328796368,28.791590983073675],[80.0802805582679,28.791113823785324],[80.08084734598768,28.790547553169148],[80.0808235083683,28.7893794759121],[80.07998099433038,28.78861382378541],[80.07917467753063,28.789453125000605],[80.07806356641984,28.7894304741761],[80.07596523708733,28.790830620660373],[80.07638599819578,28.789719509549258],[80.07778055826785,28.78889160156318],[80.07805277506478,28.788036566840944],[80.07722500271242,28.787203233507583],[80.07833665635846,28.786135118273194],[80.07833622402578,28.78527520073851],[80.07777271694576,28.78444390191042],[80.07807555304603,28.784152967665634],[80.08000801086436,28.78417534722287],[80.08058308071546,28.783576795790538],[80.08166388617607,28.783640950521573],[80.08064735412572,28.785669623481596],[80.08113011678043,28.78610839843823],[80.08166388617607,28.785552842882538],[80.083052775065,28.78512925889821],[80.08221944173184,28.78472493489646],[80.08194722493485,28.784147677952078],[80.08279154459623,28.783313395182986],[80.08278622945144,28.78166937934104],[80.08249710930707,28.781391601563186],[80.08251418219649,28.780555013021555],[80.08110833062054,28.780280490451986],[80.08082555135078,28.779409179688173],[80.08082483079667,28.778333333334047],[80.08223043653683,28.77720798068644],[80.08249149746356,28.774722222222834],[80.0833083089191,28.774325900608375],[80.08360833062054,28.77557454427142],[80.08276978386763,28.776691623264554],[80.0829262627494,28.778608398438152],[80.0841638861759,28.776386176215922],[80.08640867445175,28.773891601563122],[80.08637487623392,28.775547553169005],[80.08681688944486,28.775972222222876],[80.08600318060942,28.7771754286031],[80.08668567233585,28.777497287327222],[80.08861927456317,28.77526123046941],[80.08859709845635,28.774174669054517],[80.08944776746947,28.77335734049538],[80.08944132486945,28.773041720920986],[80.08818194919152,28.77243069118991],[80.08694891187864,28.773065863715956],[80.08651126437704,28.772610405816735],[80.08780273437472,28.771652967665574],[80.08973054673933,28.771675347223066],[80.08971644083627,28.77236653645896],[80.09087972005173,28.77293090820376],[80.09045454237165,28.77417304145034],[80.08971377902552,28.774169650608243],[80.08943974812806,28.775278727214257],[80.08973355611127,28.775560980903578],[80.08916377597379,28.77610839843807],[80.08917148166208,28.77648600260494],[80.09045385572634,28.77604709201458],[80.09083055284279,28.776267903646584],[80.0899941338433,28.77750176323859],[80.09096116807714,28.77781561957525],[80.0904551442463,28.778797878689915],[80.0911138322617,28.779736328125765],[80.09196389092304,28.779718967014546],[80.0925120713973,28.779148491754185],[80.0947414482961,28.778319227431197],[80.09527499728708,28.777219509549283],[80.09722533331964,28.775013292101534],[80.09721933152903,28.774719509549286],[80.10388610839826,28.767219509549307],[80.11130449083086,28.760036756728155],[80.11277222527391,28.759299994575457],[80.11693467881932,28.758622368707236],[80.11944166395384,28.75721950954933],[80.12129858228874,28.75656589084261],[80.12525784810364,28.755777180990336],[80.12975190904396,28.754152832032062],[80.13284749348944,28.750461290148422],[80.13638475206133,28.746964789497184],[80.13697469075507,28.745469021268093],[80.13915833367216,28.74360283745723],[80.14047859191871,28.74296223958399],[80.146932169596,28.736139187283683],[80.14994798448342,28.73078491211014],[80.15029876708988,28.727556287978103],[80.1503063964843,28.724569634332184],[80.15103240966775,28.72173678928023],[80.15317945692246,28.71965223524373],[80.1536430358884,28.71822360568642],[80.15318322075709,28.715527886285372],[80.15177956475114,28.71367797851636],[80.14831739637557,28.71305596245726],[80.14778055826812,28.712497287327196],[80.14638610839816,28.711947157118786],[80.14624999999975,28.71097222222285],[80.14534271240214,28.711123996311443],[80.14387697007916,28.712236192492014],[80.14276975843617,28.712213541667424],[80.1414790259465,28.7135569932732],[80.14012103610557,28.714441731771586],[80.13888338724738,28.713602701823575],[80.1383248901366,28.713614095052776],[80.13836438496875,28.715549180773237],[80.13691422356473,28.716130913629172],[80.13469689263215,28.72085801866386],[80.13360833062066,28.721386176215873],[80.13139166937921,28.723336046007816],[80.13009319729261,28.723966064453762],[80.12952083163785,28.725145806207294],[80.12803617689312,28.72611924913258],[80.12749743143704,28.72610826280446],[80.12411929660365,28.72800279405456],[80.12268728468163,28.728351915148295],[80.12071331447996,28.730665418837447],[80.11842130025204,28.73156941731841],[80.11661207410995,28.733452555339213],[80.1158147260875,28.733041720920824],[80.11305328369124,28.733058403863495],[80.10939820183629,28.732502712674332],[80.10669403923853,28.73386325412389],[80.10550610012453,28.734764675564847],[80.10415900336343,28.7375412326395],[80.1041751183403,28.73833062066032],[80.10220999823665,28.741484510634393],[80.10221284654395,28.743098280165555],[80.10164166768365,28.7442070855042],[80.1011083306204,28.744719509549356],[80.10080028957779,28.746297336155166],[80.10084734598766,28.748603108724666],[80.10050073411699,28.748936089410364],[80.09729820251451,28.75048977322122],[80.09555277506482,28.750830620660466],[80.09467481825081,28.75140774197112],[80.09243882920978,28.7513791232646],[80.09019088745097,28.750609673394735],[80.08574646843775,28.749981960721158],[80.08355833265503,28.750026584202075],[80.08200843811025,28.7516398111986],[80.08083590189588,28.752225070530173],[80.08041121588795,28.752216389974606],[80.07995741102403,28.753151855469454],[80.07622023688393,28.75658148871601],[80.07578145345022,28.760172254774986],[80.0749750179713,28.760563557943527],[80.07186918470572,28.76050021701448],[80.07053949144122,28.7608409288201],[80.06971944597015,28.762219509549226],[80.06916944291837,28.764169379340984],[80.0672744115191,28.767880723741953],[80.06694722069605,28.77055826822985],[80.06634910583486,28.77207831488782],[80.06639755672862,28.774452446832186],[80.06489382002056,28.775897216797546],[80.06382489946142,28.776415744358346],[80.06130277845583,28.7790409342455],[80.05994769626167,28.78267252604239],[80.05860277811664,28.78332505967947],[80.05753443400053,28.784436984592773],[80.05649415334031,28.784774576823565],[80.05611388736278,28.78555826822982],[80.05359166463185,28.78780368381156],[80.05279285854752,28.79026529947984],[80.05166389041469,28.791663953993734],[80.05077541351304,28.793756917318518],[80.04786226484507,28.795565728082266],[80.04613990783659,28.795569118924277],[80.04524809519435,28.795263943143098],[80.04272476620113,28.792682969835752],[80.03985288831913,28.791615804037093],[80.03642184787307,28.791685791016405],[80.03206736034795,28.79356038411521],[80.03024147881368,28.7950343153218],[80.02911155064871,28.79675781250073],[80.0266638882953,28.79888617621596],[80.02493430243598,28.801279568143087],[80.02413265228259,28.803750000000747],[80.02418784671349,28.806454535591072],[80.02552777820156,28.8090555826831],[80.02635762744447,28.81199774848173],[80.02853556103165,28.815589192708998],[80.02892333984337,28.816784125434822],[80.02890207926404,28.81967420790008],[80.02806010140282,28.82447604709276],[80.02892043855431,28.825302598742013],[80.03045166651376,28.825271402995497],[80.03083055496185,28.823330620660386],[80.0313861105175,28.822219509549356],[80.03209293153517,28.821947157118785],[80.03251343409201,28.822813991971216],[80.03250583860589,28.824313829210695],[80.0344572406344,28.824789632162137],[80.03442085478034,28.826572536893096],[80.03600943247463,28.827088080512894],[80.03750277625178,28.82860839843822],[80.03777500152549,28.829185655382688],[80.03639166514048,28.830742458768185],[80.03854026794428,28.83110839843812],[80.0408305570812,28.829719509549335],[80.04250055948884,28.829162733290644],[80.04307510375966,28.82945868598152],[80.04305141025108,28.830619710287294],[80.0407989205253,28.831508110894774],[80.04083911048022,28.833477511936394],[80.03999722374797,28.834719509549416],[80.03972499847376,28.83630398220552],[80.04112427605494,28.83582505967952],[80.04279722425659,28.835830078125625],[80.04354391733793,28.83505289713611],[80.04590052710634,28.83466932508749],[80.04649536980506,28.834050157335753],[80.04715839809822,28.831330430773306],[80.04817544725202,28.829830050998936],[80.04863597869868,28.830309380426016],[80.04860763973656,28.83169786241389],[80.04778055402952,28.83334703233575],[80.04917244805208,28.834022352431248],[80.04916125827336,28.834570583768013],[80.04666389041446,28.835275065104923],[80.04502951304099,28.836227484809726],[80.04249722374792,28.836941731771475],[80.04111388736263,28.837780490452204],[80.03876791212289,28.838442247179486],[80.03803091684964,28.83920925564307],[80.03805844200949,28.840558132596144],[80.03773126814067,28.841193169488548],[80.03778679317892,28.84391384548681],[80.03854042053197,28.84463799370741],[80.04164727952738,28.84507175021767],[80.04279951731328,28.84585272895029],[80.04391944461386,28.84582994249196],[80.04471944596995,28.84499728732706],[80.04570078531887,28.84467881944512],[80.04877222273072,28.841481933594423],[80.04917244805208,28.84024861653714],[80.05305277930339,28.834163953993723],[80.05375041961636,28.83349365234433],[80.05416389041457,28.832219509549248],[80.05475000169517,28.83135484483573],[80.05644003974052,28.830534803603115]],[[80.06440118153884,28.79220241970549],[80.06385805765777,28.79101915147639],[80.06246119605166,28.790043402778466],[80.06252541859911,28.791120876736784],[80.06168773227259,28.79107096354241],[80.06136045243991,28.791437310113537],[80.05946239895255,28.790995686849627],[80.05940656873904,28.790059000651766],[80.06049235449885,28.788843722873978],[80.06291666666638,28.788750000000704],[80.06360630459235,28.789395751953762],[80.06388107723629,28.790285644531963],[80.06471441056956,28.7906679958774],[80.06440118153884,28.79220241970549]],[[80.06838003370481,28.789156901042276],[80.06890714009589,28.78778564453198],[80.06878793928328,28.786827256945088],[80.06919433593723,28.786319851346306],[80.06990242428222,28.78720404730977],[80.07033558739542,28.785201958550985],[80.0715277777775,28.784861111111823],[80.0730709160695,28.78526245117257],[80.07331797281878,28.78584865993996],[80.07419431050599,28.786661105686377],[80.07387036641424,28.787212185330517],[80.0739656321206,28.78797810872456],[80.07185635036885,28.787375759549306],[80.07049222310346,28.789016248915786],[80.06931731329988,28.78970689561696],[80.06800928327763,28.789453803169152],[80.06838003370481,28.789156901042276]],[[80.07335624694807,28.782731526693325],[80.07359064737946,28.781912977431176],[80.07432461208751,28.782057969835748],[80.07518576727935,28.781511230469434],[80.07611914740662,28.781695692275008],[80.0765277777775,28.781527777778564],[80.07641180250349,28.781967366537202],[80.07586244371177,28.78236111111184],[80.07682808770053,28.783053249783634],[80.07631735907634,28.783765733507735],[80.07520009358697,28.783986545139655],[80.07335624694807,28.782731526693325]]]]},"properties":{"id":"1717"}}]}