{"type":"FeatureCollection","features":[{"type":"Feature","geometry":{"type":"MultiPolygon","coordinates":[[[[77.5025735134553,25.791446126302176],[77.50130723741344,25.790739474826438],[77.49746175130255,25.791048448350722],[77.49349148220526,25.790205891927158],[77.49319444444464,25.789861111111264],[77.4916954210075,25.790057237413208],[77.49161973741334,25.79100206163217],[77.49195610894125,25.793209906684098],[77.49315375434051,25.796105957031372],[77.49626627604206,25.796391872830057],[77.49839084201412,25.796973198784798],[77.50019856770851,25.79703857421893],[77.5018774414066,25.796532931857712],[77.50224527994837,25.795531141493356],[77.5025735134553,25.791446126302176]]]]},"properties":{"id":"18903"}}]}