{"type":"FeatureCollection","features":[{"type":"Feature","geometry":{"type":"MultiPolygon","coordinates":[[[[107.9310470241962,12.399554850260742],[107.93145962185216,12.398630371094185],[107.93332241482088,12.398780110677407],[107.93429734971684,12.398422037760668],[107.93474412706055,12.397256130642717],[107.93414408365797,12.396180826823212],[107.9316864013663,12.395084092882215],[107.92989440917873,12.395116644965555],[107.93017110188694,12.393333333333587],[107.92814636230364,12.394388292101041],[107.92654181586275,12.394259440104506],[107.92615363226903,12.395188259548974],[107.92762037489038,12.395842827691325],[107.92711663140116,12.396745876736475],[107.92352179633158,12.397112630208682],[107.92265509711282,12.398118760850949],[107.9233758544913,12.398739691840689],[107.92402608235582,12.399777832031575],[107.92559807671338,12.400684136285165],[107.92714457193918,12.401963161892724],[107.92826599120977,12.402350802951716],[107.92891079372723,12.401461317274595],[107.92824266221677,12.400885687934405],[107.9286861843523,12.400091145833585],[107.9310470241962,12.399554850260742]]]]},"properties":{"id":"22932"}}]}