{"type":"FeatureCollection","features":[{"type":"Feature","geometry":{"type":"MultiPolygon","coordinates":[[[[105.19938400268418,14.426350843642041],[105.20105904473078,14.424953952366053],[105.20080044216448,14.422416856554307],[105.20013468424358,14.421262817383237],[105.198848487005,14.422811211480436],[105.1975450642893,14.421235961914533],[105.19846913655468,14.418185492621902],[105.19910040961238,14.417083333333807],[105.19857686360561,14.41616923014368],[105.19633177015393,14.416849365234867],[105.19532284206682,14.418485039605486],[105.19477432250866,14.418940700955375],[105.19325100368806,14.418068237305164],[105.1933024088531,14.415491604275559],[105.1939596388062,14.414344075521498],[105.19461239284814,14.412119750977112],[105.19378221299795,14.40972222222284],[105.19335269504009,14.409848293728686],[105.19254698011494,14.410309719510096],[105.19217186821712,14.411587999132422],[105.19113047281772,14.412903849284376],[105.19087839762275,14.415985039605573],[105.19020397610004,14.41756679958813],[105.18937554253333,14.418254937066408],[105.18857908460714,14.418173760308747],[105.18763468424359,14.416262817383327],[105.18582660251067,14.418439534505708],[105.18621231078967,14.41911295572973],[105.18923612806421,14.42073886447524],[105.19220932006712,14.425083007812916],[105.19452857123369,14.425731608073434],[105.19527699788304,14.425655314128136],[105.19594051784807,14.426035359701018],[105.1970607503242,14.425921156141968],[105.19938400268418,14.426350843642041]]]]},"properties":{"id":"10348"}}]}