{"type":"FeatureCollection","features":[{"type":"Feature","geometry":{"type":"MultiPolygon","coordinates":[[[[83.0298789062501,24.129916992187603],[83.03,24.12950000000008],[83.02955468750011,24.129555664062494],[83.0293203125,24.129694335937543],[83.02855468750019,24.129805664062573],[83.02832031250003,24.129944335937452],[83.0280546875002,24.130055664062652],[83.02782031250004,24.130194335937617],[83.02755468750021,24.130305664062647],[83.02657031250001,24.131194335937494],[83.02530468750021,24.131305664062523],[83.02519531250013,24.131819335937607],[83.02444531250003,24.13268359375003],[83.02455468750011,24.133194335937688],[83.02469531250026,24.133430664062487],[83.02488281250001,24.133879882812593],[83.02568750000003,24.134555664062574],[83.02612109375016,24.134368164062607],[83.02639062500012,24.133725585937498],[83.02667968750009,24.133555664062527],[83.0278046875001,24.133432617187708],[83.02799218750019,24.133111328125054],[83.02719531250003,24.13219140625003],[83.02733984375013,24.131529296875144],[83.02792968750012,24.131055664062615],[83.02837109375017,24.130870117187598],[83.02864062500012,24.130225585937723],[83.0289296875001,24.130055664062652],[83.0298789062501,24.129916992187603]]]]},"properties":{"id":"19419"}}]}