{"type":"FeatureCollection","features":[{"type":"Feature","geometry":{"type":"MultiPolygon","coordinates":[[[[77.79168750000005,26.63293896484376],[77.79217187500004,26.6326909179689],[77.79308203125024,26.633456054687585],[77.79407031250005,26.633436035156407],[77.79431250000025,26.632936035156334],[77.7944687500001,26.63262939453135],[77.7950742187501,26.63243896484377],[77.79556250000027,26.63268896484395],[77.79643359375004,26.63281103515638],[77.79656250000008,26.630548828124986],[77.79631250000008,26.63006396484373],[77.79618750000006,26.629811035156223],[77.79606250000009,26.62956347656251],[77.79593750000024,26.62931152343748],[77.7958125000001,26.62906347656262],[77.79568750000007,26.628561523437696],[77.7950000000001,26.627749999999992],[77.79411718750012,26.62782812499998],[77.79393750000006,26.628563476562462],[77.7934882812502,26.62915527343752],[77.7926757812501,26.62931152343748],[77.79215625000009,26.62904394531259],[77.79108203125006,26.62906640624996],[77.79093750000024,26.63081396484388],[77.79056250000005,26.631311035156344],[77.79043750000008,26.63156396484395],[77.79030468750014,26.6318212890625],[77.78981250000024,26.632061035156227],[77.78954687500013,26.632197753906425],[77.78956250000007,26.633068847656446],[77.79006250000006,26.633311035156268],[77.7905000000001,26.633536132812694],[77.79093750000024,26.633311035156268],[77.79118750000006,26.633188964843924],[77.79143750000006,26.63306103515619],[77.79168750000005,26.63293896484376]]]]},"properties":{"id":"29347"}}]}