{"type":"FeatureCollection","features":[{"type":"Feature","geometry":{"type":"MultiPolygon","coordinates":[[[[80.63955859375008,23.255786132812588],[80.63932421875026,23.255320312499947],[80.63886328125014,23.255273437500165],[80.63837109375007,23.255556640625016],[80.63781640624998,23.255224609375063],[80.63806640625003,23.254856445312626],[80.63867968750012,23.25459179687506],[80.63871484375002,23.25421289062504],[80.63844140625017,23.25405664062508],[80.63726171875001,23.253923828125053],[80.6370585937502,23.253568359375066],[80.63699999999997,23.25249999999997],[80.63680859375009,23.25255664062513],[80.63669140624998,23.252818359375183],[80.63655859375004,23.253056640625203],[80.63635546875017,23.253516601562538],[80.63581640625003,23.253943359375185],[80.63519140625019,23.254082031250064],[80.63530859375018,23.254443359375074],[80.63554296875012,23.25485253906254],[80.63506640625016,23.255193359374957],[80.63414843750016,23.255330078125056],[80.63369140625016,23.255963867187532],[80.63392187500003,23.256428710937612],[80.63506640625016,23.25655664062498],[80.63530859375018,23.256693359375177],[80.63556640624998,23.256806640625157],[80.63619921875002,23.257306640625046],[80.63669140624998,23.257193359375066],[80.63718359374994,23.256806640625157],[80.63819140625006,23.256693359375177],[80.63843359375008,23.25655664062498],[80.63910937500017,23.25640625000014],[80.63955859375008,23.255786132812588]]]]},"properties":{"id":"19828"}}]}