{"type":"FeatureCollection","features":[{"type":"Feature","geometry":{"type":"MultiPolygon","coordinates":[[[[108.40635156250013,12.783199218749957],[108.40625000000003,12.7830000000001],[108.40549414062494,12.783042968750081],[108.40479296875017,12.78379296875005],[108.40470703124996,12.784082031250037],[108.40345703125016,12.78537890625013],[108.40354296875014,12.785707031250112],[108.40370703124998,12.785917968750013],[108.40379296875003,12.786207031250001],[108.40408203125017,12.786292968749962],[108.4043808593751,12.786527343750166],[108.40491796875003,12.786042968750053],[108.40595703124998,12.785957031250092],[108.40666796875016,12.785292968750085],[108.40695703124996,12.785207031250039],[108.40716796875003,12.78504296875009],[108.40745703125017,12.784957031250045],[108.40791796875018,12.784542968749932],[108.40829296875003,12.784433593750038],[108.4081953125,12.783984375000017],[108.40770703125011,12.78354296874997],[108.40741796875002,12.783457031250109],[108.40720703125001,12.78329296875016],[108.40635156250013,12.783199218749957]]]]},"properties":{"id":"22796"}}]}