{"type":"FeatureCollection","features":[{"type":"Feature","geometry":{"type":"MultiPolygon","coordinates":[[[[80.6193984375,23.122218750000087],[80.61987890625014,23.121943359375123],[80.62048046875012,23.12209960937517],[80.62094140625013,23.122681640625117],[80.62110546875013,23.123056640625066],[80.62155859375005,23.122905273437567],[80.62144140625017,23.121556640625116],[80.62119140625012,23.12112011718763],[80.62130859375017,23.120681640625108],[80.62155859375005,23.120245117187537],[80.62143359375003,23.11894335937515],[80.62105859375006,23.119056640625132],[80.62042578125008,23.11955664062502],[80.61868359375003,23.11944335937504],[80.61819140624996,23.119056640625132],[80.61789843750014,23.118928710937567],[80.6177500000002,23.118749999999963],[80.61619921874993,23.11881054687504],[80.61580859375002,23.119306640625112],[80.61569140625002,23.120068359375153],[80.61544140625014,23.12050488281264],[80.61555859375014,23.122193359375117],[80.61569140625002,23.122431640625038],[80.61589453125018,23.122897460937594],[80.61646484375004,23.12330664062496],[80.61769140625015,23.12319335937498],[80.61793359375017,23.123056640625066],[80.61909375000025,23.122926757812465],[80.6193984375,23.122218750000087]]]]},"properties":{"id":"19904"}}]}