{"type":"FeatureCollection","features":[{"type":"Feature","geometry":{"type":"MultiPolygon","coordinates":[[[[79.1246914062501,25.48244238281272],[79.12480859375015,25.48001562500015],[79.12455859374998,25.479567382812604],[79.1244414062501,25.479307617187686],[79.12430859375016,25.479067382812715],[79.12417578125016,25.477610351562575],[79.12343359374998,25.47744238281264],[79.12294140625008,25.477057617187683],[79.12193359375013,25.476942382812396],[79.12169140625005,25.476807617187518],[79.12143359375014,25.476692382812672],[79.12119140625006,25.47655761718761],[79.1206835937501,25.476442382812508],[79.12019140625009,25.476057617187635],[79.11993359375018,25.47594238281252],[79.11919140625022,25.475307617187568],[79.1188476562501,25.475154296875033],[79.11850000000001,25.474749999999943],[79.11771484375012,25.474815429687666],[79.1174414062501,25.47523437500014],[79.11773437500008,25.475757812500163],[79.11735546875022,25.476289062499973],[79.11694140625022,25.476057617187635],[79.11660937500008,25.47594238281252],[79.11644140625023,25.47631738281264],[79.11630859375012,25.47655761718761],[79.11619140625007,25.47756738281251],[79.1160078125001,25.477899414062463],[79.11530859375014,25.478057617187645],[79.11469140625005,25.478543945312623],[79.11523437500009,25.479238281250076],[79.11505859375009,25.479557617187496],[79.1149414062501,25.479817382812513],[79.11469921875008,25.480250000000098],[79.11494531250011,25.480685546875193],[79.11706640625007,25.480807617187537],[79.1173085937501,25.480942382812515],[79.11756640625023,25.481057617187616],[79.11830859375013,25.481692382812568],[79.11873437500012,25.4818076171875],[79.11918359375014,25.48155761718769],[79.11960937500007,25.48144238281249],[79.12005859374997,25.481692382812568],[79.12031640625023,25.4818076171875],[79.12055859375013,25.481942382812647],[79.1208164062501,25.48205761718758],[79.12105859375029,25.482192382812556],[79.12131640625009,25.482307617187573],[79.12155859375017,25.48244238281272],[79.12231640625006,25.482557617187652],[79.12280859375014,25.48294238281261],[79.1230664062501,25.48305761718754],[79.12330859375018,25.48319238281252],[79.12373437500011,25.48330761718762],[79.12418359375013,25.48305761718754],[79.1244414062501,25.48294238281261],[79.12455859374998,25.48268261718769],[79.1246914062501,25.48244238281272]]]]},"properties":{"id":"18988"}}]}