{"type":"FeatureCollection","features":[{"type":"Feature","geometry":{"type":"MultiPolygon","coordinates":[[[[104.27746907551787,17.154433322483058],[104.27916666666388,17.15418240017391],[104.2805113389729,17.15438123914967],[104.28210123697616,17.154045681423895],[104.28269151475396,17.153058810764207],[104.2834543185734,17.15246988932327],[104.2821080186603,17.151267903646144],[104.28178765190697,17.151509874132188],[104.28133951822642,17.15311957465306],[104.28001437716713,17.15331542968775],[104.27777750650765,17.15246826171908],[104.27673448350416,17.151116807726183],[104.27528483072624,17.151331108941278],[104.27472222221942,17.15083333333361],[104.2737939453095,17.151091851128953],[104.27362196180272,17.152255316840638],[104.27434950086504,17.15269395616346],[104.2749831814206,17.1526003689239],[104.27571234808764,17.15289876302124],[104.27746907551787,17.154433322483058]]]]},"properties":{"id":"21996"}}]}