{"type":"FeatureCollection","features":[{"type":"Feature","geometry":{"type":"MultiPolygon","coordinates":[[[[85.15882943047475,27.604954155816216],[85.15931854248097,27.60340928819474],[85.16096920437346,27.601879882812668],[85.16366092258065,27.599984809028186],[85.1648667738178,27.59542073567738],[85.1648459031853,27.59489420572939],[85.16326129489514,27.59294704861135],[85.1628167724613,27.591080729166947],[85.1602777777783,27.590000000000245],[85.15753161960211,27.59015516493085],[85.15549479166711,27.590868869357962],[85.15514417860291,27.592448187934224],[85.15757597181587,27.59302734375025],[85.16017206827829,27.595829264323143],[85.16012278238966,27.5970730251739],[85.16072991265227,27.597955186632177],[85.15950946384058,27.599086100260692],[85.15743197970951,27.600290256076818],[85.15707948472814,27.602136501736382],[85.15561896430185,27.604896647135632],[85.15333938598687,27.604806315104355],[85.15208862304743,27.606574435764117],[85.15328599717927,27.608314615885618],[85.15279876709027,27.60923529730934],[85.14957804362015,27.60957790798642],[85.14845655653247,27.61043809678847],[85.14848488701759,27.611152615017673],[85.1504219563806,27.611522352430896],[85.15132666693827,27.612144911024558],[85.1505255466042,27.61520236545161],[85.14631074693503,27.620584309896117],[85.14619674682658,27.62124457465312],[85.14906865437857,27.619268391927392],[85.14966359456415,27.618007812500238],[85.15143376668325,27.616367730035023],[85.15347751193613,27.615977647569665],[85.15443890041828,27.615468750000247],[85.15268269856827,27.61384168836834],[85.15349214341953,27.61083468967057],[85.15573615180156,27.609385850694665],[85.15571646796363,27.606944444444693],[85.15837944878515,27.605907660590546],[85.15882943047475,27.604954155816216]]]]},"properties":{"id":"4851"}}]}