{"type":"FeatureCollection","features":[{"type":"Feature","geometry":{"type":"MultiPolygon","coordinates":[[[[79.86500542534728,24.802552998861202],[79.86526746961809,24.80026580810602],[79.86836534288224,24.799984554715223],[79.86830023871536,24.79917063395243],[79.86917697482644,24.79862143622549],[79.87031955295143,24.796914333767873],[79.87165635850695,24.796839396159314],[79.87058485243088,24.795916375054702],[79.87291232638907,24.79319892035646],[79.87287597656265,24.789749196371048],[79.87115614149317,24.788040788439133],[79.87078179253487,24.788070865207757],[79.87017795138897,24.789424235026544],[79.86837782118081,24.78975260416732],[79.86701443142377,24.789251946344024],[79.86660970052114,24.787471093072426],[79.86533745659742,24.787573310004944],[79.86437174479178,24.788112318251336],[79.86362141927103,24.787950507270537],[79.86473849826396,24.78527777777842],[79.86441297743087,24.784694976807288],[79.86447591145847,24.783916134304974],[79.86404405381953,24.783142106798536],[79.86475314670147,24.782531094021806],[79.86446723090299,24.781954769559064],[79.86272677951402,24.78339431762747],[79.86278971354184,24.784175652398574],[79.8622016059031,24.7846824137375],[79.86068956163226,24.784989674886646],[79.85615831163196,24.783688015408487],[79.8552880859377,24.78243340386352],[79.85642632378486,24.78145268758192],[79.85625000000013,24.780972222222687],[79.85427951388888,24.78156546698729],[79.85389919704883,24.78270324707077],[79.8550678168406,24.784351552327948],[79.85470811631959,24.784996473524842],[79.85506564670143,24.78630193074592],[79.85593858506977,24.787489674886558],[79.85665744357644,24.78665478176596],[79.85707465277787,24.786688317193466],[79.85790093315998,24.78880337185386],[79.85945475260425,24.78915634155328],[79.85971191406279,24.78973254733681],[79.8619829644098,24.792197655572394],[79.86497287326412,24.79246870252892],[79.86635416666687,24.79314895629929],[79.86410970052103,24.795028889974432],[79.85939290364612,24.79501530965223],[79.85866265191012,24.796651017931268],[79.85741482204881,24.797432861328588],[79.8554286024308,24.797767452664374],[79.85452636718756,24.796327107747885],[79.85379503038214,24.79673516167587],[79.85160807291672,24.796080118815652],[79.85099121093745,24.79469835069493],[79.85050401475704,24.794737531874475],[79.85000000000028,24.795866817898712],[79.84939941406267,24.79581856621695],[79.84889919704872,24.796399214003344],[79.84723795572947,24.7967765808111],[79.84832302517364,24.79789971245718],[79.84613715277803,24.797724066840914],[79.84584364149313,24.798075120714614],[79.8487993706598,24.800621592204465],[79.84964626736146,24.800148942736016],[79.85190538194453,24.80033042060049],[79.85333116319472,24.80112601386233],[79.85416937934045,24.800818227132623],[79.85749186197953,24.80278959486276],[79.85866265191012,24.802695515951072],[79.85999837239606,24.801649610732014],[79.86163845486138,24.80228395250161],[79.86221191406284,24.80316060384176],[79.86165256076399,24.804163140191605],[79.86200412326397,24.805447743734348],[79.8634261067709,24.804654252794634],[79.86443413628481,24.803045230442123],[79.86500542534728,24.802552998861202]]]]},"properties":{"id":"9537"}}]}