{"type":"FeatureCollection","features":[{"type":"Feature","geometry":{"type":"MultiPolygon","coordinates":[[[[80.82485046386708,23.493042670356147],[80.82665384928353,23.49193155924503],[80.82825920952658,23.49059800889782],[80.82765719943583,23.489546983507182],[80.82800014919687,23.489179551866513],[80.83080742730036,23.48996446397595],[80.83248718261697,23.489316134982886],[80.83170600043397,23.48795233832479],[80.83334615071593,23.48695732964437],[80.8335982937281,23.485974934896063],[80.83241875542515,23.485012885199893],[80.83184773763023,23.485700276692953],[80.83016811794678,23.485230712890797],[80.8284745279947,23.48352118598116],[80.82654500325518,23.4829549153649],[80.82695726182718,23.482235107422042],[80.82720940483912,23.480542670356172],[80.82797092013882,23.479484456380533],[80.82692905002139,23.479178738064533],[80.82700398763004,23.47844333224856],[80.82601331922731,23.478068440755337],[80.82615247938364,23.47943359375033],[80.82473503960486,23.480846218533173],[80.82363050672714,23.481098225911694],[80.82334615071593,23.478876003689365],[80.82251281738277,23.477209337022728],[80.81978101942249,23.476879611545414],[80.81798048231329,23.476105685764168],[80.81763888888875,23.475694444444684],[80.81715182834202,23.475837402343984],[80.81725077311191,23.476807996961995],[80.81835300021683,23.477723524305702],[80.81830871582,23.478158365885605],[80.8165802680119,23.478907877604343],[80.81610026041639,23.479485812717257],[80.81317470974372,23.47918755425374],[80.81279059516046,23.47989746093775],[80.81439046223946,23.48122653537351],[80.81362521701371,23.48186225043419],[80.81334615071606,23.48258124457486],[80.81416124131917,23.48325832790826],[80.81447170681398,23.484316134982805],[80.81447801378047,23.485745849609586],[80.81529059516058,23.486098225911775],[80.81557922363262,23.487081705729352],[80.8183205159502,23.49001288519979],[80.82119222005181,23.491123860677263],[80.82193359374972,23.492016330295385],[80.82409200032524,23.49200764973982],[80.82443162706156,23.49279066297771],[80.82485046386708,23.493042670356147]]]]},"properties":{"id":"9650"}}]}