{"type":"FeatureCollection","features":[{"type":"Feature","geometry":{"type":"MultiPolygon","coordinates":[[[[89.84812750100022,28.847377500000235],[89.84937249900028,28.845122499000084],[89.85012750100012,28.844127501000273],[89.8506572360001,28.84331951700021],[89.85182699200024,28.84219563500004],[89.85262249900009,28.841122499000065],[89.85312209300028,28.84064250000023],[89.85316581700019,28.838500000000053],[89.85312244800033,28.83637500000009],[89.85312755200013,28.83612500000001],[89.85312244800033,28.8358750000002],[89.85312755200013,28.835625000000306],[89.85312240200025,28.83537278200012],[89.85338722600031,28.834599085000235],[89.85336266700014,28.833395607000043],[89.85637749900016,28.833127501000064],[89.85783828400017,28.832627501000175],[89.85856454100022,28.833242723000282],[89.85887250100009,28.833877501000217],[89.85962749900014,28.834872499000028],[89.85998749900025,28.837083929000045],[89.86061264800023,28.838372499000073],[89.86112303500025,28.837900368000177],[89.86151750200011,28.83587974500024],[89.86235331000015,28.835862688000162],[89.86365866900027,28.836392170000096],[89.86537500000023,28.83635714300013],[89.86683174100025,28.8363868710001],[89.86931867600023,28.835877501000056],[89.87062749900028,28.83612249900007],[89.87160503000021,28.836626076000087],[89.87467636100021,28.8368764840002],[89.87712250100023,28.83737750100026],[89.88087749900004,28.8378724990001],[89.88355796400023,28.83907244100017],[89.8862356950003,28.838155905000193],[89.89033903500004,28.838072163000092],[89.89187750200026,28.838372499000073],[89.89283276400013,28.83886460500021],[89.8936275020001,28.83912249900014],[89.89410368300034,28.83961811800002],[89.89687249800025,28.840127501000154],[89.90113575700005,28.840448391000066],[89.9033724980001,28.842377501000158],[89.90462875400024,28.84268375000019],[89.90617652900013,28.84385819400019],[89.9081055150003,28.84389756200008],[89.90875180800023,28.842944113000243],[89.90812731200023,28.84262240200026],[89.90715818800007,28.842642179000208],[89.90662249800008,28.84212750100008],[89.90636413600001,28.841858591000218],[89.90486750000028,28.841132500000086],[89.90351083400017,28.84043361100008],[89.90204586000019,28.839839386000037],[89.8998912430001,28.83914020300027],[89.89848767900034,28.838188793000157],[89.89545153000009,28.837858925000035],[89.89331175200007,28.836408470000194],[89.89187249800003,28.83612750100022],[89.88951324500013,28.835444736000042],[89.88572457900008,28.835929001000224],[89.88383511000015,28.83562141200018],[89.88237749900023,28.835122499000207],[89.87788075600022,28.834722609000067],[89.87505063600011,28.83375390800012],[89.8731225010001,28.833377501000058],[89.87206343100033,28.83301499900027],[89.86875000000023,28.832530802000264],[89.86470093200026,28.833122499000282],[89.86321647600008,28.832235516000168],[89.86239030100003,28.831375622000152],[89.86137250100003,28.83112750100024],[89.85952349100015,28.83037750100017],[89.8576087800001,28.83071233700025],[89.85626606400027,28.831622499000062],[89.85384243800004,28.831345490000146],[89.85388239300025,28.82938779400027],[89.85362749900017,28.829122501000157],[89.85337250100022,28.828877499000143],[89.85300500100018,28.828494999000114],[89.85185825500017,28.82812287900005],[89.85113956600006,28.82737485500016],[89.8496633340001,28.8270866660002],[89.84934230200011,28.82544220400021],[89.84830627300036,28.825106010000198],[89.84371739400027,28.823120564000234],[89.84264819500018,28.823142384000164],[89.84115749900027,28.82171014800015],[89.84087249900008,28.82087749900009],[89.84061935600008,28.818805851000093],[89.83691583300006,28.81524756600011],[89.83636295400018,28.813090252000237],[89.83637779600016,28.812362980000003],[89.83538331600019,28.81140750100009],[89.83536261200007,28.810392994000168],[89.8371340260002,28.808549278000115],[89.8384952280002,28.807540230000214],[89.83943838700017,28.80629725600012],[89.84038986800002,28.804846008000126],[89.8412300000002,28.804038822000138],[89.8417895260001,28.802404129000237],[89.8391555750002,28.801889935000233],[89.83437750000022,28.798923000000244],[89.83501828000001,28.798210377000075],[89.83671340100031,28.796924126000235],[89.83762750100018,28.79662750200012],[89.83887249900008,28.796122498000173],[89.84048236300012,28.795487534000117],[89.84161249900004,28.79440171800026],[89.8418775010002,28.79362750200005],[89.84212249900011,28.792622498000213],[89.84262249900027,28.79116171300005],[89.84227688600018,28.79004839300022],[89.84090586300002,28.78862140700018],[89.83838100400024,28.787396477000257],[89.83803320300026,28.785016426000155],[89.83907937400014,28.782985626000084],[89.8391403060003,28.780000000000143],[89.83911760900028,28.778887794000127],[89.83937249900023,28.778622498000203],[89.83989586400017,28.778368591000245],[89.84037249900027,28.77787249800015],[89.84062750100017,28.77762750200013],[89.84099500100027,28.777245003000274],[89.84162209100029,28.776642502000257],[89.8416325490002,28.776130074000037],[89.84062750100017,28.77587249800004],[89.8399045530002,28.775793953000033],[89.83916601600018,28.774833984000097],[89.83883398400027,28.774666016000054],[89.83858104300029,28.774166016000166],[89.83820681400024,28.774420448000257],[89.83858398400028,28.77516601600003],[89.83974836400014,28.776095335000093],[89.84037249900027,28.77696315800023],[89.84010065500016,28.77742289700025],[89.83890982600022,28.778567032000055],[89.83848124500022,28.782074402000177],[89.83812249900026,28.78312249800021],[89.83787750100018,28.78387750200025],[89.83737790900014,28.784357498000077],[89.83731764800038,28.787310204000235],[89.8376224990001,28.787627502000106],[89.83862750100033,28.7883724980001],[89.83887249900008,28.788627502000068],[89.8391275010002,28.788872498000174],[89.83937249900023,28.789127502000227],[89.84035607100023,28.79007250200017],[89.84041186100026,28.79280619000022],[89.83937916800008,28.794545830000274],[89.83837249900009,28.794872498000217],[89.83762750100018,28.79512750200017],[89.83548594600009,28.795426460000044],[89.83370500000015,28.796746666000203],[89.83312750000024,28.79762749900017],[89.83238350000008,28.798342323000256],[89.83204756200027,28.800311844000134],[89.83337125000034,28.801316250000113],[89.83511461700007,28.801741249000017],[89.83519265100026,28.80556490300029],[89.83468492800026,28.806052715000234],[89.83437750000022,28.807627499000233],[89.83363947400025,28.808716270000176],[89.83337750000024,28.81112749900028],[89.83287750000008,28.81258828400017],[89.8335249580002,28.815255569000158],[89.83412250000018,28.81587749900028],[89.83458438700026,28.81632127400013],[89.83529583400005,28.817370834000116],[89.83573500000008,28.81872418200018],[89.83612250000019,28.81912749900006],[89.83637750000005,28.819372501000174],[89.83662250000017,28.81962749900022],[89.83809750000015,28.820594551000127],[89.83887750100021,28.821622501000178],[89.84005079500022,28.82369197800017],[89.84137750100021,28.824122501000176],[89.84212249900011,28.82462749900003],[89.84325499900004,28.82499499900007],[89.84363586400028,28.82539141100027],[89.8451141360002,28.826108589000185],[89.84537249900009,28.82637749900023],[89.84612750100021,28.826872501000153],[89.8472673760003,28.82773743100013],[89.84928418700011,28.828532906000234],[89.8497867950002,28.830494061000138],[89.84862712300017,28.831608255000134],[89.84831625000012,28.832566250000255],[89.84688341700021,28.834929001000177],[89.84755285300011,28.836884804000178],[89.84687249900011,28.83887249900023],[89.84662750100009,28.840627501000228],[89.84637249900024,28.841372499000144],[89.84608449900011,28.843141644000056],[89.84516639900019,28.844097218000073],[89.84295502700016,28.845370815000024],[89.84238684800007,28.845382412000006],[89.8409117160003,28.84487750100007],[89.83862249900008,28.845372499000263],[89.83668132400024,28.846372500000044],[89.8356225000002,28.846127500000193],[89.83416661700008,28.845377501000044],[89.83312750000024,28.845845384000214],[89.83341041900022,28.84790332200022],[89.83439586400013,28.848381409000083],[89.83514930200002,28.849165601000223],[89.83751103000012,28.850187437000116],[89.84062750100017,28.850622500000142],[89.84337249900008,28.851127500000274],[89.8456275010004,28.85137249999994],[89.84656091500008,28.851691991000266],[89.84762249900038,28.84812250000006],[89.84812750100022,28.847377500000235]]]]},"properties":{"id":"7151"}}]}