{"type":"FeatureCollection","features":[{"type":"Feature","geometry":{"type":"MultiPolygon","coordinates":[[[[75.45080346001535,25.503902994791858],[75.45126783582899,25.503613823784903],[75.45273952907993,25.504611545139056],[75.45360833062077,25.504163953993128],[75.45672532823349,25.50385904947923],[75.4589665052628,25.50215847439243],[75.46009209526906,25.500986870659744],[75.46055277506534,25.498581271701568],[75.45877488878065,25.496820203993195],[75.45918056911896,25.495237087673658],[75.4613861083985,25.49267578125007],[75.45998586018911,25.49222140842032],[75.45999698215067,25.491102701822996],[75.45916666666668,25.491119520399394],[75.4588808865017,25.490530598958458],[75.45888075086836,25.488351508246666],[75.45919538709873,25.48712375217022],[75.46149305555568,25.48491617838546],[75.46091122097462,25.483786892361124],[75.46193732367638,25.482800835503625],[75.46244567871096,25.481753200955012],[75.46208333333325,25.480694444444538],[75.45950764973983,25.483639594184098],[75.45721934000656,25.486663953993087],[75.45722547743063,25.48696424696189],[75.45557234022377,25.486930609809264],[75.45500278049073,25.487252061632034],[75.45771786159966,25.489529351128567],[75.45581617567271,25.49135633680571],[75.45357031928197,25.49166395399307],[75.45191565619612,25.49109754774308],[75.45109700520842,25.491114366319565],[75.45111480712913,25.4919862196181],[75.45425818549265,25.49516899956606],[75.4537321641711,25.495830620659873],[75.45168755425348,25.49444471571192],[75.44956722683398,25.494099392361292],[75.44829508463553,25.493444010416752],[75.44720048692503,25.494186197916747],[75.44609168158652,25.49416341145843],[75.44554734971805,25.493597005208343],[75.44557481553827,25.492251519097465],[75.4452692667646,25.491658257378518],[75.4447137790257,25.49166965060772],[75.44473626030836,25.492771267361178],[75.44439276801236,25.49305284288195],[75.44212215847446,25.49247097439256],[75.44036204020207,25.492506781684085],[75.4399954223633,25.493636610243158],[75.43859700520855,25.49360785590291],[75.43863132052954,25.491927083333437],[75.43803083631738,25.491391601562597],[75.43638339572485,25.492508409288277],[75.43578508165169,25.492496202257072],[75.43351158989825,25.49132486979174],[75.43250278049052,25.4902750651042],[75.43159061008035,25.49000271267373],[75.43083611382397,25.490863172743147],[75.43279198540583,25.4930636935766],[75.43415320502393,25.49303602430564],[75.43528611924918,25.493619520399392],[75.43525980631514,25.49490776909724],[75.43639166937939,25.49527506510445],[75.43666388617632,25.49585232204865],[75.43583021375875,25.496653374566037],[75.4358244832359,25.498627658420304],[75.43469723171685,25.499174533420174],[75.43375790066213,25.499155544704863],[75.43333611382403,25.499962565104255],[75.43760982937314,25.500275065104262],[75.43805277506519,25.49884819878477],[75.43723219129797,25.49645073784734],[75.43987894694041,25.495558268229317],[75.44055555555562,25.49695285373275],[75.44170640733509,25.49694797092029],[75.44439405653233,25.498769802517515],[75.44610833062094,25.498330620659786],[75.44915045844206,25.498033040364717],[75.45000701904317,25.498879394531286],[75.44944722493486,25.500558268229213],[75.44703630235463,25.5018874782987],[75.44499721950976,25.502219509548738],[75.44416944715724,25.50287977430574],[75.4455583360461,25.503330620659682],[75.44642686631968,25.50391927083335],[75.44860839843753,25.503874782986173],[75.44888610839863,25.50444715711818],[75.44983720567504,25.50490858289949],[75.45080346001535,25.503902994791858]]]]},"properties":{"id":"4918"}}]}