{"type":"FeatureCollection","features":[{"type":"Feature","geometry":{"type":"MultiPolygon","coordinates":[[[[77.06285020616329,25.1410975477431],[77.06445760091182,25.14054741753469],[77.06549696180579,25.140568576388915],[77.06825710720503,25.13979003906249],[77.06888617621544,25.139185655381965],[77.06861382378506,25.13888617621525],[77.06639160156263,25.138575846354158],[77.06749728732674,25.137241210937574],[77.06513888888932,25.13625000000006],[77.06194715711834,25.1364339192709],[77.06285020616329,25.1410975477431]]]]},"properties":{"id":"19098"}}]}