{"type":"FeatureCollection","features":[{"type":"Feature","geometry":{"type":"MultiPolygon","coordinates":[[[[77.09319921875007,23.71155078125014],[77.0930000000001,23.711250000000092],[77.09230078125003,23.71130078125006],[77.09207421875007,23.711449218750033],[77.09105078125017,23.71155078125014],[77.09082421875021,23.711699218750113],[77.09019921875009,23.711820312500166],[77.089953125,23.71220117187505],[77.09055078125007,23.712699218750075],[77.09117187500001,23.712820312500043],[77.09144921875006,23.713175781250214],[77.09155078125022,23.713949218749946],[77.09219921875021,23.714675781250065],[77.09230078125003,23.715199218750072],[77.09244921875009,23.715425781250218],[77.0925507812502,23.71569921874996],[77.09269921875008,23.715925781250107],[77.09280078125019,23.71619921874995],[77.09294921875025,23.71642578125018],[77.09305078125001,23.717449218750076],[77.09319921875007,23.71767578125022],[77.09333984374999,23.71805078125007],[77.09394921875023,23.717949218749965],[77.09405078125005,23.71767578125022],[77.09430078125004,23.717291992187555],[77.09419921875005,23.71505078125],[77.09394921875023,23.714666992187702],[77.09405078125005,23.71342578125011],[77.09425390624997,23.713112304687627],[77.09330078125006,23.712074218750146],[77.09319921875007,23.71155078125014]]]]},"properties":{"id":"26962"}}]}