{"type":"FeatureCollection","features":[{"type":"Feature","geometry":{"type":"MultiPolygon","coordinates":[[[[79.85305447048617,23.906186116536944],[79.8533604600697,23.903896687825977],[79.85429361979183,23.90522006564717],[79.85505805121542,23.905570746528312],[79.85578179253471,23.906381089952674],[79.85665907118081,23.906007147895437],[79.85595323350722,23.90504353841203],[79.85527018229195,23.904730021159423],[79.8550075954864,23.903881089952677],[79.8544520399308,23.90338467068183],[79.85496148003503,23.902730238173206],[79.85801757812524,23.901888359918004],[79.85809570312526,23.900576646593294],[79.85728895399328,23.899855685764294],[79.85654622395865,23.8980710177956],[79.85752766927104,23.8980125596793],[79.85745930989592,23.899155951606474],[79.85907552083344,23.89925231933637],[79.86190972222246,23.89809685601179],[79.86237575954888,23.897239651150556],[79.85949273003504,23.89764872233114],[79.85750759548628,23.896936645508205],[79.85541612413223,23.89665690104212],[79.85513888888912,23.894583333333827],[79.85415147569469,23.894888170030868],[79.85421332465299,23.895922715929245],[79.8533409288195,23.896396687825998],[79.85066297743074,23.89689656575571],[79.84668511284727,23.899274291992683],[79.84661566840302,23.900434638129894],[79.84915418836837,23.90365173339893],[79.8477886284725,23.903570353190574],[79.84775282118065,23.904169175890175],[79.84888129340308,23.904517550998847],[79.84778537326409,23.905781995985706],[79.8480479600698,23.906118910048306],[79.84911512586811,23.90721442328612],[79.84999240451427,23.906840481228713],[79.84930230034749,23.905998874240964],[79.8503412543403,23.904657864041283],[79.85094563802105,23.90334113227037],[79.85193684895867,23.903697645399788],[79.85167426215301,23.905007798937007],[79.85028537326426,23.906015760634133],[79.85094184027778,23.907492201063874],[79.85202745225703,23.907103678385937],[79.85305447048617,23.906186116536944]]]]},"properties":{"id":"19481"}}]}