{"type":"FeatureCollection","features":[{"type":"Feature","geometry":{"type":"MultiPolygon","coordinates":[[[[80.79792012532542,25.179065755208782],[80.7992961968313,25.177330186632375],[80.79778055826804,25.175619032118377],[80.79971964518208,25.174997287326732],[80.80057956271688,25.175014648437852],[80.80212056477856,25.173410915799167],[80.80135898166245,25.17305826822954],[80.80024861653621,25.17363009982681],[80.79785542805965,25.173629557292074],[80.79834689670113,25.172193467882295],[80.79832465277767,25.17110297309067],[80.79936652289476,25.170101996528146],[80.79861389160149,25.168292643229577],[80.79975972493483,25.167191840278207],[80.80389085557724,25.164994574653292],[80.80446343315973,25.166386176215624],[80.80525919596354,25.165557725694825],[80.80611389160137,25.165280490451792],[80.80749721950943,25.164163953993395],[80.80833611382369,25.163891601562923],[80.80871188693553,25.16311686197959],[80.807774997287,25.16250271267404],[80.80747205946179,25.160951063368472],[80.80751953124988,25.158627929687924],[80.80727043999539,25.15833604600742],[80.80588948567677,25.162979600694754],[80.8052599419486,25.163908420139222],[80.8009695095486,25.163877495660074],[80.80046596950942,25.164915364583763],[80.79970323350668,25.16527506510451],[80.79886162651903,25.16439887152815],[80.79685045030377,25.16649251302121],[80.79722500271262,25.167219509548985],[80.79749721950932,25.169196506076815],[80.79666388617599,25.169997287326836],[80.79608710394947,25.17118598090329],[80.79613579644084,25.17357150607687],[80.79576321072037,25.174294704861452],[80.7939284261067,25.173824327257307],[80.79296217176639,25.172350802951712],[80.79194722493483,25.167219509548985],[80.7913751898869,25.16694715711843],[80.79083611382364,25.168058268229544],[80.78999152289472,25.16860839843787],[80.79002868652319,25.166790364583832],[80.78967549641905,25.165066189236526],[80.7903959147134,25.16366753472255],[80.78998053656662,25.162453884549038],[80.78886908637136,25.161386176215643],[80.78887308756507,25.15797471788231],[80.7876033528643,25.15750271267396],[80.78694722493489,25.158442925347543],[80.78821465386252,25.160532769097685],[80.78765116373697,25.16162651909768],[80.78648613823762,25.15984971788228],[80.7854870605469,25.157316623264393],[80.78611429850261,25.156391059028124],[80.7860702853732,25.155836046007337],[80.78386922200517,25.15638020833373],[80.78390333387577,25.15470865885463],[80.78301805284255,25.15385850694487],[80.78194166395386,25.15333604600734],[80.78155470106319,25.152538519965688],[80.78200927734369,25.15121039496566],[80.7836087375214,25.150434570312882],[80.78488003200951,25.148495551215674],[80.78373216417074,25.14805826822959],[80.78242112901452,25.148946940104608],[80.78278639051635,25.150014105903182],[80.78157321506072,25.149989691840688],[80.78058505588095,25.15149685329898],[80.7798004150388,25.151941731771274],[80.77915886772976,25.149964735243444],[80.77916320800759,25.149135199653102],[80.77860833062076,25.14805826822959],[80.77833611382377,25.146081271701775],[80.7789081488713,25.14497070312538],[80.77888054741729,25.1419509548615],[80.78002888997398,25.14005696614639],[80.78139166937902,25.13972493489625],[80.78232977973082,25.138144531250433],[80.78191453721783,25.137780490451775],[80.78085930718319,25.138878580729497],[80.78069444444426,25.13736111111153],[80.78025919596334,25.1375021701392],[80.77884263780376,25.138886176215777],[80.77638041178355,25.137780490451775],[80.77639248318135,25.13837131076427],[80.77750827365426,25.141121961805865],[80.77747816297742,25.1439854600698],[80.776769137912,25.146056857639266],[80.77791646321609,25.14877224392407],[80.77695685492628,25.149694010417065],[80.7785264756944,25.153200412326697],[80.77628682454426,25.153608398437896],[80.77555833604575,25.15249728732678],[80.77425557454413,25.151531575521147],[80.77345052083317,25.150303819444787],[80.77408874511687,25.14906467013931],[80.77331332736517,25.14831976996568],[80.77165866427944,25.148353407118393],[80.77018459743911,25.14681911892403],[80.76889166937914,25.146974283854533],[80.76971944173172,25.149169379340805],[80.77195298936644,25.14999945746561],[80.77194118923583,25.1522433810768],[80.76967597113722,25.152775065104635],[80.76755866156671,25.151684027778103],[80.7657746717662,25.153038194444818],[80.76313557942692,25.15194715711837],[80.7622250027126,25.15333604600734],[80.75915195041208,25.153609483507353],[80.75838650173606,25.154405924479548],[80.75899095323328,25.155275065104533],[80.7597194417315,25.154163953993503],[80.7626929389103,25.153891601562847],[80.762219238281,25.15527560763927],[80.76225212944874,25.15610839843781],[80.76353224012556,25.155448676215627],[80.76412421332455,25.154228515625363],[80.76713663736953,25.15361382378518],[80.76750088161887,25.154736328125423],[80.76863613552487,25.154712999132286],[80.76943623860646,25.153880208333646],[80.7700397406683,25.15419162326438],[80.77249199761272,25.15415852864622],[80.77305297851544,25.154447157118454],[80.77445780436167,25.154429796007335],[80.77527499728708,25.155280490451815],[80.77883266872809,25.155715060764265],[80.78088989257802,25.156419270833723],[80.7830375840928,25.15855577256987],[80.78360833062041,25.160002712673958],[80.78404479980449,25.160422092014286],[80.78323289659264,25.161202256944804],[80.7841695827905,25.163608398438058],[80.78418640136695,25.16860568576422],[80.78358574761259,25.168897026910273],[80.78361972384951,25.17056152343808],[80.78248189290346,25.170269639757393],[80.77999233669695,25.170320638021323],[80.78000901963978,25.17113606770873],[80.78178622775582,25.17199815538251],[80.78138054741734,25.17278591579897],[80.78139465332018,25.173477647569854],[80.78229600694428,25.173013237847712],[80.78305277506482,25.173157552083822],[80.78194166395386,25.173886176215703],[80.78166944715704,25.17472493489626],[80.78105943467872,25.17527506510467],[80.77889166937948,25.173052842882257],[80.77805833604575,25.17293457031282],[80.77908182779922,25.17444444444486],[80.77812974717872,25.17584906684067],[80.77625271267348,25.175810546875496],[80.77554789225238,25.177263454861517],[80.77556145562048,25.17792751736161],[80.7765646701387,25.178414713542082],[80.77904059516058,25.177907443576757],[80.77999735514297,25.178902994791997],[80.7813842773435,25.17887478298657],[80.78216925726971,25.1800721571186],[80.78336324055957,25.17889160156288],[80.78444166395369,25.179447157118403],[80.7861138916015,25.17971950954896],[80.78901062011695,25.183544379340702],[80.78860717773418,25.184722764757325],[80.78916388617611,25.185836046007353],[80.78956339518223,25.18610839843791],[80.79056783040338,25.184416232639236],[80.79114861382376,25.1838585069448],[80.79361389160132,25.1830582682296],[80.79388610839825,25.182497287326797],[80.79559380425317,25.18148328993098],[80.79647779676642,25.180135091146184],[80.79792012532542,25.179065755208782]],[[80.79048272026878,25.173593750000464],[80.78977817111522,25.172775607639224],[80.78830566406228,25.172507052951843],[80.78751030815945,25.17086968316009],[80.79097222222217,25.170138888889213],[80.79171495225663,25.172871093750416],[80.79159030490442,25.174422743056],[80.79112141927075,25.173878580729678],[80.79048272026878,25.173593750000464]]]]},"properties":{"id":"9494"}}]}