{"type":"FeatureCollection","features":[{"type":"Feature","geometry":{"type":"MultiPolygon","coordinates":[[[[83.16920247395845,23.207537570529695],[83.16875000000007,23.205972222222456],[83.1673830837673,23.20614325629363],[83.16779812282974,23.20834472656273],[83.16721598307308,23.20881089952279],[83.16695936414945,23.210574679904624],[83.16594211154515,23.210593804253747],[83.16487657335065,23.2119245062935],[83.16503797743044,23.213221028646004],[83.16634060329872,23.212455105251962],[83.16773057725706,23.210719672309196],[83.16920247395845,23.207537570529695]]]]},"properties":{"id":"19850"}}]}