{"type":"FeatureCollection","features":[{"type":"Feature","geometry":{"type":"MultiPolygon","coordinates":[[[[79.4854657660592,23.80607286241367],[79.48611355251748,23.80470052083392],[79.4877832031253,23.804171956380657],[79.49106770833336,23.801458875868576],[79.49277235243053,23.800966389974377],[79.49152777777775,23.799027777778363],[79.49082790798613,23.79916137695355],[79.49056098090276,23.80028306749169],[79.4888311089409,23.801596815321687],[79.48889458550352,23.79999471028691],[79.48734293619802,23.799727511936183],[79.48694959852449,23.80056125217054],[79.48581570095487,23.800583767361587],[79.48586073133711,23.79944607204905],[79.4849837239586,23.79917195638066],[79.48507107204878,23.80137586805604],[79.48304416232676,23.80194091796922],[79.48362250434033,23.80278116862023],[79.48277235243083,23.803050265842415],[79.4821945529516,23.803904351129006],[79.48076443142375,23.803847656250525],[79.48028320312503,23.80332804362027],[79.47915039062522,23.803060845269627],[79.47917317708348,23.80363755967936],[79.4808490668403,23.804460991753885],[79.4808268229169,23.805027262370245],[79.4794786241321,23.804973822700134],[79.4788731553821,23.80529432508733],[79.47889512803832,23.805849609375485],[79.48112575954897,23.80581624348997],[79.48180555555572,23.806549750434485],[79.48221679687524,23.80610582139802],[79.48297634548649,23.80583862304738],[79.48340657552089,23.807198079427636],[79.4841612413197,23.806383599175774],[79.4854657660592,23.80607286241367]]]]},"properties":{"id":"19531"}}]}