{"type":"FeatureCollection","features":[{"type":"Feature","geometry":{"type":"MultiPolygon","coordinates":[[[[107.80584411621007,12.929733479818125],[107.80619730631426,12.928178982205267],[107.80750318739044,12.926511366102986],[107.80655999077581,12.925000000000324],[107.80426344129663,12.925191921658353],[107.80393141004683,12.927371419271225],[107.80258538140097,12.928998616536958],[107.80472079806756,12.928974745009],[107.80537699381418,12.930961914062848],[107.80589782714733,12.93040337456641],[107.80584411621007,12.929733479818125]]]]},"properties":{"id":"22752"}}]}