{"type":"FeatureCollection","features":[{"type":"Feature","geometry":{"type":"MultiPolygon","coordinates":[[[[102.0745730251704,15.614295247396086],[102.07661404079559,15.614068196614795],[102.07707302517045,15.615216200087076],[102.07508436414608,15.615154351128766],[102.07515340168973,15.61601345486146],[102.0777966308564,15.616614040798794],[102.080789252384,15.617942437066091],[102.08133449977984,15.617898763021003],[102.08262858072615,15.61573459201415],[102.0811725531652,15.613543023003714],[102.08262858072615,15.61147840711834],[102.0804676649274,15.610238172743237],[102.082044813365,15.608879394531414],[102.0823508029483,15.608133680555781],[102.07819783528336,15.60484456380243],[102.07571533202812,15.60594672309044],[102.07267713758361,15.603905978732854],[102.0719444444413,15.603055555555727],[102.07059841579544,15.604528537326502],[102.06747667100396,15.6059882269967],[102.06796183267917,15.606857638888968],[102.07001600477142,15.606829155816257],[102.07104207356454,15.608020019531452],[102.07093126084774,15.609398600260675],[102.07029907226243,15.609943305121803],[102.06675876193256,15.608275010850889],[102.06463026258362,15.607886827257275],[102.06317789713225,15.606857096354318],[102.06133097330442,15.609000922309221],[102.06308458116021,15.611239963107764],[102.06256808810443,15.613127441406576],[102.06356974283531,15.614406467014135],[102.06463270398982,15.614850802951509],[102.06556884765311,15.612753092448258],[102.06669433593427,15.611538085937738],[102.06720526800896,15.61378689236139],[102.06620049370369,15.616050075954988],[102.06619710286142,15.618157823350899],[102.06772813584766,15.61985080295159],[102.06946994357347,15.618615722656571],[102.06994900173291,15.617024468316103],[102.07117838541345,15.615454644097483],[102.0745730251704,15.614295247396086]],[[102.07626532660296,15.612488335503798],[102.07694417317404,15.611333279080043],[102.07598754882494,15.61027370876758],[102.07694444444147,15.610000000000284],[102.07722059461506,15.610344780816362],[102.07915812174159,15.610764160156407],[102.07956800672454,15.611948513455047],[102.07693725585645,15.612700737847419],[102.07626532660296,15.612488335503798]]]]},"properties":{"id":"10290"}}]}