{"type":"FeatureCollection","features":[{"type":"Feature","geometry":{"type":"MultiPolygon","coordinates":[[[[74.63505859375013,25.17881738281254],[74.63492187500012,25.177620117187587],[74.63426562500015,25.17744238281263],[74.63381640625008,25.177692382812538],[74.63339062500009,25.17780761718764],[74.63294140625007,25.17755761718756],[74.63265625000017,25.177429687500094],[74.63250000000002,25.177250000000015],[74.63155859375016,25.17730761718748],[74.63106640625026,25.177692382812538],[74.62889062500008,25.17780761718764],[74.62825000000001,25.17745019531243],[74.62781640625005,25.177692382812538],[74.62730859374997,25.17780761718764],[74.62706640625007,25.177942382812702],[74.62609374999991,25.178089843750215],[74.62594140625006,25.17898437500017],[74.62619140625006,25.179432617187715],[74.62630859375,25.179692382812632],[74.62644140625022,25.179932617187603],[74.62655859375016,25.180692382812595],[74.6269414062501,25.181182617187645],[74.62716015624997,25.181669921875184],[74.6280664062501,25.181807617187488],[74.62834374999991,25.181961914062498],[74.62855859375,25.18244238281271],[74.62935546875005,25.18335156250025],[74.62981640625023,25.183557617187518],[74.63030859375013,25.18394238281266],[74.6305664062501,25.18405761718749],[74.63080859375,25.18419238281264],[74.63106640625026,25.18430761718757],[74.6313085937501,25.18444238281255],[74.6317343750001,25.18455761718765],[74.63218359375017,25.18430761718757],[74.63494140625008,25.18419238281264],[74.63518359375016,25.18405761718749],[74.63569140625006,25.18394238281266],[74.63593359375014,25.183807617187682],[74.63619140624999,25.18369238281248],[74.63643359375013,25.183557617187518],[74.63692968750021,25.18333691406268],[74.63705859375003,25.181932617187627],[74.63730078125005,25.181500000000128],[74.63705859375003,25.181067382812543],[74.63694140625009,25.180307617187637],[74.63660546875005,25.179833007812462],[74.63568359374997,25.179692382812632],[74.63540625000016,25.179538085937722],[74.63519140625007,25.17905761718751],[74.63505859375013,25.17881738281254]]]]},"properties":{"id":"19080"}}]}