{"type":"FeatureCollection","features":[{"type":"Feature","geometry":{"type":"MultiPolygon","coordinates":[[[[76.94343749999999,22.92756152343756],[76.94300000000013,22.92700000000012],[76.94166015625004,22.927069335937645],[76.94106250000013,22.927811523437555],[76.94093750000016,22.928063476562485],[76.94081250000013,22.928311523437714],[76.94068750000011,22.92856347656256],[76.94056250000014,22.928811523437602],[76.94043750000017,22.929063476562447],[76.93956250000011,22.93006152343756],[76.93943750000014,22.93031347656249],[76.93931250000017,22.930561523437717],[76.93907421874988,22.931049804687547],[76.93806250000014,22.931938476562564],[76.93781249999998,22.932061523437568],[76.93756250000015,22.932188476562644],[76.9368125,22.932311523437562],[76.93668749999998,22.932563476562493],[76.93656250000018,22.93281152343772],[76.93643750000015,22.933063476562566],[76.93631250000013,22.93331152343761],[76.93614843750018,22.933647460937564],[76.93581250000014,22.933811523437683],[76.9356875,22.934063476562713],[76.93518750000013,22.93472265624999],[76.9354765625001,22.935229492187474],[76.9373125000001,22.93693847656246],[76.93781249999998,22.93706152343755],[76.9390625,22.9381884765625],[76.93956250000011,22.93831152343769],[76.94045703125013,22.939061523437573],[76.94168750000014,22.938938476562655],[76.94218750000013,22.9385615234375],[76.94243750000001,22.93843847656258],[76.94293750000011,22.93806152343761],[76.94340234375008,22.93783496093755],[76.9436132812501,22.936978515625015],[76.94393749999998,22.93681152343757],[76.94418750000014,22.93668847656265],[76.94443750000013,22.936561523437575],[76.94518750000012,22.93643847656257],[76.94543750000017,22.936311523437496],[76.94593750000016,22.936188476562577],[76.94668750000014,22.935561523437613],[76.94743359375022,22.935378906250108],[76.94744531249992,22.934944335937658],[76.94693750000002,22.934561523437566],[76.94354296875017,22.93443359375],[76.94269140625019,22.93341992187503],[76.94293750000011,22.93293847656261],[76.94306250000014,22.93268652343768],[76.94331250000013,22.932201171875178],[76.94318750000016,22.9313115234375],[76.94293750000011,22.930826171875097],[76.94292968750014,22.93045410156249],[76.94306250000014,22.9301865234375],[76.94318750000016,22.92993847656264],[76.94331250000013,22.929436523437715],[76.94356250000001,22.928951171875042],[76.94343749999999,22.92756152343756]]]]},"properties":{"id":"19989"}}]}