{"type":"FeatureCollection","features":[{"type":"Feature","geometry":{"type":"MultiPolygon","coordinates":[[[[78.425847981771,24.832729017470157],[78.42610541449662,24.82888371785552],[78.42749457465297,24.82830744425513],[78.4262982855902,24.827742835151298],[78.42446912977451,24.827815331353676],[78.42360568576399,24.82694973415842],[78.422732747396,24.825165693495578],[78.42279486762166,24.82359634399465],[78.42202690972235,24.822884894477667],[78.4207413736979,24.82247787475636],[78.41986111111103,24.82152777777837],[78.41944661458345,24.82191180759051],[78.4191720920139,24.82291529337617],[78.41985188802076,24.826820017497283],[78.42082682291678,24.829601949056524],[78.41995252821212,24.830014631483863],[78.41781195746537,24.83025160047798],[78.41493923611111,24.831513400608145],[78.4152981228298,24.83253772311798],[78.41756076388893,24.83250791761671],[78.41860568576382,24.833060845269614],[78.42005316840309,24.833337181939527],[78.4217708333334,24.83424609714129],[78.42323377821194,24.835550265842585],[78.425847981771,24.832729017470157]]]]},"properties":{"id":"19211"}}]}