{"type":"FeatureCollection","features":[{"type":"Feature","geometry":{"type":"MultiPolygon","coordinates":[[[[80.51766262478284,23.058213161892624],[80.51868225097647,23.056579589843892],[80.51859924316378,23.055546332465383],[80.51987026638429,23.05463365342912],[80.52165364583303,23.05477701822933],[80.52221191406247,23.05371554904532],[80.5213785807289,23.05334364149327],[80.52069715711795,23.052552761501914],[80.51721191406247,23.052232530382156],[80.51446207682275,23.050235460069658],[80.51586961534272,23.04689317491338],[80.51784539116747,23.046298285590424],[80.51887858072885,23.044779595269276],[80.5170833333332,23.043194444444538],[80.51498969183999,23.043323025173805],[80.51472276475661,23.045651177300527],[80.51223253038174,23.047788085937682],[80.51153232150583,23.04810058593769],[80.51016411675343,23.04799058702274],[80.50952514648421,23.047248942057394],[80.50843878851961,23.046676974826568],[80.50806586371519,23.04839992947076],[80.50903266059018,23.049232855902943],[80.50943413628457,23.05288275824668],[80.50866143120632,23.054267713758833],[80.50917697482603,23.05471191406275],[80.51009297688793,23.057360026041863],[80.51134426540787,23.05887858072937],[80.51333265516482,23.058041178385636],[80.51715142144073,23.05935885959218],[80.51766262478284,23.058213161892624]]]]},"properties":{"id":"9708"}}]}