{"type":"FeatureCollection","features":[{"type":"Feature","geometry":{"type":"MultiPolygon","coordinates":[[[[108.3277996826163,12.595426974826722],[108.32767110188686,12.595277777778051],[108.32667148166118,12.59585422092043],[108.32453525119266,12.598436414930944],[108.32422302246007,12.602322319878809],[108.32495951334553,12.603176812066224],[108.32606492784183,12.603670247396238],[108.32752190483828,12.604811197916973],[108.32698967827602,12.603742947048843],[108.32563117133165,12.602008463541978],[108.32519334581067,12.599185655382229],[108.32593146430011,12.598328721788548],[108.3283050537099,12.59741970486148],[108.3284219699427,12.595963270399565],[108.3277996826163,12.595426974826722]]]]},"properties":{"id":"22874"}}]}