{"type":"FeatureCollection","features":[{"type":"Feature","geometry":{"type":"MultiPolygon","coordinates":[[[[78.60039089626744,24.514674750434537],[78.60095377604162,24.510899793837368],[78.60173583984388,24.510530768501027],[78.60279134114595,24.51057261149144],[78.60410915798624,24.509875352648066],[78.60529486762144,24.510290900336855],[78.60529432508699,24.508888312446317],[78.60464599609381,24.508616400825176],[78.60243869357643,24.509390021430534],[78.60136338975693,24.507724914551318],[78.60139892578147,24.50683085123744],[78.60250542534712,24.506116400825277],[78.60313151041683,24.50514668782604],[78.60447862413199,24.505859510634195],[78.60588704427099,24.50585198296504],[78.60638346354168,24.505221862793533],[78.60571126302082,24.503951076931926],[78.60667209201407,24.503060845269587],[78.60693901909738,24.502464497884688],[78.60629909939249,24.501871405707988],[78.60514078776063,24.502277357313915],[78.60312472873275,24.502197435167503],[78.60097954644087,24.5027595350482],[78.60028320312497,24.50159033881343],[78.60169976128489,24.50027777777828],[78.60029134114606,24.49897288004601],[78.60000542534746,24.49778082953607],[78.60389431423633,24.493616400825132],[78.60483723958347,24.491464775933807],[78.60456108940971,24.490560845269528],[78.60333875868074,24.492227511936434],[78.60029106987841,24.49460652669326],[78.59926432291675,24.494063212077478],[78.59616726345499,24.49443016900011],[78.59528320312498,24.491655917697912],[78.59568006727423,24.49083862304738],[78.59757269965272,24.491997578939348],[78.59890489366339,24.4899895901155],[78.59881835937503,24.487807040745025],[78.6003607855902,24.48886827256993],[78.60355523003474,24.48914137098582],[78.60511501736116,24.486725735134996],[78.6045496961805,24.486394178602993],[78.6026925998265,24.48767201741589],[78.60103162977421,24.48708987765886],[78.59911322699654,24.48576978895447],[78.59729465060761,24.482326117622023],[78.59604926215266,24.481931830512835],[78.59641655815969,24.47888397216846],[78.5938834635418,24.476116400825077],[78.59347222222212,24.474861111111665],[78.59275553385439,24.475525139703237],[78.5919498697917,24.477318929037025],[78.5938758680555,24.479103630914153],[78.59466064453139,24.481581963433797],[78.59375000000014,24.483302646213616],[78.59389539930547,24.486972215441114],[78.59170220269093,24.486885308160197],[78.5913848198787,24.485222913954516],[78.58967990451393,24.483532307943335],[78.58917209201402,24.483687438965404],[78.58975748697915,24.485358208550764],[78.58971571180544,24.48641184488983],[78.58805013020853,24.486939154731388],[78.58768283420133,24.48733578152182],[78.5882842339411,24.488472222222754],[78.58776936848969,24.489445122613304],[78.58835313585078,24.49029351128516],[78.58906222873262,24.490265401204937],[78.5894390190974,24.4921962822813],[78.58870062934042,24.4930502658425],[78.58663981119807,24.492203742133682],[78.5866107855903,24.490560845269528],[78.58544080946203,24.49117994520458],[78.58438856336821,24.492216932509137],[78.58171278211805,24.490894029405894],[78.58137342664926,24.490527920193614],[78.58141357421889,24.489516262478773],[78.5786056857639,24.48778306749186],[78.57770616319439,24.48564500596848],[78.57682942708348,24.48523125542586],[78.57639431423613,24.48464589436898],[78.57695339626744,24.483050740560472],[78.57499457465295,24.482783067491795],[78.57354492187497,24.48194973415852],[78.5730609809028,24.48316609700568],[78.57444986979166,24.48360582139813],[78.57496663411453,24.48416371663471],[78.57427191840301,24.484994710286912],[78.57182345920128,24.483577372233597],[78.56917995876731,24.483682149251848],[78.56981879340267,24.484889560276088],[78.57328206380222,24.485986022949803],[78.57360595703128,24.486672363281755],[78.57416422526049,24.4866502549918],[78.57557074652769,24.48864542643274],[78.57588107638898,24.491071166992725],[78.57558865017356,24.491383599176046],[78.57360405815965,24.489706522624274],[78.57196668836824,24.48889417860289],[78.57111653645828,24.4892837863503],[78.57319363064252,24.49127115885463],[78.57222764756958,24.492431165907632],[78.57363986545144,24.493343166775702],[78.57219997829853,24.494022691515198],[78.57223144531244,24.49481543646968],[78.57524576822928,24.494695977105593],[78.57638346354182,24.495333692763026],[78.57539198133671,24.49625257704041],[78.57500542534726,24.497576327854162],[78.57668131510425,24.499215426975482],[78.57665798611114,24.50063496907606],[78.57442898220498,24.502805413140806],[78.57445692274294,24.503509284126125],[78.57606499565972,24.504268256293912],[78.57728976779535,24.50593777126791],[78.57719618055555,24.50829918755487],[78.57752604166674,24.50892303466847],[78.57748236762146,24.510026821560857],[78.57631998697926,24.50998074001791],[78.57510525173629,24.50889417860303],[78.57354844835069,24.50996541341189],[78.57155490451404,24.5078138224289],[78.57035563151064,24.507505289713976],[78.57123236762172,24.510536770291296],[78.5730609809028,24.510828043620307],[78.57361924913212,24.512500000000585],[78.57315592447915,24.51337565104221],[78.57019124348957,24.51222751193629],[78.568390842014,24.513180236816964],[78.56983344184019,24.51451680501353],[78.57268337673625,24.514091796875604],[78.57305013020849,24.516394178603008],[78.57360568576391,24.51767255995054],[78.5727056206596,24.51898091634169],[78.57313557942703,24.52020816379175],[78.57528320312528,24.52055026584243],[78.57999457465277,24.52194973415851],[78.58270399305556,24.522467007107693],[78.58944878472218,24.524520840115542],[78.59417209201402,24.523616400825148],[78.59775743272579,24.521421881782132],[78.60138346354162,24.51846337212514],[78.60039089626744,24.514674750434537]],[[78.59512722439237,24.48304548475535],[78.5956944444446,24.482638888889397],[78.59675509982637,24.483165045844643],[78.59719943576394,24.485213148329592],[78.59658691406267,24.486177707248814],[78.59596137152792,24.48605407714888],[78.59512722439237,24.48304548475535]]]]},"properties":{"id":"1786"}}]}