{"type":"FeatureCollection","features":[{"type":"Feature","geometry":{"type":"MultiPolygon","coordinates":[[[[74.84139160156346,25.032224934896234],[74.84174696180648,25.027502712674007],[74.843025173612,25.029997287326708],[74.84471462673687,25.02946668836843],[74.84527343750077,25.02673665364624],[74.84531792534816,25.02177680121561],[74.84388617621599,25.020002712674014],[74.84361382378543,25.01805284288234],[74.84327473958402,25.017726779514305],[74.84335883246618,25.01361924913226],[74.84225965711872,25.013085937500335],[74.84166992187593,25.012519531250433],[74.84163791232717,25.010964626736495],[74.8422032335076,25.00864746093788],[74.84277506510503,25.00777506510444],[74.84416395399396,25.007101236979665],[74.84372233072995,25.006391601562925],[74.84250271267459,25.006947157118447],[74.84027940538263,25.00725748697954],[74.8397129991329,25.009466688368477],[74.83914116753553,25.018989257812834],[74.8394417317717,25.02083604600729],[74.83999728732712,25.02245930989629],[74.83946723090347,25.02524848090306],[74.83863498263977,25.02611436631986],[74.83411512586903,25.02616048177113],[74.8333306206604,25.025002712674095],[74.83272949218846,25.02140190972264],[74.83279188368167,25.018336046007292],[74.83205240885493,25.018687608507392],[74.83141601562599,25.019922960069763],[74.83137044270907,25.022163085937947],[74.8317464192717,25.023631184896345],[74.83104220920214,25.02580240885466],[74.82908094618128,25.02612196180587],[74.82589084201467,25.02790527343801],[74.82555826823031,25.027219509548956],[74.8242198350703,25.02678493923642],[74.8237597656258,25.02583604600737],[74.82252983941058,25.026941731771288],[74.82211534288265,25.026207139757318],[74.82223090277844,25.020556640625344],[74.82117567274386,25.019864908854558],[74.82074001736183,25.01688368055592],[74.82209906684116,25.010390625000568],[74.82268880208412,25.009824218750396],[74.82402777777881,25.005416666667003],[74.82248643663272,25.005584309896165],[74.82250813802162,25.006658528646213],[74.82169650607742,25.008831380208704],[74.82082085503558,25.010305989583756],[74.81979166666773,25.01129503038227],[74.81833604600766,25.01412055121584],[74.8186083984385,25.0163916015629],[74.81913302951486,25.017923719618437],[74.81919162326469,25.02079372829911],[74.81807183159819,25.024064670139254],[74.81799099392427,25.028028428819823],[74.81966742621594,25.0288416883685],[74.82109320746619,25.03021158854206],[74.82147298177162,25.03138183593785],[74.82406304253541,25.031435004340693],[74.82697374132019,25.02998101128513],[74.82888726128547,25.03002007378504],[74.82925944010489,25.028495008680963],[74.83000271267437,25.027780490451846],[74.82998589409803,25.026955837673967],[74.83108127170229,25.026391601562878],[74.83192382812595,25.0278841145837],[74.83225748698001,25.030275065104647],[74.83377007378559,25.028058268229515],[74.83474012586876,25.02833496093791],[74.83538899739696,25.029010416667205],[74.83789767795233,25.028302951389293],[74.83915093316065,25.026391601562878],[74.83970811632017,25.026903754340665],[74.84047092013984,25.030927734375453],[74.84123209635513,25.03249728732679],[74.84139160156346,25.032224934896234]]]]},"properties":{"id":"9513"}}]}