{"type":"FeatureCollection","features":[{"type":"Feature","geometry":{"type":"MultiPolygon","coordinates":[[[[83.07305859375018,23.94856835937496],[83.07291796875026,23.947943359375117],[83.07205859375003,23.948056640625097],[83.07162109375017,23.94830664062509],[83.07118359375002,23.94819335937501],[83.07094140625,23.948056640625097],[83.07049218750015,23.947861328125143],[83.0695585937502,23.946818359375115],[83.06950000000009,23.946250000000177],[83.06905859375021,23.946306640625167],[83.06890234375018,23.947001953125095],[83.06856640625014,23.94719335937505],[83.06797265624996,23.9473251953126],[83.06837890625005,23.947890625000113],[83.06819140625001,23.94831835937505],[83.0679453125002,23.94874999999999],[83.06819140625001,23.9491816406251],[83.06830859375017,23.949443359375053],[83.06844140625012,23.949681640625172],[83.06857421875,23.95084570312507],[83.06905859375021,23.951193359375083],[83.06956640625012,23.951306640625063],[83.06980859375003,23.951443359375077],[83.07006640625005,23.951556640625057],[83.07050390625002,23.951806640625037],[83.07094140625,23.951693359375057],[83.07118359375002,23.951556640625057],[83.0718515625002,23.951408203124984],[83.07205859375003,23.950931640625214],[83.07269140625002,23.95019335937512],[83.07280859375018,23.949931640624982],[83.07330859375006,23.949299804687456],[83.07319140625,23.94880664062498],[83.07305859375018,23.94856835937496]]]]},"properties":{"id":"19459"}}]}