{"type":"FeatureCollection","features":[{"type":"Feature","geometry":{"type":"MultiPolygon","coordinates":[[[[82.477828125,24.203749023437624],[82.47841015625013,24.20344140625008],[82.47905859375018,24.20393945312493],[82.47956640625003,24.20406054687517],[82.47980859375016,24.20418945312511],[82.48006640625002,24.20431054687498],[82.48050390625,24.204541992187586],[82.48072265625015,24.204125000000047],[82.48055859375003,24.203814453125077],[82.48033203125007,24.203329101562673],[82.47994140624988,24.203060546875207],[82.47943359375003,24.20293945312497],[82.47919140625012,24.20281054687503],[82.47870703125008,24.202582031250216],[82.47830859375003,24.202064453125146],[82.47819140625015,24.201310546875092],[82.47780859375015,24.200814453125105],[82.47769140625016,24.20006054687505],[82.47705859375006,24.19931445312507],[82.47694140625012,24.19906054687509],[82.47680859375018,24.19881445312508],[82.47665625000022,24.198161132812658],[82.4759570312502,24.19783203125003],[82.47555859375015,24.19731445312506],[82.47544140625016,24.19706054687498],[82.47530859375016,24.196814453124986],[82.4751914062501,24.19656054687509],[82.47500000000022,24.19625000000012],[82.47455859375,24.196310546875196],[82.4740664062501,24.196689453124947],[82.4723398437499,24.196828124999996],[82.47219140625,24.198064453125028],[82.47194140625012,24.198537109374982],[82.47207421875012,24.200383789062556],[82.47281640625002,24.200560546875025],[82.47305859375015,24.200689453125065],[82.4733984375001,24.200850585937573],[82.47366796875,24.201420898437462],[82.47405859375019,24.201689453125113],[82.47456640625003,24.201810546875166],[82.47530859375016,24.202439453124995],[82.47580078125011,24.202670898437603],[82.47597265625015,24.203000000000046],[82.47576953125005,24.20338867187499],[82.47632031250018,24.204066406250192],[82.47629687500003,24.20462500000012],[82.47632031250018,24.20518359375022],[82.47569140625004,24.205958007812598],[82.47587109375004,24.206682617187596],[82.47654296875007,24.206708984375055],[82.47694140625012,24.206189453124935],[82.47705859375006,24.20593554687514],[82.47769140625016,24.205189453124973],[82.477828125,24.203749023437624]]]]},"properties":{"id":"19390"}}]}