{"type":"FeatureCollection","features":[{"type":"Feature","geometry":{"type":"MultiPolygon","coordinates":[[[[102.93985568576099,18.503744710286952],[102.94075059678548,18.503166910807664],[102.94175347221929,18.502084554036884],[102.94407606336509,18.500938585069875],[102.94394015841718,18.497510172526503],[102.94684651692401,18.495935194227968],[102.9475702582437,18.494401177300787],[102.9479112413164,18.490133599175778],[102.94826931423293,18.489112277561205],[102.94814534504897,18.48598659939283],[102.94714057074341,18.482151828342438],[102.9467732747365,18.47526082356825],[102.94683919270543,18.473592393663623],[102.94822129991022,18.46929009331653],[102.94928683810471,18.469332275391068],[102.95177354600392,18.471526421441524],[102.95286214192393,18.47180026584246],[102.95318901909414,18.470340304905065],[102.95245849609071,18.468255479601112],[102.95333902994506,18.467921956380692],[102.95662190754908,18.470500081380578],[102.95830647786156,18.471295166016134],[102.95968397352115,18.471240505642754],[102.9621337890595,18.46871351454034],[102.96374240451078,18.468777262370196],[102.96515489366035,18.466517333984797],[102.9651318359345,18.465935194227853],[102.96353597004921,18.46445651584243],[102.96212456596928,18.46495117187537],[102.95910156249684,18.468213840061296],[102.95834608289616,18.46818400065142],[102.95733995225427,18.46539198133719],[102.95296034070864,18.46434868706639],[102.9526443142332,18.462311333550716],[102.95673149956284,18.459313422309506],[102.95917561848663,18.45884670681464],[102.96013346353871,18.45833468967058],[102.95705322265323,18.4554806857643],[102.95707655164628,18.4537194824223],[102.95453531900748,18.452041422526463],[102.95460150824343,18.45037448459246],[102.953733452688,18.44873413085979],[102.95241455077834,18.448786349826804],[102.9509163411428,18.448199734158408],[102.94933865017052,18.44903455946215],[102.94878309461492,18.449012586806006],[102.94702501084791,18.447581787109854],[102.94709337022263,18.445860188802484],[102.9484776475663,18.445421956380656],[102.94957790798313,18.44452745225736],[102.94891601562202,18.44327650282159],[102.94685655381633,18.443816053602788],[102.94646809895542,18.4433968098962],[102.94689751518794,18.441757948134082],[102.94792209201123,18.440421956380675],[102.94818901909449,18.43933865017415],[102.94648708767053,18.437324625651527],[102.9458742947019,18.436025797526483],[102.94408338758367,18.43542195638068],[102.9411740451358,18.437993706597652],[102.9399801974798,18.439842529297465],[102.93813422308742,18.44155287000902],[102.93703559027486,18.441509331597658],[102.93648057725383,18.440910373264316],[102.93655436197608,18.439050292969114],[102.93531792534415,18.437437744141135],[102.93457790798325,18.437088623047316],[102.93194444444154,18.43444444444485],[102.93042209201101,18.435170355903168],[102.93435221353857,18.438243543837345],[102.93489610459764,18.439396158854635],[102.93483696831314,18.44088731553863],[102.93516004774008,18.442431776259113],[102.93623806423321,18.443430718316364],[102.9367521158824,18.444519449870242],[102.9362372504311,18.44598822699693],[102.93441107855588,18.44600653754378],[102.93319824218449,18.44568874783039],[102.92961751301797,18.44566826714444],[102.92698811848643,18.446773817274646],[102.92096679687208,18.447078043620266],[102.91934760199345,18.447934841580235],[102.91856662326089,18.447903917101158],[102.91544460720198,18.446093614366774],[102.91486653645543,18.446374511719085],[102.91600423176786,18.44823296441021],[102.91975585937192,18.44957804362018],[102.92111870659411,18.448640136719234],[102.92512451171584,18.448798963759103],[102.92722222221911,18.449348687066433],[102.92852023654225,18.449008517795548],[102.92970052083061,18.44681084526954],[102.93313395181983,18.447529161241746],[102.93544080945892,18.44692477756122],[102.93778835720181,18.44795694987019],[102.9397726779483,18.44743706597265],[102.94081814235815,18.44799018012189],[102.94067138671588,18.451692030165376],[102.94098334418115,18.453783230252156],[102.94272379556983,18.454907226563023],[102.94469699435476,18.45487114800386],[102.94607937282697,18.456948377821533],[102.94813015407712,18.45776000976602],[102.94763183593435,18.46014146592931],[102.94877468532698,18.46215237087712],[102.94872341579551,18.463449300130705],[102.94497233072613,18.467631293403187],[102.94279893662898,18.471320529514458],[102.94322347004899,18.472123074002212],[102.9438199869762,18.474626329210494],[102.94374348958038,18.47655422634594],[102.94105170355593,18.477824707031743],[102.94290798610794,18.47954454210121],[102.94541965060469,18.484820827908507],[102.94568901909432,18.488928358290465],[102.94507731119481,18.49362114800381],[102.94264675563923,18.495873209635747],[102.94140082464983,18.498512912326845],[102.93907145181984,18.501375325521323],[102.93583848741005,18.50352742513077],[102.93412217881641,18.503459472656644],[102.93269666883387,18.502478705512516],[102.92992702907671,18.499776882595924],[102.92738661023989,18.498283555773014],[102.92549967447601,18.497527669271264],[102.92339843749701,18.495358479818137],[102.91957790798338,18.49347751193615],[102.91808051214971,18.49244710286493],[102.91616210937187,18.4889999728737],[102.9132115342853,18.485598144531664],[102.91057156032693,18.48315185546923],[102.90680365668109,18.480857476128932],[102.90558620876433,18.479215494792086],[102.90298285589975,18.477986924913623],[102.90007269964971,18.47534640842062],[102.89653320312195,18.473466932509083],[102.89503743489294,18.473110622830262],[102.89231445312183,18.47199218750049],[102.8907511393198,18.470793457031647],[102.88887505425063,18.47019938151078],[102.88622124565686,18.472025417752192],[102.88414686414646,18.472682156033457],[102.88217773437194,18.472651638455304],[102.8808382161429,18.473573404948397],[102.8819273545977,18.475631510417116],[102.8852444118892,18.47628431532165],[102.88702989366018,18.47621365017396],[102.88952528211516,18.47748548719659],[102.89132812499699,18.47872599283889],[102.89933593749711,18.47987575954899],[102.90004340277468,18.481375054253917],[102.90734510633368,18.485014377170543],[102.90874457464994,18.48597751193617],[102.9098700629311,18.486333821615005],[102.91101318359065,18.487120361328536],[102.9115223524274,18.488199734158414],[102.91319986978854,18.490133599175778],[102.91486273871234,18.492602132161792],[102.91515977647268,18.49508422851612],[102.91852891709786,18.496071234809435],[102.92001437716718,18.497210286458795],[102.9236889648407,18.499019775391076],[102.9249837239552,18.49932820638081],[102.92641601562187,18.499317626953513],[102.92763346353868,18.500977511936227],[102.9304999457436,18.504107801649795],[102.93208875867745,18.505133599175835],[102.9339366319413,18.50731540256116],[102.93493733723673,18.507911376953587],[102.93666585286175,18.5060460069449],[102.93819986978892,18.505144178602848],[102.93985568576099,18.503744710286952]]]]},"properties":{"id":"5084"}}]}