{"type":"FeatureCollection","features":[{"type":"Feature","geometry":{"type":"MultiPolygon","coordinates":[[[[77.84538347575594,26.269109569004698],[77.8487867394214,26.26631011018297],[77.85213511173762,26.26411445620549],[77.85235467713548,26.26153456278145],[77.85498946190856,26.259503582851963],[77.86393675186818,26.26021717039488],[77.86190577193841,26.259338908803784],[77.85526391865605,26.258844886658636],[77.8511470674475,26.258241081814646],[77.85010413180814,26.250446510194067],[77.85350739547349,26.249293791855592],[77.8543307657151,26.250117162097084],[77.85756935533234,26.24973292265105],[77.85910631311677,26.249293791855592],[77.86047859685297,26.24962313995239],[77.86322316432509,26.24896444375871],[77.86508947020619,26.24649433303385],[77.86624218854448,26.246055202238395],[77.86624218854448,26.244243787706964],[77.8672302328346,26.242103025078364],[77.86755958093116,26.239852479751207],[77.86508947020619,26.242597047223512],[77.86470523075982,26.244628027152913],[77.86377207781956,26.246164984937323],[77.86201555463711,26.246988355179],[77.85960033526212,26.246988355179],[77.85833783422461,26.246713898431537],[77.85509924460754,26.24841553026458],[77.85213511173762,26.247592160022904],[77.85164108959262,26.24687857248007],[77.8488965221205,26.246823681130564],[77.84730467298655,26.24726281192629],[77.84554814980467,26.246823681130564],[77.84494434496028,26.243859548260744],[77.84241934288619,26.24116987213803],[77.84274869098263,26.240346501896354],[77.84066281970391,26.235296497747456],[77.83989434081141,26.23425356210801],[77.83830249167792,26.23364975726419],[77.83791825223179,26.229258449308617],[77.8362166203992,26.226184533739954],[77.83495411936158,26.225086706750986],[77.83418564046971,26.22135409498891],[77.83144107299742,26.219872028554093],[77.83177042109392,26.215096481152486],[77.83358183562572,26.21449267630858],[77.83539325015735,26.213120392572336],[77.83654596849547,26.21257147907785],[77.83616172904956,26.208674193267242],[77.83775357818362,26.207192126832425],[77.83764379548441,26.205435603650315],[77.83682042524256,26.204282885311855],[77.83698509929107,26.203294841021815],[77.83808292628012,26.20247147078024],[77.83616172904956,26.20345951507035],[77.83605194635064,26.204776907457088],[77.83649107714629,26.206423647940355],[77.83599705500095,26.207356800880774],[77.83506390206057,26.20785082302592],[77.83506390206057,26.20982691160563],[77.83446009721675,26.21152854343849],[77.83116661625027,26.212955718523986],[77.83001389791193,26.21421821956112],[77.82847694012733,26.215261155200565],[77.82628128614945,26.217566591877514],[77.83050792005659,26.215206263851144],[77.83061770275552,26.216523656237698],[77.83006878926116,26.21838996211892],[77.83017857195992,26.219103549661753],[77.83094705085225,26.22135409498891],[77.8329231394325,26.223000835472263],[77.83435031451799,26.22975247145358],[77.83676553389333,26.236833455531965],[77.83687531659214,26.237986173870254],[77.83912586191943,26.24232259047605],[77.83929053596765,26.244298679056286],[77.83972966676342,26.245835636840624],[77.84071771105314,26.247098137877757],[77.84214488613875,26.247976399469124],[77.84274869098263,26.24803129081836],[77.84170575534327,26.24841553026458],[77.84132151589714,26.249019335108486],[77.84198021209048,26.250117162097084],[77.84390140932092,26.25050140154339],[77.84423075741748,26.253410643063788],[77.8470851075887,26.256210101885443],[77.84768891243252,26.257801951019275],[77.84796336917955,26.258844886658636],[77.84494434496028,26.26054651849151],[77.84154108129499,26.260766083889195],[77.83725955603828,26.259448691502456],[77.83325248752877,26.25730792887431],[77.83138618164779,26.255276948944825],[77.83039813735806,26.254563361401992],[77.82425030622036,26.251214989086222],[77.8234818273281,26.24962313995239],[77.81799269238385,26.246110093588],[77.81727910484094,26.24512204929796],[77.81568725570722,26.24506715794864],[77.8140954065735,26.246110093588],[77.81244866608986,26.244792701201263],[77.81113813512175,26.24287836538926],[77.81089112404962,26.24204470301963],[77.81119988789018,26.23815427862793],[77.81079849489774,26.23784551478721],[77.81042797828869,26.237999896707706],[77.80977957422331,26.239111446533656],[77.80894591185361,26.239111446533656],[77.80706245242564,26.238185155011948],[77.80632141920833,26.238185155011948],[77.80440708339646,26.23676484134519],[77.8031411516499,26.235221022142127],[77.8016899615993,26.231207092213964],[77.80159733244685,26.23000291323538],[77.80184434351915,26.228922239793448],[77.80391306125128,26.226884398445165],[77.80187521990328,26.226822645677103],[77.80033140070012,26.22642125268449],[77.79940510917825,26.225896354155395],[77.79838618850411,26.223457119814398],[77.79690412206926,26.221882424227232],[77.79644097630867,26.22212943529989],[77.79613221246771,26.222993974053722],[77.79659535822864,26.224074647495925],[77.79603958331555,26.224290782184383],[77.79452664049634,26.222685210213],[77.79329158513426,26.221789795075054],[77.79236529361239,26.218949167741343],[77.79255055191672,26.217590606842634],[77.79338421428636,26.216293798712158],[77.7942487530402,26.215583641878723],[77.79532942648231,26.21552188911032],[77.79563819032293,26.21490436142942],[77.79551468478647,26.21354580053061],[77.79363122535901,26.210458162124596],[77.79313720321366,26.210396409356093],[77.79412524750379,26.214132451827666],[77.79347684343841,26.21465735035676],[77.79258142830085,26.21468822674096],[77.79131549655412,26.216417304248438],[77.79103760909763,26.217250966617897],[77.79075972164108,26.22135752569814],[77.789277655206,26.221172267394067],[77.78791909430757,26.219504942654368],[77.78776471238709,26.217127461081787],[77.78399779353182,26.217374472154177],[77.78470795036489,26.216170293175693],[77.78612826403165,26.216170293175693],[77.78625176956805,26.21505874334973],[77.78467707398093,26.215707147415102],[77.7836890296912,26.215583641878723],[77.78510934335785,26.213607553298672],[77.7853872308144,26.213669306066905],[77.78529460166229,26.21286652008112],[77.78371990607533,26.21144620641445],[77.78402866991556,26.209377488682307],[77.78325676031429,26.20647510858045],[77.78333909733797,26.205651738338773],[77.78181586239114,26.205569401314463],[77.78189819941522,26.207298478822125],[77.781239503222,26.20733964733411],[77.78029262744408,26.206680951140967],[77.781239503222,26.20429317743998],[77.78062197554053,26.20400499785552],[77.78156885131867,26.203552144222428],[77.7800867848836,26.203428638686418],[77.77868705547272,26.20400499785552],[77.77815186481567,26.20392266083111],[77.7770403149897,26.202522931420518],[77.77527006896983,26.201205539033694],[77.77284112675724,26.20029983176798],[77.77247061014836,26.199352955990094],[77.77325281187805,26.198653091284626],[77.77629928177217,26.198858933845045],[77.77798719076733,26.1961418120477],[77.77942808869025,26.195771295439016],[77.78165118834298,26.19573012692669],[77.78395662501956,26.19515376775776],[77.7857268710392,26.19420689197962],[77.78930853159036,26.190337051844082],[77.78972021671123,26.18844330028807],[77.79330187726205,26.18840213177627],[77.79610133608392,26.186179032123633],[77.79671886376511,26.18539683039411],[77.79713054888597,26.184285280567806],[77.7966365267408,26.18276204562065],[77.79667769525307,26.18029193489579],[77.79626601013248,26.180950631089118],[77.79618367310789,26.18259737157247],[77.79581315649924,26.184120606519542],[77.79527796584219,26.185190987833522],[77.7938782364312,26.18650838022026],[77.79305486618964,26.186920065341],[77.79095527207338,26.186920065341],[77.78918502605407,26.18737291897409],[77.7877441281311,26.18951368160249],[77.78655024128099,26.190460557380277],[77.78486233228537,26.192642488520576],[77.78230988453615,26.19408338644361],[77.77955159422655,26.194618577100556],[77.77971626827471,26.193342353225972],[77.77864588696085,26.194824419660875],[77.77753433713471,26.195030262221294],[77.77650512433243,26.19494792519717],[77.77605227069964,26.194248060491773],[77.77531123748216,26.194248060491773],[77.77494072087327,26.1961418120477],[77.77440553021663,26.196677002704646],[77.7729646322936,26.194371566028238],[77.7718119139553,26.185232156345762],[77.77172957693088,26.183791258422914],[77.77218243056373,26.182803214132804],[77.7714825658584,26.181938675379143],[77.77082386966512,26.180044923823218],[77.76967115132678,26.17930389060585],[77.76884778108504,26.179592070190495],[77.76851843298849,26.178686362924594],[77.76765389423466,26.17930389060585],[77.7668305239931,26.179139216557687],[77.76674818696878,26.178809868460704],[77.76633650184814,26.179550901678255],[77.76514261499747,26.179468564654215],[77.764730929877,26.1785628573884],[77.76423690773177,26.178357014828066],[77.76333120046607,26.17638092624783],[77.76263133576069,26.17156421033424],[77.76226081915198,26.170740840092563],[77.76044940462035,26.170823177116972],[77.75966720289111,26.170534997532243],[77.75756760877451,26.168353066391845],[77.7542741278078,26.16629464078784],[77.75172168005881,26.16526542798566],[77.75040428767207,26.165759450130807],[77.74867521016452,26.165512439058134],[77.7470284696814,26.163824530062726],[77.74534056068583,26.16287765428494],[77.74435251639645,26.16295999130915],[77.74674029009688,26.163948035599006],[77.74818118801974,26.165759450130807],[77.75246271327651,26.16637697781188],[77.75756760877451,26.169382279194124],[77.75839097901624,26.170699671580593],[77.75979070842706,26.171975895455077],[77.76069641569288,26.171975895455077],[77.76189030254332,26.17292277123296],[77.76193147105508,26.17448717469209],[77.75987304545109,26.174363669155795],[77.76139628039815,26.17526937642178],[77.76168445998272,26.176833779880823],[77.76242549320042,26.17769831863457],[77.76267250427273,26.178357014828066],[77.76250783022445,26.17880986846089],[77.76341353749027,26.17971557572669],[77.76555430011834,26.18078595704104],[77.76983582537517,26.181650495794514],[77.76995933091146,26.183379573301906],[77.7705356900806,26.18552033593049],[77.77037101603244,26.188237457727823],[77.77020634198382,26.189266670529918],[77.76962998281456,26.190048872259354],[77.76880661257306,26.190460557380277],[77.7704533530563,26.19276599405687],[77.77004166793549,26.195853632463155],[77.77057685859259,26.19717102484971],[77.76962998281456,26.200258663255823],[77.76880661257306,26.201123202009654],[77.76740688316218,26.200093989207815],[77.76650117589648,26.2001351577198],[77.76650117589648,26.201123202009654],[77.76604832226357,26.20186423522702],[77.76538962607034,26.202193583323634],[77.76576014267894,26.2037991552951],[77.76650117589648,26.20429317743998],[77.7669128610174,26.202317088859914],[77.77061802710458,26.203716818270877],[77.7723882731245,26.204128503391715],[77.77527006896983,26.205775243875067],[77.77621694474786,26.20676328816492],[77.777822516719,26.207545489894443],[77.78033379595601,26.20989209508336],[77.77926341464209,26.21240337432009],[77.77951042571456,26.21544984421449],[77.77893406654547,26.217384764282215],[77.77918107761806,26.220966424833378],[77.77864588696085,26.221460446978526],[77.77671096689332,26.221707458050744],[77.77584642813909,26.22269550234104],[77.7809101551251,26.22290134490146],[77.78230988453615,26.22253082829242],[77.78403896204352,26.22253082829242],[77.78663257830468,26.222942513413358],[77.78799113920374,26.223971726215453],[77.78799113920374,26.22479509645703],[77.7895555426625,26.22487743348117],[77.790255407368,26.224218737287927],[77.79247850702055,26.225906646283434],[77.79375473089502,26.2284590940326],[77.79778924507926,26.23175257499912],[77.79783041359153,26.23479904489325],[77.80050636687659,26.236404616864547],[77.80083571497303,26.239368749734453],[77.80240011843236,26.24134483831442],[77.80404685891583,26.24286807326149],[77.80528191427803,26.24484416184137],[77.80499373469357,26.24583220613121],[77.80643463261632,26.249413866682644],[77.80610528451987,26.250854764605222],[77.80548775683874,26.252089819967836],[77.80487022915727,26.25262501062504],[77.80396452189157,26.252789684673303],[77.80561126237475,26.25324253830604],[77.80515840874213,26.254024740035646],[77.80849305822053,26.253489549378784],[77.80622879005617,26.255218626886276],[77.80594061047171,26.256618356296954],[77.803182320162,26.257606400586994],[77.80519957725411,26.258635613388904],[77.80614645303186,26.258265096780306],[77.80721683434612,26.256247839688186],[77.80816371012392,26.25530096391023],[77.80956343953486,26.254765773253183],[77.81059265233685,26.256247839688186],[77.81174537067514,26.256865367369713],[77.81288779688552,26.256868798078855],[77.82073725985614,26.26147967143193],[77.82254867438738,26.261644345480377],[77.82754378718707,26.266474784231235],[77.82990411521288,26.266365001532662],[77.83753401278548,26.27190902782617],[77.8423644515365,26.2708112008373],[77.84538347575594,26.269109569004698]]]]},"properties":{"id":"9474"}}]}