{"type":"FeatureCollection","features":[{"type":"Feature","geometry":{"type":"MultiPolygon","coordinates":[[[[83.10380859375007,23.15031445312499],[83.10367578125013,23.14918945312499],[83.10330859375009,23.149310546874943],[83.10283593749992,23.149560546875122],[83.10243359375008,23.149439453125154],[83.10219140625017,23.149310546874943],[83.1014335937501,23.14918945312499],[83.1011914062502,23.14906054687505],[83.1004843750001,23.148891601562553],[83.1003085937501,23.148564453124962],[83.10025000000027,23.14774999999993],[83.09955859375006,23.147810546875007],[83.0993164062501,23.14793945312512],[83.09855859375008,23.148060546875087],[83.09831640625018,23.148189453125113],[83.09781640625019,23.148425781250182],[83.09769531250024,23.151452148437528],[83.09919140625018,23.15281054687499],[83.1054414062501,23.15268945312512],[83.10593359375011,23.152310546875015],[83.10655859375024,23.15216113281255],[83.10644140625007,23.151810546875126],[83.10593359375011,23.151689453125158],[83.10519140624993,23.15106054687506],[83.10426953125003,23.15091308593756],[83.10380859375007,23.15031445312499]]]]},"properties":{"id":"19889"}}]}