{"type":"FeatureCollection","features":[{"type":"Feature","geometry":{"type":"MultiPolygon","coordinates":[[[[79.69341362847265,25.288193901909736],[79.69657931857674,25.286740993923715],[79.69765353732694,25.28599066840289],[79.69804796006989,25.284714626736246],[79.69964029947951,25.28441731770836],[79.70027018229203,25.284001193576415],[79.69778537326422,25.282739800347343],[79.70037923177122,25.28164550781254],[79.69991916232695,25.280285373263908],[79.69881293402838,25.28088650173615],[79.69744357638925,25.28080512152779],[79.69750868055613,25.279715711805537],[79.69721082899352,25.279167751736225],[79.69763888888949,25.27819444444448],[79.69665907118119,25.27832573784721],[79.69583604600732,25.27890028211813],[79.69440646701426,25.278387586805792],[79.69445583767416,25.279221462673704],[79.69530219184063,25.279977213541812],[79.69497667100725,25.280576714409776],[79.69501139322975,25.281165907118094],[79.69615397135456,25.28218641493065],[79.69603027343814,25.283325737847377],[79.69490831163253,25.282069769965318],[79.69439561632001,25.283187391493087],[79.69470486111149,25.284875759548854],[79.69357042100731,25.284455295138983],[79.69363552517419,25.285548502604158],[79.69184461805602,25.287296549479237],[79.69079915364622,25.286921657986184],[79.69012424045175,25.286961805555634],[79.69072862413256,25.28807400173629],[79.68924207899354,25.287985568576474],[79.68861870659762,25.288452148437543],[79.69000759548649,25.28888129340288],[79.69162868923658,25.289761827257067],[79.69341362847265,25.288193901909736]]]]},"properties":{"id":"19034"}}]}