{"type":"FeatureCollection","features":[{"type":"Feature","geometry":{"type":"MultiPolygon","coordinates":[[[[108.4489476860887,12.786852077908307],[108.44878221299834,12.786666666667017],[108.44765753851883,12.786876627604542],[108.4411986626508,12.794458279080331],[108.44086093478651,12.798056911892772],[108.43921515570653,12.80018052842918],[108.44068461100184,12.800855034722574],[108.44383755153976,12.803672146267772],[108.44502434624476,12.806257866753938],[108.4458471001511,12.80663547092054],[108.44587422688713,12.807090521918752],[108.44476230197395,12.807797851562768],[108.44601230197398,12.80809109158028],[108.44696879068923,12.806330973307638],[108.44523973252964,12.803677300347502],[108.44533142089736,12.802139485677415],[108.44494215223429,12.800317925347557],[108.44610209147035,12.796562364366679],[108.44764695909183,12.795722791883946],[108.44959058973419,12.795270589193095],[108.45033331976927,12.794606797960455],[108.45150221082795,12.792060139974268],[108.45360941568904,12.790530870226021],[108.45407545301546,12.78835001627641],[108.45029534233836,12.78747043185804],[108.4489476860887,12.786852077908307]]]]},"properties":{"id":"10451"}}]}