{"type":"FeatureCollection","features":[{"type":"Feature","geometry":{"type":"MultiPolygon","coordinates":[[[[83.16064344618044,22.928523084852586],[83.1604166666668,22.928194444444543],[83.1592618815105,22.92832573784736],[83.1591314019096,22.92890760633692],[83.16067138671886,22.92994466145852],[83.16157877604186,22.931338026258956],[83.16221191406262,22.933030056423732],[83.1635736762154,22.932760687934177],[83.16440863715289,22.932184109158342],[83.16335883246538,22.93025227864598],[83.16191894531264,22.930025499132142],[83.16133327907997,22.928999294705108],[83.16064344618044,22.928523084852586]]]]},"properties":{"id":"19991"}}]}