{"type":"FeatureCollection","features":[{"type":"Feature","geometry":{"type":"MultiPolygon","coordinates":[[[[102.56072536892364,14.712646009657234],[102.56220486111116,14.711511603461673],[102.5644886610244,14.711602138943277],[102.5673052300348,14.710864088270611],[102.56913492838541,14.709132995605657],[102.56779378255217,14.70718366834862],[102.56330702039926,14.70914930555567],[102.55953260633672,14.711537814670336],[102.55893066406239,14.711513943142478],[102.55859022352413,14.709022488064406],[102.55747911241335,14.707466328938935],[102.55831597222235,14.706250000000125],[102.55747911241335,14.704835238986888],[102.55913492838553,14.703940667046638],[102.55761257595489,14.702777777778024],[102.55479139539935,14.70373799641942],[102.55330539279501,14.702715386284893],[102.55188042534715,14.703214823405176],[102.55194118923609,14.704747111002874],[102.55414577907973,14.707355821397769],[102.5547664388022,14.708590020073927],[102.55576199001743,14.708063252767175],[102.55495659722234,14.706541442871199],[102.55498508029504,14.705823194715848],[102.55594075520835,14.706328904893851],[102.55660047743046,14.708411933051465],[102.55723334418414,14.70960839165592],[102.55717990451384,14.710957438151226],[102.55819227430547,14.712870246039756],[102.55899902343762,14.713251105414642],[102.56072536892364,14.712646009657234]]]]},"properties":{"id":"22315"}}]}