{"type":"FeatureCollection","features":[{"type":"Feature","geometry":{"type":"MultiPolygon","coordinates":[[[[101.61096693250548,16.60218858506981],[101.61010443793086,16.600935058594033],[101.60879814995351,16.600986870659966],[101.60819973415502,16.599966362847482],[101.6095037163598,16.597758246528002],[101.60712551540476,16.596060112847496],[101.60541707356478,16.59737006293429],[101.60458862304361,16.596838650173922],[101.6062552897105,16.594866536458653],[101.60687445746228,16.59363525390647],[101.60776353623808,16.592811414930765],[101.6102311197885,16.594084743923943],[101.61272230359921,16.59404758029541],[101.61382283528363,16.594629991319707],[101.61521389431127,16.594574924045418],[101.61568915472796,16.593971896701618],[101.61504191080436,16.592748752170536],[101.6136319986949,16.59324300130247],[101.61184122721036,16.59277370876768],[101.61094997829562,16.590390082465575],[101.61013414170716,16.590422363281547],[101.60918551974507,16.589769422743373],[101.60847222221904,16.59014702691006],[101.60781046549184,16.5897968207468],[101.60822631835626,16.586607259114913],[101.61072170681106,16.58372992621551],[101.61158121744492,16.58144205729195],[101.6130950249536,16.58197265625033],[101.61346693250547,16.580411241319723],[101.61404391818249,16.579573025173815],[101.61401217990132,16.57877387152807],[101.61432115342578,16.57789279513915],[101.61429036458034,16.577116427951722],[101.6124389648406,16.57484157986147],[101.6106420898407,16.57482042100716],[101.60927544487535,16.57270426432322],[101.60931722004895,16.571650661892775],[101.61354641384244,16.570582139757192],[101.61501858181103,16.569453125000223],[101.61744547525714,16.56850830078163],[101.61822048610784,16.569344618055723],[101.6182065158388,16.571137152778164],[101.62085205077827,16.56979437934065],[101.62152248806095,16.56869411892383],[101.61925577799153,16.56653266059054],[101.61929416232326,16.56443413628493],[101.62362698024859,16.562271050347533],[101.6246203613251,16.561199001736412],[101.62513359917207,16.559577907986508],[101.62685221353846,16.557644314236413],[101.62935750325218,16.559330512152997],[101.62985582139439,16.56046332465307],[101.62853936089087,16.562376302083578],[101.62967461479744,16.56385687934055],[101.63063151041345,16.56335042317741],[101.63097832573479,16.561172960069626],[101.63250962998805,16.559753960503684],[101.63124471028326,16.55819986979192],[101.63069973415477,16.556974283854387],[101.63409586588219,16.555109592014162],[101.63485582139438,16.55424967447948],[101.63401163736663,16.552654079861355],[101.63433173285264,16.552049153646095],[101.63427381727107,16.550588650173893],[101.633362358938,16.548866102430964],[101.63403320312196,16.545621744791973],[101.63463921440658,16.545144314236353],[101.63623413085648,16.545988226996826],[101.63823676214983,16.54662217881969],[101.63814236110792,16.544241536458657],[101.64007703992755,16.5424490017364],[101.64262166340856,16.541739637587114],[101.64535536023985,16.54020670572949],[101.64819973415482,16.53986653645869],[101.65036064995357,16.538040364583736],[101.6506891547277,16.537406412760873],[101.64741631401611,16.53278211805585],[101.6420578341982,16.535721028646293],[101.64089843749682,16.53567491319474],[101.63898356119475,16.537633463541894],[101.63764417859934,16.534577907986474],[101.63714870876422,16.53403320312526],[101.63569973415494,16.53514431423646],[101.63424967447597,16.53541124131975],[101.63313734266174,16.53482286241362],[101.63236640082167,16.53318901909742],[101.63048868814795,16.531024034288393],[101.62999999999678,16.52916666666691],[101.62901326497072,16.529354926215575],[101.62899156358188,16.531747233073162],[101.62764417859952,16.535699869791983],[101.62539808484925,16.538509928385707],[101.6243010796409,16.538466525607888],[101.62319973415495,16.538962402344097],[101.62440063476245,16.540528428819883],[101.62846421983207,16.540367567274558],[101.63048326280088,16.53881917317753],[101.63235582139438,16.54057915581626],[101.62959079318276,16.54285129123288],[101.62879245333883,16.54454291449683],[101.62762939452799,16.54597195095525],[101.62879435221046,16.547491319444845],[101.6287297905786,16.549120279948212],[101.62758300780925,16.55013346354187],[101.62637003580417,16.549491644965713],[101.62537584092573,16.55017605251767],[101.62457804361665,16.55180013020859],[101.6243104383648,16.554314507378706],[101.62347113714955,16.554020182291907],[101.62285766601238,16.554344889323303],[101.62293294270515,16.556242947048787],[101.62081054687187,16.558643663194843],[101.617990315752,16.55815266927128],[101.61911499023134,16.55998942057326],[101.61867106119487,16.560828179253733],[101.61729804144639,16.561263020833536],[101.61621093749696,16.562387152778044],[101.61517144096919,16.56234592013932],[101.61394178602129,16.562668185764267],[101.61347751193276,16.563241102430723],[101.61460978189811,16.56488661024332],[101.61457343207158,16.565806477864854],[101.61234524196752,16.566511773003853],[101.61054158528324,16.56746636284747],[101.60930555555248,16.56651855468779],[101.60706312391167,16.568100314670332],[101.60710978189778,16.569280056423864],[101.60639200846052,16.57032335069475],[101.60485582139452,16.570689019097514],[101.60403306748813,16.571184624566357],[101.60514417859932,16.57263346354199],[101.60600355359921,16.57498182508712],[101.60858520507517,16.577373860677355],[101.60914781358181,16.579150933159937],[101.60873752169837,16.580716688368454],[101.60938164604735,16.58193413628497],[101.6090608723928,16.582633463541967],[101.60688354491876,16.5807937282988],[101.6053887261252,16.577323676215514],[101.60427910698482,16.577367621528154],[101.6037353515595,16.578519694010808],[101.60376180012693,16.579187825521103],[101.60477728949346,16.579667154948183],[101.60652248806102,16.58301350911485],[101.60561577690666,16.58647352430583],[101.6040949164466,16.5884570312502],[101.60486640082175,16.58957790798634],[101.60513359917209,16.590541178385706],[101.60402208116008,16.592356499566193],[101.60401909721898,16.59410698784754],[101.60135986327813,16.59567030164959],[101.6019881184865,16.59685736762178],[101.60087660047449,16.598307020399503],[101.60137464734922,16.599248046875275],[101.60065511067396,16.601301269531703],[101.60132636175896,16.60180013020873],[101.60300184461491,16.599991861979447],[101.60349704318256,16.601041395399534],[101.60346462673286,16.601858181423864],[101.60406928168098,16.602355685764067],[101.60485582139452,16.60068901909753],[101.6059775119326,16.59931098090304],[101.6062462022538,16.598462185330106],[101.60683213975372,16.598772243924017],[101.60674655490138,16.600932074653116],[101.60930026583893,16.603199869791993],[101.60990858289611,16.603486870659964],[101.61063151041353,16.603458116319715],[101.61096693250548,16.60218858506981]]]]},"properties":{"id":"5107"}}]}