{"type":"FeatureCollection","features":[{"type":"Feature","geometry":{"type":"MultiPolygon","coordinates":[[[[76.31469140624998,23.079310546875107],[76.3145000000001,23.079000000000136],[76.31380859374988,23.079060546875027],[76.31356640624998,23.079189453124968],[76.31305859375013,23.079310546875107],[76.31256640625,23.079689453125127],[76.31230859375003,23.07981054687518],[76.31181640625013,23.0801894531252],[76.30982031250002,23.08032617187503],[76.30980468750008,23.080680664062555],[76.31005859375003,23.081162109375143],[76.30994140625015,23.08231445312508],[76.30980859375015,23.082560546875072],[76.3096914062501,23.082814453125152],[76.30955859375004,23.083060546875146],[76.30939062500002,23.083766601562488],[76.30906640624997,23.083939453125154],[76.30819140625013,23.08407910156258],[76.30830859375001,23.084439453125043],[76.30879296875023,23.084667968750125],[76.30919140625011,23.08518554687511],[76.30930859375016,23.085689453125084],[76.31001562500003,23.08585839843758],[76.31019140624997,23.086185546874987],[76.31041796875027,23.086670898437575],[76.31080859375012,23.086939453125126],[76.31156640625014,23.08706054687508],[76.31203515625,23.087308593750038],[76.31268359374988,23.086810546875],[76.31542968750009,23.086678710937633],[76.31553515624998,23.08399316406262],[76.31530859375013,23.08356445312512],[76.31519140625014,23.083310546874955],[76.31505859375002,23.083064453125132],[76.31494140625014,23.08031054687507],[76.31480859375014,23.080064453125075],[76.31469140624998,23.079310546875107]]]]},"properties":{"id":"19921"}}]}