{"type":"FeatureCollection","features":[{"type":"Feature","geometry":{"type":"MultiPolygon","coordinates":[[[[105.36995127359918,11.977631022135668],[105.37009192572586,11.976775444878811],[105.36868615044378,11.974501410590563],[105.37014533148752,11.973370768229486],[105.37086825900494,11.973763563368394],[105.37161295572778,11.972929958767665],[105.37222503662,11.972893608941234],[105.37299238416753,11.973992241753777],[105.37251868353823,11.974863823785029],[105.37308295355766,11.975368109809352],[105.37360948350576,11.977073025173965],[105.37421993679365,11.977109375000325],[105.37537438286566,11.975817328559458],[105.37658586290044,11.975046929253864],[105.37722208658741,11.973876139323266],[105.37727884928248,11.972923719618379],[105.37541720920032,11.971042480469038],[105.37456943087997,11.970581868489802],[105.37249426947565,11.969718695746835],[105.37167626274842,11.970163302951661],[105.37063693576275,11.969000108507174],[105.36983201768552,11.969048122830088],[105.36623284233835,11.966822916667113],[105.36316189235973,11.965484754774621],[105.36141330295013,11.963480088976013],[105.3612822129979,11.963055555555854],[105.35990532768963,11.963239746094146],[105.36061781141373,11.965547146267653],[105.36219974093856,11.96696044921913],[105.36262383354946,11.96814236111139],[105.36213117811283,11.969737955729428],[105.35955624050453,11.97123697916689],[105.35880032009445,11.973116861979506],[105.36078314887018,11.973885904948105],[105.36361599392242,11.97705647786485],[105.36467349582134,11.977631022135668],[105.36500691731666,11.976646321614993],[105.36423288980987,11.974489203559344],[105.36567749023331,11.973480088975904],[105.36694552951266,11.973922526041989],[105.36702585855991,11.975269911024597],[105.36662811279169,11.976755099826676],[105.36727562798282,11.977106933594044],[105.36881754557166,11.977014973958674],[105.36995127359918,11.977631022135668]]]]},"properties":{"id":"10502"}}]}