{"type":"FeatureCollection","features":[{"type":"Feature","geometry":{"type":"MultiPolygon","coordinates":[[[[83.11387613932308,24.056679484049752],[83.11347222222233,24.055972222222508],[83.11284749348951,24.056155531141755],[83.11194417317719,24.05856709798202],[83.11001274956593,24.059758436415265],[83.1104991319443,24.06078511556025],[83.11353027343748,24.061094089084435],[83.11406005859365,24.058120456271922],[83.11498725043404,24.057350463867408],[83.11387613932308,24.056679484049752]]]]},"properties":{"id":"19431"}}]}