{"type":"FeatureCollection","features":[{"type":"Feature","geometry":{"type":"MultiPolygon","coordinates":[[[[104.7543001302054,15.908041178385787],[104.7539236111082,15.906291775173798],[104.75125542534445,15.904514431423848],[104.7537445746498,15.902668457031481],[104.75305826822623,15.90043701171895],[104.75042209201112,15.898503689236307],[104.75132758246238,15.897437879774472],[104.75402235242782,15.896303710937758],[104.75335177951106,15.895205349392569],[104.75162814669844,15.894391818576707],[104.75042209201112,15.893466796875245],[104.74784125433732,15.893055826823215],[104.74553873697639,15.891367187500265],[104.74488389756667,15.887936740451522],[104.7416666666638,15.886388888889144],[104.74058756510132,15.886594780816196],[104.73957465277485,15.887915581597397],[104.74009548610829,15.888899468316154],[104.74016384548324,15.890625271267638],[104.73980523003203,15.891993001302282],[104.74236653645536,15.898189019097472],[104.74273600260139,15.90012613932322],[104.74372775607364,15.900165473090482],[104.74403320312226,15.899588758680835],[104.74441677517078,15.89717963324675],[104.7456385633653,15.896533203125145],[104.74643988714988,15.897241210937793],[104.74761393228877,15.899459635416832],[104.74651963975421,15.901527777777943],[104.7470779079832,15.902583007812666],[104.74653320312225,15.903477647569616],[104.74486653645536,15.904033203125309],[104.7420887586778,15.90432861328155],[104.74235568576105,15.905422092014092],[104.74318901909422,15.906194118923864],[104.74256673176794,15.907630750868293],[104.7416628689206,15.908944227430752],[104.74243055555277,15.909350585937773],[104.74436848958041,15.90873697916686],[104.74589301214999,15.907092013889184],[104.7470779079832,15.907045084635811],[104.74681098089982,15.908199869791929],[104.7456998697887,15.909229329427248],[104.74930013020551,15.91066867404541],[104.74903320312197,15.911533203125288],[104.74792209201112,15.913147786458623],[104.74880262586512,15.914577907986413],[104.74962239583064,15.913062065972369],[104.75072157117782,15.912352159288432],[104.75067816839984,15.911260308159996],[104.75127658419845,15.910391167534925],[104.75123426649023,15.909325358073175],[104.75207790798336,15.908744574652971],[104.7543001302054,15.908041178385787]]]]},"properties":{"id":"10273"}}]}