{"type":"FeatureCollection","features":[{"type":"Feature","geometry":{"type":"MultiPolygon","coordinates":[[[[76.79501425454717,25.518938337995664],[76.79634494929721,25.51779774249566],[76.79739049517227,25.516086849245653],[76.79938653729707,25.51570665074567],[76.8026182245467,25.514851204120845],[76.80508951479672,25.513900707870704],[76.80765585467176,25.51266506274608],[76.81117269079684,25.511714566495755],[76.80756080504685,25.51076407024604],[76.80518456442181,25.51085911987093],[76.80043208317201,25.511999715370834],[76.7992914876722,25.511714566495755],[76.79796079292217,25.51104921912105],[76.79720039592198,25.509053176995863],[76.79862614029688,25.506771985995755],[76.79976673579696,25.505346241621197],[76.799861785422,25.5039204972462],[76.80166772829708,25.502494752871016],[76.80394891929674,25.501829405496395],[76.80394891929674,25.50097395887113],[76.8013825794221,25.50097395887113],[76.79957663654685,25.500403661121126],[76.799861785422,25.499738313746064],[76.80214297642195,25.49907296637126],[76.80176277792205,25.49745712274641],[76.80746575542153,25.49574622949622],[76.80908159904666,25.495175931746402],[76.80803605317166,25.49451058437134],[76.8020479267968,25.4940353362463],[76.80242812529704,25.492989790371354],[76.80242812529704,25.492039294121568],[76.79767564404679,25.493274939246277],[76.79720039592198,25.49051850012141],[76.79567960192222,25.488807606871575],[76.79596475079725,25.48728681287143],[76.79254296429704,25.486146217371513],[76.79140236879712,25.486526415871566],[76.78997662442222,25.4896630534964],[76.7861746394224,25.49175414524639],[76.78246770404749,25.494225435496418],[76.77980631454759,25.4995482144963],[76.77885581829744,25.504205646121022],[76.77967135959219,25.50728434244823],[76.77975640191019,25.508342285156502],[76.7834799533421,25.5138720703126],[76.78489705403675,25.51509304470494],[76.7867704264327,25.515657009548917],[76.78891533745687,25.517177734375082],[76.79028808593782,25.517489691840453],[76.79091295030403,25.518104926215628],[76.79190077039962,25.518025716146184],[76.79358851017233,25.519413586120606],[76.79501425454717,25.518938337995664]]]]},"properties":{"id":"1747"}}]}