{"type":"FeatureCollection","features":[{"type":"Feature","geometry":{"type":"MultiPolygon","coordinates":[[[[108.38949428982116,12.63469997829894],[108.38933776855364,12.634166666667014],[108.38884921603628,12.634572482639214],[108.389153306748,12.637556694878853],[108.38810051811961,12.638013237847531],[108.38844529893552,12.640937771267758],[108.38926886664396,12.641021864149664],[108.38992858886607,12.639870062934364],[108.38942674424825,12.638074544271191],[108.38977342393557,12.637274848090541],[108.39075839572368,12.636456434462204],[108.38949428982116,12.63469997829894]]]]},"properties":{"id":"22853"}}]}