{"type":"FeatureCollection","features":[{"type":"Feature","geometry":{"type":"MultiPolygon","coordinates":[[[[71.55088392469602,32.948410780165176],[71.54963324652769,32.94501654730924],[71.54844495985233,32.94307603624149],[71.54693874782973,32.93778184678854],[71.5470391167535,32.926917724609595],[71.5466210937499,32.92472805447069],[71.54361355251731,32.92174031575533],[71.54280422634545,32.91918416341167],[71.53999511718749,32.919172363281376],[71.53947998046866,32.918616400824774],[71.53782904730909,32.91935601128493],[71.53598687065963,32.92134426540814],[71.5331552463106,32.92143446180579],[71.53023410373251,32.91929185655398],[71.52882853190098,32.91711534288211],[71.5276388888889,32.91597222222248],[71.52596530490453,32.91667656792556],[71.52304782443585,32.91852267795157],[71.51778306749114,32.92100735134562],[71.51815782335055,32.92232923719645],[71.5201877170139,32.92564453125014],[71.52123602973089,32.92804646809911],[71.52181043836791,32.9313454861113],[71.52084120008661,32.93327243381093],[71.52070692274319,32.93666015625013],[71.52221435546866,32.93966132269979],[71.52218655056404,32.94242838541679],[71.52399061414931,32.944375542534914],[71.52675957573771,32.945317518446416],[71.53031534830743,32.94612616644973],[71.53105550130195,32.94609673394112],[71.53273464626741,32.94675062391502],[71.53647786458319,32.94911159939254],[71.53781114366333,32.95117621527791],[71.54417195638021,32.955550265842234],[71.54445515950508,32.95615030924493],[71.55056084526925,32.95999471028671],[71.55269354926205,32.96179701063389],[71.55755330403647,32.9640207248265],[71.5613453504773,32.96611233181446],[71.56837619357631,32.96721693250893],[71.56985080295138,32.9669253200957],[71.57056437174467,32.96388414171021],[71.56774319118912,32.96343478732656],[71.56360582139737,32.961949734158125],[71.56333862304669,32.961661376953344],[71.56205037434884,32.96135443793425],[71.5577724880641,32.95833862304718],[71.55671427408865,32.95729695638049],[71.55538235134534,32.9545833333335],[71.55194973415806,32.94943915473104],[71.55088392469602,32.948410780165176]],[[71.52332302517348,32.93193413628488],[71.52375000000009,32.93180555555571],[71.52389417860249,32.9322844780818],[71.52543267144088,32.93385796441005],[71.52620402018229,32.93541558159737],[71.52667860243074,32.93582438151057],[71.52665473090283,32.936120062934194],[71.5298151312933,32.93947550455749],[71.53114841037316,32.94248033311645],[71.53089070638,32.94276746961813],[71.52815416124147,32.94217054579008],[71.52722995334213,32.94165486653665],[71.52544704861091,32.941270073784935],[71.52379950629333,32.93990722656275],[71.52306586371523,32.937211914062544],[71.52276746961789,32.936954752604365],[71.52251030815981,32.934655626085245],[71.52306586371523,32.93417697482671],[71.52332302517348,32.93193413628488]],[[71.5415066189237,32.93599338107656],[71.54082845052065,32.93526150173632],[71.54001654730908,32.935293646918566],[71.53833509657122,32.931376003689365],[71.53755981445298,32.93221272786465],[71.53392008463541,32.929814588758944],[71.5338945855033,32.92777289496546],[71.53334025065104,32.927259250217205],[71.53332722981767,32.92692762586816],[71.53416056315129,32.92696072048622],[71.53415473090266,32.92567192925365],[71.53508612738702,32.92616482204876],[71.53680555555567,32.92541666666685],[71.53790676540805,32.92618570963553],[71.53861640082451,32.92721693250884],[71.53893703884555,32.92856296115464],[71.54059773763035,32.92895846896718],[71.5411440700955,32.92946478949668],[71.54166137695293,32.93056084526923],[71.54384277343732,32.93314222547757],[71.54396145290806,32.93613755967904],[71.54353176540806,32.937494710286586],[71.54221327039934,32.93703070746561],[71.54222791883674,32.936661783854305],[71.5415066189237,32.93599338107656]],[[71.53835123697908,32.921438395182435],[71.54152777777782,32.92069444444462],[71.54267849392366,32.92127265082482],[71.5430376519096,32.9224256727432],[71.54115329318606,32.92275987413217],[71.5387037489148,32.92179687500017],[71.53835123697908,32.921438395182435]]]]},"properties":{"id":"4611"}}]}