{"type":"FeatureCollection","features":[{"type":"Feature","geometry":{"type":"MultiPolygon","coordinates":[[[[75.57222513834617,24.66778045654354],[75.57221930609776,24.667497253418418],[75.58361389160146,24.66250278049091],[75.58894137912333,24.65970913357249],[75.59030280219159,24.65971320258322],[75.59114386664467,24.658837788900257],[75.59419372558571,24.65749206543036],[75.59474053276907,24.657503221300445],[75.5999733479816,24.65500111897849],[75.60166944715704,24.654725002713263],[75.60220187717007,24.654170803494395],[75.6042898220484,24.653265686035724],[75.60486070421015,24.65150638156544],[75.60749945746542,24.64897108289985],[75.60969977484777,24.64752851698202],[75.6152805582681,24.64722500271337],[75.61810963246862,24.646561850391876],[75.62487792968764,24.64813804626462],[75.63837432861331,24.64899826049816],[75.64289093017587,24.647613525390696],[75.65390014648457,24.63602066040059],[75.66833496093753,24.611383438110565],[75.67809295654322,24.603372573852752],[75.68173217773463,24.59658622741709],[75.68309020996114,24.58965873718266],[75.68178558349624,24.58489608764667],[75.67918395996097,24.58246803283693],[75.6746292114261,24.582601547241254],[75.66671752929702,24.59118461608891],[75.66461944580092,24.5899925231935],[75.66312408447274,24.579809188842972],[75.65972137451175,24.580326080322465],[75.6579513549805,24.582048416137667],[75.65496063232425,24.594451904297074],[75.65127563476565,24.59998703002941],[75.64512634277364,24.606845855713004],[75.63909912109384,24.610778808593878],[75.63296508789077,24.611583709716882],[75.63434600830115,24.59213066101087],[75.64237213134768,24.567058563232422],[75.64138793945327,24.558320999145593],[75.64556884765639,24.5540256500244],[75.64617156982425,24.55150222778329],[75.6463851928714,24.54460906982419],[75.6417007446291,24.528047561645636],[75.64035034179713,24.515356063842987],[75.64231872558636,24.513002395629854],[75.64755249023469,24.512639999389734],[75.66831207275422,24.519544601440643],[75.6702346801761,24.51573181152351],[75.66615295410159,24.509799957275447],[75.62414550781287,24.495164871215977],[75.6224746704103,24.492918014526467],[75.62606811523429,24.491353988647433],[75.63226318359395,24.4924259185791],[75.6349945068362,24.485876083374222],[75.64318084716811,24.478748321533203],[75.64175415039077,24.470441818237433],[75.63459014892604,24.474199295044016],[75.62780761718764,24.469179153442397],[75.61913299560561,24.46880531311038],[75.61505126953134,24.462663650512866],[75.6070251464844,24.46143531799335],[75.60576629638686,24.457923889160213],[75.6067962646487,24.44808578491225],[75.61955261230489,24.44124603271483],[75.62124633789077,24.43096923828125],[75.62680816650416,24.427051544189453],[75.62663269042989,24.42204856872577],[75.62144470214858,24.423450469970717],[75.61842346191432,24.4218692779542],[75.62584686279334,24.41247177124042],[75.62776947021504,24.4021892547609],[75.62606048583976,24.392221450805778],[75.62671661376956,24.384899139404297],[75.63563537597699,24.379421234130902],[75.63867187500003,24.37495040893552],[75.63723754882844,24.373113632202134],[75.62500000000003,24.376111984253043],[75.6191558837892,24.376979827880945],[75.61541748046889,24.380844116211065],[75.60647583007821,24.399051666259794],[75.59429931640628,24.41588973999032],[75.59140777587899,24.417852401733484],[75.58930206298837,24.416242599487404],[75.58354187011733,24.400966644287237],[75.57999420166018,24.40398979187009],[75.58008575439479,24.419847488403406],[75.5779190063478,24.423248291015724],[75.57399749755851,24.428371429443516],[75.57005310058608,24.446432113647518],[75.56595611572291,24.446548461914276],[75.55841064453134,24.43904304504396],[75.55240631103541,24.436710357666215],[75.54924011230483,24.437427520752195],[75.54801177978541,24.441427230834975],[75.55009460449233,24.449298858642777],[75.53997039794953,24.45981407165536],[75.53804779052766,24.458841323852525],[75.53485870361382,24.443471908569308],[75.54029083251962,24.43559455871592],[75.53539276123078,24.432186126709055],[75.53269958496125,24.419950485229577],[75.53055572509774,24.41708946228036],[75.52816009521499,24.4202880859376],[75.52803802490237,24.430309295654396],[75.51889801025393,24.42952537536634],[75.51037597656276,24.433521270752024],[75.50635528564462,24.42925262451182],[75.51155090332063,24.42096710205088],[75.51164245605472,24.416999816894588],[75.50649261474612,24.412763595581026],[75.50569152832057,24.409238815307774],[75.51595306396499,24.389331817626996],[75.51609039306643,24.386615753173828],[75.51445770263726,24.38540840148933],[75.4963378906252,24.395311355590792],[75.49270629882827,24.395622253418097],[75.48966217041053,24.393203735351662],[75.4922790527344,24.389791488647617],[75.50456237792989,24.382349014282383],[75.50893402099629,24.377008438110423],[75.50705718994143,24.375392913818303],[75.49729156494166,24.37608528137217],[75.4935989379886,24.374519348144545],[75.4904937744142,24.370225906372127],[75.48950958251967,24.361280441284165],[75.49256896972659,24.357437133789247],[75.50182342529328,24.354881286621108],[75.5044555664065,24.352094650268867],[75.50471496582045,24.34624481201169],[75.49842071533229,24.334945678711037],[75.4990081787112,24.332006454467844],[75.48963165283217,24.33081054687507],[75.48541259765628,24.33385086059586],[75.48195648193362,24.339580535888828],[75.47628784179702,24.340158462524528],[75.47226715087922,24.335680007934783],[75.47221374511744,24.320240020751953],[75.46846771240249,24.317214965820597],[75.46009826660176,24.318700790405487],[75.45315551757838,24.322231292724865],[75.44293212890645,24.323539733886776],[75.44062805175795,24.321954727173065],[75.43665313720723,24.304744720459112],[75.43397521972682,24.29960250854488],[75.42766571044936,24.294353485107564],[75.40658569335946,24.297021865844812],[75.4023818969728,24.300683975220025],[75.39753723144551,24.312709808349794],[75.38824462890668,24.31379890441903],[75.37352752685538,24.309192657470803],[75.37068176269545,24.305515289306598],[75.36968994140645,24.2959442138672],[75.37050628662124,24.286115646362276],[75.37539672851577,24.275341033935646],[75.37950897216834,24.26896858215349],[75.4060745239261,24.24633216857923],[75.40685272216822,24.24234580993658],[75.40634918212893,24.240692138671946],[75.40070343017581,24.242097854614357],[75.38449096679724,24.25422668457047],[75.37940216064479,24.25144577026373],[75.37950134277352,24.247478485107507],[75.40359497070315,24.21197509765622],[75.39726257324222,24.213191986084112],[75.38176727294925,24.226133346557674],[75.37331390380885,24.246185302734503],[75.3704605102541,24.24939346313495],[75.36841583251956,24.2494487762454],[75.36026000976565,24.229223251343043],[75.35482025146504,24.22269439697267],[75.35181427001956,24.221107482910284],[75.35028076171889,24.230119705200423],[75.35238647460952,24.239034652709876],[75.3657760620118,24.259326934814567],[75.36783599853518,24.26657485961934],[75.36418914794913,24.273559570312727],[75.36010742187531,24.273878097534293],[75.352722167969,24.27074050903329],[75.34771728515628,24.27066802978544],[75.34622192382838,24.273838043213104],[75.35311126709004,24.282831192016616],[75.35322570800784,24.286375045776396],[75.3507919311526,24.28852844238294],[75.34546661376979,24.28575134277365],[75.34275817871125,24.28644943237302],[75.34216308593753,24.289178848266758],[75.35178375244166,24.305192947387752],[75.3517227172853,24.31041145324737],[75.34996795654322,24.312545776367216],[75.30665588378932,24.3103733062746],[75.29563903808625,24.307329177856545],[75.2916641235353,24.303888320922937],[75.28514862060578,24.29216766357436],[75.2823486328127,24.289947509765838],[75.27896118164065,24.290662765503143],[75.27812957763686,24.293397903442468],[75.28763580322268,24.30608177185077],[75.28229522705081,24.30997848510755],[75.27349090576175,24.31229972839357],[75.25658416748072,24.310241699218935],[75.25170898437543,24.307031631469812],[75.2488327026368,24.295005798339872],[75.24428558349635,24.29512596130381],[75.237174987793,24.30073738098153],[75.23142242431695,24.298593521118207],[75.22666931152335,24.299551010131978],[75.23146057128909,24.307146072387894],[75.23742675781276,24.30886840820328],[75.24005889892592,24.31297111511242],[75.23851013183597,24.314474105835146],[75.22730255126962,24.312471389770693],[75.21751403808585,24.312519073486513],[75.21015167236354,24.30978965759286],[75.20355224609389,24.309961318969783],[75.19908905029322,24.31278991699226],[75.2324371337892,24.31671905517578],[75.23798370361337,24.319286346435632],[75.24559020996102,24.32972717285169],[75.24796295166047,24.325700759887667],[75.24907684326203,24.31753349304209],[75.26677703857436,24.32311820983884],[75.28203582763686,24.323339462280273],[75.29188537597682,24.318279266357635],[75.30516052246097,24.320636749267678],[75.3212814331055,24.31937026977546],[75.32459259033229,24.323246002197394],[75.32152557373055,24.327083587646555],[75.31503295898452,24.330389022827134],[75.29914855957051,24.331855773925938],[75.29534912109389,24.334253311157354],[75.30684661865243,24.337911605835117],[75.3143463134767,24.337501525879077],[75.32196044921906,24.333541870117315],[75.32763671875026,24.332971572875977],[75.32973480224618,24.33458328247073],[75.32607269287124,24.34824562072764],[75.31784057617219,24.354309082031264],[75.31355285644534,24.362770080566577],[75.3104629516603,24.36577415466317],[75.30570220947303,24.36652755737326],[75.30461883544936,24.368227005004854],[75.30846405029322,24.374591827392564],[75.30454254150405,24.380123138427905],[75.30160522460963,24.388130187988352],[75.29354095458987,24.399404525756793],[75.29607391357442,24.40038108825682],[75.30142974853536,24.396900177002024],[75.30709838867202,24.396121978759737],[75.31352233886744,24.397619247436594],[75.31262969970729,24.383871078491367],[75.31449127197268,24.37797927856458],[75.3173675537113,24.375188827514705],[75.32678985595723,24.370761871337862],[75.33051300048854,24.366071701049904],[75.33145904541041,24.35310935974131],[75.3376464843752,24.34709930419936],[75.34050750732442,24.33700561523453],[75.34577941894534,24.331020355224695],[75.3524856567386,24.334178924560646],[75.3551864624026,24.340364456176886],[75.35350799560567,24.344793319702234],[75.34672546386722,24.353322982788114],[75.34951782226577,24.355333328247113],[75.36592102050795,24.348628997802706],[75.38210296630885,24.349023818969755],[75.3867111206055,24.34388923645041],[75.38942718505874,24.343397140503043],[75.39157867431643,24.34646797180207],[75.3914947509767,24.364833831787067],[75.39492034912112,24.37225151062019],[75.39869689941432,24.37632179260258],[75.4090270996094,24.378751754760827],[75.4202651977541,24.374477386474766],[75.42301940917994,24.375026702880902],[75.41873168945338,24.383283615112447],[75.41893005371114,24.389329910278406],[75.4174423217776,24.392499923706254],[75.4101943969728,24.393743515014663],[75.40904998779305,24.40045356750484],[75.40139007568374,24.4100532531738],[75.40171051025405,24.412965774536204],[75.41330718994143,24.412229537963867],[75.41807556152347,24.418777465820327],[75.42128753662118,24.419523239135785],[75.42803955078139,24.417041778564638],[75.43619537353518,24.422658920288214],[75.4414443969728,24.422929763794144],[75.44738769531259,24.41650581359862],[75.47612762451197,24.431354522705348],[75.47307586669947,24.435613632202262],[75.47059631347676,24.436309814453125],[75.45194244384768,24.430360794067667],[75.44921112060555,24.437322616577248],[75.4465484619142,24.43948364257824],[75.43455505371097,24.4429168701174],[75.43198394775416,24.446983337402344],[75.4265594482421,24.44838523864756],[75.42440032958999,24.451992034912422],[75.41206359863301,24.457967758178683],[75.42590332031281,24.46301078796401],[75.43069458007838,24.46329689025893],[75.43918609619149,24.458053588867188],[75.44623565673842,24.457649230957017],[75.45357513427766,24.45911407470713],[75.46197509765639,24.46493148803721],[75.46821594238307,24.474567413330092],[75.46999359130874,24.479944229126076],[75.47044372558608,24.486608505249023],[75.46621704101588,24.496744155883903],[75.46681976318374,24.50111007690444],[75.46823120117219,24.502531051635827],[75.47706604003932,24.500823974609517],[75.51019287109406,24.489248275756808],[75.51856994628932,24.494230270385728],[75.52906799316432,24.52857780456543],[75.53822326660182,24.542926788330263],[75.5495223999026,24.58038330078132],[75.55159759521499,24.600988388061637],[75.54760742187531,24.618007659912138],[75.54682922363313,24.6286754608154],[75.54867553710946,24.63592910766603],[75.55413818359395,24.642244338989343],[75.55947875976582,24.6450138092041],[75.57887268066409,24.644666671753043],[75.59314727783229,24.64154243469234],[75.60500812794416,24.644148894919013],[75.60497361924902,24.646152784559902],[75.60440694173158,24.646697218153847],[75.6018326822913,24.647982652453024],[75.6013834635414,24.648908623589946],[75.5994277615018,24.64889773898713],[75.59889166937901,24.65000278049112],[75.59725667317704,24.651659172906434],[75.59442226833747,24.65257893880259],[75.5913916693793,24.654725002713263],[75.59055277506494,24.654997219510008],[75.58883416069884,24.656301303440458],[75.58692125108482,24.657229342990902],[75.58639166937931,24.65778055826887],[75.584169447157,24.6588916693798],[75.58200771755642,24.65961666531082],[75.57829583062065,24.663086107042602],[75.5744672987195,24.66497653537381],[75.57291625976555,24.666228569879124],[75.5702804226344,24.667502882216382],[75.56989379882808,24.66749501546282],[75.56687696668817,24.67206553141324],[75.56342739529057,24.676643235948944],[75.5624925062389,24.67977762858122],[75.56055277506508,24.683330552843486],[75.56026465521896,24.68421841091633],[75.56026841905353,24.6861538357211],[75.55875556098087,24.689450005425925],[75.55647481282543,24.692166917589446],[75.55445153130395,24.694110853407622],[75.55347527397979,24.697052578396736],[75.55207634819871,24.69878560384184],[75.55388610839819,24.70028055826876],[75.55475212944853,24.700552775065688],[75.55555277506508,24.699719441732412],[75.55645497639946,24.699426676432864],[75.5589953613281,24.697105712891414],[75.55970720079179,24.694185824924617],[75.56137407090912,24.691204020182923],[75.56228054470469,24.687917819553533],[75.56308054606089,24.686328870985875],[75.56389166937916,24.683336113824495],[75.56416388617603,24.679997219510128],[75.56455749511693,24.678847215441095],[75.56539666069884,24.677609286838717],[75.56724724663619,24.673848537869674],[75.56859965006501,24.672549133301374],[75.56942620171426,24.67084540473151],[75.57222513834617,24.66778045654354]]]]},"properties":{"id":"325"}}]}