{"type":"FeatureCollection","features":[{"type":"Feature","geometry":{"type":"MultiPolygon","coordinates":[[[[83.18782031250007,24.23106347656254],[83.1898710937501,24.23094335937506],[83.19030859374996,24.231193359375055],[83.19281640625022,24.231306640625206],[83.19368750000015,24.232055664062614],[83.1938085937501,24.230004882812636],[83.19355859375023,24.22956835937498],[83.19344140625006,24.229056640625203],[83.19305859374995,24.228568359375018],[83.19294140625018,24.228056640625155],[83.1925546875,24.22756640625019],[83.1911835937502,24.227443359375016],[83.1903906250001,24.226760742187622],[83.19019140625002,24.226306640625225],[83.1900585937502,24.226068359375205],[83.18994140625003,24.22580664062515],[83.18975000000015,24.225500000000167],[83.1893085937501,24.225556640625157],[83.18851171875,24.226243164062723],[83.18857812500008,24.226892578125074],[83.18931640625019,24.22705664062501],[83.18980859375009,24.227424804687544],[83.18923046875003,24.22815039062519],[83.18862890625005,24.22830664062505],[83.18819140625018,24.228056640625155],[83.18793359375022,24.22794335937509],[83.18769140625002,24.22780664062516],[83.18657031250027,24.227693359375095],[83.18644140625,24.228818359375182],[83.18525781250005,24.230111328125204],[83.18480859375009,24.230306640625074],[83.18469140625015,24.230426757812467],[83.18556640625005,24.230556640625053],[83.18580859374995,24.230693359374982],[83.18631640625003,24.230806640625133],[83.18666796875013,24.23100683593755],[83.18680859375027,24.231943359375023],[83.18696484375008,24.232216796875136],[83.18739062500006,24.23217285156258],[83.18755859375008,24.231431640625075],[83.18782031250007,24.23106347656254]]]]},"properties":{"id":"19383"}}]}