{"type":"FeatureCollection","features":[{"type":"Feature","geometry":{"type":"MultiPolygon","coordinates":[[[[78.05168750000016,26.138438476562683],[78.05217578124999,26.138188476562505],[78.05281250000016,26.138311523437693],[78.05306250000004,26.138438476562683],[78.05481250000005,26.138561523437502],[78.05506250000016,26.138688476562578],[78.05606250000008,26.13881152343758],[78.05637500000003,26.138971679687444],[78.0566875000001,26.13881152343758],[78.05693750000003,26.138688476562578],[78.05718750000008,26.138561523437502],[78.05793750000018,26.138438476562683],[78.05818750000017,26.138311523437693],[78.05893359375003,26.13812890625009],[78.05894531250001,26.137575195312635],[78.05881250000007,26.13731347656268],[78.05868749999993,26.13706152343765],[78.05835156250001,26.136897460937703],[78.05818750000017,26.136561523437578],[78.05796484375017,26.13612988281247],[78.05843750000017,26.13581152343751],[78.05881250000007,26.135628906250105],[78.05868749999993,26.134811523437648],[78.05831250000008,26.13431347656261],[78.05818750000017,26.13406152343758],[78.05806250000003,26.13381347656245],[78.05793750000018,26.133561523437507],[78.05718750000008,26.132667968750113],[78.05808203125005,26.131942382812554],[78.05856250000019,26.13218847656256],[78.05881250000007,26.132311523437735],[78.05906250000018,26.132438476562456],[78.05955468750025,26.132678710937697],[78.05972265625027,26.13299999999998],[78.05946484375013,26.13350000000014],[78.05978515625,26.134124999999983],[78.05943750000009,26.134798828125113],[78.05956250000017,26.13493847656254],[78.06056250000009,26.135061523437727],[78.0608125000002,26.135188476562618],[78.06106250000008,26.135311523437537],[78.06131250000018,26.135438476562612],[78.06156250000006,26.135561523437616],[78.06203515625,26.135804687500098],[78.06268750000007,26.135311523437537],[78.06317578125018,26.135074218749992],[78.0639375000001,26.13418847656257],[78.06406250000018,26.133936523437725],[78.06431249999994,26.133451171875052],[78.0641875000002,26.132311523437735],[78.06356250000019,26.131563476562533],[78.0634375000001,26.131311523437503],[78.06293750000017,26.130652343749958],[78.06324609374988,26.130107421875138],[78.0639375000001,26.129938476562558],[78.0641875000002,26.129811523437567],[78.06518359375005,26.129648437500094],[78.0652109375001,26.128340820312502],[78.06481250000004,26.12781347656268],[78.06465234375017,26.127165039062717],[78.0641875000002,26.126938476562586],[78.0639375000001,26.126811523437496],[78.06344531250002,26.126571289062625],[78.06331250000008,26.126313476562473],[78.06316015625,26.125065429687552],[78.06219921875007,26.125045898437605],[78.06206249999994,26.12531152343773],[78.06191796875012,26.12647070312518],[78.06106250000008,26.127188476562566],[78.06059765625011,26.127415039062626],[78.06038671875021,26.128271484375162],[78.0600625000001,26.128438476562607],[78.05981249999994,26.128561523437526],[78.05915234375013,26.1290615234375],[78.05868749999993,26.12893847656268],[78.05843750000017,26.12881152343769],[78.05743750000019,26.128688476562516],[78.05712500000007,26.12852832031247],[78.05681250000018,26.128688476562516],[78.05656250000007,26.12881152343769],[78.05608984375013,26.129054687500087],[78.05543750000007,26.128561523437526],[78.05518750000019,26.128438476562607],[78.05493750000008,26.128311523437617],[78.05444531250001,26.128071289062646],[78.05431250000007,26.12781347656268],[78.05418750000004,26.127561523437564],[78.05406250000019,26.127313476562605],[78.05393750000016,26.126561523437687],[78.05368750000005,26.126438476562512],[78.05343750000017,26.126311523437522],[78.05318750000006,26.126188476562604],[78.05287500000017,26.126028320312656],[78.05237890624997,26.126283203125027],[78.05206250000006,26.125813476562584],[78.05188281250017,26.125084960937684],[78.05068750000018,26.124938476562562],[78.05018749999991,26.124561523437492],[78.04916015625005,26.124435546874977],[78.04850000000002,26.123750000000157],[78.04806640625011,26.123891601562548],[78.04805859375014,26.124183593749947],[78.04818750000007,26.124436523437723],[78.04836718750008,26.125165039062523],[78.04975781249996,26.125334960937593],[78.05006250000022,26.12592382812504],[78.04992578124998,26.127465820312494],[78.0490624999999,26.128188476562528],[78.04818750000007,26.12833105468748],[78.04833203125,26.128744140625116],[78.04868750000006,26.128561523437526],[78.04993750000008,26.128438476562607],[78.05042578125014,26.128188476562528],[78.05106250000009,26.128311523437617],[78.05131249999991,26.128438476562607],[78.05181250000018,26.128561523437526],[78.05206250000006,26.128688476562516],[78.05297656250005,26.128837890624965],[78.05368750000005,26.129686523437528],[78.0538476562501,26.130653320312618],[78.05496875000003,26.130835937500123],[78.05656250000007,26.132569335937617],[78.05640625000004,26.133512695312504],[78.05606250000008,26.133688476562497],[78.05581249999992,26.133811523437686],[78.0555625000001,26.133938476562577],[78.05531250000004,26.13406152343758],[78.05481250000005,26.134438476562565],[78.05456250000017,26.13456152343747],[78.05431250000007,26.13468847656246],[78.05206250000006,26.134811523437648],[78.05193750000004,26.13631347656262],[78.05181250000018,26.136561523437578],[78.05157421875006,26.137050781249883],[78.05076562500025,26.13772949218756],[78.05019921875018,26.13743847656262],[78.04931250000007,26.13756152343754],[78.0490624999999,26.137688476562616],[78.04881250000008,26.13781152343762],[78.04856250000003,26.13793847656278],[78.0479374999999,26.138090820312485],[78.04806250000004,26.138688476562578],[78.04931250000007,26.13881152343758],[78.04980078125001,26.139061523437576],[78.05043750000007,26.138938476562572],[78.05093750000006,26.138561523437502],[78.05168750000016,26.138438476562683]]]]},"properties":{"id":"18840"}}]}