{"type":"FeatureCollection","features":[{"type":"Feature","geometry":{"type":"MultiPolygon","coordinates":[[[[75.63911322699633,23.20729831271747],[75.63968295627146,23.20625000000038],[75.6388778347438,23.20476847330768],[75.63891079372806,23.204215494792166],[75.64028557671432,23.20334120008718],[75.64100301106768,23.202538248698247],[75.64173651801187,23.202201605903184],[75.642971259223,23.202202419705273],[75.64202921549483,23.20085381401948],[75.63952779134084,23.202213134766026],[75.63828199598501,23.202492133246878],[75.63770026312923,23.201841091580164],[75.63719122992595,23.19803561740484],[75.63903306749106,23.19713189019133],[75.63818657769079,23.195920003255637],[75.63943664550769,23.194641248915346],[75.6385082329642,23.19293280707508],[75.6402068413627,23.19002482096407],[75.6396616617836,23.189174533420484],[75.63836920844156,23.191811930339043],[75.63720479329399,23.192346327040326],[75.63724582248264,23.193034396701847],[75.63678432888426,23.19388359917569],[75.63730590820288,23.195831027561184],[75.63510986328103,23.19612467447952],[75.6342563883463,23.197492133246982],[75.63161987304662,23.195973578559475],[75.6306237114799,23.196514892578506],[75.62962537977424,23.19539740668438],[75.63039944118898,23.194289279514265],[75.63098517523864,23.182035725911888],[75.63026997884114,23.18139675564275],[75.62954989963092,23.17856038411506],[75.62884941948764,23.176876220703477],[75.63054599338082,23.175360243055977],[75.63092068142353,23.173749728733014],[75.63051703559009,23.173006863064742],[75.63057115342852,23.17209893120696],[75.63300998263887,23.17224433051271],[75.63418070475254,23.17193074544315],[75.6347144232856,23.169789089627088],[75.63271545410149,23.164517822265992],[75.63284315321161,23.16237494574692],[75.6326388888888,23.1618055555561],[75.63222310384091,23.162177056206957],[75.63175008138015,23.16421006944489],[75.63388108995198,23.170358751085445],[75.63329989963106,23.171428222656743],[75.63113172743024,23.17129909939284],[75.62966579861077,23.171691758897936],[75.62973090277782,23.172784016927466],[75.6283246527777,23.17666042751776],[75.62827060275603,23.178135986328456],[75.63006218804227,23.183580186632355],[75.62944071451815,23.19410508897606],[75.62816867404504,23.194436577691377],[75.62778557671416,23.192726372613294],[75.62862148708737,23.19197957356812],[75.62879753960485,23.187844645182736],[75.62917446560314,23.18750786675386],[75.62943664550752,23.186606038411895],[75.62757954915341,23.18575371636331],[75.62693664550781,23.18473008897611],[75.62636976453965,23.182198486328588],[75.62364624023414,23.182166341146157],[75.62278557671428,23.18361897786498],[75.62102206759974,23.183948025174033],[75.62148105197448,23.185227186415403],[75.62388448079392,23.184713677300792],[75.62542941623238,23.18537217881989],[75.62528930664061,23.188665771484793],[75.62778557671416,23.189436577691396],[75.62804775661866,23.190428738064625],[75.62727491590678,23.190825466580264],[75.62582017686609,23.189698215061213],[75.6244233534068,23.189781358507375],[75.62336846245651,23.188600802951754],[75.62112691243485,23.188570692274865],[75.61907050238725,23.188019883897923],[75.61784152560736,23.18809312608552],[75.6162401665579,23.18742702908041],[75.61556335449208,23.187749023437817],[75.61760952419704,23.18894029405419],[75.61861755371083,23.188880208333785],[75.62020975748695,23.189864501953465],[75.62339708116295,23.190870903863456],[75.62421291775141,23.19082234700562],[75.62702765570745,23.192226291232984],[75.62610046386689,23.195836046007287],[75.62643107096326,23.19644436306463],[75.62779886881495,23.19636284722256],[75.62834038628458,23.196968858507347],[75.63216071234777,23.197611219618494],[75.6336107720268,23.198624131944868],[75.63415886772995,23.199649115668805],[75.63275783962646,23.200081651476154],[75.63280137803795,23.20081217447958],[75.63213060167092,23.202552083333643],[75.63298075358048,23.20492133246573],[75.63415886772995,23.206707628038515],[75.63294718424473,23.206635335286904],[75.63250779893653,23.20738213433218],[75.63417446560302,23.207769911024712],[75.63466342502161,23.208835313585467],[75.63741326226122,23.209348551432626],[75.63920681423579,23.208868272569802],[75.63911322699633,23.20729831271747]]]]},"properties":{"id":"9687"}}]}