{"type":"FeatureCollection","features":[{"type":"Feature","geometry":{"type":"MultiPolygon","coordinates":[[[[85.15082115088856,24.263044649157166],[85.15353529951616,24.26268372793315],[85.15567359839858,24.262811155776006],[85.15820487891594,24.26227038429188],[85.1634422209028,24.26237088884899],[85.16401988474817,24.26153145200007],[85.15971685537014,24.26053027198705],[85.15875773875226,24.25987916250365],[85.15957544030405,24.257934718059175],[85.15898551856444,24.256849173896697],[85.15767209286477,24.25692743453041],[85.15616488054368,24.258095443970504],[85.15423538971274,24.257403169664983],[85.15320218319656,24.256382051501006],[85.15526642608953,24.256060396227483],[85.154265449527,24.253270682685965],[85.15432097456474,24.25233887930041],[85.15671097565004,24.25136421567194],[85.15877111562386,24.252483736071255],[85.15962057241089,24.252433076891563],[85.16068655141484,24.2513901217049],[85.15901988474835,24.251079045858575],[85.15480559370545,24.249362398180523],[85.15488383738492,24.248049667603297],[85.1545714730187,24.24717910282473],[85.15876352013791,24.24190573314158],[85.15777770063895,24.240376802477456],[85.15735321808145,24.24050789242969],[85.15602653418941,24.242881617473145],[85.15372383033204,24.244939044773503],[85.15377348921336,24.245772310289908],[85.1534473919368,24.246372353692777],[85.15261661868945,24.246322847399412],[85.15199899377072,24.247668536961058],[85.15038932715825,24.249106796509665],[85.15114489152987,24.250188475111997],[85.15240101199973,24.25131077600183],[85.15166413116756,24.252365734769185],[85.14983207618181,24.251603676934934],[85.14924915653117,24.251638466973958],[85.14713898468327,24.250881291952254],[85.14681329430763,24.251814858575557],[85.14770849355355,24.25309646122311],[85.1476251466568,24.254494844469647],[85.14534777238956,24.25435907515545],[85.14431329430792,24.25719015696977],[85.14343454064553,24.258611597941893],[85.14492562951276,24.259943859769237],[85.14742542606214,24.260236760702355],[85.14870947011619,24.260934460355074],[85.14820591312318,24.262237018406267],[85.15082115088856,24.263044649157166]]]]},"properties":{"id":"9590"}}]}