{"type":"FeatureCollection","features":[{"type":"Feature","geometry":{"type":"MultiPolygon","coordinates":[[[[76.942172309028,28.141691894531533],[76.94303765190998,28.1405247667103],[76.94268432617221,28.14013793945341],[76.94171291775214,28.14072387695343],[76.94058973524326,28.1408898925785],[76.93974012586821,28.140259874132298],[76.9382526312938,28.139946017795367],[76.93748209635439,28.138906792534954],[76.93724012586816,28.137204318576693],[76.9362500000004,28.135416666667],[76.93528862847265,28.135579969618334],[76.93460083007832,28.139226209852694],[76.93563286675365,28.140710177951675],[76.9364425998265,28.141335177951618],[76.93750949435778,28.142717556424017],[76.93874972873292,28.142900933160035],[76.942172309028,28.141691894531533]]]]},"properties":{"id":"18429"}}]}