{"type":"FeatureCollection","features":[{"type":"Feature","geometry":{"type":"MultiPolygon","coordinates":[[[[81.7611083984373,27.40194173177136],[81.76269639756933,27.399971245660268],[81.76305284288176,27.397753092448497],[81.76193060980884,27.396097547743622],[81.76196004231772,27.39465115017417],[81.76307508680557,27.39248643663241],[81.7630339898001,27.390469563802597],[81.76541408962649,27.38878065321238],[81.76569444444445,27.387916666667223],[81.76347601996511,27.38851643880274],[81.76103407118049,27.389774576823612],[81.75722493489562,27.389696723090907],[81.75693196614591,27.39089870876795],[81.7563372124566,27.391386176215775],[81.752620985243,27.390558268229782],[81.75194715711788,27.391947157118665],[81.74700195312485,27.392682834201906],[81.74564710829011,27.394749620226193],[81.74347846137138,27.394705403646455],[81.74122314453106,27.39333767361181],[81.73666395399309,27.392780490451926],[81.73319444444442,27.391447753906803],[81.73110826280382,27.392497287327075],[81.73111450195293,27.392808430990087],[81.7325033908418,27.39414252387212],[81.73248697916651,27.394946289063057],[81.73001383463546,27.393943142361607],[81.72972493489559,27.393052842882497],[81.72858005099826,27.392780490451926],[81.7286176215276,27.39462510850757],[81.73111382378457,27.395552842882495],[81.73138617621541,27.39694715711873],[81.73474310980899,27.39833794487899],[81.7354138183592,27.399036187066514],[81.73669542100694,27.398597547743606],[81.73805867513002,27.398625217014484],[81.7380470106335,27.39805474175394],[81.7395471191405,27.397567816840848],[81.74588853624115,27.398904622396344],[81.74694173177059,27.39944715711873],[81.7489187282986,27.3997195095492],[81.75013888888887,27.399090983073535],[81.75084160698762,27.399452853733195],[81.75082750108513,27.400147298177643],[81.74836317274301,27.400747884115148],[81.74724934895849,27.40357177734427],[81.74453653971338,27.403950466580426],[81.74416937934015,27.404775933160224],[81.74762722439212,27.404705403646346],[81.7487463378906,27.402820366753986],[81.75104085286463,27.40183322482703],[81.75166395399302,27.402518988715826],[81.75058146158844,27.403559027778343],[81.75397854275164,27.402863226997084],[81.75739732530391,27.401384006076924],[81.75808091905358,27.401397840712406],[81.7580490451389,27.402957628038735],[81.75403496636264,27.403448079427648],[81.75361382378472,27.404686957465856],[81.75616943359378,27.405043674045686],[81.75695868598072,27.405841471354606],[81.757791612413,27.405824652778307],[81.75833062065973,27.404163953993674],[81.75956108940957,27.40386393229224],[81.7611083984373,27.40194173177136]],[[81.75279812282966,27.399146321615106],[81.75244818793394,27.39888590494857],[81.75319444444446,27.398472222222722],[81.7551898871528,27.40031222873334],[81.7546893988713,27.401090766059596],[81.75307440863705,27.400812717014475],[81.75279812282966,27.399146321615106]],[[81.73721693250846,27.397561577691462],[81.73601440429664,27.39805013020893],[81.73325141059016,27.397326388889525],[81.73194973415801,27.39620062934101],[81.73486111111086,27.394861111111695],[81.73612698025178,27.39553955078182],[81.73684773763014,27.39631754557344],[81.73721693250846,27.397561577691462]],[[81.75448296440968,27.395324707031747],[81.75365627712668,27.3948388671881],[81.75581800672742,27.39331787109431],[81.75652777777773,27.393194444445058],[81.75776245117194,27.393972439236762],[81.75553249782988,27.395326605903293],[81.75448296440968,27.395324707031747]],[[81.75134277343753,27.394675835504216],[81.748355984158,27.39504937066036],[81.7480708821615,27.39479410807347],[81.74871053059874,27.39313015408038],[81.75041666666644,27.39291666666722],[81.75073445638029,27.393313530816584],[81.75147352430534,27.393624945747135],[81.75134277343753,27.394675835504216]]]]},"properties":{"id":"4857"}}]}