{"type":"FeatureCollection","features":[{"type":"Feature","geometry":{"type":"MultiPolygon","coordinates":[[[[103.88098768445892,18.27360758463577],[103.8806681315074,18.271602647569978],[103.87958875867756,18.269966362847683],[103.88121663411155,18.267104492187855],[103.88009494357354,18.264373508030005],[103.88054172091725,18.26352918836845],[103.88152235242765,18.264866400825127],[103.88231987846947,18.26513359917577],[103.88291124131646,18.26363281250039],[103.88217610676801,18.260118679470935],[103.88131320529229,18.260152859158453],[103.88042209201112,18.26153306749177],[103.87906602647266,18.262355821398017],[103.87875542534422,18.26044976128516],[103.88042209201112,18.258477511936164],[103.8808732096326,18.25705227322085],[103.88001980251434,18.255812038846017],[103.87874891492774,18.25625759548649],[103.87806396484066,18.25589504665855],[103.87878336588236,18.254535725911822],[103.88186008029217,18.25248792860303],[103.88179226345184,18.250772840712216],[103.88074028862539,18.249588623047217],[103.88042209201112,18.25125528971394],[103.87920057508413,18.252151150174072],[103.87550130208055,18.250897352430925],[103.87458875867767,18.251604139540305],[103.87569986978869,18.252633599175795],[103.87596679687195,18.2535587565108],[103.87455430772266,18.25632785373317],[103.87361056857335,18.25720241970525],[103.87135687933753,18.257739257813085],[103.86955674912886,18.25650065104216],[103.8695909288164,18.255644666884038],[103.87096679687224,18.25334431966182],[103.86954047308737,18.251484239366775],[103.86673502603887,18.250160047743407],[103.8659041341115,18.251056857639256],[103.86588514539628,18.256916775174034],[103.86524576822623,18.257509358724434],[103.86446424695882,18.256665988498597],[103.86377685546566,18.25377970377653],[103.86217556423324,18.251164822049034],[103.86471516926778,18.24804429796056],[103.8668109809,18.247644178602826],[103.86694444444154,18.246388888889328],[103.86535183376455,18.246527642144514],[103.86291829426776,18.24820217556463],[103.85958875867769,18.246881917318163],[103.86051459418096,18.25002197265667],[103.86235595702826,18.25397216796911],[103.86263346353891,18.255311414930972],[103.8617966037298,18.256527913411944],[103.86351562499712,18.258903537326773],[103.86344672308743,18.260642225477838],[103.86377549912899,18.261579996745226],[103.86390706379919,18.263744710286886],[103.8651443142331,18.26153306749177],[103.8654541015595,18.259264458550703],[103.86653320312197,18.258755289714017],[103.86852159287892,18.257137044271218],[103.86902235242778,18.257605794271356],[103.86735188801802,18.259582790799],[103.86794325086524,18.260442165798963],[103.86801595051784,18.26445190429726],[103.86733398437198,18.26544311523469],[103.8655284288167,18.265428738064656],[103.86458875867751,18.26604858398484],[103.86574490017054,18.267119818793972],[103.8676619466116,18.267089708116814],[103.8684849717853,18.269599338108193],[103.86918077256664,18.26957180447087],[103.8695949978268,18.26697238498312],[103.87097764756643,18.264588623047274],[103.87124457464975,18.2633755154084],[103.87065049912886,18.261107855903248],[103.87070719400734,18.25968071831639],[103.8751443142331,18.258755289714017],[103.87811523437207,18.257534857856314],[103.87874457464991,18.258270806206923],[103.8781285264727,18.260028754340837],[103.8759564887122,18.260710991753882],[103.87597900390344,18.261280517578513],[103.8779749891464,18.262712809245116],[103.87927707247982,18.265286322700078],[103.87957790798336,18.266400824653118],[103.87732828775759,18.26581136067753],[103.87653320312214,18.266305881076747],[103.87736653645558,18.267078043620245],[103.87774359808739,18.268269721137628],[103.87734347872961,18.271340060764345],[103.87475396050061,18.272148166233023],[103.87200602213258,18.271428087022983],[103.87125542534446,18.271772460937882],[103.8730555555525,18.273902859158383],[103.87718451605613,18.274874131944927],[103.88119764539644,18.276872965495258],[103.88170084635121,18.27632988823831],[103.88098768445892,18.27360758463577]]]]},"properties":{"id":"10140"}}]}