{"type":"FeatureCollection","features":[{"type":"Feature","geometry":{"type":"MultiPolygon","coordinates":[[[[81.89860324435753,24.050914306640863],[81.89782769097226,24.04998874240468],[81.89667453342,24.05005750868081],[81.89693657769098,24.048881089952516],[81.89804768880194,24.047447306315277],[81.89778564453107,24.046381089952604],[81.89662814670115,24.044118041992476],[81.89685180664046,24.040366753472483],[81.89414415147556,24.038063354492394],[81.89360324435759,24.03888108995254],[81.89321980794253,24.040122816298023],[81.89093492295993,24.041781005859676],[81.88966661241321,24.043200547960254],[81.88841430664044,24.04388108995252],[81.88681654188363,24.043230997721636],[81.8854124620224,24.0414192030167],[81.88491373697914,24.039085286458644],[81.88503092447903,24.037119004991666],[81.88460435655387,24.035285576714642],[81.88286580403647,24.035948486328422],[81.88142456054695,24.03404357910179],[81.87955498589409,24.034714423285905],[81.87859239366301,24.0340774197051],[81.87791666666683,24.03291666666688],[81.87705010308142,24.033078409830978],[81.876506076389,24.034263644748478],[81.87511433919255,24.03582126193598],[81.87360324435767,24.036103312174703],[81.8725078667533,24.036952243381364],[81.87117418077256,24.037262573242458],[81.87080308702261,24.038464558919586],[81.86889675564245,24.03940667046463],[81.86959662543407,24.04026997884141],[81.87100748697921,24.039972737630393],[81.87159898545988,24.038684082031452],[81.87361029730906,24.03759107801669],[81.87554239908852,24.03747592502191],[81.87673095703124,24.038397081163495],[81.87799302842868,24.038976304796194],[81.87898912217892,24.040402221679955],[81.8788241916233,24.04316765679286],[81.87937676323762,24.044371473524592],[81.8809849717882,24.045245429145254],[81.88537055121529,24.045230848524554],[81.88678032769079,24.045666232639093],[81.88840969509525,24.04670240614182],[81.88943291558164,24.047723117404715],[81.88940348307275,24.048881089952516],[81.89111897786458,24.048618910047978],[81.89180596245652,24.04785000271292],[81.89408921983491,24.046845024956795],[81.89560885959193,24.047314249674812],[81.8964857313367,24.048097669813615],[81.89528564453101,24.050474582248583],[81.89634724934885,24.05053317599861],[81.8971001519096,24.051205851237242],[81.89610324435742,24.05249220106363],[81.89528564453101,24.05436347113745],[81.89742024739573,24.054714423285958],[81.89814114040783,24.053797743055824],[81.8980319552949,24.051965603298854],[81.89860324435753,24.050914306640863]]]]},"properties":{"id":"9604"}}]}