{"type":"FeatureCollection","features":[{"type":"Feature","geometry":{"type":"MultiPolygon","coordinates":[[[[78.36871098993814,30.519032780429782],[78.37299500644772,30.518449437109993],[78.37609834409008,30.519127067546734],[78.37871726051887,30.516799141831967],[78.38696554295078,30.511109577148048],[78.38919183501943,30.5087253993335],[78.39646769409276,30.506032485401917],[78.3947217498069,30.503122578258854],[78.3941397683781,30.500503661829967],[78.39684069189971,30.497110902307398],[78.39751365997401,30.49490467156629],[78.40207462775643,30.495122741293713],[78.40387546225159,30.493065016852825],[78.40454843032572,30.49085878611153],[78.40429154037955,30.487000227175784],[78.40491500635383,30.485169951907906],[78.40751725389575,30.48283527619347],[78.40936759049035,30.48040159627898],[78.40896219424408,30.477670903764036],[78.40870795950755,30.47184424217909],[78.409935503637,30.470399264736145],[78.41303254643068,30.469447837816674],[78.41641605184091,30.470033427410456],[78.42133657376408,30.470332554387696],[78.42641816405987,30.4679821695603],[78.42827731731805,30.46239668333415],[78.4274869587708,30.45665012873549],[78.4288985810401,30.45217713780086],[78.43658366360589,30.450744824718683],[78.44090825052857,30.448348420356083],[78.44111533843605,30.44494190517841],[78.44023152363005,30.4411854563307],[78.44611253498559,30.436537413829953],[78.4491461385301,30.435020612057414],[78.45559254606226,30.432366208956083],[78.46317655492308,30.427057402753093],[78.46962296245513,30.419473393892176],[78.47227736555661,30.41416458768927],[78.47569016954432,30.408855781486622],[78.47531096910123,30.403167774840668],[78.47569016954432,30.398617369523848],[78.48441177973453,30.397479768194984],[78.48630778194988,30.39558376597948],[78.48630778194988,30.391791761548944],[78.48668698239297,30.38799975711821],[78.4881297691052,30.385271338957125],[78.49336760196317,30.384980348242934],[78.49715048124924,30.383816385385543],[78.49627750910659,30.38003350609928],[78.49191264839166,30.379451524670728],[78.48754778767668,30.38003350609928],[78.48276220248854,30.376557307295812],[78.48035000009921,30.374295867555887],[78.47477178207376,30.37414510490659],[78.4711397642275,30.383449351801573],[78.46886456156923,30.387620556675344],[78.46431415625264,30.392929362877993],[78.46203895359409,30.403926175726937],[78.45786774872059,30.409993382815756],[78.45483414517597,30.41643979034781],[78.4510421407455,30.410372583258535],[78.4502837398596,30.417956592119907],[78.44232053055512,30.421748596550273],[78.43739092479532,30.425161400538215],[78.43321971992177,30.430470206740765],[78.43260904679332,30.43367624066515],[78.43224798349254,30.43354276870039],[78.43057597511253,30.43708308987945],[78.43022261695452,30.439395611821567],[78.43196856124038,30.442305518964716],[78.4366193377339,30.443908784595735],[78.43610277744264,30.446156784946666],[78.42761467196911,30.44830008186679],[78.42563012446695,30.449699039775055],[78.42521594865244,30.456512070130586],[78.4252723135942,30.461834103507783],[78.4235051994061,30.46590558298837],[78.41922663201805,30.467544983978172],[78.41541860538663,30.46769338798947],[78.40822707334465,30.467256202407157],[78.40588703392402,30.468253648861662],[78.4046154340937,30.47111359968298],[78.40595455045573,30.477274886962988],[78.4063104446021,30.480381534951803],[78.40380720126021,30.481964299719053],[78.40248132643902,30.483319615313036],[78.40223381593856,30.485199392680755],[78.40244120378455,30.48943390709009],[78.40036341801644,30.490690218483948],[78.39342765186453,30.49398419299159],[78.39265567959077,30.496942334679815],[78.39110235559619,30.49712028175324],[78.38977648077505,30.498475597346868],[78.38952897027443,30.500355374714758],[78.39122986123513,30.503704559687492],[78.38744698194901,30.507196448259478],[78.38458136513648,30.50888328507922],[78.37731914561144,30.51175180201325],[78.37522537194715,30.513889234688804],[78.36998753908958,30.51505319754611],[78.36795060408909,30.516799141831967],[78.36474970623127,30.518836076832187],[78.36096682694503,30.5205820211184],[78.35456503123012,30.528438770405117],[78.35485602194453,30.531057686833904],[78.35660196623044,30.530184714690975],[78.35863890123053,30.52814777969057],[78.36242178051688,30.52523787254742],[78.36535683144919,30.521268451943655],[78.36871098993814,30.519032780429782]]]]},"properties":{"id":"1687"}}]}