{"type":"FeatureCollection","features":[{"type":"Feature","geometry":{"type":"MultiPolygon","coordinates":[[[[105.19307227240532,12.190537923177288],[105.19313154432396,12.18954345703149],[105.19185609605441,12.18865261501756],[105.19018334282637,12.18956136067753],[105.18974238077666,12.188750000000312],[105.19044887966467,12.186944444444748],[105.18953135172396,12.187115614149647],[105.1856105211032,12.1901738823788],[105.18550333658729,12.196972384982871],[105.18658835516905,12.198186577691203],[105.18783420138769,12.19679497612887],[105.18777113172618,12.195736762153047],[105.18865113999996,12.194313422309278],[105.18936711629092,12.192450900607966],[105.19133997599155,12.191072862413563],[105.19307227240532,12.190537923177288]]]]},"properties":{"id":"22973"}}]}