{"type":"FeatureCollection","features":[{"type":"Feature","geometry":{"type":"MultiPolygon","coordinates":[[[[78.1230452473961,26.17887858072939],[78.12419406467038,26.173537055121685],[78.1240844726565,26.17217312282996],[78.12268337673643,26.17228569878492],[78.1207044813373,26.171743977864708],[78.12086344401084,26.1697653537327],[78.12069444444475,26.169305555555653],[78.11862141927102,26.16992540147585],[78.11962483724002,26.171340603298773],[78.1167979600697,26.17171061197945],[78.11723904079886,26.17250135633691],[78.11656222873293,26.173455674913342],[78.11759195963569,26.173914930555654],[78.11806532118098,26.173876953125117],[78.11832302517413,26.174546983507057],[78.11705946180606,26.175267469618277],[78.11470540364601,26.173953993055648],[78.1134008789065,26.17356119791674],[78.11217393663222,26.17185221354184],[78.1122634548615,26.170738389757076],[78.11048502604191,26.169624565972313],[78.11001030816018,26.17042127821206],[78.1112706163199,26.171507161458393],[78.1119604492192,26.173333333333446],[78.1116810438372,26.174207899305713],[78.11399495442734,26.17473361545153],[78.11576063368082,26.176649034288317],[78.11675482855932,26.17709282769114],[78.11607476128503,26.178312174479302],[78.11731770833379,26.179814995659783],[78.11872477213583,26.17970187717036],[78.11982720269125,26.17862141927094],[78.12214355468777,26.18108669704887],[78.12271809895859,26.181378580729287],[78.1230452473961,26.17887858072939]]]]},"properties":{"id":"18834"}}]}