{"type":"FeatureCollection","features":[{"type":"Feature","geometry":{"type":"MultiPolygon","coordinates":[[[[100.78624932182723,21.907900933160263],[100.7871026611285,21.90708116319493],[100.7870534261024,21.90625271267413],[100.78541375053808,21.90709743923661],[100.78429165309913,21.907074652778377],[100.78368577744803,21.905207248264503],[100.78568996852889,21.90288357204915],[100.78492004394107,21.901388888889414],[100.78578491210519,21.899710015191488],[100.78565456813826,21.89332302517417],[100.78428690592048,21.888413085938097],[100.7842921956337,21.886010742188034],[100.78458007812085,21.884008246528253],[100.78388888888472,21.88333333333385],[100.78346354166248,21.883741861979615],[100.78349182128474,21.885125596788754],[100.78271681043421,21.885870225695015],[100.78319722493066,21.88680284288249],[100.7835812038804,21.889553493924012],[100.78308139376728,21.8910139973964],[100.78235154893238,21.89209038628526],[100.78319207085067,21.89289794921929],[100.78357069227005,21.894064670139443],[100.78349629719631,21.900345865885896],[100.78285163031242,21.902573513455422],[100.7808397759288,21.903243543837434],[100.77989345973972,21.904686957465884],[100.78070821125888,21.90626871744834],[100.78069112141512,21.907108832465724],[100.77821587456177,21.907058376736614],[100.77736389159745,21.907842610677605],[100.78044637043868,21.908763834635963],[100.78098042805564,21.909319661458923],[100.7809689670095,21.909880642361642],[100.78013576930985,21.910681152344296],[100.78014234754338,21.91100287543459],[100.7810153537284,21.911841634115063],[100.78294793022573,21.91180202908035],[100.78585381401487,21.9103304036463],[100.78624932182723,21.907900933160263]]]]},"properties":{"id":"20418"}}]}