{"type":"FeatureCollection","features":[{"type":"Feature","geometry":{"type":"MultiPolygon","coordinates":[[[[81.74754286024287,22.772580837673814],[81.7494783528646,22.771176079644277],[81.74930555555548,22.77069444444456],[81.74610324435767,22.771103244357946],[81.74518839518217,22.77143161349835],[81.74307752821178,22.771056450737845],[81.74250786675336,22.77195231119815],[81.74135050455723,22.77230957031263],[81.73873982747389,22.77372829861129],[81.73827867296015,22.774244384765808],[81.7377856445311,22.77584120008703],[81.73639675564235,22.777362331814444],[81.7401995171443,22.78076009114602],[81.74167453342008,22.781103244357652],[81.74276991102434,22.781952311198125],[81.74413357204836,22.782214355468952],[81.74459282769087,22.779267442491488],[81.74582546657965,22.777974582248348],[81.74525417751724,22.776923285590442],[81.74537855360236,22.774835883246666],[81.74754286024287,22.772580837673814]]]]},"properties":{"id":"20087"}}]}