{"type":"FeatureCollection","features":[{"type":"Feature","geometry":{"type":"MultiPolygon","coordinates":[[[[101.79292195637728,16.426255425347478],[101.79440768771391,16.424651692708522],[101.79493069118624,16.426847601996798],[101.79564683701952,16.427620442708488],[101.79673678927625,16.42766357421894],[101.79878499348658,16.425932888455094],[101.80010335286138,16.427355685764127],[101.80114217122102,16.42689046223998],[101.80177734374715,16.42488416883701],[101.80273803710642,16.424375813802314],[101.80375528971044,16.42485568576413],[101.80452745225384,16.425689019097405],[101.80594495984943,16.424022623698136],[101.80601928710635,16.422145182291885],[101.80545084635119,16.421531575521072],[101.8045780436166,16.421255425347496],[101.8034634060298,16.420400390625176],[101.8024301486515,16.420441351996814],[101.80147325303497,16.419989963107966],[101.80049614800024,16.418035481771184],[101.79962049695868,16.41709038628497],[101.79734483506624,16.416204155816303],[101.79497558593451,16.41400906033013],[101.79403306748813,16.411522352430893],[101.79333333333037,16.410555555555973],[101.79244004990997,16.410838487413386],[101.79207804361678,16.411522352430893],[101.79127671983187,16.419284667969052],[101.78874471028345,16.422633463541985],[101.787921956377,16.42534044053849],[101.7888610839814,16.42660373263911],[101.791747097436,16.428056911892668],[101.79234524196741,16.426789550781493],[101.79292195637728,16.426255425347478]]]]},"properties":{"id":"5110"}}]}