{"type":"FeatureCollection","features":[{"type":"Feature","geometry":{"type":"MultiPolygon","coordinates":[[[[107.62119335937521,12.442945312500143],[107.62130664062519,12.442679687500018],[107.62145507812514,12.442421874999951],[107.62142187500021,12.442093750000168],[107.62043164062507,12.44194531250018],[107.62019335937507,12.44180468750018],[107.6194316406251,12.441695312500102],[107.6189433593751,12.441304687500107],[107.61868164062494,12.441195312500028],[107.61844335937522,12.441054687500028],[107.61793164062519,12.440945312499949],[107.61745898437513,12.440601562500106],[107.6178046874999,12.440000000000026],[107.61751953125011,12.439500000000137],[107.61700390625006,12.439195312500104],[107.61656835937524,12.439445312500098],[107.61612890625005,12.439554687500177],[107.61569335937506,12.439304687500012],[107.61468164062504,12.439195312500104],[107.61319335937506,12.437804687500062],[107.61268164062508,12.437695312499983],[107.61244335937508,12.437554687500082],[107.6121816406251,12.437445312500088],[107.6119433593752,12.437304687500173],[107.61143164062506,12.437195312500094],[107.61119335937505,12.437054687500009],[107.61068164062519,12.4369453125001],[107.61039843750015,12.436781249999981],[107.61011718750004,12.43613281250012],[107.60968164062493,12.435945312499967],[107.6094433593752,12.435804687499967],[107.60918164062505,12.435695312500158],[107.60869335937505,12.435304687500079],[107.60793164062503,12.435195312500085],[107.60769335937508,12.43505468750017],[107.60718164062516,12.43494531250009],[107.60669335937504,12.434554687500196],[107.60643164062506,12.434445312500117],[107.60619335937506,12.434304687500017],[107.60589843750014,12.434179687500077],[107.60574999999997,12.434000000000083],[107.60498242187518,12.434062500000095],[107.60519335937508,12.434429687500057],[107.60530664062506,12.434695312500097],[107.60694335937521,12.43642968750008],[107.60705664062507,12.43669531250002],[107.60791015624991,12.437664062500161],[107.60856835937508,12.437804687500062],[107.60935937500008,12.438492187500202],[107.60955664062519,12.438945312500024],[107.60969335937509,12.439179687499973],[107.60980664062507,12.439867187500099],[107.60955664062519,12.440304687499975],[107.6094433593752,12.4405703125001],[107.60928125000001,12.440851562500185],[107.60880664062509,12.441054687500028],[107.60856835937508,12.441195312500028],[107.60637890625006,12.441304687500107],[107.60594335937523,12.441054687500028],[107.60468164062493,12.440945312499949],[107.60419335937505,12.440554687500054],[107.60393164062518,12.440445312499975],[107.60364843750014,12.440281250000027],[107.60344335937506,12.439804687500086],[107.603146484375,12.439398437500131],[107.60268164062515,12.439195312500104],[107.60239843750017,12.4390312499999],[107.60219335937504,12.438554687500044],[107.6018593750002,12.43809375000005],[107.6011816406249,12.437945312500162],[107.60094335937518,12.437804687500062],[107.60043164062515,12.437695312499983],[107.59994335937503,12.437304687500173],[107.59968164062505,12.437195312500094],[107.59894335937506,12.43655468750002],[107.59868164062507,12.436445312499941],[107.59819335937507,12.436054687500047],[107.59725390625002,12.435945312499967],[107.59675000000013,12.436234375000211],[107.59644335937517,12.436054687500047],[107.59618164062502,12.435945312499967],[107.59584765625019,12.435750000000198],[107.59511132812506,12.435828125000086],[107.59494335937504,12.43653906250016],[107.59540039062503,12.437171875000061],[107.5963183593752,12.437304687500173],[107.59655664062504,12.437445312500088],[107.59681835937519,12.437554687500082],[107.59730664062502,12.437945312500162],[107.59756835937517,12.438054687499971],[107.5978066406249,12.438195312499971],[107.59856835937504,12.43830468750005],[107.59905664062492,12.438695312499945],[107.59931835937508,12.438804687500024],[107.59980664062508,12.439195312500104],[107.60006835937506,12.439304687500012],[107.60035156250021,12.439468750000131],[107.60058398437516,12.440007812500014],[107.6013750000001,12.439921875000138],[107.60159375000009,12.439945312499987],[107.60150195312517,12.440843750000028],[107.60169335937505,12.441179687500068],[107.60180664062503,12.44194531250018],[107.60194335937504,12.44217968750003],[107.60205664062508,12.443195312499952],[107.60219335937504,12.443429687500071],[107.60230664062502,12.443945312500105],[107.6024433593752,12.444179687499954],[107.60255664062507,12.444445312499994],[107.60340820312504,12.445406250000062],[107.6040507812501,12.445554687500035],[107.60468164062493,12.445054687500061],[107.60519335937508,12.444945312499982],[107.60568164062502,12.444554687500073],[107.60594335937523,12.444445312499994],[107.60618164062518,12.444304687500093],[107.60644335937505,12.444195312500185],[107.60668164062517,12.444054687500184],[107.61044335937524,12.443945312500105],[107.61143164062506,12.443054687499952],[107.61419335937521,12.442945312500143],[107.6144316406251,12.442804687500058],[107.61537109375021,12.442695312499978],[107.61580664062504,12.442945312500143],[107.61631835937507,12.443054687499952],[107.61691796875002,12.443531249999992],[107.61705664062507,12.444367187500106],[107.61680664062519,12.444804687500067],[107.61669335937509,12.445492187500108],[107.61694335937509,12.445929687500069],[107.61705664062507,12.446195312500109],[107.6176113281251,12.446859374999946],[107.61806835937509,12.44705468750007],[107.6185566406252,12.44744531250015],[107.61906835937506,12.44755468749996],[107.61937500000002,12.447734375000039],[107.61968749999997,12.44755468749996],[107.61980664062494,12.445179687500186],[107.62019335937507,12.444695312500073],[107.62030664062505,12.444179687499954],[107.62069335937505,12.443695312500111],[107.6208066406252,12.443429687500071],[107.62119335937521,12.442945312500143]]]]},"properties":{"id":"10476"}}]}