{"type":"FeatureCollection","features":[{"type":"Feature","geometry":{"type":"MultiPolygon","coordinates":[[[[76.13736572265614,23.414434136285124],[76.13903184678807,23.413822292752215],[76.14274224175338,23.41412041558202],[76.14311537000853,23.410059407552524],[76.14235609266476,23.40898857964457],[76.13974948459199,23.40919799804729],[76.13861273871501,23.408563774957145],[76.13847222222225,23.4059722222227],[76.13804524739564,23.406100802951784],[76.13668212890602,23.40855712890668],[76.13484632703987,23.408974202474454],[76.13297824435759,23.408065863715663],[76.13311618381053,23.409782850477853],[76.13099148220456,23.40961222330786],[76.13051011827233,23.410690782335465],[76.12961886935764,23.411458740234778],[76.12827134874104,23.41135036892402],[76.1273495144313,23.409284532335548],[76.1261214192705,23.40954942491365],[76.12700480143204,23.411279839410142],[76.12954583062046,23.41274481879381],[76.13069905598954,23.413045247396255],[76.13231540256052,23.41245171441011],[76.13328613281234,23.412529703776542],[76.13610080295118,23.414176974826958],[76.13736572265614,23.414434136285124]]]]},"properties":{"id":"19729"}}]}