{"type":"FeatureCollection","features":[{"type":"Feature","geometry":{"type":"MultiPolygon","coordinates":[[[[82.53096327039933,25.05719238281293],[82.53138102213532,25.056547851562954],[82.52999213324634,25.0561187065977],[82.52966688368056,25.055065646701877],[82.52639675564242,25.05186360677125],[82.52733940972203,25.050128580729577],[82.528023546007,25.049517144097578],[82.52915879991306,25.04765896267392],[82.52776909722238,25.04722981770867],[82.52781711154503,25.046421440972708],[82.52736056857654,25.045840928819786],[82.5254747178819,25.04700683593802],[82.52401882595481,25.046617296007298],[82.52286973741323,25.04533094618091],[82.5222135416665,25.04361762152827],[82.52225585937506,25.0429090711809],[82.52125000000004,25.04236111111149],[82.51996175130213,25.04412814670188],[82.51753553602438,25.04573784722257],[82.51654161241302,25.045198025174003],[82.51589708116316,25.04660210503509],[82.51487331814232,25.047923719618467],[82.51962619357627,25.05398491753519],[82.5213967556422,25.055270182292034],[82.52284613715281,25.057292751736412],[82.52789415147552,25.056991644965606],[82.5289756944446,25.05820203993092],[82.52999213324634,25.05749240451418],[82.53096327039933,25.05719238281293]]]]},"properties":{"id":"9506"}}]}