{"type":"FeatureCollection","features":[{"type":"Feature","geometry":{"type":"MultiPolygon","coordinates":[[[[79.87225206163251,25.450275065104293],[79.87333333333393,25.449717881944594],[79.87445855034755,25.449997016059086],[79.87529676649345,25.44861382378477],[79.87610405816017,25.449453938802137],[79.87721733941018,25.448699001736216],[79.87966905381998,25.447649468316044],[79.87916178385458,25.44666503906255],[79.88023383246562,25.44611382378494],[79.8822867838546,25.447837185329973],[79.88419650607673,25.446669379340378],[79.88505805121568,25.44756591796896],[79.88455674913254,25.44952121310773],[79.8855853949656,25.44999728732644],[79.88694444444505,25.449297146267355],[79.88778591579913,25.44973063151062],[79.88833604600731,25.449158257378528],[79.88945312500053,25.44916368272581],[79.8894417317712,25.44860839843757],[79.89281955295192,25.448333062066],[79.89446289062542,25.44748616536461],[79.89528049045177,25.447502983941007],[79.89583062066035,25.446975640191013],[79.89333062066018,25.44555826822925],[79.8925770399309,25.444773763020905],[79.89194173177137,25.442780219184144],[79.89195909288267,25.441907823350704],[79.89419596354216,25.44195366753479],[79.89527506510476,25.440830620659824],[79.89666937934075,25.440280490451514],[79.89971950954921,25.437775065104233],[79.9012429470491,25.437174207899346],[79.9027945963546,25.435277777777785],[79.90145290798651,25.43398844401048],[79.9025998263892,25.433432074653055],[79.90194715711849,25.430626356336887],[79.90407335069497,25.427120225694537],[79.90590060763921,25.426233723958333],[79.90552517361144,25.42550509982655],[79.90553656684071,25.421695963541765],[79.90583767361161,25.421111111111188],[79.9055257161464,25.420558268229314],[79.90444715711848,25.421113823784736],[79.90397840711867,25.421104600694534],[79.90491807725752,25.419717881944578],[79.90666395399379,25.419542643229207],[79.90569444444506,25.418194444444595],[79.90443684895874,25.418370225694517],[79.90444118923673,25.419197048611224],[79.90305826822961,25.420558268229314],[79.90182996961843,25.420560980902863],[79.90274739583387,25.422823350694543],[79.90164930555622,25.423878580729195],[79.90045355902836,25.421947157118097],[79.8999924045145,25.42336751302095],[79.89874565972283,25.42456597222234],[79.89778049045177,25.423732096354243],[79.8986078559033,25.422208116319553],[79.89750271267425,25.422073567708367],[79.89888617621594,25.421375325521097],[79.89777343750038,25.420835503472347],[79.89817545572967,25.419660373264094],[79.8977642144101,25.418891601562592],[79.8971489800351,25.420160047743124],[79.89583604600736,25.41916395399315],[79.89541124132003,25.419172634548715],[79.8958387586811,25.420002170138986],[79.89498643663231,25.42027506510418],[79.89401909722258,25.41861382378484],[79.89361382378533,25.420291341145855],[79.89583062066035,25.42153537326398],[79.89359700520899,25.422233615451503],[79.89361707899357,25.423199869791787],[79.89501410590336,25.42250271267362],[79.8950027126742,25.423891601562573],[79.89416124132,25.425014648437624],[79.89249186197955,25.425842013888982],[79.89253200954906,25.427816840277885],[79.8913633897574,25.427217881944557],[79.8913916015629,25.425830620659866],[79.89103515625041,25.425138888888895],[79.89139214409781,25.42444661458346],[79.89135904947975,25.423891601562573],[79.88998263888945,25.424600694444507],[79.88999674479211,25.422769097222258],[79.88834147135478,25.422803276909775],[79.88761013454896,25.421295030382026],[79.88573025173653,25.42020290798621],[79.88415852864645,25.420840386284894],[79.88416992187567,25.421408420138988],[79.88583604600754,25.42137478298619],[79.88660753038252,25.422177191840476],[79.88694173177132,25.423897569444506],[79.88557508680603,25.423869357639077],[79.88500271267404,25.42429199218759],[79.88750542534777,25.42499782986114],[79.88694715711844,25.426124674479198],[79.88805826822963,25.426663953993142],[79.88854058159788,25.427166341145906],[79.88885904947958,25.428608398437532],[79.88777940538259,25.428052300347375],[79.88722493489647,25.42810709635421],[79.88864854600732,25.429474826388955],[79.88972493489635,25.429997287326486],[79.89056098090336,25.431111111111164],[79.8899929470492,25.431657172309116],[79.89043728298671,25.43295545789944],[79.88888237847297,25.43397515190982],[79.88889214409781,25.43447564019104],[79.89117621527836,25.434428982204935],[79.89232530382012,25.435979003906326],[79.89202256944483,25.43638617621535],[79.89040364583391,25.435157606336816],[79.88972493489635,25.43577663845491],[79.89111382378539,25.43749728732648],[79.89166395399346,25.438548448350744],[79.8902587890631,25.438886176215348],[79.88915907118118,25.437741427951522],[79.88917805989624,25.436802842882216],[79.88777832031306,25.436123589409817],[79.8868505859381,25.434312879774424],[79.88396755642432,25.43322645399317],[79.88305826822963,25.433490125868175],[79.88389431423653,25.434723307291733],[79.88303656684084,25.43527506510415],[79.88234809027816,25.434558376736206],[79.88194715711862,25.43248101128482],[79.883014865452,25.431455078125055],[79.88135904947976,25.4300027126736],[79.88013671875038,25.430632324218806],[79.88099338107699,25.431896158854244],[79.87749728732703,25.432775065104337],[79.87661295572948,25.43323052300346],[79.87528049045173,25.432219509548815],[79.87250271267405,25.431108398437516],[79.87055284288257,25.430836046007045],[79.86980848524345,25.430452745225793],[79.86610785590344,25.426680230034805],[79.86610568576455,25.42516330295149],[79.8646967230907,25.423306206597275],[79.86392469618121,25.421714409722256],[79.86073947482694,25.421195746527815],[79.85887098524339,25.421674804687626],[79.857795681424,25.421653103298667],[79.85722493489644,25.421958007812577],[79.85853569878523,25.422593858506985],[79.86012044270896,25.422188042534785],[79.86321668836845,25.42225097656255],[79.86450303819484,25.424794379340355],[79.86501410590338,25.425285915798653],[79.86499186197958,25.426375868055544],[79.86540364583371,25.427578667534846],[79.86487033420198,25.429658745659793],[79.8666227213545,25.428891601562654],[79.86917100694498,25.431030815972264],[79.86916341145869,25.4314027235244],[79.86801920572978,25.43195800781264],[79.86608181423665,25.431947970920348],[79.86555826822959,25.432513834635515],[79.86685655381999,25.433143446180637],[79.86721950954919,25.43389160156255],[79.8679264322922,25.43416395399329],[79.86842122395868,25.433143446180637],[79.86974066840324,25.43248616536465],[79.87056423611168,25.43250298394105],[79.87053548177127,25.43389214409737],[79.87094672309084,25.433883734809086],[79.87297743055595,25.43265218098962],[79.87419650607703,25.433069390191037],[79.87552625868094,25.43445366753481],[79.87721950954901,25.434474283854215],[79.87583604600732,25.435912000868186],[79.87794270833396,25.43642578124998],[79.87835015191027,25.437265896267363],[79.87973090277822,25.43859239366337],[79.87971137152826,25.440392523871566],[79.87857042100754,25.441108398437592],[79.8769878472227,25.43946153428827],[79.8763525390631,25.43915310329872],[79.87501844618092,25.439180501302232],[79.87444444444517,25.438884548611256],[79.8738595920145,25.43918592664933],[79.87013346354226,25.43945014105907],[79.87084201388936,25.440825737847277],[79.8708246527784,25.441663953993185],[79.87134819878523,25.44221950954862],[79.86960394965334,25.44162245008684],[79.86791666666747,25.442054850260632],[79.86605577257009,25.44157769097228],[79.86547743055613,25.440386013454912],[79.86611924913265,25.439439019097307],[79.86610785590344,25.4388750542536],[79.86389160156315,25.43749728732648],[79.86188585069479,25.436706271701468],[79.85719835069492,25.435627983940975],[79.85639160156288,25.43626437717029],[79.85918185763947,25.436944715711874],[79.85748697916713,25.437275661892556],[79.85750325520891,25.438069390191117],[79.8586138237853,25.43860839843768],[79.85945800781289,25.439997287326563],[79.85999728732699,25.438886176215348],[79.8609901258686,25.438613823784962],[79.86224229600745,25.439462619357727],[79.86305284288241,25.439414605034898],[79.86245062934088,25.438245985243114],[79.86395128038228,25.43863064236119],[79.86518880208374,25.439268391927143],[79.86434027777815,25.44008382161465],[79.86574869791698,25.44250054253483],[79.86388509114639,25.444720865885614],[79.86404568142419,25.445275065104298],[79.86527723524372,25.44444010416676],[79.86584147135463,25.444730631510538],[79.86693901909788,25.44470811631949],[79.86807888454896,25.446246202257043],[79.86990071614619,25.445338270399432],[79.86935601128508,25.444281141493065],[79.87056423611168,25.443891601562626],[79.87053656684068,25.445223253038293],[79.87438422309086,25.445974392361293],[79.87378200954899,25.44714328342026],[79.87152994791703,25.44843071831602],[79.87111382378518,25.44974826388902],[79.87225206163251,25.450275065104293]]]]},"properties":{"id":"9476"}}]}