{"type":"FeatureCollection","features":[{"type":"Feature","geometry":{"type":"MultiPolygon","coordinates":[[[[107.99196417914388,14.548249952528707],[107.98983228895301,14.546413167318192],[107.98883483886621,14.544683430989977],[107.98897291395312,14.542964986165941],[107.98793314615787,14.541498345269574],[107.98858283148778,14.540333828396768],[107.986988864474,14.53959367540196],[107.98484856499468,14.541426357693666],[107.98394524468208,14.54037780761766],[107.98422709147022,14.53687215169326],[107.98559807671333,14.5362603420687],[107.98670918782452,14.534871453179733],[107.98700568305028,14.533565911187537],[107.98830586751191,14.53148308648052],[107.98961554633152,14.530354682075128],[107.98878221299807,14.528888888889455],[107.98809563530702,14.52909562852696],[107.98619486490801,14.531301642524383],[107.98368998209529,14.533459743924112],[107.98179490831089,14.534646843804722],[107.9801711018869,14.534516364204094],[107.9778485107411,14.534702996148482],[107.97670918782464,14.532906324599068],[107.97585523817187,14.532649230957503],[107.9748859998904,14.531961941189905],[107.97318325466486,14.533295389811656],[107.97142978244258,14.531793721517403],[107.97101284450875,14.531827189128052],[107.9695621066613,14.536102837457122],[107.96920918782448,14.538654174805174],[107.96982849121011,14.540917392307293],[107.97215867784203,14.541239657932508],[107.97431932237296,14.54064832899354],[107.9752698432064,14.540724690755695],[107.97676859537657,14.542464463976202],[107.97666687011602,14.543731486003054],[107.97556959364036,14.545698072646005],[107.9761647542309,14.546210835775298],[107.97817457410915,14.54448988172794],[107.97997009277245,14.544634128147194],[107.98127760145312,14.543982781304692],[107.9820214165571,14.544042527941045],[107.9834773084842,14.548610026042198],[107.98341030544597,14.55194654676697],[107.98468743218208,14.553739657932297],[107.98617017957824,14.548437669542551],[107.98721428765086,14.547927008735215],[107.98887932671326,14.549231024848538],[107.98921271430035,14.55141906738342],[107.9900585259322,14.552934977214065],[107.99291415744247,14.55512854682118],[107.99335523817163,14.553845825195907],[107.99196417914388,14.548249952528707]]]]},"properties":{"id":"10338"}}]}