{"type":"FeatureCollection","features":[{"type":"Feature","geometry":{"type":"MultiPolygon","coordinates":[[[[107.94479919433482,13.840690104167024],[107.94171624077612,13.837935519748768],[107.94132588704329,13.836847330729526],[107.94100443522044,13.834444444444813],[107.93986267089727,13.83465752495708],[107.94014777289394,13.839438476562975],[107.93959411620997,13.843078206380781],[107.94133239746,13.84706976996577],[107.941968790689,13.847107747396223],[107.94167473686949,13.845201144748728],[107.94059563530706,13.84219387478349],[107.94128031412666,13.840433349609768],[107.94305277506416,13.840327690972629],[107.944318508571,13.84174424913239],[107.94741936577591,13.843167588976144],[107.94886630587999,13.844460449219099],[107.94996195475173,13.847854546441397],[107.95141133626234,13.847940945096028],[107.95144063313714,13.847449137370191],[107.95016079372724,13.845797390408592],[107.94903313530725,13.842711859809484],[107.94479919433482,13.840690104167024]]]]},"properties":{"id":"22456"}}]}