{"type":"FeatureCollection","features":[{"type":"Feature","geometry":{"type":"MultiPolygon","coordinates":[[[[80.15397791120382,32.52521821737472],[80.15397791120382,32.52619029647522],[80.15429900438178,32.52664505697752],[80.15429900438178,32.52762609791639],[80.15445955051928,32.527947108765055],[80.15509713289859,32.52837522352957],[80.15509713289859,32.5295390694575],[80.15541822188008,32.530002789578745],[80.15541822188008,32.530502185333845],[80.1560558822903,32.53162147731427],[80.15637688250835,32.53189347661642],[80.1565374247502,32.53258018950427],[80.15701453577934,32.53300822228939],[80.15701453577934,32.53385989839086],[80.15749615801488,32.53444852943599],[80.157656698158,32.5349791662258],[80.1589319808868,32.53575055189045],[80.15909251833732,32.5365755221935],[80.16053282813829,32.537650186786735],[80.1608583252572,32.53780620228234],[80.16181701012839,32.53780621073115],[80.16221838224305,32.53758325877341],[80.16241902501324,32.53764569844417],[80.16260629685178,32.53913056885821],[80.16308788762394,32.540089295319014],[80.16356496214077,32.540388062712964],[80.1638860193596,32.54104794493466],[80.16452813018302,32.54148496885968],[80.16484475547017,32.541507296166735],[80.16516137958548,32.542167249161864],[80.16548243081357,32.54243476867074],[80.16625380043051,32.54259975032602],[80.16772089933511,32.54355847068034],[80.16851907300199,32.54387954451728],[80.16867959246525,32.54406231009802],[80.16867959246525,32.54441910530597],[80.16851907300199,32.54455732714654],[80.16867959246525,32.54554272450567],[80.16835855323744,32.54598862820545],[80.16835855323744,32.54647471470787],[80.16884011162723,32.54707666699176],[80.16916566229686,32.54723274445246],[80.17008865940598,32.547232720890484],[80.17059703163791,32.547553822028334],[80.17124360522034,32.54755377655895],[80.17176082650451,32.54723275491449],[80.17268830866252,32.54723272193757],[80.17332592552121,32.54675561567098],[80.17376292193555,32.54675567209371],[80.17490896251938,32.547553794271494],[80.17536374708256,32.547393298889425],[80.17555107572522,32.54755380263385],[80.17600142913184,32.547553789637455],[80.17667027066038,32.54803095426812],[80.17775828710793,32.548030927122745],[80.17826661372523,32.54835199562652],[80.17855645220479,32.54835201916782],[80.17922978645171,32.548864816345066],[80.1790648592191,32.54919028162057],[80.1790648592191,32.54999298250449],[80.17938143067323,32.55045221264714],[80.17954192973855,32.55111214523303],[80.18050066058028,32.55186575658034],[80.18129880005546,32.55186576737925],[80.18129880005546,32.55238747419054],[80.18161987582268,32.553190146849595],[80.18209701721533,32.55348438876906],[80.18257858334132,32.554104215238304],[80.18322515141188,32.55426476762366],[80.18421951484956,32.55362267400647],[80.1857847262079,32.55362268736744],[80.18597645922095,32.553466563109936],[80.18656953472274,32.55346660400686],[80.18705107562508,32.55410419094038],[80.1876619373414,32.55426473985516],[80.18800980730043,32.55458137767264],[80.18912900925363,32.555062938886415],[80.18977110069102,32.555062964861676],[80.19200510194837,32.556819823990374],[80.19249563621692,32.556819831968504],[80.19314221430487,32.556494272466644],[80.19349006192442,32.55602163549155],[80.19425700728158,32.55585667195015],[80.19505961515226,32.555111948971565],[80.19537621242515,32.5544208148897],[80.19585778876097,32.5541533097507],[80.19633493569255,32.553506709028525],[80.19633493569255,32.55270853638936],[80.19617889489342,32.55238301870818],[80.19522016987203,32.55163386996604],[80.19505961515226,32.55010438737145],[80.19524690058606,32.5499483175002],[80.19872497174248,32.55010891151475],[80.19892118735564,32.549948321342555],[80.19952762269128,32.54994831531197],[80.2008342020765,32.549310659576854],[80.20143611226096,32.549631794155474],[80.20224324918638,32.5496317689151],[80.20239927888747,32.54950246469564],[80.20255539342527,32.54963177311618],[80.20351854740409,32.54963173680678],[80.20383962468532,32.54947125650919],[80.20432566460961,32.54903867577319],[80.20464222747593,32.548396598686274],[80.20464222747593,32.546296330599134],[80.20496330052366,32.5458414986495],[80.20481170176188,32.54506565640851],[80.20574359151203,32.54579695128851],[80.20635448959293,32.54579691327705],[80.20718388078546,32.54643453614348],[80.2078260065164,32.546434542736925],[80.20878024884418,32.54723277043649],[80.209551737993,32.54723272273276],[80.20986828144177,32.54738885256528],[80.21005561945468,32.54791946006675],[80.21037216103082,32.54818703298998],[80.21102762560938,32.54835198839463],[80.21183475679032,32.5477633893754],[80.21199527991158,32.54743785001336],[80.21199527991158,32.54661738472982],[80.21263294353196,32.54616259534653],[80.21279346514855,32.54584149301536],[80.21279346514855,32.54515032523153],[80.21377888761448,32.54483819034353],[80.21610213466711,32.544838184309754],[80.21629388461365,32.544998730139845],[80.21741756636318,32.544998733597176],[80.21849663752425,32.54467772513439],[80.21916548626365,32.5451592341521],[80.21969611897765,32.54531088310178],[80.21948207907498,32.54588165563461],[80.21900497666256,32.546470233505175],[80.21900497666256,32.5482539103434],[80.21868395655217,32.548708699239484],[80.21868395655217,32.549190292900704],[80.21932157007106,32.55013119210818],[80.21932157007106,32.55047449985459],[80.2196426728814,32.551112204604664],[80.22028027921667,32.5518613072308],[80.22124348805517,32.552347334264404],[80.22332586437714,32.55234736831074],[80.2239768890584,32.55191477979284],[80.22413738927955,32.55154914637983],[80.22461454801044,32.55138866873059],[80.22524777699911,32.55075101507957],[80.2257337798157,32.550590452464135],[80.22716964618974,32.549520299404406],[80.22765121296494,32.548557107115464],[80.22765121296494,32.547090062987095],[80.22781170625154,32.54677790599452],[80.2282888443659,32.54648364112704],[80.22860097821288,32.54568991204628],[80.22890868592178,32.54595299996587],[80.22906917683467,32.54647920066377],[80.2297113076468,32.54691617663724],[80.23115604169253,32.54691617024743],[80.2314815246812,32.54675560345617],[80.23228420720545,32.54626956009102],[80.23263198005321,32.545792439877516],[80.23340342313524,32.54536437060904],[80.23355948081134,32.54503885887614],[80.23347030503152,32.54320170295711],[80.23355948081134,32.5427825849332],[80.23403658666193,32.54212262366354],[80.23483031059527,32.54212260289018],[80.2353475715909,32.541801589372575],[80.23595400270415,32.54180156046226],[80.23662288430938,32.5413244144009],[80.23802751002886,32.5407090965868],[80.2385001662955,32.541003419926085],[80.24138522693943,32.541003399081724],[80.24202734975671,32.540570881362555],[80.24218790097294,32.540040202559986],[80.2425044931282,32.53972366906901],[80.2433070714988,32.539295528038856],[80.24346762029504,32.53897006990758],[80.24346762029504,32.53800690903538],[80.24457350142262,32.538925423247605],[80.24601381384196,32.53892546896879],[80.24653100671992,32.53860882658416],[80.24809175473634,32.53860883103508],[80.24876504976018,32.53812731509049],[80.24969254446691,32.538287800221404],[80.25052193836494,32.537806210037836],[80.25191765667894,32.53828780288423],[80.25320182315117,32.53828782060363],[80.25451727607222,32.53716859187841],[80.2552842668191,32.5370080362003],[80.25691180228694,32.536209853524845],[80.26071093646833,32.536209896247705],[80.26122820985498,32.53589326209667],[80.26183462615583,32.535893265453375],[80.2624366148727,32.53557218885703],[80.26294052301004,32.535893234653585],[80.26355143530486,32.53589323724976],[80.26421584633552,32.5362053943055],[80.26437635555473,32.536575541375946],[80.2650184744504,32.5370080281617],[80.26645427177807,32.53700807101313],[80.26661477675607,32.53753421914369],[80.26693144784772,32.53780178933618],[80.26757354737515,32.5381272363462],[80.26802392425554,32.53812729971165],[80.26949097099674,32.538925491436544],[80.26994133767988,32.53892546207821],[80.27013747396066,32.53908594546414],[80.272536491806,32.53908601334337],[80.27269256254684,32.53895667203452],[80.27284863299992,32.53908599938088],[80.27365126434898,32.539085982831146],[80.27409718626558,32.53892548414149],[80.2742888902927,32.539085959561895],[80.27553299975243,32.539085961893775],[80.27604584512918,32.53940705016992],[80.27809251798882,32.53940706973003],[80.27923851410179,32.54036570693085],[80.280045592215,32.54036573880343],[80.28132984257644,32.539135026200576],[80.28149040439182,32.53814955602674],[80.28165088085932,32.53801130915397],[80.28165088085932,32.53752977399583],[80.28149040439182,32.53738703297996],[80.28138784216567,32.536802898145346],[80.28181144206525,32.53641947786307],[80.28197200296638,32.53591107938905],[80.28244909155735,32.53529577693128],[80.28244909155735,32.53385095399406],[80.28165088085932,32.53272729472299],[80.28038007238376,32.53191571800168],[80.28085274767194,32.53146539096321],[80.28116936549982,32.53080101342759],[80.28212805630436,32.53002952235487],[80.28244909155735,32.5292268905995],[80.28244909155735,32.52872300075657],[80.28260965124792,32.528589274404595],[80.28260965124792,32.52794269382564],[80.28212805630436,32.5268190264778],[80.28101322534926,32.52588701836385],[80.2805317063597,32.52474555104854],[80.28021057878442,32.52446900312713],[80.27939907988687,32.524469082224336],[80.27892197409264,32.52462960941967],[80.27813716747863,32.52520482285557],[80.27782053830191,32.52479456471041],[80.2768573761893,32.524147962435386],[80.27368698581738,32.524147962498695],[80.27318305656595,32.523831374641794],[80.27269707030783,32.523831397538515],[80.27190327541236,32.52298418218991],[80.27113635003467,32.52255164697822],[80.27014640469984,32.521592900800144],[80.26953553996887,32.52143239160688],[80.26790799177661,32.52031761464387],[80.26758690136053,32.520317615736275],[80.26695373301021,32.51967999792492],[80.26631162878402,32.519358959869805],[80.26582109496097,32.51935894776875],[80.26563379483957,32.519510503352926],[80.26534842078851,32.51935895458727],[80.26294945450807,32.519358927961896],[80.26275321652025,32.51951499823721],[80.2618257796033,32.51951501112294],[80.26070651313353,32.51999656615565],[80.2603854804879,32.52031758805942],[80.25974783493369,32.520317645705454],[80.25828078960842,32.5209552377281],[80.25531548734698,32.52095526097624],[80.25480711023664,32.52063423701215],[80.25399553805163,32.520634231022],[80.25335792950885,32.52111584292465],[80.25287633834452,32.521271899499645],[80.25220749972732,32.52191401757456],[80.25111941342516,32.52191400016171],[80.24997346225375,32.52287270180888],[80.24936253719305,32.52287264531915],[80.2490459706179,32.52303324373528],[80.24824336143595,32.5238314356934],[80.24728905145119,32.52383137218161],[80.24677628725443,32.52414799605189],[80.24568821637999,32.52414801138465],[80.24517995173598,32.52446908030127],[80.24297270021722,32.524629587489386],[80.24166166281142,32.52526719532536],[80.24025709719477,32.52526718894053],[80.23961938542557,32.525748765004934],[80.23866072418038,32.52574880304873],[80.2365515803005,32.52718467867699],[80.23562402711401,32.52718463743321],[80.23495522273457,32.5276662262988],[80.23243133222714,32.5276662338939],[80.23178922196306,32.52814338576672],[80.23115161681716,32.528143370630126],[80.23016163025787,32.52894152860897],[80.22891311091391,32.52942311716205],[80.22792318338261,32.5303817797939],[80.22715620074496,32.53054234435589],[80.22632683394653,32.5311799717558],[80.22572041924309,32.53117996642718],[80.22507825829105,32.53165713701855],[80.22444060281559,32.53165707790442],[80.22329020680296,32.532299255866505],[80.22172508838523,32.53245973577923],[80.22121225500094,32.532776365052804],[80.22060580383352,32.53277632916471],[80.22009747425831,32.53309740659117],[80.21917442236722,32.53309740842465],[80.21833612666164,32.53341396962486],[80.21741305566553,32.53325795986452],[80.21657925335259,32.533895567148505],[80.21581225354613,32.53389560428565],[80.21562050251467,32.534056094723596],[80.21325723984758,32.534056089555584],[80.21274444055118,32.534372673536666],[80.21229853671089,32.53437267121751],[80.21146911020531,32.5348543219458],[80.21070214947737,32.53485432809901],[80.21018933479478,32.53517533979331],[80.20958289021036,32.53517533143674],[80.2085929931426,32.535652433825504],[80.2079865371929,32.53565250142753],[80.20747379127864,32.53597350189982],[80.20686732736162,32.53597356284648],[80.20635448959293,32.53629010472631],[80.20574810282783,32.536290165684825],[80.20475816120269,32.53709278544187],[80.20351412109164,32.53773044920845],[80.2026802678252,32.53836807450212],[80.20223431130614,32.53836802718333],[80.20124441398998,32.53900572452046],[80.19951868452634,32.53916620502547],[80.19804719442433,32.539808364642674],[80.19472965126933,32.53980833327182],[80.19453342601237,32.53996440430263],[80.19344545305788,32.5399644333595],[80.19229497892658,32.54060654041328],[80.19125158746336,32.54060653871231],[80.19073874089908,32.540285488296604],[80.18961062085218,32.540285496719314],[80.18865190715765,32.54108361594639],[80.1868994450222,32.54108369330438],[80.18638665744491,32.54140473563261],[80.18482596954392,32.541404696320555],[80.18430874220384,32.54172580615325],[80.18358189414316,32.54172578459102],[80.18306908664103,32.541404711812575],[80.18198556526211,32.54140472699185],[80.1814771756307,32.541083652634676],[80.1800368780078,32.541083684318544],[80.1793947985114,32.54060656230477],[80.17779396373133,32.54060653072241],[80.17728120662878,32.54092317401776],[80.17555107572522,32.54108363158361],[80.17504273295387,32.54140471083852],[80.17335717611839,32.54140471604933],[80.17284882029884,32.5410836135016],[80.17207742501571,32.54108369925997],[80.17144422682088,32.54076705655698],[80.17077534439824,32.5401294262186],[80.16984784148801,32.539652312387005],[80.169174518484,32.53882732499879],[80.169174518484,32.53864451639641],[80.16837635093441,32.5381896869793],[80.16757817593553,32.536727127805115],[80.16694051621508,32.53627224927712],[80.16694051621508,32.53544732679815],[80.16661947045937,32.53499253915974],[80.16661947045937,32.5343325598633],[80.16645894712964,32.53419430685811],[80.16645894712964,32.533213303316884],[80.16598180359178,32.53259795003019],[80.16566075423783,32.53177306718722],[80.16501865191525,32.53134055092051],[80.16469759894669,32.53134052989394],[80.16390390314803,32.530680536334664],[80.16390390314803,32.53049327098581],[80.16326178763987,32.53006074222302],[80.16281136713526,32.53006071822329],[80.16182595223928,32.52958367143809],[80.16086726746826,32.529556841294585],[80.16071116187794,32.5292447354808],[80.16071116187794,32.52842429798462],[80.16055062746328,32.528281587474964],[80.16055062746328,32.52634632237728],[80.16022955773062,32.525887043435276],[80.16022955773063,32.524589462700526],[80.16006902241266,32.524263917275846],[80.1594269632951,32.52383135821228],[80.15831214168762,32.523670865433246],[80.15831214168762,32.52298860221095],[80.15815160277361,32.522667580968836],[80.15751395797132,32.52223945886399],[80.15751395797132,32.522029957042704],[80.15719296201631,32.521753496500956],[80.15526210635326,32.52191394931489],[80.1546200111857,32.52234654475462],[80.15478055672143,32.522836981419076],[80.15557876591934,32.523586137437725],[80.15563225214251,32.52383138287359],[80.15478055672143,32.524259446903045],[80.15397791120382,32.52521821737472]]]]},"properties":{"id":"36992"}}]}