{"type":"FeatureCollection","features":[{"type":"Feature","geometry":{"type":"MultiPolygon","coordinates":[[[[78.82613769531301,25.32122178819438],[78.82888481987877,25.319747721354332],[78.82972466362898,25.318639322916667],[78.82999457465306,25.316383463541726],[78.83057020399335,25.315806206597344],[78.8329166666671,25.315866427951477],[78.83334526909775,25.314958224826412],[78.83415391710125,25.314208984375043],[78.83139431423669,25.309994574652862],[78.83041666666722,25.309005533854275],[78.82982394748316,25.30964572482641],[78.82832790798645,25.309172092013895],[78.82819444444473,25.308472222222264],[78.82777235243103,25.308605685763894],[78.82693901909758,25.310272352430715],[78.82638834635443,25.31224880642371],[78.82399603949685,25.313793402778003],[78.82273790147607,25.316171332465373],[78.82206000434084,25.31831217447926],[78.81973253038225,25.31829535590296],[78.81944986979195,25.318894314236204],[78.81778320312552,25.319680989583546],[78.81805365668461,25.320572374132126],[78.82025227864634,25.32048502604168],[78.82055555555607,25.321127387152828],[78.82344156901078,25.321013454861315],[78.82466634114647,25.32166124131939],[78.82613769531301,25.32122178819438]]]]},"properties":{"id":"9483"}}]}