{"type":"FeatureCollection","features":[{"type":"Feature","geometry":{"type":"MultiPolygon","coordinates":[[[[83.31784532335067,24.981664403279936],[83.3195250108507,24.981075763702762],[83.32165608723952,24.98116024229293],[83.32202582465268,24.977257881164917],[83.32105875651038,24.976918989817662],[83.31851155598955,24.97664309183783],[83.31447753906266,24.97680297639667],[83.31270046657997,24.975580014123253],[83.30908718532996,24.975641286638492],[83.30832790798613,24.975283073849468],[83.3080097113714,24.973616407182746],[83.30589409722236,24.974436526828626],[83.30417453342008,24.97450468699165],[83.30415093315983,24.973911213345247],[83.30582600911455,24.972548141479734],[83.30750542534716,24.972227518293863],[83.31019965277775,24.97128316879305],[83.31192898220493,24.971830707126472],[83.31208333333328,24.972638888889236],[83.31333496093768,24.972467823028907],[83.31413926866335,24.97172275543241],[83.31505588107635,24.970303086175136],[83.31668348524298,24.97028394911068],[83.31662651909741,24.968848762512494],[83.32100341796874,24.96918992360466],[83.32409532335086,24.968328069051523],[83.3274283854166,24.966755065918264],[83.32819715711824,24.965925246344938],[83.33057183159715,24.964471329583546],[83.33447129991336,24.964539091322436],[83.3410243055558,24.96278672112389],[83.3424270290798,24.962731119792082],[83.34731174045132,24.96443915049261],[83.3488943142361,24.964171960619268],[83.3513842773439,24.963049871656892],[83.3519590928822,24.96307265387665],[83.3530436197918,24.961985994975038],[83.35387939453133,24.96021504296226],[83.35500542534723,24.959171960619102],[83.35533691406246,24.958469081455164],[83.3578423394097,24.95643013000526],[83.36197211371527,24.956034406026603],[83.36304850260424,24.95503706614207],[83.36319091796886,24.951444994608863],[83.36242947048615,24.95108560774105],[83.36254421658,24.946243735419657],[83.36166124131935,24.944171960619045],[83.36134304470497,24.942505293952408],[83.36056098090287,24.942911067539058],[83.36142496744779,24.947005729675695],[83.36153564453119,24.952728254530385],[83.36033610026053,24.95526996612581],[83.35738633897606,24.955223727756405],[83.35533257378464,24.95619297027625],[83.35332790798603,24.958050261603745],[83.35252658420146,24.95974869622158],[83.35141628689226,24.960777244568163],[83.35071587456608,24.961861928304316],[83.34708197699646,24.96249470604822],[83.34591552734369,24.962175458272625],[83.34338921440988,24.96083862728591],[83.33903347439244,24.961418897840986],[83.336505262587,24.96275664859391],[83.33376139322914,24.962865405612945],[83.33303521050337,24.96248113420306],[83.3299945746526,24.962772483826143],[83.32762749565964,24.963355712891016],[83.32440348307287,24.965828039381478],[83.32365505642358,24.965443411933364],[83.32472764756952,24.96444973839685],[83.32538140190988,24.96343702952116],[83.32656819661472,24.96267066107893],[83.32770914713544,24.960514543321707],[83.326722547743,24.959449738396856],[83.3263834635417,24.959716928270367],[83.32604844835063,24.96112361060277],[83.32370876736107,24.96318782382579],[83.32182888454886,24.965750478109058],[83.31880343967,24.966277300517064],[83.31699788411456,24.964807756212323],[83.3117388237849,24.963224716186858],[83.31137695312518,24.962458449470034],[83.31000542534716,24.960828039381667],[83.30745469835065,24.958894182841433],[83.30721679687494,24.959161372714945],[83.30694986979157,24.96056084950797],[83.30555013020845,24.96305026160391],[83.30517062717004,24.964249246385677],[83.30422254774325,24.96527248382597],[83.30326117621556,24.963726751539795],[83.3025960286461,24.961625887553197],[83.30107557508691,24.96215874989865],[83.29971408420127,24.960532099406294],[83.29559190538211,24.95903088039853],[83.29198784722237,24.95956831190351],[83.29190619574658,24.957510202196232],[83.29388346354168,24.956577042474024],[83.29360839843744,24.9558059098989],[83.29247178819449,24.955850965712116],[83.2925455729168,24.95398743523525],[83.29116699218733,24.95471692827047],[83.29009467230927,24.953286310831913],[83.29150906032984,24.951759770711476],[83.29250542534717,24.9511164050636],[83.29354763454873,24.94950236002633],[83.29580593532981,24.94836958991182],[83.29637695312519,24.947290509542142],[83.29307888454863,24.946839769151794],[83.29304985894103,24.946106190151937],[83.29360405815973,24.9455926216976],[83.29320855034737,24.944109174940607],[83.29388346354168,24.942833692762875],[83.29247504340267,24.941416876051633],[83.29190022786455,24.93811441633474],[83.29221733940986,24.937772076925114],[83.2927650282119,24.937793786790934],[83.29332790798608,24.93618742624946],[83.29287651909723,24.93417196485764],[83.29223524305544,24.934620658027185],[83.29193603515645,24.936188320584023],[83.28963975694464,24.9398629379275],[83.29165093315979,24.942243025038266],[83.29137722439256,24.950322223239837],[83.28938910590264,24.95126048617918],[83.28889431423616,24.95333862728566],[83.28612521701396,24.953669963413176],[83.28609456380227,24.954444444444746],[83.28670491536454,24.954732424418395],[83.28657741970491,24.957948137919388],[83.2886043294271,24.959413965013667],[83.28806098090271,24.9613125737511],[83.28890082465293,24.962541550530645],[83.29027235243049,24.963812573751184],[83.28940266927086,24.96419253455302],[83.28570583767393,24.964079038832196],[83.28303331163184,24.96541156768835],[83.28310492621543,24.96721476660875],[83.28167399088548,24.96727146996419],[83.28170247395846,24.96506894005701],[83.28094373914954,24.963894182841244],[83.28050699869809,24.964190762838072],[83.28062499999996,24.967165582445247],[83.27972683376728,24.96778347015416],[83.27804768880227,24.96771690792545],[83.27808295355916,24.968604524400888],[83.27726453993054,24.968636962043234],[83.2769498697916,24.96666137271484],[83.27585910373281,24.964727516174605],[83.27361653645826,24.965080464681293],[83.27443657769086,24.967161352369857],[83.27447048611103,24.96802139706105],[83.27415066189226,24.96862591213673],[83.27417236328134,24.969171884325178],[83.2722276475694,24.969543194241325],[83.27249457465277,24.97028307173011],[83.27512912326395,24.972723946042024],[83.27580674913204,24.974160111745533],[83.2776125759548,24.974231688181874],[83.28249457465276,24.972772481706755],[83.28667209201384,24.971949740516195],[83.29016059027768,24.970078748067678],[83.28956732855912,24.968821682400474],[83.28758544921882,24.967368172539906],[83.28694986979187,24.966383594937085],[83.28556098090272,24.965728119744554],[83.28589626736104,24.96515602959562],[83.28722764756944,24.965828039381478],[83.28892659505206,24.967130898370087],[83.28999565972217,24.967505671183673],[83.29081678602424,24.967473131815936],[83.29143120659731,24.969650124444144],[83.29360568576399,24.97067635854114],[83.29333875868079,24.9713941849606],[83.28917209201384,24.97179344389211],[83.28952853732639,24.97237295150788],[83.29110568576394,24.973338629404992],[83.29260118272586,24.97362409803648],[83.29721679687495,24.975838629404976],[83.29882161458326,24.976144998338754],[83.3002832031249,24.97721692615123],[83.30069064670138,24.978503909641134],[83.3016620551214,24.97917235904302],[83.30311577690972,24.979114735921456],[83.30534071180548,24.979580230713225],[83.30795871310781,24.97889418496058],[83.30943901909743,24.979449740516188],[83.31208984374993,24.979731841617422],[83.31557807074668,24.98193914837337],[83.31784532335067,24.981664403279936]]]]},"properties":{"id":"4944"}}]}