{"type":"FeatureCollection","features":[{"type":"Feature","geometry":{"type":"MultiPolygon","coordinates":[[[[76.14540649414087,25.771344943576565],[76.14640367296013,25.770817328559104],[76.14860283745676,25.770904676649465],[76.14859497070321,25.770008951823073],[76.14983113606777,25.76839680989592],[76.1507538519966,25.76487521701408],[76.14968383789093,25.763884006076566],[76.14974785698806,25.7622696940105],[76.14889417860266,25.761105685763994],[76.14777248806442,25.76083875868072],[76.14680555555586,25.759305555555642],[76.14582804361996,25.75943901909727],[76.14538275824665,25.76130859375006],[76.14291537814714,25.76226942274323],[76.14429307725729,25.764337565104412],[76.14374335394982,25.764846733941013],[76.14582804361996,25.767565375434188],[76.14360582139787,25.768605685763987],[76.1425052897138,25.770383029513937],[76.14540649414087,25.771344943576565]]]]},"properties":{"id":"18909"}}]}