{"type":"FeatureCollection","features":[{"type":"Feature","geometry":{"type":"MultiPolygon","coordinates":[[[[78.34755859375016,25.629435546875158],[78.3476992187502,25.629170898437593],[78.3481914062501,25.628939453124985],[78.34855859375003,25.62858007812501],[78.3477031250001,25.628439453125097],[78.3468164062501,25.629189453125164],[78.34641406250014,25.629310546875118],[78.34575000000004,25.628959960937507],[78.34508984375,25.629308593750167],[78.34432421875019,25.628722656250048],[78.34419140625025,25.627321289062607],[78.34526953125018,25.626098632812486],[78.34470312500017,25.62583007812502],[78.34444140625007,25.62534179687519],[78.34494140625006,25.624689453125058],[78.34505859375,25.624435546875176],[78.34519140625022,25.62418945312517],[78.34530859375016,25.623935546875103],[78.34544140625027,25.623689453125095],[78.34555859375016,25.623435546875115],[78.3456914062501,25.623189453125207],[78.34580859375015,25.622935546874956],[78.34619140625009,25.622439453125054],[78.34630859375002,25.622185546875173],[78.34648046875006,25.621862304687667],[78.34600000000003,25.62125000000009],[78.34555859375016,25.621310546875065],[78.34544140625027,25.62156445312513],[78.34530859375016,25.621810546874954],[78.34519140625022,25.622064453125205],[78.34505859375,25.622310546875113],[78.34494140625006,25.622564453125094],[78.34480078125003,25.622829101562573],[78.34430859374996,25.623060546874996],[78.34366796875005,25.623583007812712],[78.3434414062501,25.624064453125044],[78.34305859375016,25.624560546875117],[78.34294140625022,25.624814453125097],[78.34262500000003,25.62527246093758],[78.34209375000003,25.625560546875178],[78.34132812500016,25.624975585937435],[78.34119140625009,25.623810546875063],[78.34103906249996,25.623689453125095],[78.34056640625008,25.623939453125004],[78.34005859375011,25.624060546874958],[78.33956640625021,25.624439453124978],[78.33916406250015,25.624560546875117],[78.33869140625009,25.624310546875137],[78.3377031250001,25.62418945312517],[78.33676562500014,25.624982421875117],[78.33644140625009,25.62481054687511],[78.33619140625021,25.624712890625005],[78.33644140625009,25.62518554687496],[78.33664062500011,25.625609375000096],[78.33706640625022,25.625810546874987],[78.33730859375001,25.6259394531251],[78.33756640625009,25.626060546875067],[78.33790234375002,25.626239257812486],[78.33805859375028,25.62708789062505],[78.33780859375011,25.627560546875003],[78.33769140625006,25.627814453124984],[78.33755078125003,25.628079101562463],[78.33705859374996,25.628310546875156],[78.33681640625005,25.628439453125097],[78.33655859375014,25.628560546874965],[78.33644140625009,25.628882812500095],[78.33681640625005,25.629060546875124],[78.33716796875004,25.62924707031253],[78.33730859375001,25.630439453125106],[78.3376250000002,25.63089550781264],[78.33831640625007,25.631060546875048],[78.33880859375014,25.631439453125168],[78.33906640625005,25.63156054687512],[78.33930859374996,25.631689453125063],[78.3398164062501,25.6318105468752],[78.34005859375011,25.631939453125057],[78.34031640625008,25.63206054687501],[78.34055859374999,25.63218945312522],[78.34106640625006,25.63231054687509],[78.34130859375014,25.63243945312503],[78.34156640625005,25.632560546875],[78.34180859375002,25.63268945312521],[78.3428046875002,25.632810546875163],[78.34393359375,25.6318105468752],[78.34494140625006,25.631689453125063],[78.34568359375012,25.631060546875048],[78.34644140625025,25.630939453125094],[78.34708203125004,25.630416992187648],[78.34730859375,25.629935546875046],[78.34744140625023,25.629689453125053],[78.34755859375016,25.629435546875158]]]]},"properties":{"id":"18939"}}]}