{"type":"FeatureCollection","features":[{"type":"Feature","geometry":{"type":"MultiPolygon","coordinates":[[[[82.65758355034731,23.28919799804703],[82.65809000651043,23.286827799479397],[82.65742350260408,23.28440850151921],[82.65585069444464,23.28286729600711],[82.6556944444446,23.282361111111243],[82.65471435546866,23.28249213324669],[82.6523578559027,23.28366495768249],[82.65163221571189,23.287061225043516],[82.65170166015642,23.28822401258701],[82.64973008897587,23.28898179796022],[82.6509600151908,23.2896895345055],[82.65241916232637,23.288896755642583],[82.65306342230915,23.28915879991341],[82.65340223524291,23.292769911024422],[82.65858859591995,23.29245971679714],[82.65866455078137,23.291187201606235],[82.65758355034731,23.28919799804703]]]]},"properties":{"id":"19809"}}]}