{"type":"FeatureCollection","features":[{"type":"Feature","geometry":{"type":"MultiPolygon","coordinates":[[[[74.49719645182361,24.914819013808284],[74.49817518446233,24.913683039348086],[74.49881646050406,24.914427473280995],[74.49945203993136,24.91447853936168],[74.49971191406334,24.912211888631916],[74.50102593316026,24.911913367378233],[74.5001907009557,24.91073556688181],[74.50228895399388,24.910103827583256],[74.50348198784806,24.90612093607669],[74.50263888888949,24.90430555555639],[74.49443413628549,24.904989666409776],[74.49147922092075,24.9057747989238],[74.49084364149391,24.906322301229608],[74.49132269965335,24.907500661214925],[74.49272298177178,24.90870713975768],[74.49454888237912,24.91248966640967],[74.49501030816023,24.911954778036247],[74.4959160698792,24.909454778036263],[74.49630235460123,24.90993840535552],[74.49684407552141,24.912421951294817],[74.49631347656313,24.914183883667803],[74.49455403645905,24.91666542901008],[74.49371853298678,24.918537801107718],[74.4930726453999,24.919094356961565],[74.49300048828192,24.919989666409734],[74.49426812066073,24.919039705065302],[74.4949690755216,24.917469007704682],[74.4962535264763,24.916156539917793],[74.4972675238723,24.915704057482444],[74.49719645182361,24.914819013808284]]]]},"properties":{"id":"19190"}}]}