{"type":"FeatureCollection","features":[{"type":"Feature","geometry":{"type":"MultiPolygon","coordinates":[[[[75.41020742953927,25.99025802303909],[75.41913040831096,25.980264286814574],[75.42412727642366,25.982762720870753],[75.41770273170758,25.989544184737653],[75.40877975293589,25.9981102443583],[75.42269959981971,25.994541052849726],[75.43733328500574,25.977052014457044],[75.43911788076005,25.969556712288423],[75.43162257859174,25.975624337853517],[75.43162257859174,25.965987520779592],[75.44054555736344,25.957778380309705],[75.4451855063252,25.954209188800874],[75.45625000000203,25.95063999729213],[75.46374530217045,25.95492302710258],[75.45589308085138,25.936363231257147],[75.46088994896346,25.929938686541462],[75.45767767660593,25.921372626920274],[75.44911161698465,25.91601883965724],[75.44233015311809,25.90209899277329],[75.43626252755317,25.8949606097559],[75.4312656594411,25.894246771454007],[75.42591187217786,25.887822226738308],[75.42448419557448,25.876043894759334],[75.42841030623404,25.874616218155992],[75.42198576151819,25.87104702664716],[75.41913040831096,25.867477835138416],[75.41413354019906,25.86997626919458],[75.4091366720867,25.868905511741744],[75.40128445076724,25.855699503159784],[75.39557374435364,25.851773392499823],[75.3945029869009,25.85748409891407],[75.39593066350429,25.864979401082238],[75.3905768762414,25.866407077685935],[75.3738016761503,25.855342584008653],[75.3580972335117,25.835712030710383],[75.35274344624841,25.83999506052119],[75.37772778680991,25.864979401082238],[75.3738016761503,25.866050158534804],[75.368447888887,25.876757733060956],[75.37201708039609,25.88353919692767],[75.38058314001674,25.893889852302962],[75.38022622086592,25.90209899277329],[75.39949985501298,25.904954345980144],[75.41199202529376,25.912806567299626],[75.42841030623404,25.923871060976538],[75.43055182113918,25.930295605692137],[75.43733328500574,25.929938686541462],[75.44268707226902,25.927797171636044],[75.44946853613547,25.93208020144668],[75.44768394038121,25.940646261067698],[75.43983171906225,25.943144695123962],[75.43769020415644,25.938147827011605],[75.42519803387617,25.934935554653535],[75.41449045934976,25.934935554653535],[75.41163510614288,25.933864797200968],[75.41913040831096,25.94457237172729],[75.41163510614288,25.952781512197262],[75.40628131887959,25.952781512197262],[75.41234894444463,25.958135299460295],[75.41056434869031,25.961704490969225],[75.4023552082202,25.974196661249735],[75.39593066350429,25.98811650813404],[75.39271839114659,25.996325648604014],[75.37344475699936,26.006319384828444],[75.39628758265533,26.003820950772635],[75.41020742953927,25.99025802303909]]]]},"properties":{"id":"1753"}}]}