{"type":"FeatureCollection","features":[{"type":"Feature","geometry":{"type":"MultiPolygon","coordinates":[[[[107.9166885715052,12.438204752604491],[107.91637878417853,12.4351689995663],[107.91429789225143,12.435001627604493],[107.91370978461268,12.435684136285005],[107.91279968261622,12.435426974826655],[107.91191345214733,12.434398600260707],[107.90708814832814,12.433068576389218],[107.90683776855352,12.432777777778071],[107.90564961751207,12.43466362847252],[107.90724412706052,12.435982530382248],[107.90949781629675,12.436325954861417],[107.91075351291155,12.437407769097561],[107.91160013834522,12.439417860243367],[107.90976474338024,12.440567491319925],[107.91097513834544,12.44159939236151],[107.91453389485562,12.442906358507315],[107.91690016004699,12.442530653212089],[107.9174972195087,12.440904947916906],[107.9166885715052,12.438204752604491]]]]},"properties":{"id":"22916"}}]}