{"type":"FeatureCollection","features":[{"type":"Feature","geometry":{"type":"MultiPolygon","coordinates":[[[[82.34967968750007,27.62319384765631],[82.35017578124999,27.622938964843755],[82.35056250000005,27.62306103515637],[82.35100781250017,27.62329003906261],[82.3512851562501,27.622749999999982],[82.35096484375018,27.622129882812516],[82.35161718750007,27.621688964843898],[82.3532539062501,27.621827148437532],[82.35343750000007,27.62218603515636],[82.35358593750007,27.62307861328138],[82.35406250000008,27.623311035156362],[82.35455078125003,27.623561035156357],[82.35493749999992,27.623438964843743],[82.35518750000008,27.623311035156362],[82.35593750000007,27.623188964843834],[82.35642578125018,27.622938964843755],[82.35706250000018,27.62306103515637],[82.35755078125018,27.623311035156362],[82.35818750000018,27.623188964843834],[82.35875390625009,27.62276025390642],[82.35970703125017,27.623561035156357],[82.36068750000007,27.623438964843743],[82.36093750000018,27.623311035156362],[82.36168359375014,27.623128906250102],[82.36169531250002,27.62257568359388],[82.36156250000019,27.62231396484374],[82.36143750000011,27.622061035156236],[82.36131250000008,27.621813964843753],[82.36118750000006,27.621561035156247],[82.3608125000001,27.62106396484397],[82.36068750000007,27.620811035156365],[82.36056249999993,27.620563964843896],[82.36043750000019,27.620311035156206],[82.3603125000001,27.620063964843737],[82.36018750000008,27.619811035156232],[82.36006250000005,27.61956396484375],[82.3599375000002,27.619311035156244],[82.35981250000017,27.619063964843775],[82.35968750000009,27.61856103515636],[82.35931250000019,27.618063964843813],[82.3591875000001,27.617811035156308],[82.35885156250018,27.617647949218835],[82.35868750000017,27.61731103515642],[82.3580625000001,27.616563964843962],[82.35793750000008,27.616311035156357],[82.35781250000005,27.61606396484389],[82.3576875000002,27.6158110351562],[82.35756250000017,27.6155639648439],[82.35743750000009,27.61531103515631],[82.35731250000006,27.615063964843742],[82.35718749999992,27.614811035156336],[82.3569375000001,27.614688964843808],[82.35668750000005,27.614561035156342],[82.3559296875001,27.614437988281253],[82.35575000000009,27.61425000000004],[82.3535625000001,27.614311035156263],[82.35331250000004,27.6144389648439],[82.35306250000016,27.614561035156342],[82.35281250000006,27.614688964843808],[82.35231250000007,27.614811035156336],[82.35206250000019,27.614938964843887],[82.35181250000008,27.615061035156415],[82.35156249999991,27.61518896484388],[82.3513125000002,27.61531103515631],[82.35081250000016,27.615688964843855],[82.35032421875005,27.61592578125007],[82.34931249999991,27.617061035156425],[82.34918750000017,27.617313964843746],[82.34906250000009,27.61756103515623],[82.34893750000006,27.617813964843904],[82.34881250000004,27.618061035156202],[82.34868750000018,27.618813964843966],[82.34843750000007,27.619298828125125],[82.34856250000016,27.61968896484379],[82.34868750000018,27.619936035156357],[82.34882031250018,27.62368359375003],[82.34943359375015,27.623696289062565],[82.34967968750007,27.62319384765631]]]]},"properties":{"id":"18557"}}]}