{"type":"FeatureCollection","features":[{"type":"Feature","geometry":{"type":"MultiPolygon","coordinates":[[[[103.46402506510108,16.108671875000155],[103.46346408419842,16.105671657986306],[103.46349121093445,16.104350043402945],[103.46283365885128,16.102428927951593],[103.4646381293372,16.101059841580124],[103.46653049044832,16.100141601562683],[103.46831325954562,16.098933376736355],[103.47040500216704,16.100010850694588],[103.47043619791376,16.09848849826416],[103.46756157768809,16.094868164062675],[103.46653917100403,16.094847276475903],[103.46543050129921,16.09708062065998],[103.4637622070284,16.096546223958512],[103.46115098741015,16.09440456814262],[103.46044243706316,16.092944335937872],[103.45841552734086,16.094580620659983],[103.45712185329555,16.093206651475867],[103.45848307291382,16.09152072482665],[103.45696750216732,16.09078531901058],[103.45735839843448,16.089580620659902],[103.45874728732329,16.087859971788518],[103.45791937933731,16.087358398437672],[103.45640272352134,16.086988661024535],[103.45486382378195,16.085082194010596],[103.4551784939205,16.08353868272586],[103.45618652343452,16.08205159505232],[103.45403266058716,16.08135281033006],[103.45402208116033,16.080827907986333],[103.45595241970179,16.079891221788486],[103.45652506510132,16.078779839410004],[103.45596462673305,16.078180338541856],[103.45459635416367,16.078208279080087],[103.45292588975414,16.075454101562755],[103.45290852864284,16.07459662543434],[103.45334065754909,16.073333333333636],[103.45305555555248,16.072500000000275],[103.45108778211514,16.073586425781514],[103.45014512803508,16.074977213541942],[103.45069173176805,16.07758707682325],[103.44964138454597,16.078868815104457],[103.44791937933738,16.07970431857673],[103.45055365668102,16.084268934462003],[103.45179280598651,16.088819986979416],[103.45179280598651,16.092842068142573],[103.4521525065077,16.09565456814275],[103.45014377169835,16.096424967448257],[103.45013102213252,16.097047254774637],[103.45294786241007,16.100201280382166],[103.45373046874735,16.10261284722243],[103.45652506510132,16.105375976562783],[103.4557685004311,16.107041015625242],[103.45461317274007,16.107636176215465],[103.45244004991022,16.107220052083605],[103.45120876735822,16.10390652126766],[103.44876654730623,16.101560058593975],[103.44785346136845,16.100167100694648],[103.44612657334787,16.102224121093997],[103.44818657768806,16.104612358941125],[103.44822889539634,16.106688096788417],[103.44711588541364,16.11011800130234],[103.44615587022284,16.110612521701626],[103.44294433593447,16.110958658854344],[103.44180826822614,16.111703559027987],[103.44263617621246,16.112364095052257],[103.44764946831296,16.11357937283013],[103.44942382812215,16.114742838542],[103.45094726562203,16.117066243489816],[103.4520521375837,16.117635362413438],[103.4527167426186,16.117648925781467],[103.45757351345193,16.11616617838567],[103.4616243489555,16.11527696397593],[103.46293050129904,16.112620171441236],[103.46288058810464,16.110179850260735],[103.46402506510108,16.108671875000155]]]]},"properties":{"id":"10262"}}]}