{"type":"FeatureCollection","features":[{"type":"Feature","geometry":{"type":"MultiPolygon","coordinates":[[[[79.81044813368092,25.293585069444433],[79.8108452690976,25.291837022569638],[79.81227159288235,25.288544379340365],[79.81475097656292,25.287438151041712],[79.81470648871593,25.28688964843748],[79.81303819444477,25.287024197048666],[79.81291666666723,25.286250000000067],[79.81194715711851,25.287241753472387],[79.81109103732697,25.286634657118228],[79.81036024305612,25.286693793402804],[79.8111631944449,25.287826063368144],[79.81108940972254,25.288745659722323],[79.8097021484381,25.289614257812488],[79.80977322048662,25.290493164062497],[79.80941297743087,25.291138237847363],[79.8093391927089,25.292489691840444],[79.80811631944502,25.29180718315976],[79.80745062934065,25.29257975260427],[79.80753255208398,25.29360188802093],[79.80690266927141,25.294144965277866],[79.80773763020889,25.294989691840343],[79.80915635850735,25.293878580729313],[79.81044813368092,25.293585069444433]]]]},"properties":{"id":"19032"}}]}