{"type":"FeatureCollection","features":[{"type":"Feature","geometry":{"type":"MultiPolygon","coordinates":[[[[101.80985449218761,15.302648437500096],[101.81005664062516,15.30218359374993],[101.81019335937512,15.301941406250094],[101.81030664062516,15.301433593750133],[101.810443359375,15.301191406250041],[101.81055664062504,15.30071484375],[101.81014746093771,15.300144531250012],[101.80968164062497,15.29994140625],[101.80944335937502,15.299808593749972],[101.808681640625,15.29969140625009],[101.80844335937505,15.299558593750163],[101.80765722656244,15.29944140625011],[101.8075000000002,15.299250000000058],[101.80655664062513,15.299308593749998],[101.80631835937513,15.29944140625011],[101.8053066406251,15.299558593750163],[101.80481835937516,15.29994140625],[101.80330664062515,15.300058593750052],[101.80306835937515,15.300191406250079],[101.80280664062516,15.300308593750131],[101.80256835937516,15.300441406249973],[101.80155664062502,15.300558593750125],[101.8011933593751,15.30078515625],[101.80158007812517,15.301324218750054],[101.80154589843764,15.301660156250094],[101.80055664062516,15.301808593750167],[101.8000683593751,15.302191406250088],[101.79980664062512,15.302308593750055],[101.79956835937512,15.302441406250082],[101.79857519531274,15.302558593750135],[101.79794335937513,15.302058593749976],[101.79768164062514,15.301941406250094],[101.79734667968759,15.301749999999956],[101.79665429687489,15.301824218750127],[101.79644335937527,15.302332031250003],[101.796580078125,15.30366796875009],[101.7978183593751,15.303808593750006],[101.79817382812516,15.304011718750118],[101.79830664062516,15.30519140625016],[101.79906835937513,15.305308593750212],[101.79943457031263,15.30557031250008],[101.79955664062513,15.307191406249984],[101.79990332031267,15.307675781250012],[101.80099511718763,15.307808593750025],[101.801431640625,15.307558593750215],[101.80369335937516,15.307441406249978],[101.80393164062517,15.30730859375005],[101.80444335937503,15.307191406249984],[101.80518164062497,15.306558593749983],[101.80594335937516,15.306441406250102],[101.806431640625,15.30605859375001],[101.80669335937503,15.305941406249943],[101.80735839843763,15.3053867187501],[101.807556640625,15.304933593750008],[101.80894335937504,15.303441406250045],[101.80909472656256,15.303093750000116],[101.80944335937502,15.302941406250156],[101.80985449218761,15.302648437500096]]]]},"properties":{"id":"22251"}}]}