{"type":"FeatureCollection","features":[{"type":"Feature","geometry":{"type":"MultiPolygon","coordinates":[[[[104.85531168619801,14.666853942871214],[104.8548347981774,14.666111111111292],[104.85328911675364,14.666232130262799],[104.85193820529523,14.66752838134775],[104.85154432508713,14.668490227593423],[104.84971381293431,14.669903293185868],[104.84998887803843,14.67082261827268],[104.85225884331632,14.670066867404671],[104.8538940429689,14.667948269314365],[104.85531168619801,14.666853942871214]]]]},"properties":{"id":"22323"}}]}