{"type":"FeatureCollection","features":[{"type":"Feature","geometry":{"type":"MultiPolygon","coordinates":[[[[74.49716949462905,32.710182189941406],[74.47707366943379,32.68408584594738],[74.46977233886733,32.6817626953125],[74.47541809082045,32.69814682006843],[74.47923278808608,32.69731140136736],[74.50033569335963,32.72029495239275],[74.5113220214844,32.729591369629034],[74.5150146484377,32.73952102661147],[74.51639556884768,32.756294250488494],[74.52154541015628,32.76673126220712],[74.54095458984412,32.78939819335952],[74.55715179443385,32.796241760253935],[74.5723571777344,32.79985809326175],[74.58549499511722,32.813705444336065],[74.6127471923829,32.82624435424813],[74.62916564941415,32.8398513793945],[74.65247344970734,32.84877395629884],[74.66887664794953,32.85329055786147],[74.6687927246094,32.851169586181754],[74.65653228759786,32.84181976318379],[74.6503219604493,32.841259002685675],[74.63397216796878,32.83610916137708],[74.62847900390668,32.83283996582033],[74.61478424072286,32.81959915161153],[74.60013580322268,32.81200408935544],[74.58356475830087,32.79732894897468],[74.57655334472688,32.79439163208025],[74.56540679931655,32.7931213378906],[74.55230712890628,32.78814697265638],[74.53820800781281,32.776985168457074],[74.52349090576186,32.75205230712899],[74.52262115478541,32.74735641479508],[74.51971435546878,32.73704528808591],[74.51627349853553,32.72713088989272],[74.51222229003915,32.72161483764664],[74.49716949462905,32.710182189941406]]]]},"properties":{"id":"1634"}}]}