{"type":"FeatureCollection","features":[{"type":"Feature","geometry":{"type":"MultiPolygon","coordinates":[[[[76.6445316253598,24.241037792072433],[76.64210587949023,24.238884024926378],[76.63994766356345,24.239419118022525],[76.63914052652595,24.239691130235187],[76.63914052652595,24.240230674986734],[76.63968008736632,24.24049825678034],[76.64075479548038,24.24049828051372],[76.64129434947566,24.240770304314623],[76.6415663289446,24.241037840500624],[76.64183390117992,24.24130534041271],[76.6423734505938,24.242116908965258],[76.6423734505938,24.243463551740234],[76.64264093299775,24.24454267396878],[76.64318047898902,24.245889337710636],[76.64399208509988,24.245889355254732],[76.64614582588948,24.24508220133805],[76.64695291846928,24.24481024397653],[76.6472248858378,24.244270668987582],[76.6472248858378,24.243463563166912],[76.64668535700466,24.24346355717509],[76.64587826272711,24.242656502243662],[76.64506675678714,24.242116960968545],[76.64479919135212,24.241844928858285],[76.6445316253598,24.24130534434734],[76.6445316253598,24.241037792072433]]]]},"properties":{"id":"38989"}}]}