{"type":"FeatureCollection","features":[{"type":"Feature","geometry":{"type":"MultiPolygon","coordinates":[[[[103.55492784288188,14.76388668484175],[103.55688178168427,14.763421257866923],[103.55938910590285,14.763445841471494],[103.56119059244784,14.764548916287154],[103.5642038302955,14.76551774766726],[103.56872314453128,14.763545566135136],[103.57053466796893,14.763199734158121],[103.57253282335077,14.762040676541034],[103.57362874348959,14.759718560113086],[103.57357042100708,14.758247918023116],[103.57235107421891,14.756657884386101],[103.5709879557293,14.756226298014482],[103.56938096788215,14.756221008301097],[103.56876736111118,14.754920823839143],[103.56915662977443,14.753435567220293],[103.57141004774317,14.751980353461633],[103.57607937283004,14.747911376953283],[103.5803466796875,14.744670817057667],[103.58109863281251,14.742295193142567],[103.5804711914063,14.739387715657756],[103.5784282769097,14.734139200846627],[103.57657307942705,14.73144297281921],[103.57334174262164,14.730826043023342],[103.57233479817708,14.72861111111132],[103.57135715060795,14.728744710286605],[103.57008870442726,14.72937455919083],[103.56941623263887,14.729018724229874],[103.5687632921009,14.729723646375945],[103.5683124457465,14.730729946560558],[103.56886827256963,14.731245083279347],[103.56882731119791,14.732280680338746],[103.56917561848965,14.733274875217163],[103.56929551866315,14.738914625379948],[103.56844807942716,14.739699774848333],[103.56601779513912,14.739062940809575],[103.56553466796893,14.740215216742826],[103.56609185112845,14.741805555555729],[103.56574327256934,14.742800632053118],[103.5641856553822,14.743189154731056],[103.562308485243,14.741661546495408],[103.56058810763895,14.742264573839208],[103.559743652344,14.74317582872196],[103.5604899088543,14.746023695204144],[103.55845079210107,14.747340460883393],[103.55374538845487,14.74763359917553],[103.55103949652792,14.747067464192895],[103.54746582031262,14.743664550781403],[103.5461900499134,14.743199734158082],[103.54491509331606,14.74407704671242],[103.54498562283013,14.745854729546679],[103.54785753038212,14.749823371039724],[103.54772976345507,14.753045789930738],[103.54407606336824,14.753846299913306],[103.54179714626733,14.753047519260122],[103.54033148871528,14.750777960883426],[103.53891818576406,14.750421956380393],[103.53590413411459,14.75308644612656],[103.53747694227448,14.754102172851688],[103.53888807508687,14.756502312554417],[103.54081244574664,14.757633599175591],[103.54222601996528,14.759159478081841],[103.54364284939251,14.761353318956324],[103.54657036675357,14.764817708333553],[103.54691270616334,14.766255289713811],[103.5479090711805,14.76689866807746],[103.54956515842034,14.768598158094889],[103.55195448133699,14.767333814833066],[103.55306260850702,14.765091247558786],[103.55492784288188,14.76388668484175]]]]},"properties":{"id":"10324"}}]}