{"type":"FeatureCollection","features":[{"type":"Feature","geometry":{"type":"MultiPolygon","coordinates":[[[[82.53336317274287,24.8763190544979],[82.5333037651911,24.873409016927425],[82.53363606770844,24.872437854343303],[82.5347417534721,24.871375537448756],[82.5347075737848,24.869698181152685],[82.53599310980886,24.86846296522394],[82.53889295789921,24.86805814107302],[82.53858723958334,24.86686486138268],[82.53862114800356,24.86519734700552],[82.53917968750008,24.86301800198055],[82.5403238932291,24.8625027804908],[82.54360839843761,24.86444722493529],[82.5464295789931,24.864719441732035],[82.5480851236978,24.864152781169025],[82.54994927300348,24.86221267700219],[82.55111382378462,24.862236446804943],[82.55166395399303,24.86166388617643],[82.55455213758691,24.86102988349097],[82.55525526258671,24.862479332818197],[82.55721950954873,24.86083055284317],[82.55944173177076,24.859997219509893],[82.5617678493924,24.859618564182355],[82.56326090494795,24.86038779364719],[82.56365722656241,24.85835823906821],[82.56843532986093,24.857780558268658],[82.56935112847245,24.859177059597727],[82.56999728732634,24.85912587483756],[82.56933132595478,24.857180548774224],[82.56859157986096,24.85608930799728],[82.56611382378495,24.854719441732144],[82.56491183810752,24.854426405165228],[82.56329155815982,24.854459465874953],[82.56224256727435,24.855551418728595],[82.56002360026051,24.856524081760227],[82.55855088975702,24.854537675645958],[82.55559678819438,24.852907630073133],[82.55518391927077,24.849108801948177],[82.55387234157993,24.848472391764602],[82.55262288411447,24.849115973578847],[82.55058702256932,24.85075946384042],[82.54666395399286,24.851108330620946],[82.54566216362835,24.852459835476623],[82.54355929904509,24.853330552843175],[82.54023247612835,24.852492421468384],[82.5386507161459,24.852524702284455],[82.5359733072917,24.85160832723031],[82.5323277452259,24.849730309380718],[82.52964870876744,24.849447224935147],[82.52592746310776,24.850081939697574],[82.52472764756934,24.850700005425594],[82.52219346788203,24.851402469211408],[82.51912597656249,24.85081944783552],[82.51816758897579,24.849821896023514],[82.51778049045126,24.848559417725],[82.5196912977431,24.846723615858465],[82.52612467447906,24.84580084906723],[82.52610514322922,24.84485000610384],[82.5252750651043,24.844447224935337],[82.51961317274302,24.84002872043216],[82.51861382378459,24.838117387560104],[82.51960123697901,24.83750278049078],[82.52083062065972,24.83833611382404],[82.52336317274316,24.838608330621057],[82.52445827908,24.838044162326753],[82.52444146050337,24.837208336724515],[82.52331027560788,24.836659545898755],[82.52177218966997,24.835058848063497],[82.52119086371513,24.833267262777056],[82.52299018012164,24.832087504069364],[82.52363932291675,24.830786895752226],[82.52477403428807,24.830280558268456],[82.52694200303827,24.830836215549354],[82.53159396701378,24.830533464220196],[82.53573079427085,24.83173034668009],[82.53666395399298,24.83119115193719],[82.53456705729181,24.82981635199681],[82.53289062500008,24.829407687717335],[82.53191867404499,24.828036244710617],[82.5290711805558,24.828094346788518],[82.52735812717017,24.826933169895128],[82.5262391493055,24.82695600721614],[82.52554199218767,24.825519358317365],[82.52557156032972,24.824076894124644],[82.52419243706598,24.823172726101703],[82.52272135416658,24.823930562337523],[82.52200412326383,24.82467707316117],[82.52160780164942,24.826707611084302],[82.51941243489571,24.827772725423515],[82.51834147135403,24.82665800306563],[82.51776394314246,24.826669786241666],[82.51722493489572,24.827780558268472],[82.51604627821175,24.82891308254692],[82.513711751302,24.828865424262574],[82.51333604600686,24.826941663954273],[82.51221950954854,24.824725002712952],[82.51192165798622,24.82289496527821],[82.51109727647585,24.822502780490808],[82.51001898871536,24.82472532484293],[82.50789035373273,24.825787963867427],[82.50617241753466,24.825199924045435],[82.50527994791653,24.823084225125115],[82.50500271267387,24.821625874837565],[82.50560302734382,24.819872317844258],[82.50810384114592,24.819384087456854],[82.50860839843759,24.818314327664282],[82.50803602430571,24.817764417860545],[82.50791666666655,24.815972222222697],[82.50725857204847,24.816185777452546],[82.50694715711828,24.817780558268666],[82.50554144965261,24.81917487250456],[82.50498182508673,24.819163462321356],[82.50109212239593,24.8211083306211],[82.50013888888881,24.820116221110297],[82.49892333984363,24.82138139512837],[82.49750271267354,24.822046525743588],[82.49889404296877,24.822498016357727],[82.49792507595495,24.825311957465672],[82.49578531901025,24.82528159247542],[82.49583957248254,24.827939470079556],[82.49668050130211,24.829180280897646],[82.49665283203106,24.830536956787412],[82.49730929904521,24.831811116536855],[82.499447157118,24.83916388617658],[82.50039523654524,24.842996537950654],[82.5008856879339,24.846509195963833],[82.50225206163182,24.84583611382412],[82.5033528645832,24.846403164334134],[82.50332709418402,24.847661692301756],[82.50249728732635,24.848886108398702],[82.50212293836793,24.852330288357535],[82.50361382378466,24.854997219509897],[82.50393880208324,24.856329667833492],[82.50288248697919,24.857721727159614],[82.5023613823785,24.859327782525284],[82.5034147135415,24.862506849501173],[82.50390842013897,24.862496761746186],[82.50473008897566,24.86164135403139],[82.50470811631945,24.860552435981177],[82.50510091145841,24.860560455322542],[82.50561631944433,24.863727060954034],[82.50741590711797,24.862830895318197],[82.50952338324649,24.8625027804908],[82.51267876519088,24.864128350152257],[82.51309814453126,24.86542054918111],[82.51245741102414,24.867634735107714],[82.51389187282993,24.868330612182874],[82.5138799370661,24.868908911811246],[82.51528021918418,24.868891779582],[82.51607449001725,24.86848273383282],[82.51749728732656,24.86944722493527],[82.51922715928808,24.87017849392393],[82.51971950954871,24.869163775974172],[82.52138970269087,24.86919786241353],[82.52200981987838,24.867287495931365],[82.52387071397558,24.866683561537315],[82.52475206163203,24.866086213854004],[82.52621392144081,24.866116044786665],[82.52666395399316,24.867502780490796],[82.52889160156244,24.86999721950987],[82.52916395399299,24.87114100986092],[82.52784098307288,24.87245116339831],[82.52963514539934,24.87288855658683],[82.52807101779516,24.874391530355112],[82.52778049045159,24.87519293043377],[82.52948621961812,24.874609154595603],[82.53073784722218,24.87376068115273],[82.53150444878455,24.87682634989453],[82.53292616102422,24.87721944173201],[82.53336317274287,24.8763190544979]]]]},"properties":{"id":"1778"}}]}