{"type":"FeatureCollection","features":[{"type":"Feature","geometry":{"type":"MultiPolygon","coordinates":[[[[74.3810820312502,25.40666406250007],[74.38130859375022,25.40618554687518],[74.38202343750018,25.405339843749957],[74.3828359375,25.405189453125118],[74.38332812500019,25.40545019531251],[74.3836015625001,25.406024414062657],[74.3839609375,25.40631054687495],[74.38443359375006,25.40606054687504],[74.38494140625014,25.40593945312517],[74.3853750000001,25.405709960937514],[74.38603515625013,25.40605859375019],[74.38668359375006,25.40556054687515],[74.38769140625001,25.405439453125098],[74.38793359375009,25.40531054687507],[74.38819140625006,25.405189453125118],[74.38850000000016,25.405025390625084],[74.38900000000015,25.405290039062564],[74.38943359374994,25.405060546875077],[74.3896914062502,25.40493945312521],[74.38993359374993,25.404810546874998],[74.39019140625001,25.404689453125044],[74.39118359375007,25.403810546875036],[74.39294140625017,25.403689453125168],[74.3931835937502,25.403560546874957],[74.39344140625016,25.403439453125003],[74.39368359375018,25.403310546875062],[74.39394140625004,25.403189453125094],[74.39443359374994,25.402810546875074],[74.39469140625002,25.402689453125205],[74.39493359375021,25.402560546874994],[74.39544140625017,25.40243945312521],[74.39618359375007,25.40181054687511],[74.39669140625003,25.401689453124973],[74.39718359375021,25.401310546874953],[74.39744140625001,25.401189453125],[74.39833203125013,25.400414062500047],[74.3985585937501,25.399935546875057],[74.39869921875018,25.399670898437577],[74.3991914062502,25.399439453124884],[74.39943359375022,25.399310546875128],[74.39969140625001,25.39918945312516],[74.3999335937502,25.39906054687495],[74.40044140625017,25.398939453124996],[74.40083203124996,25.39867089843753],[74.40105859375026,25.398185546875126],[74.40196484375005,25.397163085937606],[74.40192968750003,25.396348632812575],[74.40093359375012,25.396189453125004],[74.40069140625005,25.396060546875063],[74.39943359375022,25.395939453125195],[74.3991914062502,25.395810546875083],[74.39843359375007,25.395689453125115],[74.39819140625005,25.39556054687509],[74.3974335937501,25.39543945312512],[74.39719140625002,25.39531054687501],[74.39593359375019,25.39518945312504],[74.39569140625017,25.3950605468751],[74.39493359375021,25.394939453124962],[74.39469140625002,25.39481054687512],[74.39368359375018,25.394689453125153],[74.39344140625016,25.394560546875212],[74.39218359374993,25.39443945312499],[74.3919414062502,25.394310546875047],[74.39118359375007,25.39418945312508],[74.39094140625016,25.394060546874968],[74.3896835937501,25.393939453125],[74.38944140625014,25.39381054687506],[74.38843359375008,25.39368945312519],[74.38819140625006,25.39356054687508],[74.38693359375017,25.39343945312511],[74.38669140624998,25.393310546875085],[74.38618359375008,25.393189453125117],[74.38594140625005,25.393060546875006],[74.38568359375009,25.392939453125038],[74.38544140625018,25.392810546875097],[74.38418359375018,25.39268945312496],[74.38394140625016,25.392560546875117],[74.38292578125024,25.39243847656259],[74.38275000000013,25.392250000000146],[74.38186718750003,25.392327148437644],[74.38169140625016,25.393064453125078],[74.38155859374993,25.393310546875085],[74.38144140625016,25.39406445312504],[74.38130859375022,25.394310546875047],[74.38119140625,25.394564453125113],[74.38053906249993,25.395333007812468],[74.38005859375008,25.39556054687509],[74.37956640625,25.395939453125195],[74.37905859375016,25.396060546875063],[74.37881640624997,25.396189453125004],[74.37855859375017,25.39631054687497],[74.37791796875015,25.39683300781259],[74.37769140624997,25.397314453125006],[74.37730859375009,25.397810546875093],[74.37719140625015,25.398212890625047],[74.37744140625003,25.398685546875015],[74.37755859375002,25.399837890625037],[74.37730859375009,25.40031054687499],[74.37719140625015,25.40056445312497],[74.37705078125006,25.400829101562536],[74.37655859375005,25.40106054687506],[74.37631640625003,25.401189453125],[74.37591406250019,25.401310546874953],[74.37542968750026,25.401055664062497],[74.37515234375016,25.40106640625008],[74.37494140624997,25.401632812500083],[74.37531640625016,25.40181054687511],[74.37555859375007,25.401939453125053],[74.37581640625015,25.402060546875106],[74.37605859375006,25.402189453125132],[74.37646093750013,25.4023105468751],[74.37714843749998,25.40194628906265],[74.37778515625016,25.40238378906261],[74.37755078125005,25.40282910156246],[74.37689062500002,25.40314062500009],[74.37669140625016,25.403564453125213],[74.37630859375017,25.404060546874945],[74.37619140625,25.40429785156249],[74.37694140625015,25.405185546874947],[74.37705859374992,25.405439453125098],[74.37719140625015,25.405685546875105],[74.37730859375009,25.406587890625048],[74.37705859374992,25.407060546875],[74.37694140625015,25.407450195312705],[74.37732421875009,25.407434570312475],[74.37755859375002,25.406935546874962],[74.37769921875,25.406670898437582],[74.37819140625018,25.40643945312516],[74.37862500000008,25.406209960937503],[74.37916015625004,25.40649218750015],[74.37930859374993,25.40743945312512],[74.38005078125005,25.407560546875075],[74.3810820312502,25.40666406250007]]]]},"properties":{"id":"27041"}}]}