{"type":"FeatureCollection","features":[{"type":"Feature","geometry":{"type":"MultiPolygon","coordinates":[[[[104.24232204860826,15.675727810330088],[104.24583143445878,15.673614366319626],[104.24891031900736,15.672489420573115],[104.24781738280947,15.671400010850945],[104.24540581596929,15.67185004340297],[104.24350151909445,15.673412543403018],[104.24214925129908,15.673493109809371],[104.24026231553555,15.673157823350863],[104.23506184895533,15.674297688802312],[104.23348795572613,15.672206488715432],[104.22987223307004,15.670478786892588],[104.22944444444144,15.670000000000229],[104.22782524956315,15.670168728298947],[104.22694471570881,15.671429578993283],[104.22932128905953,15.672762044271039],[104.23305772569162,15.676081271701548],[104.23719265407684,15.677031792534876],[104.23924669053528,15.677045355902905],[104.23999348958037,15.67771294487865],[104.23920247395571,15.681320529514124],[104.23957546657701,15.682924533420447],[104.24053629556991,15.68416422526073],[104.24170735676788,15.686715494791926],[104.24356987846923,15.688158908420277],[104.2454087999104,15.688268500434233],[104.24512396918115,15.687273763021082],[104.24261881510117,15.685035536024543],[104.24203206379931,15.683955620659944],[104.24086181640351,15.68069444444464],[104.24125786675043,15.679591200087003],[104.24232204860826,15.675727810330088]]]]},"properties":{"id":"22217"}}]}