{"type":"FeatureCollection","features":[{"type":"Feature","geometry":{"type":"MultiPolygon","coordinates":[[[[107.86983500162657,14.392906494141116],[107.87172926160909,14.390934922960582],[107.87169372558495,14.38919223361583],[107.8704697672517,14.387173800998795],[107.87059916178279,14.38083190918016],[107.87212639702582,14.377302110460533],[107.87376078287642,14.375277370877157],[107.87449456108848,14.373416815864175],[107.87644063313698,14.37151441786078],[107.87641025119242,14.370024956597646],[107.87880011664382,14.367363891602011],[107.88475172254678,14.370697224935356],[107.88724114311978,14.371700032552567],[107.88627977159197,14.37311815049965],[107.88445197211283,14.373469441732283],[107.8824435085709,14.372108018663695],[107.88071743435219,14.372997233073349],[107.87842712402235,14.375380859375383],[107.87710578070633,14.376247219510034],[107.87765374077603,14.377311130100324],[107.87865878634872,14.376793348524842],[107.88024597167853,14.378445298937123],[107.88101121690451,14.378816528320812],[107.88385708278994,14.381778632270482],[107.88452412923087,14.38210218641538],[107.88559020995982,14.38208041720965],[107.88623474120996,14.382412380642748],[107.88773512098416,14.382027859158583],[107.8869877794045,14.379111870660196],[107.88785068087995,14.377919447157495],[107.88919074164389,14.379314236111526],[107.8910272216788,14.37931165907169],[107.89239332410918,14.380237698025653],[107.89346048990794,14.379514363607257],[107.89406188964753,14.377046780056872],[107.89502950032468,14.375076293945796],[107.8930649820953,14.373189019097751],[107.89447394476903,14.37159138997444],[107.89308505588022,14.371252780490963],[107.8928127034495,14.369580552843502],[107.89195414225142,14.368448893229655],[107.89030158148753,14.367647162543904],[107.8905961778419,14.36707499186241],[107.89150465223432,14.367093573676712],[107.89530456542857,14.370283338759279],[107.90086825900508,14.37180277506556],[107.901721666123,14.372242431641155],[107.90336283365767,14.371247219510039],[107.9068811713316,14.370279947917084],[107.90894388834525,14.370702446832055],[107.9105690511058,14.370669284397295],[107.91157111273779,14.371666463216556],[107.9129947238487,14.37025553385476],[107.91613193088014,14.369080878364201],[107.91783955891813,14.368747558594194],[107.9188079833975,14.367739461263426],[107.91919616699127,14.366480712891047],[107.91631693522024,14.365258449978825],[107.91404018825861,14.366037733290398],[107.91268900553271,14.365341661241857],[107.91132724337993,14.363924289280021],[107.91208652072365,14.362450018989193],[107.91181986490793,14.36153055826874],[107.90915927463024,14.363334147135888],[107.90916904025497,14.366802775065565],[107.90786777072393,14.366132405599416],[107.9083837212448,14.363107571072561],[107.90835984971696,14.361939019097633],[107.90748908148797,14.36238749186252],[107.9065182156024,14.366810167101178],[107.90557935926554,14.369036119249643],[107.90450541178271,14.3690142144102],[107.9035904269737,14.369327324761798],[107.90169806586263,14.370610215929403],[107.90026875813712,14.370121053060345],[107.89975714789395,14.3695713975699],[107.90264370388346,14.368634711371953],[107.9030850558801,14.367492404514323],[107.89966166178274,14.36665791829482],[107.8964183892135,14.364863891602099],[107.89614603678277,14.364014078776563],[107.8972571478939,14.36347500271323],[107.89853915744268,14.36214077419747],[107.90086283365807,14.360664537218412],[107.90022589789399,14.3594281005863],[107.90144009060216,14.357035929362354],[107.9014151340049,14.35581970214892],[107.90057393391837,14.355419447157644],[107.89989874945653,14.356811319987429],[107.89920701768554,14.35679721408458],[107.89757236056752,14.357607082791262],[107.89714782714756,14.360648396810376],[107.89619676377939,14.362494371202658],[107.89375372992507,14.365326877170645],[107.89107035318912,14.365701429579389],[107.88950080023764,14.365669420030855],[107.88820604112314,14.366336330838152],[107.88776170518568,14.369066297743572],[107.88649922688714,14.370413886176678],[107.88252950032447,14.36764166937985],[107.88021043565467,14.365601671007397],[107.88066670735569,14.364716254340749],[107.88639777289418,14.366877102322547],[107.88697394476887,14.366220092774],[107.88532138400498,14.364632500542982],[107.8839164903417,14.362361653646332],[107.88424608018576,14.361722073025689],[107.88603264702581,14.360005425347723],[107.88442782931739,14.358463473850222],[107.8833403184668,14.354607679579587],[107.8841066487619,14.353120185004883],[107.88184889051544,14.351639879015181],[107.88070170084521,14.348731621636787],[107.88003492567182,14.345678846571701],[107.88170159233832,14.344586113824306],[107.88209574381418,14.342567681207072],[107.88138502332791,14.341188083225262],[107.87976094563712,14.339627685547356],[107.87947937011623,14.338360934787872],[107.88088806152226,14.336504448785249],[107.88280727810232,14.335397677951875],[107.8822343614356,14.334847344292953],[107.88138122558482,14.334864773221042],[107.87876213921348,14.33664008246572],[107.87836825900493,14.339863891602064],[107.87793097601903,14.340691663954416],[107.87668504502929,14.339847140842537],[107.87611484103618,14.337507798937096],[107.87613681369268,14.335242784288639],[107.87399136013372,14.334823947483045],[107.87281270344968,14.334024997287798],[107.87129794650522,14.333404608832879],[107.87028476291121,14.330947536892836],[107.86827168782449,14.329970974392907],[107.86697394476883,14.327919447157612],[107.86557583278974,14.32456841362891],[107.86324239094947,14.323682386610656],[107.86281270344935,14.3223583306211],[107.85962097167877,14.319226209852928],[107.85920159233845,14.317875840929233],[107.86041524251212,14.316709933811183],[107.86282979329323,14.3170800781254],[107.86280565049802,14.315893079970252],[107.86077738443888,14.315398627387552],[107.85893819173108,14.315436130100409],[107.85709601508134,14.31388963487457],[107.85364061143574,14.312641669379985],[107.85281270344959,14.312007175022217],[107.85559048122727,14.310975002713164],[107.85701300726893,14.309826795790386],[107.85808505588014,14.308191663954403],[107.86142381456048,14.3045861138243],[107.86197394476906,14.30360419379386],[107.85943515353628,14.30319091796919],[107.8583574083107,14.302069091797321],[107.85834872775521,14.299174262153244],[107.85779615614044,14.296476304796514],[107.85557393391841,14.294285549588068],[107.85559699164381,14.293160264757518],[107.85697394476901,14.29095852322105],[107.85503492567162,14.289963650174258],[107.85589538574149,14.28875278049098],[107.85757588704334,14.289600355360648],[107.86047627766837,14.292482774523023],[107.86089050292847,14.292051798503081],[107.86086201985577,14.2906597222227],[107.8627486843524,14.288846978082034],[107.8591769070085,14.285804239909325],[107.85920728895312,14.284309488932735],[107.85725714789405,14.281764729818107],[107.85837341308499,14.278436889648901],[107.85834248860559,14.276922132704485],[107.85865227593203,14.275104912652367],[107.86099005805048,14.271628892687076],[107.86184048122735,14.272514105903312],[107.86135247124454,14.273939615885908],[107.86201734754664,14.274858330621129],[107.86311842176556,14.273712497287846],[107.8636623128244,14.272591484917982],[107.86363382975142,14.268980577257281],[107.86215026855373,14.26755513509164],[107.86263339572392,14.266617363824238],[107.86450080023778,14.26737481011331],[107.86532111273786,14.267358059353867],[107.86591790093215,14.26490946451871],[107.86864603678274,14.261808336046471],[107.86952629936971,14.259096069336394],[107.86944383409198,14.25506015353777],[107.87080017089752,14.25417080349429],[107.87194654676537,14.251888359918027],[107.87423468695638,14.248966132270425],[107.87510002983825,14.24813469780861],[107.8768030463315,14.24764166937986],[107.87752950032458,14.249907362196609],[107.87659851074127,14.25171454535635],[107.87766676160922,14.252740817600426],[107.87949835883146,14.253941650391042],[107.87945712619248,14.257903306749569],[107.88019361707782,14.258610907661037],[107.88143493652248,14.258185967339884],[107.88197394476887,14.256524997287713],[107.88348951551555,14.254417588976295],[107.88411370171346,14.255067274306015],[107.88335171169601,14.256546359592434],[107.88336880153966,14.257378607856339],[107.88621927897029,14.259638536241837],[107.88819057888364,14.259310506185471],[107.88957132975176,14.263156467014312],[107.8945520697691,14.263599446614947],[107.89615715874478,14.262626003689661],[107.89613979763354,14.261768798828612],[107.89393439398773,14.261813761393753],[107.89304192436967,14.261508314345207],[107.8921318223731,14.260561116536934],[107.89254333495981,14.258148396810341],[107.89392381456051,14.25569722493536],[107.89452033148783,14.251926744249644],[107.89588480631394,14.249557427300786],[107.89586066351907,14.248375040690561],[107.89338507758137,14.248797336154936],[107.89222703721671,14.250747951931842],[107.89007398817196,14.252816636827845],[107.88524570041128,14.254579196506498],[107.88442972818896,14.252510443793895],[107.8850674777552,14.250307617187886],[107.88594122992507,14.248611111111558],[107.88452874077606,14.244964803060412],[107.88291497124445,14.245796034071631],[107.88119866265097,14.24535617404554],[107.87947937011623,14.243871053060417],[107.88065938313716,14.242130126953597],[107.88055792914386,14.24041944715755],[107.87912238226889,14.241913452148921],[107.87835171169607,14.241516384549044],[107.8783815511056,14.240049099392735],[107.87547030978621,14.238110080295542],[107.87503492567177,14.235375840929251],[107.87669616699102,14.233515964084802],[107.87500996907434,14.23150729709242],[107.87430277506397,14.230049913194861],[107.87279615614042,14.231266208225321],[107.87283087836303,14.232963460286982],[107.87005635579308,14.23255805121569],[107.86860263400527,14.232930569119404],[107.8663351101334,14.235290866428471],[107.8656873236753,14.23662611219656],[107.86531270344946,14.239308336046435],[107.86446417914388,14.241269599067309],[107.86307963053267,14.241241319444839],[107.86251268174803,14.241831461588887],[107.86167880588013,14.244353298611642],[107.85854621039383,14.244310370551702],[107.85562221950849,14.247353583442276],[107.85475172254687,14.24763610839885],[107.85308885362323,14.248897840712331],[107.85211554633142,14.248396470812153],[107.8512822129982,14.248825751411047],[107.8505739339183,14.2484608289936],[107.85059590657463,14.247379218207953],[107.85028096516825,14.246149902344271],[107.8503208414705,14.244191691081355],[107.85526658799805,14.239439832899834],[107.85586283365782,14.23817545572976],[107.85514289008157,14.237483927409386],[107.852351006401,14.240389811198355],[107.85022128634895,14.242151760525687],[107.84917799207787,14.241794637044677],[107.84752434624463,14.239272596571581],[107.8485022650813,14.234268595378083],[107.84754740397042,14.232414957682664],[107.84542690700837,14.232001071506488],[107.84336825900502,14.229858330621056],[107.84205912272043,14.229223158095095],[107.8411666531023,14.22738396538675],[107.83794887966471,14.223055555555916],[107.83614468044587,14.223407728407693],[107.83405212402229,14.224676784939732],[107.83308071560216,14.224018215603778],[107.83004984537664,14.227017211914614],[107.82955912272027,14.228529663086391],[107.831889038085,14.231231079102074],[107.8325295003244,14.233314887153341],[107.83113898383155,14.23652838812977],[107.83197394476909,14.238089870877232],[107.82982903374474,14.2385085720491],[107.8289164903421,14.240695393880628],[107.83053948296347,14.242254706489263],[107.82919047037657,14.244032389323436],[107.82920756022028,14.244875013563771],[107.83138909233847,14.245582885742692],[107.83169616699107,14.246543375651541],[107.82940016004684,14.248048638238473],[107.82880906846717,14.24926710340769],[107.82922329372721,14.250476752387598],[107.82919589572404,14.254863755968358],[107.82977939181771,14.255724283854647],[107.82973978678288,14.257658352322508],[107.82787590874457,14.258562689887611],[107.82906677246004,14.259706895616802],[107.82947394476909,14.261002129449253],[107.82862325032457,14.261819322374578],[107.8269793701161,14.261962280273877],[107.82800286186958,14.263472222222688],[107.82614034016834,14.26680297851621],[107.82616583930016,14.26805284288244],[107.82414761013334,14.26934936523476],[107.82451571994247,14.271146104601215],[107.82446472167854,14.273636745877184],[107.82261033799821,14.274302775065522],[107.82096971299822,14.273057793511754],[107.81978671603636,14.274289008246996],[107.81856465657441,14.27509012858124],[107.81508917914411,14.275467732747927],[107.81348029242517,14.27416904025651],[107.81269904242535,14.274982164171561],[107.81378546820642,14.276584947374602],[107.81537807888336,14.277101779514354],[107.81743374294595,14.277059800890228],[107.81947068956057,14.277477077908415],[107.82099494086279,14.279801635742714],[107.82002407497734,14.283485378689662],[107.82008755153984,14.286598849826845],[107.81919616699125,14.28791388617661],[107.81892381456069,14.290109998915383],[107.82118509928299,14.292680324978747],[107.82113572862298,14.295088026259137],[107.8197311062273,14.29682840983125],[107.8189468722862,14.298444824219189],[107.81610887315432,14.302397393121225],[107.81410257975173,14.303712972005727],[107.81290113660916,14.303094007704487],[107.81243835449109,14.303575710720892],[107.81304246690425,14.304748535156776],[107.8122327338314,14.307114054362359],[107.80961012098433,14.307089097765214],[107.81032355414405,14.308508436415465],[107.81030266655713,14.309527520074269],[107.81197937011612,14.311524997287762],[107.81252950032464,14.314079454210557],[107.81110588921322,14.31544711642843],[107.80870056152244,14.315398017036145],[107.80638502332809,14.313730875651473],[107.8047799343523,14.313763631185395],[107.80446363660914,14.316676771376336],[107.80241611056769,14.31717590332073],[107.80069790310247,14.31890557183209],[107.79944410535936,14.319312405056891],[107.79892381456071,14.319874810113276],[107.80032138400489,14.320552842882407],[107.79975063747744,14.323473171658549],[107.80015726725148,14.324262220595045],[107.80229105631398,14.323162977430997],[107.80572313096698,14.31832478841197],[107.80783983018571,14.31791944715755],[107.80894036186967,14.318486328125402],[107.80961012098433,14.319866672092445],[107.81193406846674,14.321709255642801],[107.81267164442173,14.323229641385169],[107.814504869248,14.32431783040407],[107.81538241916164,14.325231187609049],[107.81615064832786,14.327955525716604],[107.81671298556748,14.329046969944045],[107.8183739556197,14.329852769640254],[107.81894036186955,14.330442437066424],[107.81891377766848,14.331751030816505],[107.8172571478938,14.330413886176686],[107.81562140570642,14.330015055339004],[107.8153127034494,14.333405354818197],[107.8179521348732,14.336405639648916],[107.81748474121,14.338686998155822],[107.81836283365791,14.340017835829386],[107.81732821994248,14.341543986003188],[107.81632371690424,14.344639282226964],[107.8114183892134,14.349858330621132],[107.80946851942181,14.352658284505779],[107.8094804551856,14.353247205946644],[107.81086825900493,14.354580552843274],[107.81114061143583,14.355627509223524],[107.8100023735885,14.357080552843257],[107.80890238443905,14.356514010959629],[107.80804029676537,14.356531575521345],[107.80725714789409,14.357373046875452],[107.80892381456053,14.357913886176888],[107.81040330674804,14.35891669379383],[107.81108283148782,14.360317382813093],[107.81200188530707,14.359843953450977],[107.81196851942175,14.35820760091191],[107.8125506591787,14.356459554037016],[107.81251837836297,14.354879692925834],[107.81287319607114,14.354190877279095],[107.81366828070654,14.35460042317753],[107.8149350992829,14.356532592773945],[107.81550340440415,14.356520996094147],[107.81592414008159,14.355224541558684],[107.81907518174827,14.353666381836376],[107.82033413357115,14.3506555853955],[107.82304680718224,14.348877088759053],[107.82342034233838,14.3454399956602],[107.82391811794602,14.342914089627342],[107.82427456325851,14.34222222222273],[107.82389641655723,14.34148803710984],[107.82394280327597,14.33921942816896],[107.82152933756399,14.337505425347771],[107.82086825900515,14.335375840929373],[107.82153015136637,14.333442586263502],[107.82391838921322,14.330386759440543],[107.82319030761627,14.328973456489251],[107.8237282307932,14.327401394314677],[107.823379380967,14.325157470703672],[107.82297627766818,14.324375135634142],[107.82140346950874,14.317531467014419],[107.8214308675119,14.316190253364155],[107.8228072781022,14.313191663954484],[107.82362596299814,14.311983981662806],[107.82114061143571,14.310141669379803],[107.82012335883135,14.309082912869428],[107.81733337402258,14.30722174750477],[107.8164238145607,14.305473361545637],[107.81784552680037,14.303712090386767],[107.81950161403986,14.302908664279968],[107.82137688530705,14.302946912977873],[107.82169616699125,14.302759941949347],[107.82064527723426,14.30120971679736],[107.82318569607108,14.29957112630261],[107.82479702419587,14.299573974609885],[107.82646857367533,14.298731146918868],[107.82756340874474,14.29875345865932],[107.82866828070652,14.299322645399727],[107.83142381456074,14.302913886176754],[107.83169616699107,14.305141669379822],[107.83233608669602,14.305413886176751],[107.83336283365796,14.304008789062976],[107.83280727810242,14.3034750027131],[107.8325094265397,14.302556966146327],[107.83058749728619,14.300710652669736],[107.83031270344944,14.299302775065556],[107.82830858018568,14.29700819227476],[107.82748474120987,14.295310397678378],[107.82780673556763,14.293452758789527],[107.8254838731543,14.290571899414559],[107.82447937011611,14.291252780490879],[107.82247551811966,14.291923692491778],[107.82168395996015,14.291515909831247],[107.82097513834523,14.289331325955402],[107.82241204155727,14.287437472873847],[107.82289978027248,14.284940321180954],[107.82347866482112,14.283816596137541],[107.82563225640084,14.286058281792947],[107.82697394476898,14.284005805122021],[107.82436923556762,14.282561442057755],[107.8247658284495,14.281791585286982],[107.82559048122741,14.28180847168015],[107.82696092393545,14.28076856825136],[107.82809319390074,14.28153618706645],[107.82891459147018,14.281519436306908],[107.82947394476909,14.2818518066411],[107.82863898383161,14.283472222222812],[107.82919616699107,14.284826049805218],[107.82706536186956,14.287296481662779],[107.8279461669911,14.289006144206226],[107.82975470648759,14.287633870443159],[107.83030727810237,14.288116251628026],[107.82919047037657,14.289587944878932],[107.82920213487316,14.290152994792194],[107.83004550509864,14.290135769314702],[107.8306035020606,14.29071648491795],[107.83140916612328,14.294021877713163],[107.83185458712992,14.294449666341677],[107.8338663058801,14.29173604329462],[107.83336039225165,14.286784193251265],[107.83225714789384,14.285630832248827],[107.83472215440449,14.284658677843325],[107.83519985622738,14.28367357042147],[107.83475145127929,14.282363552517893],[107.8348130289705,14.279356282552655],[107.8339088948558,14.27848775227909],[107.83427130805038,14.277784084744368],[107.83642381456073,14.277363891602036],[107.8369880506718,14.27595825195354],[107.83808234320637,14.275980631510862],[107.83892815483844,14.275407104492714],[107.84003492567169,14.276558905707915],[107.84300476074125,14.276534559462277],[107.84336283365772,14.27765258789104],[107.84034851074134,14.279139743381535],[107.83903150770297,14.278688964844193],[107.8382508002376,14.279091050890244],[107.83965705023755,14.282421129015319],[107.8406623670779,14.283191663954469],[107.84374830457793,14.280601196289467],[107.84502461751211,14.281258680555965],[107.84592196994268,14.281254001194],[107.8492284478074,14.282087131076864],[107.84975172254687,14.282652587891036],[107.84835415310218,14.283330620660251],[107.84838453504679,14.28481669108129],[107.84696336534185,14.290177476671474],[107.8470005289702,14.292005750868483],[107.84783196343201,14.293191663954445],[107.84884460449129,14.2911041937938],[107.85032925075845,14.290130750868514],[107.8512016465917,14.290148586697413],[107.85275356716474,14.291763780382439],[107.85185757107095,14.293085462782585],[107.85283359103627,14.294057888455285],[107.8539183892133,14.296808336046382],[107.85461120605376,14.29783067491364],[107.85502950032455,14.300457492404988],[107.85446363660915,14.302110256619358],[107.85259921603634,14.303014797635058],[107.85184183756402,14.304934692383299],[107.85114061143551,14.305969441732174],[107.84937194824127,14.310750528971795],[107.8482803683801,14.312189127604725],[107.85009514702577,14.31306966145874],[107.85203253851878,14.314633449978743],[107.85404127332802,14.31769721137195],[107.85518520778967,14.32113030327747],[107.85417880587997,14.322097100152376],[107.85310377332783,14.322075127496063],[107.85111728244263,14.322650010851206],[107.850149400498,14.324644978841647],[107.84825432671349,14.32604994032178],[107.84554789225152,14.326813218859044],[107.84485643174813,14.32679911295621],[107.84269036186973,14.325330946181026],[107.84177293565446,14.32580362955774],[107.84347351074106,14.32743754069071],[107.84304219563725,14.32827501085113],[107.84057393391842,14.329316948785191],[107.84059129502927,14.330170016819096],[107.84349900987328,14.330110677083738],[107.84421325683488,14.331547309028267],[107.84671759711253,14.331547987196629],[107.8490011257584,14.32923414442324],[107.8500910780156,14.329607204861517],[107.85330044216485,14.326266682943142],[107.85423387315436,14.325975002713136],[107.85475172254687,14.327135009766039],[107.85363952636627,14.330972764757348],[107.85393249511625,14.331541748047343],[107.85502678765081,14.331519368490106],[107.85607604980376,14.332230631510953],[107.85646179199134,14.331435546875397],[107.8563801405156,14.327432657878148],[107.85671298556767,14.32678636339027],[107.85822502983851,14.32605278862907],[107.86095723469973,14.328896416558635],[107.86199808756405,14.331041734483989],[107.86444437662666,14.333455674913665],[107.86540601942201,14.334086100260976],[107.86892381456059,14.33485833062116],[107.8703072781025,14.335975002713198],[107.8720135498036,14.336544121636749],[107.87310675726897,14.338797403971768],[107.87308424207825,14.339892374674946],[107.87253519693914,14.341263902452695],[107.87421271430034,14.34209472656292],[107.87419264051559,14.343086751302607],[107.87645609537671,14.345783216688787],[107.8764042833105,14.34832234700572],[107.87729593912653,14.349637518989127],[107.87724602593207,14.352080688477002],[107.8804906548385,14.355434502496308],[107.88177727593202,14.358086819119436],[107.88140102810237,14.361398722331202],[107.87958950466466,14.362080552843423],[107.87707729763346,14.36106153700132],[107.87577250162676,14.358863389757445],[107.87362433539394,14.360716078016964],[107.8724624972862,14.361279771593317],[107.87086310492512,14.361247083876336],[107.87018683539398,14.361595391167967],[107.86947394476888,14.363469441732306],[107.86920159233833,14.364863891602099],[107.86872063530708,14.365797458225302],[107.86992479112317,14.366247219510058],[107.8725682915572,14.364569905599623],[107.87337965223415,14.364586452908483],[107.87337287055007,14.366465250651558],[107.87530727810216,14.3671132405603],[107.87393819173096,14.368428615994304],[107.87280565049824,14.370694444445036],[107.87310702853623,14.371279161241887],[107.87308478461264,14.372375013563925],[107.87133836534193,14.373241305881535],[107.8719088406024,14.374908379449266],[107.87086825900505,14.377641669379912],[107.86972595214732,14.380193481445929],[107.86806498209543,14.381789211697509],[107.86894551594943,14.382975260417282],[107.86894497341487,14.385613742404928],[107.8695971001508,14.389437730577711],[107.87032409667873,14.39013624403269],[107.87030673556754,14.390986328125408],[107.86920973035924,14.39096394856827],[107.86760138617527,14.391616278754768],[107.86725714789387,14.392507595486563],[107.8689664035364,14.392924262153244],[107.86983500162657,14.392906494141116]]]]},"properties":{"id":"1930"}}]}