{"type":"FeatureCollection","features":[{"type":"Feature","geometry":{"type":"MultiPolygon","coordinates":[[[[76.53679375542518,23.416929117839018],[76.537482910156,23.414820014106382],[76.53581800672745,23.41445977105073],[76.53519070095487,23.41409111870705],[76.53364298502603,23.414283582899813],[76.53368150499128,23.412905815972593],[76.53347222222195,23.412361111111466],[76.53282362196185,23.412546522353026],[76.53202026367168,23.41391330295177],[76.5327581108941,23.415664333767765],[76.53435343424476,23.41682969835118],[76.53572672526028,23.41630181206645],[76.53679375542518,23.416929117839018]]]]},"properties":{"id":"19726"}}]}