{"type":"FeatureCollection","features":[{"type":"Feature","geometry":{"type":"MultiPolygon","coordinates":[[[[79.6782552083337,25.148886176215314],[79.67979112413232,25.147720811632],[79.68152506510447,25.148165147569458],[79.68104383680614,25.146758897569455],[79.68166937934078,25.145836046006906],[79.6820079210074,25.144447699652858],[79.68444173177144,25.1452804904514],[79.6880257161462,25.145599500867974],[79.68916395399347,25.14416395399317],[79.69126627604211,25.14382161458346],[79.69224717881988,25.14331651475706],[79.69333062066013,25.141663953993174],[79.695383572049,25.14085394965278],[79.69794813368102,25.14049641927086],[79.69860839843821,25.14012912326409],[79.69777506510448,25.13972493489598],[79.69750271267404,25.13904785156258],[79.69974338107673,25.13861056857641],[79.7008175998267,25.13639539930564],[79.70228841145874,25.13530544704865],[79.70157714843808,25.130631510416706],[79.7016856553823,25.125307074652866],[79.69964626736166,25.12126627604168],[79.69798339843791,25.119947374131954],[79.69511610243106,25.120005967882065],[79.69373752170193,25.12094021267373],[79.69055501302117,25.12027398003481],[79.68998101128525,25.12056966145842],[79.68943739149339,25.12168999565982],[79.68859700520866,25.12249728732641],[79.68860514322958,25.12403862847242],[79.68552571614615,25.12583062065967],[79.68469184027842,25.12496256510424],[79.68330078125032,25.122741427951368],[79.68110297309059,25.12165798611113],[79.68111979166721,25.12000271267378],[79.67994683159802,25.118875868055554],[79.67834689670198,25.11890842013898],[79.67799207899364,25.118539496527845],[79.67888617621574,25.115422634548665],[79.67811197916726,25.115002712673615],[79.67638237847277,25.116399197048608],[79.67461046006983,25.114653320312627],[79.67502495659787,25.113848741319416],[79.67573350694485,25.11316786024318],[79.67468587239651,25.112481011284757],[79.67306586371589,25.112514105902832],[79.67250271267417,25.112022569444633],[79.67388617621603,25.109969075520922],[79.6716471354172,25.109996744791616],[79.6705740017367,25.10888020833349],[79.66914116753512,25.108598632812544],[79.66915907118099,25.106429578993144],[79.66675781250038,25.10603895399315],[79.66639160156288,25.10524793836815],[79.66732801649337,25.104347873264018],[79.6666552734379,25.103041449652764],[79.6646451822921,25.103082682291756],[79.6634526909726,25.103696831597304],[79.66174099392416,25.10253634982645],[79.66138129340342,25.103645290798738],[79.66027940538251,25.104704318576395],[79.66000271267401,25.105657552083542],[79.66139160156288,25.10610839843757],[79.6617545572922,25.10685655381957],[79.66429741753538,25.108090277777762],[79.66471950954897,25.108767903645898],[79.66326334635474,25.10947428385417],[79.66166395399355,25.109441731771014],[79.66139160156288,25.109879014757183],[79.6625884331601,25.111644965277847],[79.66136990017421,25.11221950954858],[79.66083604600757,25.11166395399316],[79.65923014322951,25.1113916015626],[79.65878038194492,25.1132373046876],[79.65833604600746,25.112775065104188],[79.65522732204906,25.112498372395976],[79.65282335069489,25.10999620225698],[79.65135742187542,25.109996744791616],[79.64988823784765,25.1092393663195],[79.64908799913249,25.107590060763997],[79.64945095486169,25.1058192274306],[79.6484163411462,25.102721354166732],[79.64402777777812,25.0984722222223],[79.64305826822957,25.098790690104238],[79.645280490452,25.10055284288198],[79.6476340060768,25.1028792317708],[79.64860405816003,25.10630479600698],[79.64732747395871,25.1067187500001],[79.64694715711843,25.107502712673636],[79.64582682291731,25.107866210937573],[79.6458468967019,25.108851453993154],[79.64633246527833,25.109441731771014],[79.6482562934033,25.10788845486117],[79.64985080295182,25.11059244791676],[79.64943088107677,25.111407335069444],[79.64941840277848,25.11390950520844],[79.6507139756948,25.113882921007033],[79.6513899739588,25.112489149305603],[79.6534445529517,25.113192274305604],[79.65388617621582,25.115002712673615],[79.65472493489628,25.116108398437547],[79.65471408420197,25.116661241319505],[79.65560546875057,25.117976888021047],[79.65658094618092,25.11833062065969],[79.65695203993087,25.117188042534693],[79.6586642795144,25.11554253472228],[79.66025499131982,25.11554741753484],[79.6617849392367,25.11586100260422],[79.66249728732683,25.116947157118105],[79.66333604600734,25.117219509548846],[79.6671853298615,25.12076009114581],[79.66861382378531,25.121108398437528],[79.66916395399343,25.121496310763973],[79.66774793836842,25.12194173177089],[79.66608778211864,25.121104058159702],[79.6648513454866,25.12000271267378],[79.66409667968796,25.12155870225692],[79.66256727430587,25.121035156250016],[79.6621972656254,25.121420355902814],[79.6622254774309,25.122797309027845],[79.66513888888946,25.125983072916895],[79.66470269097263,25.126402452256954],[79.66473036024362,25.1277647569445],[79.66444010416703,25.128613823784704],[79.66627712673645,25.128912760416867],[79.66789333767409,25.131093207465298],[79.6669384765631,25.13250217013885],[79.66806423611152,25.132776150173683],[79.66805230034768,25.13336371527791],[79.66632595486149,25.13505533854186],[79.66471950954897,25.136108398437585],[79.66444715711842,25.13774414062506],[79.6672243923617,25.13694010416677],[79.66763346354199,25.138199869791734],[79.66808919270866,25.138638237847374],[79.6697412109381,25.13916395399309],[79.67097222222279,25.137905273437667],[79.67210015191014,25.139022352430615],[79.67111382378513,25.140156792534782],[79.6724972873267,25.142262912326515],[79.67137478298665,25.143341471354205],[79.67139214409761,25.14418619791668],[79.6721256510422,25.14489095052086],[79.67469618055591,25.143172743055572],[79.6755702039936,25.14362304687505],[79.67612901475749,25.145343967013886],[79.67806423611168,25.147203776041735],[79.6782552083337,25.148886176215314]]]]},"properties":{"id":"1770"}}]}