{"type":"FeatureCollection","features":[{"type":"Feature","geometry":{"type":"MultiPolygon","coordinates":[[[[74.27917209201476,25.710560980903253],[74.28140435112917,25.70414279513942],[74.28137993706687,25.703521321614957],[74.27909640842105,25.70184651692749],[74.27945800781325,25.70081515842054],[74.27861273871596,25.700032280816544],[74.27586859809102,25.699657118055953],[74.27389431423703,25.698050130208813],[74.27233886718832,25.69744466145883],[74.27056098090375,25.697113444010867],[74.27222764757013,25.699161241319928],[74.2724945746534,25.69991861979213],[74.26877360026131,25.697620713976278],[74.26417209201477,25.694161241319847],[74.26264729817788,25.693264973958804],[74.26222764757031,25.691939019097788],[74.26101236979233,25.690354546441426],[74.26027235243126,25.690005425347607],[74.25926323784799,25.688288574219143],[74.25799940321266,25.687472601996916],[74.2565974934902,25.685959201389323],[74.2554166666674,25.685138888889355],[74.25496229383762,25.685282660590744],[74.2563056098098,25.687821451823353],[74.25742133246618,25.68944281684071],[74.25902642144186,25.690930175781702],[74.25999457465358,25.69260253906289],[74.25620768229257,25.691116536458722],[74.25583875868145,25.69208496093809],[74.25995958116405,25.694285210503836],[74.2624571397578,25.69600396050393],[74.26312445746615,25.697336968316336],[74.26396267361199,25.698113878038754],[74.26563042534784,25.698936631944918],[74.26972764757014,25.702494574653187],[74.27095214843845,25.70396837022615],[74.2724953884555,25.70472791883718],[74.27341905382028,25.704742024740113],[74.27524305555627,25.70784450954899],[74.27549967447979,25.709161241319904],[74.2741978624139,25.70847249349002],[74.27389431423703,25.709581976996873],[74.27448052300414,25.71294921875038],[74.27623779296968,25.713984917535257],[74.27890299479256,25.71243896484414],[74.2788525390632,25.711164550781604],[74.27917209201476,25.710560980903253]]]]},"properties":{"id":"9461"}}]}