{"type":"FeatureCollection","features":[{"type":"Feature","geometry":{"type":"MultiPolygon","coordinates":[[[[106.28209840129128,15.406916470489634],[106.28209840129128,15.407634443358766],[106.2822723341193,15.408008951992944],[106.28309279264235,15.408174018336078],[106.2834762191857,15.408000107627535],[106.28364566341914,15.407634462621631],[106.28364566341914,15.406916494105428],[106.28347181920485,15.406541983856096],[106.2826468693852,15.406376991971394],[106.28226335462013,15.406546401032113],[106.28209840129128,15.406916470489634]]],[[[106.28533122372502,15.412035541185254],[106.28535349322165,15.412588536031732],[106.28604465700352,15.413667603461882],[106.28686962068593,15.413832561508],[106.2872486543277,15.413663116961617],[106.28741810172207,15.41291400162383],[106.28768560799283,15.41248592747781],[106.28766333823944,15.410853940216562],[106.28751176030566,15.410586358496902],[106.28713712623143,15.410416873174311],[106.28630776141543,15.410590832136823],[106.28613831495119,15.411339937465248],[106.28550066951306,15.411669885358346],[106.28533122372502,15.412035541185254]]],[[[106.27940062083111,15.403411683268166],[106.27940062083111,15.40466914158172],[106.27984653692421,15.405311242967471],[106.28022106769373,15.40548067049269],[106.28104600761077,15.405458369615918],[106.28176840524273,15.405097179716217],[106.28239714919913,15.404499663069174],[106.28356538616524,15.4021630821374],[106.28376158957691,15.401436264644575],[106.2842610336288,15.4017038024501],[106.28482288721287,15.401686022725336],[106.28511274931759,15.401436256077313],[106.28562997641025,15.401414019433417],[106.28634790058277,15.40105724387599],[106.28687851059263,15.400357204349929],[106.28832775020253,15.399915763056715],[106.28849719850066,15.399099701541697],[106.28831886023214,15.398725118653873],[106.28794422466338,15.398560133160094],[106.2869587891618,15.398560154232973],[106.28655748643153,15.398832190519824],[106.28605803670767,15.398560157836691],[106.28561219670698,15.398560165173675],[106.2850102020199,15.398983763935014],[106.28471145025036,15.398832145047669],[106.2826468693852,15.398832144916252],[106.28226335462013,15.399001621368924],[106.28199585552271,15.39926919114615],[106.28182641267236,15.40002274827164],[106.2810192488668,15.40152549396846],[106.2810192488668,15.402176508660753],[106.28037712986881,15.402506479655228],[106.2802121780798,15.402872121985668],[106.27957006164704,15.403046049592467],[106.27940062083111,15.403411683268166]]]]},"properties":{"id":"39209"}}]}