{"type":"FeatureCollection","features":[{"type":"Feature","geometry":{"type":"MultiPolygon","coordinates":[[[[83.54568359375006,23.41755859375023],[83.54642968750008,23.417385742187577],[83.54646484374999,23.416814453125113],[83.54576171875007,23.416651367187654],[83.54530859375015,23.416066406250096],[83.54519140625015,23.41580859375003],[83.54505859375004,23.415566406250107],[83.54494140625016,23.41530859375014],[83.54470703124994,23.41487500000008],[83.54494140625016,23.414441406250106],[83.54505859375004,23.41418359375014],[83.54519140625015,23.413941406249947],[83.54530859375015,23.413683593750065],[83.54544140625015,23.413441406249973],[83.54558203125018,23.412250976562518],[83.54593359375016,23.412058593750174],[83.54619140624996,23.411941406250122],[83.54668359375003,23.4115585937501],[83.54705859375017,23.41138671875001],[83.54694140625011,23.411058593750212],[83.54516796875012,23.410940429687585],[83.5450000000001,23.410750000000192],[83.54355859375013,23.410808593750133],[83.54331640625017,23.41094140625016],[83.54280859375004,23.411058593750212],[83.54256640625002,23.41119140624997],[83.54190625000004,23.41134375000003],[83.54169140625018,23.411816406250082],[83.54130859375013,23.412308593749984],[83.54115234375016,23.412987304687576],[83.54056640625018,23.413441406249973],[83.54030859375015,23.413558593750025],[83.53956640625015,23.414191406250126],[83.53913671875009,23.41438769531254],[83.53894140624996,23.414816406250054],[83.53870703125008,23.415249023437553],[83.53905859375013,23.415441406250167],[83.53931640625015,23.41555859375022],[83.53955859375006,23.415691406249977],[83.5400429687501,23.415914062500036],[83.54019140624999,23.416183593750148],[83.540328125,23.41792675781258],[83.54091406250015,23.417961914062587],[83.54158593750023,23.417441406249992],[83.54231640624997,23.41755859375023],[83.54255859375016,23.41769140625017],[83.54281640624995,23.417808593750223],[83.54355859375013,23.418441406249954],[83.54406640625015,23.41855859375002],[83.54452734375005,23.418808593750185],[83.54509375000006,23.418403320312535],[83.54541406250016,23.417706054687656],[83.54568359375006,23.41755859375023]]]]},"properties":{"id":"19727"}}]}