{"type":"FeatureCollection","features":[{"type":"Feature","geometry":{"type":"MultiPolygon","coordinates":[[[[76.13665540907087,23.653614501953584],[76.13748792860221,23.652404513889266],[76.13708333333349,23.651250000000502],[76.13536227756092,23.6517415364588],[76.1330703396267,23.65165079752643],[76.1323611111109,23.65202609592056],[76.13127834743918,23.651453043620194],[76.12992750379763,23.65291110568613],[76.12825208875839,23.652472059462127],[76.12750528971347,23.65255588107685],[76.12808281792522,23.653647325304192],[76.12930236816376,23.654222954644652],[76.1297529432508,23.65658298068618],[76.1314754231768,23.65721693250913],[76.13484809027776,23.65548082139817],[76.13737752278635,23.654680040147966],[76.13777248806414,23.653968234592497],[76.13665540907087,23.653614501953584]]]]},"properties":{"id":"19602"}}]}