{"type":"FeatureCollection","features":[{"type":"Feature","geometry":{"type":"MultiPolygon","coordinates":[[[[76.52059765625015,23.234012695312586],[76.52133593750014,23.233441406250122],[76.52256640625004,23.23355859375019],[76.52321093750018,23.234058593750078],[76.52344140624999,23.23394140625001],[76.52418359375017,23.23330859375001],[76.52630859375009,23.23318359375024],[76.52614062500007,23.2326513671876],[76.52568359375007,23.23244140625016],[76.52469140625001,23.23155859375008],[76.52443359375005,23.231441406250113],[76.52419140625014,23.231308593750185],[76.52393359375006,23.23119140625012],[76.52369140625004,23.231058593750006],[76.52320703125011,23.230835937499947],[76.52296093750002,23.230388671875062],[76.52343359375007,23.230058593750144],[76.52369140625004,23.229941406249992],[76.52393359375006,23.229808593750235],[76.52419140625014,23.229691406250183],[76.52430859374991,23.22943359375003],[76.52448437500001,23.229110351562525],[76.52374999999998,23.228250000000088],[76.52094531250006,23.22831152343754],[76.52030859375017,23.229058593750082],[76.52019140625,23.229316406249964],[76.52005859375006,23.22955859375007],[76.51994140624996,23.229816406250123],[76.51980859375001,23.230058593750144],[76.51969140625013,23.23031640625011],[76.51905859375015,23.231058593750006],[76.51894140624998,23.23131640625016],[76.51755859375001,23.232808593750036],[76.51744140625001,23.233316406249997],[76.51730859375007,23.23355859375019],[76.51719140625013,23.23381640624997],[76.51694140625014,23.234276367187576],[76.51711328125006,23.23487890625013],[76.51772656250003,23.23530859375012],[76.51819140625017,23.235191406250053],[76.51843359375007,23.23505859375004],[76.52038671875007,23.234927734375063],[76.52059765625015,23.234012695312586]]]]},"properties":{"id":"19834"}}]}