{"type":"FeatureCollection","features":[{"type":"Feature","geometry":{"type":"MultiPolygon","coordinates":[[[[104.18721923827846,16.690221354166894],[104.18804497612572,16.689483506944725],[104.191304796004,16.68957166883709],[104.19193712022278,16.688863932291895],[104.19237928602135,16.68696343315996],[104.19383409287909,16.685663791232912],[104.19617187499702,16.682888183593988],[104.19560845268794,16.681317816840547],[104.19388888888616,16.679722222222694],[104.19235921223682,16.68045383029549],[104.19070231119511,16.681813422309304],[104.18904947916386,16.682323676215546],[104.18653564452833,16.680131022135726],[104.18568793402503,16.679742024739923],[104.18383978949382,16.68103298611132],[104.1828176540769,16.680477701823264],[104.18227674695888,16.681083170573245],[104.18241129556995,16.68334282769119],[104.18359592013596,16.6844013129343],[104.18444444444154,16.683940158420427],[104.18581271701092,16.68468370225716],[104.18567437065698,16.687003580729495],[104.18264756944174,16.690910915798867],[104.18153564452851,16.693480088975917],[104.18089898003174,16.694391276041983],[104.18264675563935,16.69540879991345],[104.18318657768802,16.696993543837095],[104.18230658636864,16.69825330946206],[104.1823757595458,16.69941053602456],[104.18357367621243,16.698980848524656],[104.18461859808727,16.69670383029549],[104.18452989366025,16.695215115017774],[104.18513102213242,16.694019911024668],[104.18631049261856,16.69316406250026],[104.18721923827846,16.690221354166894]]]]},"properties":{"id":"10243"}}]}