{"type":"FeatureCollection","features":[{"type":"Feature","geometry":{"type":"MultiPolygon","coordinates":[[[[77.85999457465303,25.67666124131962],[77.86107991536497,25.6748890516495],[77.86240315755245,25.676317545573],[77.86387288411507,25.67553955078148],[77.86565239800373,25.674976399739677],[77.86836778428861,25.674982096354242],[77.86952039930591,25.67622612847245],[77.87027235243087,25.67582790798626],[77.87227810329901,25.675560980902986],[77.87502387152804,25.676682128906222],[77.87872395833355,25.677278374566086],[77.88110134548671,25.677183973524436],[77.88320800781273,25.67631890190991],[77.88461507161483,25.674526909722303],[77.88499457465312,25.673327907986263],[77.88624376085093,25.672411838107735],[77.88808024088578,25.670563151041733],[77.88860568576419,25.66886311848957],[77.88722764756969,25.667999674479233],[77.88813503689258,25.66628472222223],[77.88861653645873,25.665838758680678],[77.89025065104212,25.66235026041673],[77.89055013020865,25.66122016059039],[77.88873182508715,25.660838758680597],[77.88767171223995,25.662641059027962],[77.88639431423641,25.661661241319564],[77.88518093533034,25.66139431423629],[77.8838943142363,25.662783203125073],[77.88329779730944,25.66305013020836],[77.8827832031254,25.662494574653024],[77.88090250651058,25.662227647569566],[77.88056098090297,25.66472764756955],[77.87914171006983,25.665065646701436],[77.87915228949694,25.666336805555616],[77.87769124348975,25.666661241319645],[77.87556559244817,25.665536566840316],[77.8729448784724,25.66785346137175],[77.87056776258717,25.668975151909805],[77.87000542534756,25.668291829427204],[77.87335937500043,25.66662868923622],[77.87334255642403,25.665461697048713],[77.87447184244817,25.663327636718833],[77.87440049913212,25.661531032986204],[77.87471218533031,25.659610188802148],[77.8724631076391,25.658714192708473],[77.87139431423637,25.659449869791814],[77.86921983507003,25.660273980034873],[77.86777235243076,25.660550130208534],[77.86657118055584,25.661376953125156],[77.86458604600725,25.660681152343813],[77.86238118489607,25.661142306857855],[77.86194986979208,25.662505425347405],[77.85946614583358,25.663291558159855],[77.85917209201412,25.663687337239764],[77.86139784071221,25.66583143446202],[77.8610156250003,25.666554090711884],[77.86260769314262,25.669077148437566],[77.86218315972238,25.669470486111194],[77.86035074869821,25.669397786458404],[77.85970730251759,25.669738226996657],[77.85751383463563,25.669651150173664],[77.85461941189263,25.668687337239746],[77.85203369140643,25.6658965386287],[77.85277235243078,25.663861490885495],[77.85049723307307,25.663881022135442],[77.8496638997398,25.662981770833483],[77.8490945095489,25.661775173611176],[77.84592719184062,25.660838758680597],[77.84695231119818,25.66333387586812],[77.8466506618926,25.663903808593844],[77.84668918185795,25.664872504340394],[77.84916124131988,25.668255479600944],[77.84767713758723,25.66773546006951],[77.84605251736153,25.666617296007104],[77.84611762152795,25.66497531467016],[77.8452530924483,25.663819715712037],[77.84528347439286,25.663050401475815],[77.8443516710071,25.662755533854295],[77.84442979600718,25.65977159288211],[77.84634331597269,25.65940646701391],[77.8479144965282,25.65313937717029],[77.84738959418448,25.65278320312528],[77.84694986979204,25.65417209201398],[77.84555013020864,25.65638346354173],[77.84500027126754,25.658356662326455],[77.84338731553848,25.65911783854176],[77.84361897786474,25.653272569444567],[77.84443901909745,25.651661241319587],[77.84751627604211,25.648606228298718],[77.84749430338562,25.64805067274321],[77.84886420355926,25.64666015625015],[77.84917154947945,25.646672363281354],[77.85360568576405,25.643605685764],[77.8580330403648,25.641240234375104],[77.8601676432294,25.63953016493066],[77.86223280164958,25.63903835720491],[77.8636585828996,25.638318684895964],[77.86614474826413,25.638417154947987],[77.8688330078127,25.638016493055616],[77.87016357421899,25.63710069444454],[77.8712372504344,25.635941840277866],[77.87166124131974,25.63416124131963],[77.87244276258699,25.632684461805667],[77.87284884982662,25.6297127278647],[77.87276258680575,25.62753255208345],[77.87308024088586,25.626319715711944],[77.87310953776083,25.622666015625114],[77.87248399522608,25.6196769205731],[77.87020616319498,25.61704372829874],[77.86846408420175,25.615429416232757],[77.86662950303875,25.614715169270923],[77.86578233506972,25.613851725260503],[77.86167209201406,25.612216796875117],[77.8596449110245,25.61189398871535],[77.85930555555578,25.61152777777778],[77.85861653645853,25.612032606336996],[77.86212917751763,25.61369059244798],[77.86635145399336,25.615284830729195],[77.86677001953151,25.615268283420164],[77.8689895290801,25.617663574218938],[77.86947347005238,25.61868896484387],[77.87161675347247,25.62085666232663],[77.87200168185788,25.62647325303827],[77.87188259548637,25.62947970920149],[77.871047634549,25.63384168836815],[77.86934760199702,25.63652832031262],[77.86729736328144,25.637177463107705],[77.8623665364585,25.637510850694568],[77.86056016710094,25.638616807725853],[77.85881944444466,25.638909776475913],[77.85722764756966,25.64000542534737],[77.85517713758705,25.640597873264056],[77.8531589084204,25.641986762152925],[77.852782931858,25.642783474392488],[77.85197862413244,25.642751736111236],[77.84999457465315,25.643605685764],[77.8488943142365,25.644449869791842],[77.84719835069487,25.645015462239655],[77.84664008246548,25.644993489583428],[77.84611653645865,25.64388346354177],[77.8451144748266,25.64341064453133],[77.84421630859399,25.639924858941114],[77.84171386718774,25.638308919270955],[77.84111653645877,25.63852701822931],[77.84306098090306,25.640827907986164],[77.84396647135438,25.642368706597438],[77.84359456380244,25.643071289062533],[77.8419826931428,25.643007541232762],[77.8413943142364,25.643584526909777],[77.84445719401069,25.643951009114716],[77.84582790798632,25.645683593750036],[77.84388346354186,25.648050130208475],[77.84225694444476,25.6506179470487],[77.84166097005235,25.653885091145924],[77.84174397786498,25.655980088975724],[77.8408387586808,25.65838921440998],[77.84167209201408,25.65916124131958],[77.8420133463546,25.65988498263907],[77.84166097005235,25.660550944010637],[77.84172634548636,25.662197536892492],[77.84087456597243,25.662986653645945],[77.84047064887196,25.665942654079984],[77.83908121744835,25.667347547743162],[77.83922254774339,25.66860568576412],[77.84043538411495,25.667963867187623],[77.84139919704907,25.668627115885627],[77.84344590928842,25.668546006944553],[77.84624430338565,25.669324273003525],[77.84905164930572,25.671288519965316],[77.84831759982669,25.67307562934039],[77.848340386285,25.673649359809204],[77.8502823893231,25.673605414496663],[77.85179443359422,25.674200032552164],[77.85303168402814,25.67415120442716],[77.85425021701431,25.67443549262174],[77.8563574218754,25.67666585286473],[77.85750542534757,25.67693901909729],[77.85836778428839,25.67837049696189],[77.85959933810804,25.678321668836972],[77.85999457465303,25.67666124131962]]]]},"properties":{"id":"9463"}}]}