{"type":"FeatureCollection","features":[{"type":"Feature","geometry":{"type":"MultiPolygon","coordinates":[[[[107.95266404893559,13.828701850043743],[107.95390536838013,13.826808268229641],[107.95532219780708,13.82905585395011],[107.95747931586257,13.831246066623734],[107.95862460666146,13.831236165364999],[107.9621331787101,13.833196885851137],[107.9633435736753,13.83569173177122],[107.96419291178299,13.833367919922225],[107.96290846082789,13.832525906033297],[107.96114603678271,13.830691731771225],[107.95864630805013,13.82976277669313],[107.95672030978628,13.828500027127319],[107.95564039442175,13.826719292535103],[107.95526984320642,13.825273844401465],[107.95585171169611,13.823480631510762],[107.95735453287656,13.822966308594147],[107.96144497341479,13.822548285590727],[107.96254550509869,13.822924940321599],[107.96411424424801,13.82289293077308],[107.96552022298076,13.823349066840663],[107.96654886881416,13.825410834418932],[107.9672514512794,13.825425075955238],[107.967278306748,13.824112413194797],[107.96665927463002,13.82220458984429],[107.9577193874774,13.821515435113227],[107.95449673122735,13.821581217448369],[107.95378221299845,13.820000000000547],[107.9533381483279,13.820144042969204],[107.95197394476887,13.823191731771331],[107.95103698730358,13.82665662977469],[107.94920159233831,13.828197157118524],[107.94758700900499,13.828980577257326],[107.94698398166153,13.829560004340706],[107.94668070475174,13.83133680555602],[107.94668613009893,13.834793701172359],[107.94941345214758,13.835458577474455],[107.95502950032463,13.838663330078646],[107.95434427897052,13.837476399739998],[107.95297003851923,13.836433512370206],[107.94923658582795,13.834622260200007],[107.94753492567159,13.832595214844176],[107.94787862141837,13.831243896484736],[107.9511406114357,13.829302842882356],[107.95266404893559,13.828701850043743]]]]},"properties":{"id":"22460"}}]}