{"type":"FeatureCollection","features":[{"type":"Feature","geometry":{"type":"MultiPolygon","coordinates":[[[[76.65480211046034,26.83894097222239],[76.65301120334234,26.838252495659873],[76.65115071614596,26.838483886719075],[76.65069444444484,26.83736111111122],[76.65004706488722,26.8375461154516],[76.64853312174515,26.839146050347367],[76.64779310438391,26.84040500217033],[76.64814887152798,26.841044108073106],[76.64988932291689,26.84206705729187],[76.65168199327277,26.841404351128674],[76.65276245117226,26.840540093316164],[76.65469197591173,26.839826931423772],[76.65480211046034,26.83894097222239]]]]},"properties":{"id":"18715"}}]}