{"type":"FeatureCollection","features":[{"type":"Feature","geometry":{"type":"MultiPolygon","coordinates":[[[[104.97448676215006,15.922718370225894],[104.97461534287916,15.919474012587003],[104.97588270399055,15.918755425347427],[104.97791883680267,15.919591742621705],[104.97937934027485,15.918136121961965],[104.9833610026013,15.916642795139055],[104.98374457464982,15.915367296007133],[104.98164822048321,15.915450303819668],[104.98014431423346,15.915977647569676],[104.97835503471956,15.91624457465295],[104.9750759548584,15.915125868055725],[104.97352105034437,15.913447808159887],[104.97263780381653,15.91375759548626],[104.97166666666388,15.9130555555558],[104.9708496093721,15.913314344618342],[104.96647732204568,15.91850884331609],[104.96469997829584,15.918438313802227],[104.96316786024013,15.91961290147593],[104.96320149739293,15.920454915364758],[104.9659049479138,15.920441623264182],[104.96882161458055,15.921051703559172],[104.9705490451361,15.92044623480929],[104.97218370225423,15.921311306423803],[104.97268988714993,15.923435872396198],[104.97260199652501,15.9256507703996],[104.97324978298317,15.927498101128705],[104.97316786024035,15.92956136067734],[104.97426378037918,15.930966796875254],[104.97513346353898,15.92950710720504],[104.97428873697649,15.92709608289951],[104.97431640624703,15.926392415364774],[104.97581054687211,15.924444444444745],[104.97448676215006,15.922718370225894]]]]},"properties":{"id":"10268"}}]}