{"type":"FeatureCollection","features":[{"type":"Feature","geometry":{"type":"MultiPolygon","coordinates":[[[[77.16943060980933,26.32248128255233],[77.16944783528683,26.321641167534864],[77.17085272895,26.3216699218751],[77.1716505262589,26.322500271267458],[77.1735415310333,26.322869194878677],[77.1743558756514,26.32493381076395],[77.17752983940991,26.325275065104293],[77.1785925292971,26.324169108073008],[77.18045315212734,26.3232099066842],[77.18122002495707,26.324007975260585],[77.18297553168426,26.323058268229346],[77.18388617621562,26.324447157118215],[77.18463663737,26.324719509548785],[77.18500230577294,26.323592393663446],[77.18580118815115,26.32282497829877],[77.18779351128504,26.322500542534996],[77.18836371527814,26.321907009548866],[77.18834214952275,26.31942789713564],[77.18946940104192,26.3188810221356],[77.19056939019137,26.31888590494806],[77.19194173177104,26.316757541232747],[77.18761284722243,26.31583604600702],[77.18542860243073,26.316722005208405],[77.18172336154541,26.315558268229353],[77.1796868218319,26.31720241970494],[77.17915296766526,26.316646592882066],[77.17917602539106,26.315512966579988],[77.17981024848129,26.314281684027904],[77.17836968316001,26.31381429036466],[77.1779801432294,26.31181884765634],[77.17549357096371,26.3107972547745],[77.17486111111148,26.310138888889043],[77.17442464192746,26.310280490451518],[77.17444769965297,26.311411132812765],[77.17723103841163,26.31276150173629],[77.17721340603336,26.313625217014078],[77.17393920898459,26.313641221788302],[77.17239895290837,26.313026529948203],[77.1701713053387,26.313071831597398],[77.16972493489604,26.314447157118323],[77.16860758463562,26.31552083333355],[77.16861789279537,26.316025119357874],[77.17207139756968,26.31658718532995],[77.17249728732659,26.315275065104316],[77.17363674587713,26.314527994791774],[77.17813666449686,26.314169379340484],[77.17860839843794,26.31547010633699],[77.17749728732659,26.31583062065984],[77.17694159613748,26.316386176215346],[77.17694769965297,26.31668619791688],[77.17915839301227,26.31889729817736],[77.17987521701431,26.31958604600706],[77.1813444010418,26.31908311631956],[77.18475206163205,26.318613823784872],[77.18557481553839,26.319470214843918],[77.18553670247414,26.321341688368236],[77.18296522352452,26.32184353298628],[77.1822249348962,26.32222493489607],[77.17693739149323,26.322985026042005],[77.1769582790802,26.321963161892526],[77.17657904730939,26.321226942274464],[77.17138617621563,26.320836046007187],[77.16925225151951,26.319447157118233],[77.16889160156276,26.320558268229348],[77.16749728732677,26.321386176215512],[77.16658026801244,26.32234049479176],[77.16694715711824,26.323052842882234],[77.16721950954886,26.32500271267382],[77.16777737087708,26.326085883246705],[77.1681583658856,26.328815104166807],[77.1689427354602,26.32916395399316],[77.16886393229206,26.325307617187633],[77.16999728732677,26.3235812717016],[77.16943060980933,26.32248128255233]]]]},"properties":{"id":"9446"}}]}