{"type":"FeatureCollection","features":[{"type":"Feature","geometry":{"type":"MultiPolygon","coordinates":[[[[79.03832302517421,25.41471191406258],[79.03971191406308,25.413515082465366],[79.03932128906283,25.412801106770885],[79.03832438151099,25.41272135416682],[79.037566460504,25.41360080295155],[79.03615641276073,25.41320258246536],[79.03624077691026,25.410469835069605],[79.0347119140628,25.408621419270872],[79.0340277777781,25.406805555555565],[79.03294894748316,25.407427300347393],[79.03387858072963,25.40822808159733],[79.0332278103302,25.409605034722276],[79.03360080295207,25.410843641493116],[79.03452419704897,25.412022569444645],[79.0358230251741,25.414559461805624],[79.03556586371556,25.41501030815992],[79.03415473090323,25.415268012152822],[79.03426215277827,25.416603732638947],[79.0336214192711,25.41715549045145],[79.03406494140657,25.417767469618084],[79.0349926757817,25.41740993923625],[79.0368717447922,25.41557291666672],[79.03832302517421,25.41471191406258]]]]},"properties":{"id":"19002"}}]}