{"type":"FeatureCollection","features":[{"type":"Feature","geometry":{"type":"MultiPolygon","coordinates":[[[[108.13834899902238,12.658055555556018],[108.1384008110883,12.657185058594123],[108.13926723903975,12.655590820313009],[108.1413003879114,12.655712076823164],[108.1431859673385,12.657173394097555],[108.14567484537653,12.662177191840641],[108.14742696126225,12.663291286892772],[108.14807990180017,12.662776421441336],[108.14745490180033,12.66044270833369],[108.14593227810244,12.6577094184033],[108.14616909450874,12.653733181423888],[108.14719014485584,12.650285373264296],[108.14628221299833,12.64944444444474],[108.14543314615779,12.649706488715637],[108.14497741699111,12.650216742621964],[108.14447177462998,12.651854112413545],[108.14377705891818,12.6524750434031],[108.13961554633144,12.651841905382241],[108.13528666178277,12.65250054253515],[108.1321863471126,12.652315538194856],[108.12968905978644,12.651782226562943],[108.1285790337445,12.650539550781545],[108.12734232584532,12.649753146701741],[108.12544318305046,12.650785047743426],[108.1250400797517,12.652886555989866],[108.12870110405706,12.65570610894143],[108.13192267523763,12.657506781684432],[108.13452006022024,12.658111165364957],[108.13630554199133,12.657656792535008],[108.13669101291137,12.659313422309523],[108.13726230197395,12.660131022135772],[108.13762064615796,12.661292046441261],[108.13750779893573,12.663189290364926],[108.137861260307,12.66346435546913],[108.1384965684671,12.662753363715566],[108.13834899902238,12.658055555556018]]]]},"properties":{"id":"10462"}}]}