{"type":"FeatureCollection","features":[{"type":"Feature","geometry":{"type":"MultiPolygon","coordinates":[[[[108.23865797254686,12.496600477430846],[108.24025139702607,12.495889485677466],[108.24339674207786,12.49589165581638],[108.24586636013353,12.496517469618311],[108.24641079372745,12.495504014757216],[108.24339158799822,12.494358181423834],[108.23937167697389,12.491538085937819],[108.23810106065443,12.49224690755247],[108.23750318739067,12.494641113281517],[108.23598924424815,12.495316569010726],[108.2355641682934,12.49390489366354],[108.2357331678592,12.49180284288228],[108.23461554633141,12.490277777778203],[108.23389397515083,12.490495062934386],[108.23396830240799,12.49142116970512],[108.23479431152234,12.492901475694822],[108.23393195258163,12.493804253472419],[108.23200486924807,12.492820095486465],[108.23137824164391,12.494224175347469],[108.22923251681746,12.494615614149737],[108.2283758544913,12.495981445312836],[108.23157192653971,12.49944742838565],[108.23326300726896,12.500202094184303],[108.23617723252957,12.499807128906568],[108.23865797254686,12.496600477430846]]]]},"properties":{"id":"22902"}}]}