{"type":"FeatureCollection","features":[{"type":"Feature","geometry":{"type":"MultiPolygon","coordinates":[[[[73.52695719401041,33.05667955186661],[73.52721137152778,33.05637356228324],[73.52792616102428,33.0564465332033],[73.52832058376751,33.05779066297754],[73.5288292100694,33.05832044813391],[73.53006483289951,33.05605183919285],[73.52991780598975,33.05460910373277],[73.52832058376751,33.05362399631092],[73.52819444444455,33.05319444444466],[73.52720675998305,33.053320855034926],[73.52728759765628,33.05494642469638],[73.52681613498285,33.055542670356076],[73.52559054904512,33.05484076605926],[73.52337727864594,33.0550663248699],[73.52367051866347,33.0590558539498],[73.52448567708339,33.05973307291701],[73.52449598524314,33.060922851562665],[73.52524576822927,33.061653781467356],[73.52557969835087,33.059780002170385],[73.5267328559028,33.05944173177096],[73.52631998697919,33.05720906575543],[73.52695719401041,33.05667955186661]]]]},"properties":{"id":"16728"}}]}