{"type":"FeatureCollection","features":[{"type":"Feature","geometry":{"type":"MultiPolygon","coordinates":[[[[78.68678195529529,24.366496853299125],[78.68832872178817,24.365549858941435],[78.68952039930579,24.365597127279216],[78.69288194444457,24.36479634602911],[78.69409288194444,24.364224921333104],[78.6965310329862,24.361502278646327],[78.69813720703135,24.360270657010005],[78.70263671874997,24.358855387370312],[78.7069699435763,24.356084594727164],[78.71019449869803,24.35621242947093],[78.71258002387171,24.35558729383736],[78.71604519314226,24.355291680230692],[78.71703640408,24.354977891710547],[78.71826931423621,24.353647325304337],[78.72082790798615,24.35184332953611],[78.7202826605903,24.351383192274753],[78.71874484592021,24.351444159614275],[78.71805013020847,24.351116400825106],[78.71746093750008,24.349867621528247],[78.71583875868075,24.34882005479649],[78.716105685764,24.347216932509212],[78.71693901909723,24.344839341906052],[78.71612277560789,24.343616400825127],[78.71480197482632,24.34403150770457],[78.71411648220479,24.345735880534377],[78.7128933376737,24.344602389866026],[78.7136181640627,24.34274054633299],[78.7149945746527,24.34138359917577],[78.71595838758688,24.34092881944501],[78.716886121962,24.338962741428446],[78.7177658420139,24.338097127279283],[78.71815565321182,24.337271525065574],[78.71931830512167,24.336903415256543],[78.72082790798615,24.334934624566415],[78.72023301866338,24.33444973415841],[78.71969482421892,24.33472832573844],[78.71973849826392,24.33582716200131],[78.71754014756962,24.336161159939778],[78.71528184678814,24.337474636502222],[78.71474989149303,24.338601955838143],[78.7116612413196,24.34055026584268],[78.71111436631949,24.341397230360926],[78.70973551432283,24.340913899740073],[78.7097165256076,24.34139343261765],[78.71018961588558,24.342287326389368],[78.70860541449647,24.344161851671473],[78.70863715277775,24.344960937500545],[78.70765489366332,24.3460211181646],[78.70683485243072,24.346455010308674],[78.70527262369811,24.346116807726204],[78.70487711588541,24.3444561089415],[78.70417290581597,24.344428168403255],[78.70417805989607,24.345982394748745],[78.70278428819452,24.346640218099466],[78.70275037977447,24.347493421767012],[78.70402777777772,24.346993679471026],[78.7049953884551,24.347505696614988],[78.70694986979171,24.348050265842488],[78.7076071506078,24.34870015462296],[78.70832438151061,24.350746595595112],[78.70794433593758,24.35407050238767],[78.70677246093769,24.354690483941496],[78.70558322482643,24.354737616645465],[78.70499864366312,24.35419589572534],[78.70464057074665,24.351949734158467],[78.70302788628467,24.35332838270446],[78.70307101779511,24.35441677517403],[78.70249023437512,24.35504360622882],[78.700320638021,24.356067572700084],[78.69892523871525,24.35830607096399],[78.69704047309042,24.359303317600464],[78.69591118706612,24.358084513346853],[78.69418511284735,24.35726989746135],[78.69412272135415,24.355697631836364],[78.69443793402777,24.35358649359854],[78.69553629557291,24.352568834093432],[78.69558241102428,24.35140645345102],[78.69448350694441,24.351362915039573],[78.69316677517352,24.352582939996097],[78.6927723524307,24.353328043620323],[78.69240125868075,24.3552724880648],[78.69192816840271,24.354714626736637],[78.69200466579846,24.352783067491828],[78.69082004123285,24.353292643229693],[78.68945638020838,24.354680650499617],[78.68891547309053,24.355826755100352],[78.68724121093763,24.355893147787086],[78.68720675998262,24.355027669271294],[78.68837510850696,24.353766818576858],[78.68998643663204,24.353256632487486],[78.69002604166681,24.352256401910196],[78.68944986979167,24.351166992188027],[78.68973171657998,24.35051615397181],[78.6903152126736,24.34997538248743],[78.69025146484367,24.348362426758356],[78.69136637369806,24.34654154459686],[78.69138237847235,24.344142049154343],[78.69249457465267,24.34311143663244],[78.69200710720477,24.341985609266885],[78.69027235243053,24.3411164008253],[78.68978054470497,24.340073852539646],[78.68859483506944,24.338904418945774],[78.68916151258671,24.33777208116375],[78.69249348958331,24.3379041205517],[78.69386854383689,24.33725524902391],[78.69609917534731,24.33504157172368],[78.69706217447916,24.333345201280807],[78.69800320095479,24.333307902018817],[78.69943115234369,24.33380832248318],[78.69947943793406,24.332592705621067],[78.69861653645833,24.331661376953647],[78.69729031033003,24.33134548611163],[78.69680853949663,24.329507310655956],[78.69725748697934,24.327362128364243],[78.6950455729166,24.32628709581219],[78.69497531467007,24.324513142904067],[78.69693901909724,24.322189127604673],[78.69654459635424,24.320179036458953],[78.69511121961798,24.31863206651535],[78.69389539930566,24.318583848741838],[78.69388319227446,24.31889370388498],[78.69555013020837,24.320866427951927],[78.69520128038229,24.322281765408405],[78.69388400607639,24.323071899414543],[78.69112033420137,24.322962307400672],[78.69108371310787,24.32388231065586],[78.69332790798629,24.323828531901512],[78.6930569118924,24.325022786458803],[78.69139431423613,24.325807427300802],[78.69189561631961,24.326387261285177],[78.69389865451379,24.326706339518708],[78.69460666232644,24.327362331814825],[78.69551703559031,24.330837131076933],[78.69560275607657,24.332993706597847],[78.69453640407991,24.334144558377233],[78.69171169704887,24.33521714952309],[78.69136637369806,24.33376729329477],[78.69017089843769,24.332995266384998],[78.68894476996545,24.331671956380845],[78.688831108941,24.33268391927139],[78.68943901909736,24.33383300781314],[78.68893419053822,24.334473741319925],[78.68668158637158,24.33446038140248],[78.68607693142368,24.33414048936686],[78.68501491970503,24.33418260362454],[78.68212782118056,24.332512749566405],[78.68139512803825,24.332483723958802],[78.682229546441,24.334721611871117],[78.68180555555554,24.336250000000504],[78.68360568576398,24.337308349609785],[78.68333875868072,24.337783067491856],[78.68235704210079,24.33809387207083],[78.68167453342008,24.339383544922356],[78.68165093315994,24.339982842339822],[78.68351833767375,24.339965142144564],[78.68518771701392,24.341511840820814],[78.68584526909737,24.34281934950134],[78.68693657769089,24.343830634223607],[78.68697102864607,24.34470004611596],[78.68623860677084,24.345087619358168],[78.68306098090281,24.344961683485764],[78.68363715277795,24.346423068576925],[78.6835766601562,24.34794996473586],[78.68400472005217,24.34958333333384],[78.6830501302085,24.350828043620325],[78.68273817274323,24.352463039822567],[78.68166151258717,24.35250569661507],[78.68055013020833,24.350560845269584],[78.67964057074644,24.34875000000048],[78.68000868055574,24.348054606120314],[78.67903483072936,24.34678460015236],[78.6786168077256,24.345273234050055],[78.6777666558161,24.34353800455777],[78.67407280815965,24.34206210666285],[78.67333875868056,24.342742241753953],[78.67482747395829,24.344517483182116],[78.67631510416672,24.34521952311249],[78.67641384548622,24.34771057128947],[78.67445773654507,24.347025010851183],[78.67442898220517,24.347750108507412],[78.67500976562505,24.348376939562286],[78.67696668836808,24.349300469293112],[78.67691758897561,24.350540771484816],[78.67745225694463,24.351036376953658],[78.67829210069439,24.352623562283497],[78.67776150173617,24.353626641168077],[78.67860405816,24.35440734863333],[78.67862738715294,24.354993828668],[78.67778293185759,24.355027330187156],[78.6773228624132,24.35405253092496],[78.67563178168396,24.35222751193622],[78.67510904947906,24.35478488498306],[78.67650906033006,24.356295776367688],[78.67805013020833,24.357291056315574],[78.67767659505208,24.357979261610723],[78.67684027777793,24.357076822917264],[78.67465901692705,24.355922580295683],[78.6738943142361,24.356631130642967],[78.67428439670132,24.35750237359001],[78.67659044053838,24.35931572808208],[78.67787434895851,24.36183376736166],[78.67842285156266,24.363927341037936],[78.6774839952258,24.36584811740505],[78.67781521267383,24.368884412977977],[78.67924858940981,24.369642876519634],[78.68180555555554,24.36974426269589],[78.68360080295136,24.369738294813885],[78.68584526909737,24.36849772135473],[78.68581814236123,24.36781100803003],[78.68678195529529,24.366496853299125]]]]},"properties":{"id":"4974"}}]}