{"type":"FeatureCollection","features":[{"type":"Feature","geometry":{"type":"MultiPolygon","coordinates":[[[[102.91042209201098,17.89291137695359],[102.90966091579568,17.891805555555848],[102.91045844183739,17.89064656575563],[102.91185546874712,17.890701904297288],[102.91179985893811,17.889300944010756],[102.91251736110794,17.887945149740133],[102.90361111110795,17.88571085612014],[102.90085720485823,17.88623996310797],[102.89863416883364,17.885657416450115],[102.89583333333022,17.884166666667042],[102.89384657117765,17.885500081380613],[102.89205756293094,17.88431084526951],[102.89142768011837,17.88564520941874],[102.89035373263576,17.8859852430559],[102.88954616970173,17.886856553819783],[102.8877799479138,17.89273084852468],[102.88855685763579,17.89386013454893],[102.89131917317414,17.89516370985281],[102.8921440972193,17.89513102213583],[102.89318901909436,17.89457804362023],[102.89576144747971,17.89386108398466],[102.90056125216702,17.89467814127643],[102.90185899522268,17.893991427951747],[102.90292100694134,17.894033474392742],[102.90414577907669,17.893604193793763],[102.90542561848659,17.892622748481273],[102.90632649739294,17.89265842013934],[102.90727783202843,17.895101589627046],[102.91070339626427,17.89551147460979],[102.9115223524274,17.89496636284767],[102.91068901909424,17.893755289714065],[102.91042209201098,17.89291137695359]]]]},"properties":{"id":"10166"}}]}