{"type":"FeatureCollection","features":[{"type":"Feature","geometry":{"type":"MultiPolygon","coordinates":[[[[80.97019436306422,24.998303493924098],[80.96986111111099,24.997916666667024],[80.96902018229142,24.99817003038227],[80.97001030815946,24.999434136285075],[80.97067715114989,25.00168131510455],[80.97054300943981,25.00335123697954],[80.97333801269522,25.006335177951726],[80.97368835449211,25.00901312934063],[80.97445922851543,25.009677191840638],[80.97436075846329,25.01201334635448],[80.97535325792077,25.0131656901045],[80.97715426974824,25.01203721788235],[80.97751180013009,25.011396484375382],[80.97751580132362,25.010775282118544],[80.97667846679664,25.009274088541986],[80.97356330023851,24.99945583767402],[80.9728308105467,24.99860568576426],[80.97019436306422,24.998303493924098]]]]},"properties":{"id":"19149"}}]}