{"type":"FeatureCollection","features":[{"type":"Feature","geometry":{"type":"MultiPolygon","coordinates":[[[[75.12480859374998,25.24443554687508],[75.1250039062501,25.24406738281246],[75.12819140625024,25.243939453124995],[75.12843359375015,25.243810546875153],[75.13094140625023,25.243689453125185],[75.13121093750013,25.24354785156244],[75.13117968750007,25.24283300781265],[75.12968359375,25.242689453124953],[75.12944140624998,25.242560546875012],[75.12918359375001,25.24243945312506],[75.12894140625,25.242310546875117],[75.12843359375015,25.242189453125064],[75.12764062500011,25.24151757812517],[75.12731640625012,25.24168945312499],[75.12641406249989,25.24181054687513],[75.12594140625023,25.24156054687515],[75.12493359375011,25.24143945312518],[75.12469140625015,25.24131054687497],[75.12443359375013,25.241189453125017],[75.12419140625022,25.241060546875076],[75.12393359375014,25.240939453125108],[75.12369140625023,25.240810546874997],[75.12343359375026,25.24068945312503],[75.12319140624996,25.240560546875187],[75.12293359374999,25.24043945312522],[75.1223671875002,25.24000390624994],[75.12219140624998,25.239412109374967],[75.12244921875023,25.238920898437712],[75.12294140625013,25.238689453125104],[75.12393359375014,25.23781054687511],[75.12444140624999,25.237689453124972],[75.12508203125006,25.237166992187525],[75.12530859375002,25.23668554687511],[75.12554687500014,25.236236328125173],[75.12525000000008,25.23575000000021],[75.12380859375011,25.2358105468751],[75.12356640625015,25.235939453125212],[75.12330859375012,25.23606054687518],[75.12306640625022,25.23618945312502],[75.12255859375003,25.23631054687499],[75.12231640625012,25.2364394531251],[75.1220585937501,25.23656054687507],[75.12181640625013,25.23668945312501],[75.12080859375001,25.236810546874963],[75.1205664062501,25.236939453125174],[75.11991406250004,25.237060546875142],[75.1194414062501,25.236810546874963],[75.11771875000002,25.23668945312501],[75.11696875000004,25.237264648437545],[75.1171914062501,25.23768554687507],[75.11738671875023,25.238101562500034],[75.11680859375,25.238810546875072],[75.11669140625011,25.239064453125053],[75.11655859375011,25.239310546875146],[75.11644140625023,25.239564453125027],[75.11630859375,25.239810546875034],[75.11619140625024,25.240265625000077],[75.11657812500007,25.240831054687604],[75.1171484375001,25.241100585937446],[75.1173085937501,25.24143945312518],[75.11762500000023,25.241895507812714],[75.1183164062501,25.242060546875038],[75.11855859375001,25.242189453125064],[75.11881640624998,25.242310546875117],[75.1195585937501,25.242939453125032],[75.11994140624998,25.243120117187587],[75.12030859375002,25.243587890625093],[75.11999999999992,25.244173828125113],[75.11841406250014,25.244310546875127],[75.11771484375018,25.243941406250045],[75.11694921875008,25.24452832031254],[75.117328125,25.245081054687617],[75.11781640625011,25.245310546875004],[75.11805859375002,25.245439453125115],[75.1204609375001,25.245560546875083],[75.1209335937501,25.245310546875004],[75.12394140625011,25.24518945312495],[75.12418359375002,25.245060546875195],[75.124609375,25.244859375000033],[75.12480859374998,25.24443554687508]]]]},"properties":{"id":"27029"}}]}