{
"type": "FeatureCollection",
"name": "downstream_65923",
"crs": { "type": "name", "properties": { "name": "urn:ogc:def:crs:OGC:1.3:CRS84" } },
"features": [
{ "type": "Feature", "properties": { "COMID": 44043662, "id": "22991", "lengthkm": 38.193245949154523, "order": 1, "uparea": 153.63763628413463 }, "geometry": { "type": "LineString", "coordinates": [ [ 104.7875, 11.97333333333334 ], [ 104.788333333333327, 11.976666666666674 ], [ 104.785833333333329, 11.981666666666673 ], [ 104.786666666666662, 11.985833333333339 ], [ 104.7825, 11.989166666666673 ], [ 104.78, 11.989166666666673 ], [ 104.775833333333338, 11.995833333333337 ], [ 104.7725, 11.996666666666673 ], [ 104.769166666666663, 11.995 ], [ 104.765833333333333, 11.998333333333338 ], [ 104.756666666666661, 11.993333333333339 ], [ 104.755, 11.993333333333339 ], [ 104.755, 11.995 ], [ 104.751666666666665, 11.995 ], [ 104.750833333333333, 11.993333333333339 ], [ 104.7525, 11.990833333333338 ], [ 104.750833333333333, 11.986666666666672 ], [ 104.74166666666666, 11.98 ], [ 104.735833333333332, 11.981666666666673 ], [ 104.731666666666669, 11.985 ], [ 104.7275, 11.98416666666667 ], [ 104.725, 11.9875 ], [ 104.723333333333329, 11.985 ], [ 104.716666666666669, 11.983333333333338 ], [ 104.71, 11.985833333333339 ], [ 104.7075, 11.989166666666673 ], [ 104.706666666666663, 11.988333333333337 ], [ 104.701666666666668, 11.991666666666671 ], [ 104.6975, 11.989166666666673 ], [ 104.694166666666661, 11.989166666666673 ], [ 104.691666666666663, 11.991666666666671 ], [ 104.689166666666665, 11.99 ], [ 104.686666666666667, 11.990833333333338 ], [ 104.681666666666658, 11.986666666666672 ], [ 104.678333333333327, 11.986666666666672 ], [ 104.67583333333333, 11.983333333333338 ], [ 104.673333333333332, 11.983333333333338 ], [ 104.671666666666667, 11.985833333333339 ], [ 104.665833333333325, 11.98 ], [ 104.6575, 11.98416666666667 ], [ 104.650833333333338, 11.98416666666667 ], [ 104.649166666666659, 11.985833333333339 ], [ 104.645, 11.985833333333339 ], [ 104.640833333333333, 11.9825 ], [ 104.635833333333323, 11.98416666666667 ], [ 104.634166666666658, 11.98083333333334 ], [ 104.631666666666661, 11.983333333333338 ], [ 104.6275, 11.975 ], [ 104.623333333333335, 11.978333333333339 ], [ 104.624166666666667, 11.979166666666671 ], [ 104.6175, 11.98083333333334 ], [ 104.6175, 11.983333333333338 ], [ 104.614166666666662, 11.986666666666672 ], [ 104.609166666666667, 11.989166666666673 ], [ 104.600833333333327, 11.989166666666673 ], [ 104.6, 11.98416666666667 ], [ 104.601666666666659, 11.9825 ], [ 104.595833333333331, 11.98083333333334 ], [ 104.593333333333334, 11.983333333333338 ], [ 104.589166666666671, 11.983333333333338 ], [ 104.585, 11.9875 ], [ 104.581666666666663, 11.985833333333339 ], [ 104.578333333333333, 11.99 ], [ 104.576666666666668, 11.989166666666673 ], [ 104.570833333333326, 11.993333333333339 ], [ 104.569166666666661, 11.991666666666671 ], [ 104.561666666666667, 11.9975 ] ] } },
{ "type": "Feature", "properties": { "COMID": 44043128, "id": "22991", "lengthkm": 11.61272392454808, "order": 2, "uparea": 238.61123669499298 }, "geometry": { "type": "LineString", "coordinates": [ [ 104.768333333333331, 11.900833333333338 ], [ 104.77, 11.905 ], [ 104.7775, 11.911666666666672 ], [ 104.795833333333334, 11.9175 ], [ 104.803333333333327, 11.926666666666673 ], [ 104.805, 11.931666666666672 ], [ 104.805, 11.939166666666672 ], [ 104.8025, 11.943333333333339 ], [ 104.791666666666657, 11.950833333333339 ], [ 104.7875, 11.956666666666671 ], [ 104.7875, 11.97333333333334 ] ] } },
{ "type": "Feature", "properties": { "COMID": 44043067, "id": "22991", "lengthkm": 3.0693962284781242, "order": 3, "uparea": 845.45575814361268 }, "geometry": { "type": "LineString", "coordinates": [ [ 104.781666666666666, 11.88 ], [ 104.778333333333336, 11.880833333333339 ], [ 104.77, 11.89 ], [ 104.768333333333331, 11.893333333333338 ], [ 104.768333333333331, 11.900833333333338 ] ] } },
{ "type": "Feature", "properties": { "COMID": 44042798, "id": "22991", "lengthkm": 3.739995259753973, "order": 6, "uparea": 84474.746325910339 }, "geometry": { "type": "LineString", "coordinates": [ [ 104.8, 11.854166666666671 ], [ 104.795833333333334, 11.861666666666672 ], [ 104.785833333333329, 11.870833333333337 ], [ 104.781666666666666, 11.88 ] ] } },
{ "type": "Feature", "properties": { "COMID": 44042797, "id": "22991", "lengthkm": 0.092662492290699006, "order": 6, "uparea": 84574.371777092747 }, "geometry": { "type": "LineString", "coordinates": [ [ 104.8, 11.853333333333339 ], [ 104.8, 11.854166666666671 ] ] } },
{ "type": "Feature", "properties": { "COMID": 44042796, "id": "22991", "lengthkm": 8.1154143457570811, "order": 6, "uparea": 85422.150834822416 }, "geometry": { "type": "LineString", "coordinates": [ [ 104.824166666666656, 11.79 ], [ 104.8125, 11.805833333333339 ], [ 104.803333333333327, 11.82416666666667 ], [ 104.801666666666662, 11.83 ], [ 104.801666666666662, 11.849166666666672 ], [ 104.8, 11.853333333333339 ] ] } },
{ "type": "Feature", "properties": { "COMID": 44042795, "id": "22991", "lengthkm": 3.2242638684319478, "order": 6, "uparea": 86032.279031289276 }, "geometry": { "type": "LineString", "coordinates": [ [ 104.83, 11.763333333333339 ], [ 104.828333333333333, 11.7775 ], [ 104.824166666666656, 11.79 ] ] } },
{ "type": "Feature", "properties": { "COMID": 44042794, "id": "22991", "lengthkm": 11.711163045860255, "order": 6, "uparea": 87664.889388178519 }, "geometry": { "type": "LineString", "coordinates": [ [ 104.86, 11.67 ], [ 104.8525, 11.680833333333339 ], [ 104.8425, 11.70333333333334 ], [ 104.8375, 11.729166666666671 ], [ 104.831666666666663, 11.745 ], [ 104.83, 11.763333333333339 ] ] } },
{ "type": "Feature", "properties": { "COMID": 44043943, "id": "22991", "lengthkm": 6.2530885194613859, "order": 6, "uparea": 87777.539914863752 }, "geometry": { "type": "LineString", "coordinates": [ [ 104.899166666666659, 11.63666666666667 ], [ 104.884166666666658, 11.641666666666673 ], [ 104.875, 11.648333333333337 ], [ 104.86, 11.67 ] ] } },
{ "type": "Feature", "properties": { "COMID": 44043942, "id": "22991", "lengthkm": 11.431621086972255, "order": 6, "uparea": 87839.983475464673 }, "geometry": { "type": "LineString", "coordinates": [ [ 104.9475, 11.560833333333338 ], [ 104.941666666666663, 11.56 ], [ 104.93416666666667, 11.566666666666674 ], [ 104.92916666666666, 11.5775 ], [ 104.921666666666667, 11.5875 ], [ 104.921666666666667, 11.605 ], [ 104.920833333333334, 11.6125 ], [ 104.918333333333337, 11.618333333333339 ], [ 104.9075, 11.631666666666671 ], [ 104.899166666666659, 11.63666666666667 ] ] } },
{ "type": "Feature", "properties": { "COMID": 44043940, "id": "22991", "lengthkm": 2.6721343464230611, "order": 7, "uparea": 751128.29172518873 }, "geometry": { "type": "LineString", "coordinates": [ [ 104.966666666666669, 11.548333333333339 ], [ 104.953333333333333, 11.555 ], [ 104.9475, 11.560833333333338 ] ] } },
{ "type": "Feature", "properties": { "COMID": 44043939, "id": "22991", "lengthkm": 27.602641817251001, "order": 7, "uparea": 751221.3391168192 }, "geometry": { "type": "LineString", "coordinates": [ [ 105.176666666666662, 11.4575 ], [ 105.1675, 11.463333333333338 ], [ 105.158333333333331, 11.4725 ], [ 105.145833333333329, 11.4775 ], [ 105.135, 11.485 ], [ 105.12166666666667, 11.490833333333338 ], [ 105.111666666666665, 11.5 ], [ 105.1, 11.505833333333339 ], [ 105.085833333333326, 11.518333333333338 ], [ 105.083333333333329, 11.523333333333337 ], [ 105.0775, 11.52833333333334 ], [ 105.061666666666667, 11.533333333333339 ], [ 105.056666666666658, 11.533333333333339 ], [ 105.033333333333331, 11.5425 ], [ 105.016666666666666, 11.54666666666667 ], [ 104.984166666666667, 11.5475 ], [ 104.974166666666662, 11.549166666666672 ], [ 104.966666666666669, 11.548333333333339 ] ] } },
{ "type": "Feature", "properties": { "COMID": 44043938, "id": "22991", "lengthkm": 22.169869394716191, "order": 7, "uparea": 752374.90433129028 }, "geometry": { "type": "LineString", "coordinates": [ [ 105.275, 11.306666666666672 ], [ 105.274166666666659, 11.321666666666673 ], [ 105.264166666666668, 11.35 ], [ 105.261666666666656, 11.3525 ], [ 105.260833333333323, 11.366666666666671 ], [ 105.255, 11.391666666666673 ], [ 105.239166666666662, 11.409166666666671 ], [ 105.229166666666657, 11.415 ], [ 105.210833333333326, 11.435 ], [ 105.195, 11.443333333333339 ], [ 105.176666666666662, 11.4575 ] ] } },
{ "type": "Feature", "properties": { "COMID": 44045069, "id": "22991", "lengthkm": 78.538432929652856, "order": 7, "uparea": 754973.09388872841 }, "geometry": { "type": "LineString", "coordinates": [ [ 105.335833333333326, 10.808333333333337 ], [ 105.325833333333335, 10.818333333333339 ], [ 105.313333333333333, 10.8225 ], [ 105.305, 10.8225 ], [ 105.286666666666662, 10.816666666666674 ], [ 105.283333333333331, 10.810833333333338 ], [ 105.276666666666671, 10.805 ], [ 105.264166666666668, 10.80083333333334 ], [ 105.2425, 10.805 ], [ 105.231666666666669, 10.805 ], [ 105.2275, 10.809166666666673 ], [ 105.2275, 10.811666666666671 ], [ 105.215833333333336, 10.835 ], [ 105.213333333333338, 10.8375 ], [ 105.210833333333326, 10.836666666666673 ], [ 105.203333333333333, 10.84083333333334 ], [ 105.193333333333328, 10.853333333333339 ], [ 105.19083333333333, 10.85916666666667 ], [ 105.19, 10.869166666666672 ], [ 105.1875, 10.871666666666673 ], [ 105.185833333333335, 10.88 ], [ 105.185833333333335, 10.894166666666671 ], [ 105.1875, 10.8975 ], [ 105.188333333333333, 10.9075 ], [ 105.186666666666667, 10.913333333333338 ], [ 105.185833333333335, 10.9475 ], [ 105.183333333333337, 10.964166666666671 ], [ 105.1875, 10.978333333333339 ], [ 105.1875, 11.001666666666672 ], [ 105.19083333333333, 11.020833333333339 ], [ 105.194166666666661, 11.025 ], [ 105.1975, 11.03583333333334 ], [ 105.1975, 11.041666666666671 ], [ 105.195, 11.045833333333338 ], [ 105.1925, 11.083333333333339 ], [ 105.195, 11.088333333333338 ], [ 105.203333333333333, 11.096666666666671 ], [ 105.21, 11.1 ], [ 105.213333333333338, 11.10583333333334 ], [ 105.234166666666667, 11.13 ], [ 105.236666666666665, 11.139166666666672 ], [ 105.235833333333332, 11.143333333333338 ], [ 105.24166666666666, 11.154166666666672 ], [ 105.23833333333333, 11.159166666666671 ], [ 105.235, 11.170833333333338 ], [ 105.235, 11.178333333333338 ], [ 105.250833333333333, 11.194166666666671 ], [ 105.255833333333328, 11.19583333333334 ], [ 105.259166666666658, 11.199166666666674 ], [ 105.268333333333331, 11.21583333333334 ], [ 105.271666666666661, 11.228333333333339 ], [ 105.279166666666669, 11.245833333333337 ], [ 105.280833333333334, 11.255 ], [ 105.28, 11.2775 ], [ 105.275, 11.29666666666667 ], [ 105.275, 11.306666666666672 ] ] } },
{ "type": "Feature", "properties": { "COMID": 44045068, "id": "22991", "lengthkm": 3.6899238053673629, "order": 7, "uparea": 755590.39581178268 }, "geometry": { "type": "LineString", "coordinates": [ [ 105.345833333333331, 10.779166666666672 ], [ 105.3375, 10.8 ], [ 105.335833333333326, 10.808333333333337 ] ] } },
{ "type": "Feature", "properties": { "COMID": 44045067, "id": "22991", "lengthkm": 8.1031903767886284, "order": 7, "uparea": 755633.45288342342 }, "geometry": { "type": "LineString", "coordinates": [ [ 105.350833333333327, 10.715 ], [ 105.355, 10.725 ], [ 105.359166666666667, 10.729166666666671 ], [ 105.359166666666667, 10.73416666666667 ], [ 105.355833333333322, 10.745 ], [ 105.355833333333322, 10.755833333333339 ], [ 105.351666666666659, 10.770833333333339 ], [ 105.345833333333331, 10.779166666666672 ] ] } },
{ "type": "Feature", "properties": { "COMID": 44045066, "id": "22991", "lengthkm": 17.48573855067545, "order": 7, "uparea": 755704.6604524802 }, "geometry": { "type": "LineString", "coordinates": [ [ 105.36666666666666, 10.574166666666674 ], [ 105.365833333333327, 10.583333333333339 ], [ 105.349166666666662, 10.6175 ], [ 105.34, 10.645833333333339 ], [ 105.338333333333338, 10.67583333333334 ], [ 105.345833333333331, 10.690833333333337 ], [ 105.350833333333327, 10.715 ] ] } },
{ "type": "Feature", "properties": { "COMID": 44045065, "id": "22991", "lengthkm": 6.0505441600601344, "order": 7, "uparea": 755739.88482001564 }, "geometry": { "type": "LineString", "coordinates": [ [ 105.3275, 10.540833333333339 ], [ 105.334166666666661, 10.548333333333339 ], [ 105.351666666666659, 10.556666666666672 ], [ 105.36666666666666, 10.574166666666674 ] ] } },
{ "type": "Feature", "properties": { "COMID": 44045924, "id": "22991", "lengthkm": 23.262980328980063, "order": 7, "uparea": 768296.12213371927 }, "geometry": { "type": "LineString", "coordinates": [ [ 105.445, 10.386666666666674 ], [ 105.431666666666658, 10.398333333333341 ], [ 105.414166666666659, 10.4175 ], [ 105.4075, 10.439166666666672 ], [ 105.385, 10.451666666666672 ], [ 105.361666666666665, 10.476666666666674 ], [ 105.346666666666664, 10.49 ], [ 105.33, 10.525833333333338 ], [ 105.3275, 10.540833333333339 ] ] } },
{ "type": "Feature", "properties": { "COMID": 44045923, "id": "22991", "lengthkm": 0.84564859880892596, "order": 7, "uparea": 770011.15033644927 }, "geometry": { "type": "LineString", "coordinates": [ [ 105.451666666666668, 10.384166666666673 ], [ 105.445, 10.386666666666674 ] ] } },
{ "type": "Feature", "properties": { "COMID": 44045922, "id": "22991", "lengthkm": 7.2556288478156619, "order": 7, "uparea": 770287.79144258949 }, "geometry": { "type": "LineString", "coordinates": [ [ 105.48833333333333, 10.334166666666672 ], [ 105.474166666666662, 10.3475 ], [ 105.4625, 10.3625 ], [ 105.456666666666663, 10.3725 ], [ 105.455, 10.38 ], [ 105.451666666666668, 10.384166666666673 ] ] } },
{ "type": "Feature", "properties": { "COMID": 44045921, "id": "22991", "lengthkm": 1.0025688598509439, "order": 7, "uparea": 770557.26773444971 }, "geometry": { "type": "LineString", "coordinates": [ [ 105.494166666666658, 10.3275 ], [ 105.48833333333333, 10.334166666666672 ] ] } },
{ "type": "Feature", "properties": { "COMID": 44045920, "id": "22991", "lengthkm": 22.999195181191958, "order": 7, "uparea": 770975.52559636952 }, "geometry": { "type": "LineString", "coordinates": [ [ 105.625, 10.186666666666671 ], [ 105.624166666666667, 10.1925 ], [ 105.615, 10.2175 ], [ 105.600833333333327, 10.23833333333334 ], [ 105.57, 10.268333333333338 ], [ 105.564166666666665, 10.27 ], [ 105.55916666666667, 10.275 ], [ 105.558333333333337, 10.27833333333334 ], [ 105.548333333333332, 10.2875 ], [ 105.525, 10.3025 ], [ 105.5175, 10.305833333333339 ], [ 105.515833333333333, 10.305 ], [ 105.494166666666658, 10.3275 ] ] } },
{ "type": "Feature", "properties": { "COMID": 44045919, "id": "22991", "lengthkm": 5.7164777464332648, "order": 7, "uparea": 771033.49665386393 }, "geometry": { "type": "LineString", "coordinates": [ [ 105.659166666666664, 10.15 ], [ 105.650833333333324, 10.158333333333339 ], [ 105.65, 10.1625 ], [ 105.625, 10.186666666666671 ] ] } },
{ "type": "Feature", "properties": { "COMID": 44045918, "id": "22991", "lengthkm": 15.015373103071788, "order": 7, "uparea": 772579.76282141218 }, "geometry": { "type": "LineString", "coordinates": [ [ 105.765, 10.0775 ], [ 105.7525, 10.09 ], [ 105.740833333333327, 10.095833333333339 ], [ 105.735, 10.095833333333339 ], [ 105.710833333333326, 10.116666666666671 ], [ 105.694166666666661, 10.12583333333334 ], [ 105.659166666666664, 10.15 ] ] } },
{ "type": "Feature", "properties": { "COMID": 44045917, "id": "22991", "lengthkm": 5.2380466363319433, "order": 7, "uparea": 772650.606293933 }, "geometry": { "type": "LineString", "coordinates": [ [ 105.798333333333332, 10.049166666666672 ], [ 105.793333333333322, 10.058333333333341 ], [ 105.784166666666664, 10.0675 ], [ 105.775833333333324, 10.073333333333338 ], [ 105.765, 10.0775 ] ] } },
{ "type": "Feature", "properties": { "COMID": 44045916, "id": "22991", "lengthkm": 0.57545517070872898, "order": 7, "uparea": 772739.76413985551 }, "geometry": { "type": "LineString", "coordinates": [ [ 105.80083333333333, 10.045 ], [ 105.798333333333332, 10.049166666666672 ] ] } },
{ "type": "Feature", "properties": { "COMID": 44045915, "id": "22991", "lengthkm": 17.013743803694048, "order": 7, "uparea": 773817.92850895261 }, "geometry": { "type": "LineString", "coordinates": [ [ 105.898333333333326, 9.936666666666671 ], [ 105.8775, 9.950833333333339 ], [ 105.846666666666664, 9.98 ], [ 105.819166666666661, 10.013333333333339 ], [ 105.8175, 10.016666666666673 ], [ 105.8175, 10.0225 ], [ 105.814166666666665, 10.03 ], [ 105.808333333333337, 10.038333333333338 ], [ 105.80083333333333, 10.045 ] ] } },
{ "type": "Feature", "properties": { "COMID": 44046400, "id": "22991", "lengthkm": 9.2908474740990226, "order": 7, "uparea": 774697.65067198128 }, "geometry": { "type": "LineString", "coordinates": [ [ 105.955, 9.880833333333339 ], [ 105.953333333333333, 9.885 ], [ 105.925, 9.91 ], [ 105.911666666666662, 9.925 ], [ 105.91, 9.93 ], [ 105.898333333333326, 9.936666666666671 ] ] } },
{ "type": "Feature", "properties": { "COMID": 44046399, "id": "22991", "lengthkm": 10.815765808967447, "order": 7, "uparea": 774772.97603668948 }, "geometry": { "type": "LineString", "coordinates": [ [ 106.025833333333338, 9.8175 ], [ 106.0175, 9.819166666666671 ], [ 106.014166666666668, 9.821666666666673 ], [ 105.955, 9.880833333333339 ] ] } },
{ "type": "Feature", "properties": { "COMID": 44046398, "id": "22991", "lengthkm": 2.955705689749085, "order": 7, "uparea": 775050.41322420561 }, "geometry": { "type": "LineString", "coordinates": [ [ 106.0475, 9.808333333333341 ], [ 106.034166666666664, 9.816666666666674 ], [ 106.025833333333338, 9.8175 ] ] } },
{ "type": "Feature", "properties": { "COMID": 44046397, "id": "22991", "lengthkm": 4.957685663430401, "order": 7, "uparea": 775140.78874230909 }, "geometry": { "type": "LineString", "coordinates": [ [ 106.069166666666661, 9.7725 ], [ 106.066666666666663, 9.7825 ], [ 106.0475, 9.808333333333341 ] ] } },
{ "type": "Feature", "properties": { "COMID": 44046396, "id": "22991", "lengthkm": 3.5701866387717152, "order": 7, "uparea": 775611.55126566498 }, "geometry": { "type": "LineString", "coordinates": [ [ 106.0975, 9.7625 ], [ 106.0775, 9.7725 ], [ 106.069166666666661, 9.7725 ] ] } },
{ "type": "Feature", "properties": { "COMID": 44046395, "id": "22991", "lengthkm": 2.355571900216527, "order": 7, "uparea": 775719.66045150871 }, "geometry": { "type": "LineString", "coordinates": [ [ 106.11333333333333, 9.749166666666671 ], [ 106.0975, 9.7625 ] ] } },
{ "type": "Feature", "properties": { "COMID": 44046394, "id": "22991", "lengthkm": 11.851812812818313, "order": 7, "uparea": 775833.02004996059 }, "geometry": { "type": "LineString", "coordinates": [ [ 106.185833333333335, 9.673333333333339 ], [ 106.161666666666662, 9.696666666666673 ], [ 106.15, 9.710833333333341 ], [ 106.12833333333333, 9.73083333333334 ], [ 106.11333333333333, 9.749166666666671 ] ] } },
{ "type": "Feature", "properties": { "COMID": 44046393, "id": "22991", "lengthkm": 4.0862544170249508, "order": 7, "uparea": 775876.22938334767 }, "geometry": { "type": "LineString", "coordinates": [ [ 106.2125, 9.648333333333341 ], [ 106.185833333333335, 9.673333333333339 ] ] } },
{ "type": "Feature", "properties": { "COMID": 44046392, "id": "22991", "lengthkm": 5.622978429100705, "order": 7, "uparea": 775976.91826970724 }, "geometry": { "type": "LineString", "coordinates": [ [ 106.25, 9.615833333333338 ], [ 106.2125, 9.648333333333341 ] ] } },
{ "type": "Feature", "properties": { "COMID": 44046391, "id": "22991", "lengthkm": 3.9342543909143042, "order": 7, "uparea": 776027.11519115441 }, "geometry": { "type": "LineString", "coordinates": [ [ 106.279166666666669, 9.6 ], [ 106.264166666666668, 9.606666666666673 ], [ 106.25, 9.615833333333338 ] ] } },
{ "type": "Feature", "properties": { "COMID": 44046390, "id": "22991", "lengthkm": 3.3861689994837838, "order": 7, "uparea": 776128.1625807212 }, "geometry": { "type": "LineString", "coordinates": [ [ 106.303333333333327, 9.584166666666672 ], [ 106.279166666666669, 9.6 ] ] } }
]
}
