{
"type": "FeatureCollection",
"name": "downstream_84444",
"crs": { "type": "name", "properties": { "name": "urn:ogc:def:crs:OGC:1.3:CRS84" } },
"features": [
{ "type": "Feature", "properties": { "COMID": 44034438, "id": "6961", "lengthkm": 9.3834247836825675, "order": 4, "uparea": 3720.6400454097065 }, "geometry": { "type": "LineString", "coordinates": [ [ 107.130833333333328, 14.926666666666673 ], [ 107.136666666666656, 14.928333333333338 ], [ 107.1425, 14.93416666666667 ], [ 107.140833333333333, 14.940833333333337 ], [ 107.144166666666663, 14.946666666666673 ], [ 107.145833333333329, 14.955833333333338 ], [ 107.148333333333326, 14.958333333333339 ], [ 107.151666666666671, 14.960833333333337 ], [ 107.155833333333334, 14.960833333333337 ], [ 107.16, 14.958333333333339 ], [ 107.165833333333325, 14.9625 ], [ 107.17, 14.960833333333337 ], [ 107.17, 14.965 ], [ 107.165, 14.968333333333337 ], [ 107.168333333333322, 14.971666666666671 ] ] } },
{ "type": "Feature", "properties": { "COMID": 44034437, "id": "6961", "lengthkm": 18.967747695911967, "order": 4, "uparea": 3910.4276739762299 }, "geometry": { "type": "LineString", "coordinates": [ [ 107.0825, 14.836666666666673 ], [ 107.085, 14.838333333333338 ], [ 107.085, 14.841666666666672 ], [ 107.0825, 14.843333333333337 ], [ 107.075833333333321, 14.854166666666671 ], [ 107.073333333333323, 14.8625 ], [ 107.0775, 14.8675 ], [ 107.091666666666669, 14.873333333333338 ], [ 107.0875, 14.885 ], [ 107.0875, 14.890833333333337 ], [ 107.090833333333336, 14.894166666666671 ], [ 107.098333333333329, 14.896666666666672 ], [ 107.105, 14.895 ], [ 107.114166666666662, 14.888333333333339 ], [ 107.1275, 14.893333333333338 ], [ 107.139166666666668, 14.905833333333337 ], [ 107.1425, 14.9075 ], [ 107.1425, 14.91 ], [ 107.138333333333321, 14.9125 ], [ 107.12833333333333, 14.923333333333339 ], [ 107.130833333333328, 14.926666666666673 ] ] } },
{ "type": "Feature", "properties": { "COMID": 44034436, "id": "6961", "lengthkm": 6.134652706555034, "order": 4, "uparea": 4063.6857776414049 }, "geometry": { "type": "LineString", "coordinates": [ [ 107.039166666666659, 14.83 ], [ 107.039166666666659, 14.835833333333337 ], [ 107.0425, 14.841666666666672 ], [ 107.049166666666665, 14.839166666666671 ], [ 107.069166666666661, 14.84 ], [ 107.078333333333333, 14.835833333333337 ], [ 107.0825, 14.836666666666673 ] ] } },
{ "type": "Feature", "properties": { "COMID": 44034435, "id": "6961", "lengthkm": 3.2543212349657762, "order": 4, "uparea": 4150.4883338609416 }, "geometry": { "type": "LineString", "coordinates": [ [ 107.0225, 14.845833333333339 ], [ 107.0325, 14.833333333333339 ], [ 107.033333333333331, 14.829166666666673 ], [ 107.0375, 14.8275 ], [ 107.039166666666659, 14.83 ] ] } },
{ "type": "Feature", "properties": { "COMID": 44034434, "id": "6961", "lengthkm": 6.0932137935585464, "order": 4, "uparea": 4318.379230651688 }, "geometry": { "type": "LineString", "coordinates": [ [ 107.0175, 14.804166666666671 ], [ 107.013333333333321, 14.81 ], [ 107.013333333333321, 14.81333333333334 ], [ 107.024166666666659, 14.8225 ], [ 107.02, 14.831666666666671 ], [ 107.02, 14.8375 ], [ 107.018333333333331, 14.84 ], [ 107.018333333333331, 14.845 ], [ 107.0225, 14.845833333333339 ] ] } },
{ "type": "Feature", "properties": { "COMID": 44034433, "id": "6961", "lengthkm": 9.0045346152540553, "order": 4, "uparea": 4389.7825129803869 }, "geometry": { "type": "LineString", "coordinates": [ [ 106.965, 14.826666666666672 ], [ 106.970833333333331, 14.815833333333337 ], [ 106.975833333333327, 14.8125 ], [ 106.98, 14.8125 ], [ 106.986666666666665, 14.820833333333336 ], [ 106.99166666666666, 14.821666666666673 ], [ 106.994166666666672, 14.818333333333339 ], [ 106.994166666666672, 14.811666666666671 ], [ 106.995833333333337, 14.80916666666667 ], [ 107.009166666666658, 14.805833333333339 ], [ 107.015, 14.800833333333337 ], [ 107.0175, 14.804166666666671 ] ] } },
{ "type": "Feature", "properties": { "COMID": 44034432, "id": "6961", "lengthkm": 8.1048788050858569, "order": 4, "uparea": 4459.5528511672783 }, "geometry": { "type": "LineString", "coordinates": [ [ 106.909166666666664, 14.791666666666671 ], [ 106.915, 14.79666666666667 ], [ 106.915833333333325, 14.800833333333337 ], [ 106.92, 14.805 ], [ 106.930833333333325, 14.805833333333339 ], [ 106.950833333333321, 14.82416666666667 ], [ 106.9575, 14.8275 ], [ 106.965, 14.826666666666672 ] ] } },
{ "type": "Feature", "properties": { "COMID": 44034431, "id": "6961", "lengthkm": 2.0166594544009362, "order": 4, "uparea": 4498.6801918697884 }, "geometry": { "type": "LineString", "coordinates": [ [ 106.893333333333331, 14.785 ], [ 106.909166666666664, 14.791666666666671 ] ] } },
{ "type": "Feature", "properties": { "COMID": 44034430, "id": "6961", "lengthkm": 14.091613384998055, "order": 4, "uparea": 6744.9674553792611 }, "geometry": { "type": "LineString", "coordinates": [ [ 106.835833333333326, 14.8 ], [ 106.8375, 14.79666666666667 ], [ 106.841666666666669, 14.795833333333338 ], [ 106.845, 14.791666666666671 ], [ 106.844166666666666, 14.78583333333334 ], [ 106.8375, 14.779166666666672 ], [ 106.838333333333338, 14.773333333333337 ], [ 106.8425, 14.77 ], [ 106.849166666666662, 14.771666666666672 ], [ 106.854166666666657, 14.776666666666671 ], [ 106.858333333333334, 14.783333333333339 ], [ 106.859166666666667, 14.798333333333339 ], [ 106.864166666666662, 14.801666666666673 ], [ 106.87166666666667, 14.8025 ], [ 106.874166666666667, 14.7975 ], [ 106.883333333333326, 14.79 ], [ 106.886666666666656, 14.783333333333339 ], [ 106.893333333333331, 14.785 ] ] } },
{ "type": "Feature", "properties": { "COMID": 44034405, "id": "6961", "lengthkm": 9.0985164444317679, "order": 5, "uparea": 16443.553080588354 }, "geometry": { "type": "LineString", "coordinates": [ [ 106.77, 14.798333333333339 ], [ 106.783333333333331, 14.803333333333338 ], [ 106.785833333333329, 14.8075 ], [ 106.7975, 14.818333333333339 ], [ 106.808333333333337, 14.8175 ], [ 106.821666666666658, 14.805833333333339 ], [ 106.835833333333326, 14.8 ] ] } },
{ "type": "Feature", "properties": { "COMID": 44034403, "id": "6961", "lengthkm": 8.2343549133723091, "order": 5, "uparea": 16532.657864141584 }, "geometry": { "type": "LineString", "coordinates": [ [ 106.7425, 14.745833333333337 ], [ 106.74666666666667, 14.751666666666672 ], [ 106.74666666666667, 14.755 ], [ 106.74166666666666, 14.768333333333338 ], [ 106.749166666666667, 14.784166666666671 ], [ 106.75333333333333, 14.79 ], [ 106.766666666666666, 14.795 ], [ 106.7675, 14.798333333333339 ], [ 106.77, 14.798333333333339 ] ] } },
{ "type": "Feature", "properties": { "COMID": 44034402, "id": "6961", "lengthkm": 3.409658949269569, "order": 5, "uparea": 16929.780986438283 }, "geometry": { "type": "LineString", "coordinates": [ [ 106.7175, 14.755 ], [ 106.731666666666655, 14.745 ], [ 106.734166666666667, 14.74666666666667 ], [ 106.7375, 14.74666666666667 ], [ 106.739166666666662, 14.745 ], [ 106.7425, 14.745833333333337 ] ] } },
{ "type": "Feature", "properties": { "COMID": 44034400, "id": "6961", "lengthkm": 9.9653416876178262, "order": 5, "uparea": 16971.352143196218 }, "geometry": { "type": "LineString", "coordinates": [ [ 106.6625, 14.698333333333338 ], [ 106.6725, 14.701666666666672 ], [ 106.6875, 14.713333333333338 ], [ 106.695833333333326, 14.7275 ], [ 106.699166666666656, 14.73 ], [ 106.705833333333331, 14.74 ], [ 106.706666666666663, 14.745 ], [ 106.71, 14.748333333333338 ], [ 106.71, 14.753333333333337 ], [ 106.7125, 14.755833333333339 ], [ 106.7175, 14.755 ] ] } },
{ "type": "Feature", "properties": { "COMID": 44034399, "id": "6961", "lengthkm": 16.962269511756727, "order": 5, "uparea": 17125.952671693918 }, "geometry": { "type": "LineString", "coordinates": [ [ 106.585, 14.63 ], [ 106.585, 14.63666666666667 ], [ 106.5825, 14.6425 ], [ 106.584166666666661, 14.65666666666667 ], [ 106.579166666666666, 14.668333333333337 ], [ 106.579166666666666, 14.673333333333339 ], [ 106.580833333333331, 14.675833333333337 ], [ 106.589166666666671, 14.679166666666671 ], [ 106.595833333333331, 14.675 ], [ 106.605, 14.676666666666673 ], [ 106.6125, 14.673333333333339 ], [ 106.626666666666665, 14.670833333333338 ], [ 106.635833333333323, 14.674166666666672 ], [ 106.64, 14.678333333333338 ], [ 106.639166666666668, 14.680833333333339 ], [ 106.6425, 14.6875 ], [ 106.65, 14.695 ], [ 106.6575, 14.695833333333336 ], [ 106.6625, 14.698333333333338 ] ] } },
{ "type": "Feature", "properties": { "COMID": 44034397, "id": "6961", "lengthkm": 0.47947682287928101, "order": 5, "uparea": 18894.425004418332 }, "geometry": { "type": "LineString", "coordinates": [ [ 106.5825, 14.626666666666672 ], [ 106.585, 14.63 ] ] } },
{ "type": "Feature", "properties": { "COMID": 44034396, "id": "6961", "lengthkm": 12.190899122166288, "order": 5, "uparea": 19019.308181538872 }, "geometry": { "type": "LineString", "coordinates": [ [ 106.521666666666661, 14.591666666666672 ], [ 106.526666666666671, 14.5925 ], [ 106.535833333333329, 14.59083333333334 ], [ 106.55083333333333, 14.593333333333337 ], [ 106.55416666666666, 14.595833333333339 ], [ 106.55416666666666, 14.626666666666672 ], [ 106.5575, 14.635 ], [ 106.560833333333335, 14.638333333333339 ], [ 106.56583333333333, 14.64 ], [ 106.5725, 14.638333333333339 ], [ 106.5775, 14.63 ], [ 106.5825, 14.626666666666672 ] ] } },
{ "type": "Feature", "properties": { "COMID": 44036254, "id": "6961", "lengthkm": 4.9395838671430168, "order": 5, "uparea": 19057.746531678069 }, "geometry": { "type": "LineString", "coordinates": [ [ 106.48833333333333, 14.5675 ], [ 106.49666666666667, 14.57416666666667 ], [ 106.498333333333335, 14.578333333333337 ], [ 106.505, 14.585 ], [ 106.521666666666661, 14.591666666666672 ] ] } },
{ "type": "Feature", "properties": { "COMID": 44036253, "id": "6961", "lengthkm": 8.9254361252754659, "order": 5, "uparea": 19512.339684307099 }, "geometry": { "type": "LineString", "coordinates": [ [ 106.479166666666657, 14.515 ], [ 106.476666666666659, 14.520833333333339 ], [ 106.460833333333326, 14.5375 ], [ 106.4575, 14.54666666666667 ], [ 106.463333333333338, 14.554166666666671 ], [ 106.474166666666662, 14.558333333333337 ], [ 106.48833333333333, 14.5675 ] ] } },
{ "type": "Feature", "properties": { "COMID": 44036252, "id": "6961", "lengthkm": 12.894542479281226, "order": 5, "uparea": 19649.778987589169 }, "geometry": { "type": "LineString", "coordinates": [ [ 106.4225, 14.474166666666672 ], [ 106.43416666666667, 14.480833333333337 ], [ 106.44083333333333, 14.490833333333338 ], [ 106.431666666666672, 14.501666666666672 ], [ 106.43, 14.508333333333336 ], [ 106.43, 14.515833333333337 ], [ 106.4375, 14.523333333333337 ], [ 106.4425, 14.523333333333337 ], [ 106.470833333333331, 14.51 ], [ 106.475833333333327, 14.510833333333338 ], [ 106.479166666666657, 14.515 ] ] } },
{ "type": "Feature", "properties": { "COMID": 44036250, "id": "6961", "lengthkm": 5.0993248451999609, "order": 5, "uparea": 19764.066634452418 }, "geometry": { "type": "LineString", "coordinates": [ [ 106.393333333333331, 14.451666666666672 ], [ 106.409166666666664, 14.450833333333339 ], [ 106.4125, 14.4525 ], [ 106.421666666666667, 14.4625 ], [ 106.420833333333334, 14.4725 ], [ 106.4225, 14.474166666666672 ] ] } },
{ "type": "Feature", "properties": { "COMID": 44036249, "id": "6961", "lengthkm": 7.2625977337585734, "order": 5, "uparea": 19844.410606601145 }, "geometry": { "type": "LineString", "coordinates": [ [ 106.335, 14.4425 ], [ 106.345, 14.446666666666673 ], [ 106.353333333333325, 14.4475 ], [ 106.368333333333325, 14.454166666666673 ], [ 106.370833333333337, 14.453333333333337 ], [ 106.3725, 14.455 ], [ 106.391666666666666, 14.453333333333337 ], [ 106.393333333333331, 14.451666666666672 ] ] } },
{ "type": "Feature", "properties": { "COMID": 44036247, "id": "6961", "lengthkm": 25.233218616388093, "order": 5, "uparea": 23415.282478965211 }, "geometry": { "type": "LineString", "coordinates": [ [ 106.2925, 14.31 ], [ 106.295833333333334, 14.315 ], [ 106.303333333333327, 14.320833333333336 ], [ 106.30916666666667, 14.321666666666673 ], [ 106.313333333333333, 14.320833333333336 ], [ 106.316666666666663, 14.3175 ], [ 106.320833333333326, 14.308333333333337 ], [ 106.321666666666658, 14.309166666666673 ], [ 106.335833333333326, 14.304166666666671 ], [ 106.34, 14.31 ], [ 106.341666666666669, 14.318333333333339 ], [ 106.340833333333336, 14.330833333333338 ], [ 106.319166666666661, 14.358333333333338 ], [ 106.321666666666658, 14.365 ], [ 106.32, 14.3675 ], [ 106.32, 14.38 ], [ 106.328333333333333, 14.385 ], [ 106.3275, 14.395 ], [ 106.334166666666661, 14.405833333333337 ], [ 106.339166666666671, 14.41083333333334 ], [ 106.338333333333338, 14.413333333333338 ], [ 106.340833333333336, 14.416666666666671 ], [ 106.331666666666663, 14.4325 ], [ 106.331666666666663, 14.439166666666672 ], [ 106.335, 14.4425 ] ] } },
{ "type": "Feature", "properties": { "COMID": 44036246, "id": "6961", "lengthkm": 1.035722836815252, "order": 5, "uparea": 23713.271030096737 }, "geometry": { "type": "LineString", "coordinates": [ [ 106.293333333333322, 14.301666666666673 ], [ 106.291666666666657, 14.306666666666672 ], [ 106.2925, 14.31 ] ] } },
{ "type": "Feature", "properties": { "COMID": 44036245, "id": "6961", "lengthkm": 9.0619657174377419, "order": 5, "uparea": 24490.111301226454 }, "geometry": { "type": "LineString", "coordinates": [ [ 106.3625, 14.2675 ], [ 106.356666666666655, 14.2725 ], [ 106.350833333333327, 14.275 ], [ 106.325, 14.280833333333337 ], [ 106.293333333333322, 14.301666666666673 ] ] } },
{ "type": "Feature", "properties": { "COMID": 44036244, "id": "6961", "lengthkm": 8.2053713339662231, "order": 5, "uparea": 24700.220212097887 }, "geometry": { "type": "LineString", "coordinates": [ [ 106.355, 14.220833333333339 ], [ 106.345833333333331, 14.225833333333338 ], [ 106.344166666666666, 14.233333333333338 ], [ 106.3475, 14.241666666666671 ], [ 106.351666666666659, 14.245833333333337 ], [ 106.369166666666672, 14.251666666666672 ], [ 106.369166666666672, 14.259166666666673 ], [ 106.3625, 14.2675 ] ] } },
{ "type": "Feature", "properties": { "COMID": 44036243, "id": "6961", "lengthkm": 8.5814564044750163, "order": 5, "uparea": 24833.714884356265 }, "geometry": { "type": "LineString", "coordinates": [ [ 106.418333333333322, 14.185833333333338 ], [ 106.408333333333331, 14.196666666666673 ], [ 106.380833333333328, 14.204166666666673 ], [ 106.370833333333337, 14.21 ], [ 106.36333333333333, 14.2175 ], [ 106.355, 14.220833333333339 ] ] } },
{ "type": "Feature", "properties": { "COMID": 44036241, "id": "6961", "lengthkm": 4.1433264272130419, "order": 5, "uparea": 25255.779273085689 }, "geometry": { "type": "LineString", "coordinates": [ [ 106.426666666666662, 14.1525 ], [ 106.426666666666662, 14.166666666666671 ], [ 106.423333333333332, 14.1775 ], [ 106.418333333333322, 14.185833333333338 ] ] } },
{ "type": "Feature", "properties": { "COMID": 44036240, "id": "6961", "lengthkm": 15.217785512323413, "order": 5, "uparea": 25372.240029590292 }, "geometry": { "type": "LineString", "coordinates": [ [ 106.3675, 14.050833333333337 ], [ 106.368333333333325, 14.055833333333339 ], [ 106.37166666666667, 14.055833333333339 ], [ 106.38, 14.064166666666672 ], [ 106.385833333333323, 14.079166666666673 ], [ 106.389166666666668, 14.0925 ], [ 106.388333333333335, 14.1125 ], [ 106.39, 14.116666666666671 ], [ 106.394166666666663, 14.123333333333338 ], [ 106.400833333333338, 14.12916666666667 ], [ 106.419166666666655, 14.135833333333338 ], [ 106.42583333333333, 14.145833333333339 ], [ 106.426666666666662, 14.1525 ] ] } },
{ "type": "Feature", "properties": { "COMID": 44036238, "id": "6961", "lengthkm": 2.8405939336827482, "order": 5, "uparea": 26619.551368402208 }, "geometry": { "type": "LineString", "coordinates": [ [ 106.3525, 14.03166666666667 ], [ 106.3675, 14.050833333333337 ] ] } },
{ "type": "Feature", "properties": { "COMID": 44037985, "id": "6961", "lengthkm": 5.9711142302598752, "order": 5, "uparea": 26882.948326829879 }, "geometry": { "type": "LineString", "coordinates": [ [ 106.314166666666665, 13.998333333333338 ], [ 106.3375, 14.0125 ], [ 106.3525, 14.03166666666667 ] ] } },
{ "type": "Feature", "properties": { "COMID": 44037984, "id": "6961", "lengthkm": 7.0158670046256422, "order": 5, "uparea": 27033.524375112462 }, "geometry": { "type": "LineString", "coordinates": [ [ 106.311666666666667, 13.9475 ], [ 106.301666666666662, 13.965 ], [ 106.299166666666665, 13.978333333333339 ], [ 106.30416666666666, 13.99 ], [ 106.314166666666665, 13.998333333333338 ] ] } },
{ "type": "Feature", "properties": { "COMID": 44037983, "id": "6961", "lengthkm": 4.2287642741593618, "order": 5, "uparea": 27186.140431354532 }, "geometry": { "type": "LineString", "coordinates": [ [ 106.288333333333327, 13.9225 ], [ 106.3, 13.9275 ], [ 106.303333333333327, 13.930833333333339 ], [ 106.310833333333335, 13.940833333333337 ], [ 106.311666666666667, 13.9475 ] ] } },
{ "type": "Feature", "properties": { "COMID": 44037982, "id": "6961", "lengthkm": 3.978573071647594, "order": 5, "uparea": 27222.93610742296 }, "geometry": { "type": "LineString", "coordinates": [ [ 106.293333333333322, 13.89 ], [ 106.293333333333322, 13.90333333333334 ], [ 106.291666666666657, 13.91 ], [ 106.286666666666662, 13.918333333333337 ], [ 106.288333333333327, 13.9225 ] ] } },
{ "type": "Feature", "properties": { "COMID": 44037981, "id": "6961", "lengthkm": 1.701493705417227, "order": 5, "uparea": 27294.707461199494 }, "geometry": { "type": "LineString", "coordinates": [ [ 106.288333333333327, 13.876666666666672 ], [ 106.291666666666657, 13.8825 ], [ 106.293333333333322, 13.89 ] ] } },
{ "type": "Feature", "properties": { "COMID": 44037980, "id": "6961", "lengthkm": 2.5072977606255038, "order": 5, "uparea": 27325.853912025283 }, "geometry": { "type": "LineString", "coordinates": [ [ 106.2725, 13.860833333333339 ], [ 106.288333333333327, 13.876666666666672 ] ] } },
{ "type": "Feature", "properties": { "COMID": 44037979, "id": "6961", "lengthkm": 6.8391682684700408, "order": 5, "uparea": 28036.956286155084 }, "geometry": { "type": "LineString", "coordinates": [ [ 106.24666666666667, 13.819166666666671 ], [ 106.25333333333333, 13.8225 ], [ 106.2625, 13.8225 ], [ 106.266666666666666, 13.825833333333339 ], [ 106.268333333333331, 13.831666666666671 ], [ 106.266666666666666, 13.85 ], [ 106.268333333333331, 13.855833333333337 ], [ 106.2725, 13.860833333333339 ] ] } },
{ "type": "Feature", "properties": { "COMID": 44037978, "id": "6961", "lengthkm": 5.5600530532881676, "order": 5, "uparea": 28122.5985628573 }, "geometry": { "type": "LineString", "coordinates": [ [ 106.2575, 13.77833333333334 ], [ 106.2575, 13.79 ], [ 106.243333333333325, 13.804166666666671 ], [ 106.243333333333325, 13.81 ], [ 106.24666666666667, 13.819166666666671 ] ] } },
{ "type": "Feature", "properties": { "COMID": 44037977, "id": "6961", "lengthkm": 0.68514815847084498, "order": 5, "uparea": 28251.000290822045 }, "geometry": { "type": "LineString", "coordinates": [ [ 106.256666666666661, 13.7725 ], [ 106.2575, 13.77833333333334 ] ] } },
{ "type": "Feature", "properties": { "COMID": 44037976, "id": "6961", "lengthkm": 11.081221660425198, "order": 5, "uparea": 28380.495082880341 }, "geometry": { "type": "LineString", "coordinates": [ [ 106.1825, 13.735833333333339 ], [ 106.19083333333333, 13.745 ], [ 106.198333333333323, 13.748333333333338 ], [ 106.214166666666671, 13.745 ], [ 106.218333333333334, 13.741666666666671 ], [ 106.225833333333327, 13.7425 ], [ 106.234166666666667, 13.75 ], [ 106.2375, 13.760833333333338 ], [ 106.24166666666666, 13.765833333333337 ], [ 106.245833333333337, 13.7675 ], [ 106.25, 13.766666666666673 ], [ 106.256666666666661, 13.7725 ] ] } },
{ "type": "Feature", "properties": { "COMID": 44037975, "id": "6961", "lengthkm": 6.4898741303185083, "order": 5, "uparea": 28564.481126865488 }, "geometry": { "type": "LineString", "coordinates": [ [ 106.165833333333325, 13.685833333333338 ], [ 106.166666666666657, 13.696666666666673 ], [ 106.165, 13.7 ], [ 106.165, 13.705833333333338 ], [ 106.166666666666657, 13.7125 ], [ 106.18, 13.728333333333339 ], [ 106.1825, 13.735833333333339 ] ] } },
{ "type": "Feature", "properties": { "COMID": 44037974, "id": "6961", "lengthkm": 1.85967833169674, "order": 5, "uparea": 28679.434625659746 }, "geometry": { "type": "LineString", "coordinates": [ [ 106.156666666666666, 13.674166666666672 ], [ 106.16, 13.675 ], [ 106.163333333333327, 13.678333333333338 ], [ 106.165833333333325, 13.685833333333338 ] ] } },
{ "type": "Feature", "properties": { "COMID": 44037973, "id": "6961", "lengthkm": 10.504839559387268, "order": 5, "uparea": 28764.547802346748 }, "geometry": { "type": "LineString", "coordinates": [ [ 106.1, 13.615 ], [ 106.11333333333333, 13.630833333333339 ], [ 106.124166666666667, 13.62916666666667 ], [ 106.129166666666663, 13.634166666666673 ], [ 106.140833333333333, 13.66416666666667 ], [ 106.1475, 13.67166666666667 ], [ 106.156666666666666, 13.674166666666672 ] ] } },
{ "type": "Feature", "properties": { "COMID": 44037972, "id": "6961", "lengthkm": 12.001183059258556, "order": 5, "uparea": 28844.642400208133 }, "geometry": { "type": "LineString", "coordinates": [ [ 106.023333333333326, 13.554166666666671 ], [ 106.03, 13.558333333333337 ], [ 106.05, 13.560833333333338 ], [ 106.066666666666663, 13.569166666666671 ], [ 106.071666666666658, 13.57416666666667 ], [ 106.076666666666668, 13.586666666666673 ], [ 106.091666666666669, 13.600833333333338 ], [ 106.094166666666666, 13.608333333333338 ], [ 106.1, 13.615 ] ] } },
{ "type": "Feature", "properties": { "COMID": 44037971, "id": "6961", "lengthkm": 8.5615938112327186, "order": 6, "uparea": 78732.020376826404 }, "geometry": { "type": "LineString", "coordinates": [ [ 105.955, 13.53916666666667 ], [ 105.964166666666671, 13.53583333333334 ], [ 105.980833333333322, 13.534166666666671 ], [ 105.993333333333325, 13.538333333333338 ], [ 105.998333333333335, 13.5425 ], [ 106.023333333333326, 13.554166666666671 ] ] } },
{ "type": "Feature", "properties": { "COMID": 44037953, "id": "6961", "lengthkm": 2.583551005728872, "order": 7, "uparea": 636985.77554160007 }, "geometry": { "type": "LineString", "coordinates": [ [ 105.936666666666667, 13.5275 ], [ 105.9425, 13.534166666666671 ], [ 105.955, 13.53916666666667 ] ] } },
{ "type": "Feature", "properties": { "COMID": 44037952, "id": "6961", "lengthkm": 3.3480699799657119, "order": 7, "uparea": 637551.33338222909 }, "geometry": { "type": "LineString", "coordinates": [ [ 105.92583333333333, 13.501666666666672 ], [ 105.9275, 13.514166666666672 ], [ 105.93416666666667, 13.521666666666672 ], [ 105.936666666666667, 13.5275 ] ] } },
{ "type": "Feature", "properties": { "COMID": 44037951, "id": "6961", "lengthkm": 7.0523683629704763, "order": 7, "uparea": 638082.72870787384 }, "geometry": { "type": "LineString", "coordinates": [ [ 105.9375, 13.444166666666671 ], [ 105.9375, 13.45 ], [ 105.931666666666658, 13.460833333333337 ], [ 105.92583333333333, 13.480833333333337 ], [ 105.92583333333333, 13.501666666666672 ] ] } },
{ "type": "Feature", "properties": { "COMID": 44037950, "id": "6961", "lengthkm": 2.9628881589546898, "order": 7, "uparea": 638140.71273385023 }, "geometry": { "type": "LineString", "coordinates": [ [ 105.933333333333337, 13.419166666666673 ], [ 105.936666666666667, 13.431666666666672 ], [ 105.9375, 13.444166666666671 ] ] } },
{ "type": "Feature", "properties": { "COMID": 44039774, "id": "6961", "lengthkm": 4.7727344026077034, "order": 7, "uparea": 638264.63766759238 }, "geometry": { "type": "LineString", "coordinates": [ [ 105.9325, 13.3825 ], [ 105.925, 13.401666666666671 ], [ 105.9275, 13.411666666666672 ], [ 105.933333333333337, 13.419166666666673 ] ] } },
{ "type": "Feature", "properties": { "COMID": 44039773, "id": "6961", "lengthkm": 6.672210038725404, "order": 7, "uparea": 638331.75427837751 }, "geometry": { "type": "LineString", "coordinates": [ [ 105.92916666666666, 13.339166666666671 ], [ 105.9325, 13.34 ], [ 105.943333333333328, 13.3525 ], [ 105.943333333333328, 13.355 ], [ 105.94083333333333, 13.3575 ], [ 105.93416666666667, 13.358333333333338 ], [ 105.93, 13.365 ], [ 105.93, 13.375 ], [ 105.9325, 13.37916666666667 ], [ 105.9325, 13.3825 ] ] } },
{ "type": "Feature", "properties": { "COMID": 44039772, "id": "6961", "lengthkm": 5.9777412697085142, "order": 7, "uparea": 638494.33212055825 }, "geometry": { "type": "LineString", "coordinates": [ [ 105.928333333333327, 13.291666666666671 ], [ 105.92583333333333, 13.31333333333334 ], [ 105.920833333333334, 13.319166666666671 ], [ 105.920833333333334, 13.328333333333337 ], [ 105.92916666666666, 13.339166666666671 ] ] } },
{ "type": "Feature", "properties": { "COMID": 44039771, "id": "6961", "lengthkm": 6.4296245377850756, "order": 7, "uparea": 639113.16834218067 }, "geometry": { "type": "LineString", "coordinates": [ [ 105.963333333333324, 13.2525 ], [ 105.9575, 13.25833333333334 ], [ 105.9575, 13.26 ], [ 105.936666666666667, 13.28 ], [ 105.92916666666666, 13.281666666666673 ], [ 105.928333333333327, 13.291666666666671 ] ] } },
{ "type": "Feature", "properties": { "COMID": 44039770, "id": "6961", "lengthkm": 8.258818620673896, "order": 7, "uparea": 639240.75469895452 }, "geometry": { "type": "LineString", "coordinates": [ [ 106.015, 13.221666666666671 ], [ 106.0125, 13.224166666666672 ], [ 106.005833333333328, 13.225 ], [ 106.001666666666665, 13.23 ], [ 105.995, 13.23416666666667 ], [ 105.990833333333327, 13.2325 ], [ 105.989166666666662, 13.23416666666667 ], [ 105.98, 13.231666666666673 ], [ 105.973333333333329, 13.231666666666673 ], [ 105.97, 13.235 ], [ 105.969166666666666, 13.240833333333338 ], [ 105.963333333333324, 13.2525 ] ] } },
{ "type": "Feature", "properties": { "COMID": 44039769, "id": "6961", "lengthkm": 6.4591977451643352, "order": 7, "uparea": 639519.52412222314 }, "geometry": { "type": "LineString", "coordinates": [ [ 106.025, 13.179166666666671 ], [ 106.02, 13.185833333333338 ], [ 106.014166666666668, 13.18833333333334 ], [ 106.014166666666668, 13.19583333333334 ], [ 106.0075, 13.201666666666672 ], [ 106.0075, 13.208333333333339 ], [ 106.01, 13.2125 ], [ 106.01, 13.21583333333334 ], [ 106.015, 13.219166666666673 ], [ 106.015, 13.221666666666671 ] ] } },
{ "type": "Feature", "properties": { "COMID": 44039768, "id": "6961", "lengthkm": 3.89551214223484, "order": 7, "uparea": 639686.40565063769 }, "geometry": { "type": "LineString", "coordinates": [ [ 106.015833333333333, 13.151666666666671 ], [ 106.02, 13.15333333333334 ], [ 106.0225, 13.16416666666667 ], [ 106.0275, 13.17166666666667 ], [ 106.025, 13.179166666666671 ] ] } },
{ "type": "Feature", "properties": { "COMID": 44039767, "id": "6961", "lengthkm": 9.6404352267185693, "order": 7, "uparea": 640426.18005107692 }, "geometry": { "type": "LineString", "coordinates": [ [ 106.0075, 13.076666666666672 ], [ 106.008333333333326, 13.0775 ], [ 106.005, 13.080833333333338 ], [ 106.006666666666661, 13.09083333333334 ], [ 106.005833333333328, 13.096666666666671 ], [ 106.0025, 13.099166666666672 ], [ 106.00333333333333, 13.108333333333338 ], [ 106.000833333333333, 13.115 ], [ 106.000833333333333, 13.120833333333337 ], [ 106.0025, 13.1225 ], [ 106.005, 13.134166666666673 ], [ 106.011666666666656, 13.1425 ], [ 106.015833333333333, 13.151666666666671 ] ] } },
{ "type": "Feature", "properties": { "COMID": 44039766, "id": "6961", "lengthkm": 9.4455768148937072, "order": 7, "uparea": 640496.77977728797 }, "geometry": { "type": "LineString", "coordinates": [ [ 105.973333333333329, 13.01 ], [ 105.975833333333327, 13.015 ], [ 105.974166666666662, 13.019166666666671 ], [ 105.9775, 13.025 ], [ 105.98833333333333, 13.034166666666671 ], [ 106.005, 13.056666666666672 ], [ 106.01, 13.06666666666667 ], [ 106.0075, 13.076666666666672 ] ] } },
{ "type": "Feature", "properties": { "COMID": 44039765, "id": "6961", "lengthkm": 6.4675468217871934, "order": 7, "uparea": 640798.77722031262 }, "geometry": { "type": "LineString", "coordinates": [ [ 105.9875, 12.9625 ], [ 105.99, 12.9775 ], [ 105.986666666666665, 12.98083333333334 ], [ 105.984166666666667, 12.98083333333334 ], [ 105.98, 12.99 ], [ 105.980833333333322, 12.993333333333339 ], [ 105.978333333333325, 12.9975 ], [ 105.9775, 13.005833333333339 ], [ 105.974166666666662, 13.0075 ], [ 105.973333333333329, 13.01 ] ] } },
{ "type": "Feature", "properties": { "COMID": 44039764, "id": "6961", "lengthkm": 11.508104759015081, "order": 7, "uparea": 640898.06793841161 }, "geometry": { "type": "LineString", "coordinates": [ [ 105.945833333333326, 12.876666666666672 ], [ 105.955, 12.89 ], [ 105.960833333333326, 12.90333333333334 ], [ 105.971666666666664, 12.91416666666667 ], [ 105.9775, 12.925833333333337 ], [ 105.985833333333332, 12.936666666666671 ], [ 105.9875, 12.9425 ], [ 105.9875, 12.9625 ] ] } },
{ "type": "Feature", "properties": { "COMID": 44039763, "id": "6961", "lengthkm": 3.903894491935366, "order": 7, "uparea": 640950.52136998496 }, "geometry": { "type": "LineString", "coordinates": [ [ 105.93416666666667, 12.846666666666671 ], [ 105.935, 12.856666666666673 ], [ 105.939166666666665, 12.869166666666672 ], [ 105.945833333333326, 12.876666666666672 ] ] } },
{ "type": "Feature", "properties": { "COMID": 44041371, "id": "6961", "lengthkm": 9.9073192351102133, "order": 7, "uparea": 641374.55556545558 }, "geometry": { "type": "LineString", "coordinates": [ [ 105.945833333333326, 12.774166666666673 ], [ 105.9425, 12.78 ], [ 105.936666666666667, 12.781666666666673 ], [ 105.93416666666667, 12.784166666666671 ], [ 105.9325, 12.78916666666667 ], [ 105.933333333333337, 12.805 ], [ 105.938333333333333, 12.809166666666673 ], [ 105.941666666666663, 12.815 ], [ 105.941666666666663, 12.8225 ], [ 105.93416666666667, 12.830833333333338 ], [ 105.93416666666667, 12.846666666666671 ] ] } },
{ "type": "Feature", "properties": { "COMID": 44041370, "id": "6961", "lengthkm": 1.216211418280952, "order": 7, "uparea": 641806.17016289127 }, "geometry": { "type": "LineString", "coordinates": [ [ 105.954166666666666, 12.7675 ], [ 105.945833333333326, 12.774166666666673 ] ] } },
{ "type": "Feature", "properties": { "COMID": 44041369, "id": "6961", "lengthkm": 3.537607767254328, "order": 7, "uparea": 646382.30820591503 }, "geometry": { "type": "LineString", "coordinates": [ [ 105.973333333333329, 12.746666666666673 ], [ 105.969166666666666, 12.749166666666671 ], [ 105.965, 12.749166666666671 ], [ 105.9625, 12.751666666666672 ], [ 105.954166666666666, 12.7675 ] ] } },
{ "type": "Feature", "properties": { "COMID": 44041368, "id": "6961", "lengthkm": 7.4622228208111681, "order": 7, "uparea": 646437.510342428 }, "geometry": { "type": "LineString", "coordinates": [ [ 105.999166666666667, 12.69583333333334 ], [ 105.993333333333325, 12.696666666666673 ], [ 105.99166666666666, 12.698333333333338 ], [ 105.99, 12.705833333333338 ], [ 105.986666666666665, 12.711666666666673 ], [ 105.99, 12.724166666666672 ], [ 105.9875, 12.73 ], [ 105.980833333333322, 12.735833333333339 ], [ 105.973333333333329, 12.746666666666673 ] ] } },
{ "type": "Feature", "properties": { "COMID": 44041367, "id": "6961", "lengthkm": 4.6077178156201866, "order": 7, "uparea": 646627.78126730688 }, "geometry": { "type": "LineString", "coordinates": [ [ 106.009166666666658, 12.66083333333334 ], [ 106.01, 12.6725 ], [ 106.0025, 12.68 ], [ 106.00333333333333, 12.684166666666673 ], [ 105.999166666666667, 12.69 ], [ 105.999166666666667, 12.69583333333334 ] ] } },
{ "type": "Feature", "properties": { "COMID": 44041366, "id": "6961", "lengthkm": 6.3808392470588444, "order": 7, "uparea": 646775.75605947291 }, "geometry": { "type": "LineString", "coordinates": [ [ 106.015, 12.611666666666672 ], [ 106.013333333333335, 12.620833333333337 ], [ 106.015833333333333, 12.621666666666673 ], [ 106.015833333333333, 12.63 ], [ 106.015, 12.635 ], [ 106.010833333333323, 12.638333333333339 ], [ 106.008333333333326, 12.6475 ], [ 106.008333333333326, 12.650833333333338 ], [ 106.01, 12.6525 ], [ 106.009166666666658, 12.66083333333334 ] ] } },
{ "type": "Feature", "properties": { "COMID": 44041365, "id": "6961", "lengthkm": 1.3328214982114741, "order": 7, "uparea": 647908.40840288217 }, "geometry": { "type": "LineString", "coordinates": [ [ 106.013333333333335, 12.60166666666667 ], [ 106.015, 12.603333333333339 ], [ 106.015, 12.606666666666673 ], [ 106.013333333333335, 12.608333333333338 ], [ 106.015, 12.611666666666672 ] ] } },
{ "type": "Feature", "properties": { "COMID": 44041364, "id": "6961", "lengthkm": 11.570842923750705, "order": 7, "uparea": 648096.66400981671 }, "geometry": { "type": "LineString", "coordinates": [ [ 106.006666666666661, 12.514166666666672 ], [ 105.993333333333325, 12.531666666666673 ], [ 105.995833333333337, 12.54333333333334 ], [ 106.006666666666661, 12.559166666666673 ], [ 106.014166666666668, 12.575 ], [ 106.016666666666666, 12.585 ], [ 106.015833333333333, 12.59 ], [ 106.0125, 12.595833333333339 ], [ 106.013333333333335, 12.60166666666667 ] ] } },
{ "type": "Feature", "properties": { "COMID": 44041363, "id": "6961", "lengthkm": 6.0386574047387596, "order": 7, "uparea": 648148.94085788494 }, "geometry": { "type": "LineString", "coordinates": [ [ 106.0175, 12.464166666666671 ], [ 106.015833333333333, 12.4775 ], [ 106.0125, 12.485833333333339 ], [ 106.0125, 12.5075 ], [ 106.006666666666661, 12.514166666666672 ] ] } },
{ "type": "Feature", "properties": { "COMID": 44041362, "id": "6961", "lengthkm": 2.2038544995270102, "order": 7, "uparea": 648853.42888243613 }, "geometry": { "type": "LineString", "coordinates": [ [ 106.023333333333326, 12.446666666666673 ], [ 106.0175, 12.464166666666671 ] ] } },
{ "type": "Feature", "properties": { "COMID": 44041361, "id": "6961", "lengthkm": 6.1694526719263374, "order": 7, "uparea": 653083.63648448454 }, "geometry": { "type": "LineString", "coordinates": [ [ 106.024166666666659, 12.394166666666671 ], [ 106.024166666666659, 12.404166666666672 ], [ 106.0275, 12.41833333333334 ], [ 106.024166666666659, 12.430833333333339 ], [ 106.023333333333326, 12.446666666666673 ] ] } },
{ "type": "Feature", "properties": { "COMID": 44041360, "id": "6961", "lengthkm": 7.352355896994438, "order": 7, "uparea": 653163.37290180451 }, "geometry": { "type": "LineString", "coordinates": [ [ 106.045833333333334, 12.336666666666673 ], [ 106.043333333333322, 12.34083333333334 ], [ 106.040833333333325, 12.35583333333334 ], [ 106.028333333333336, 12.376666666666672 ], [ 106.024166666666659, 12.394166666666671 ] ] } },
{ "type": "Feature", "properties": { "COMID": 44041359, "id": "6961", "lengthkm": 6.6851841476435974, "order": 7, "uparea": 653224.82392602402 }, "geometry": { "type": "LineString", "coordinates": [ [ 106.0225, 12.28583333333334 ], [ 106.0375, 12.311666666666671 ], [ 106.045833333333334, 12.336666666666673 ] ] } },
{ "type": "Feature", "properties": { "COMID": 44041358, "id": "6961", "lengthkm": 9.1935201241211519, "order": 7, "uparea": 653329.96944927471 }, "geometry": { "type": "LineString", "coordinates": [ [ 105.951666666666668, 12.266666666666673 ], [ 105.9675, 12.265 ], [ 105.975, 12.26166666666667 ], [ 105.9925, 12.26166666666667 ], [ 106.008333333333326, 12.270833333333339 ], [ 106.0225, 12.28583333333334 ] ] } },
{ "type": "Feature", "properties": { "COMID": 44041357, "id": "6961", "lengthkm": 33.68761811582732, "order": 7, "uparea": 653783.82358288323 }, "geometry": { "type": "LineString", "coordinates": [ [ 105.668333333333322, 12.2875 ], [ 105.6725, 12.28583333333334 ], [ 105.68416666666667, 12.28583333333334 ], [ 105.7, 12.281666666666673 ], [ 105.710833333333326, 12.280833333333337 ], [ 105.725833333333327, 12.2675 ], [ 105.743333333333325, 12.2625 ], [ 105.75, 12.2575 ], [ 105.761666666666656, 12.253333333333337 ], [ 105.776666666666671, 12.254166666666674 ], [ 105.798333333333332, 12.260833333333338 ], [ 105.825, 12.260833333333338 ], [ 105.831666666666663, 12.259166666666673 ], [ 105.834166666666661, 12.26 ], [ 105.838333333333324, 12.2575 ], [ 105.86, 12.2575 ], [ 105.8925, 12.26 ], [ 105.898333333333326, 12.2625 ], [ 105.943333333333328, 12.263333333333339 ], [ 105.951666666666668, 12.266666666666673 ] ] } },
{ "type": "Feature", "properties": { "COMID": 44042793, "id": "6961", "lengthkm": 20.237458916282328, "order": 7, "uparea": 654225.06609869457 }, "geometry": { "type": "LineString", "coordinates": [ [ 105.5375, 12.23 ], [ 105.544166666666669, 12.255 ], [ 105.549166666666665, 12.264166666666672 ], [ 105.55916666666667, 12.279166666666672 ], [ 105.566666666666663, 12.286666666666672 ], [ 105.5775, 12.294166666666673 ], [ 105.595, 12.301666666666673 ], [ 105.6125, 12.300833333333337 ], [ 105.625, 12.2975 ], [ 105.645, 12.2875 ], [ 105.650833333333324, 12.29 ], [ 105.659166666666664, 12.29 ], [ 105.668333333333322, 12.2875 ] ] } },
{ "type": "Feature", "properties": { "COMID": 44042792, "id": "6961", "lengthkm": 23.135426857617691, "order": 7, "uparea": 654581.86323657469 }, "geometry": { "type": "LineString", "coordinates": [ [ 105.49, 12.04666666666667 ], [ 105.495833333333337, 12.054166666666671 ], [ 105.500833333333333, 12.066666666666674 ], [ 105.5075, 12.076666666666672 ], [ 105.52, 12.09 ], [ 105.529166666666669, 12.105 ], [ 105.530833333333334, 12.125 ], [ 105.5325, 12.128333333333337 ], [ 105.535, 12.16416666666667 ], [ 105.541666666666657, 12.178333333333338 ], [ 105.538333333333327, 12.20333333333334 ], [ 105.535, 12.209166666666672 ], [ 105.5375, 12.219166666666673 ], [ 105.5375, 12.23 ] ] } },
{ "type": "Feature", "properties": { "COMID": 44042791, "id": "6961", "lengthkm": 8.7960497322341791, "order": 7, "uparea": 654949.48601183575 }, "geometry": { "type": "LineString", "coordinates": [ [ 105.469166666666666, 11.9775 ], [ 105.471666666666664, 11.994166666666672 ], [ 105.470833333333331, 12.01 ], [ 105.479166666666657, 12.02833333333334 ], [ 105.48, 12.034166666666671 ], [ 105.486666666666665, 12.039166666666674 ], [ 105.49, 12.04666666666667 ] ] } },
{ "type": "Feature", "properties": { "COMID": 44042790, "id": "6961", "lengthkm": 6.6333288003118724, "order": 7, "uparea": 655008.22297141701 }, "geometry": { "type": "LineString", "coordinates": [ [ 105.4625, 11.9225 ], [ 105.47, 11.93833333333334 ], [ 105.471666666666664, 11.9475 ], [ 105.471666666666664, 11.9625 ], [ 105.469166666666666, 11.9775 ] ] } },
{ "type": "Feature", "properties": { "COMID": 44042789, "id": "6961", "lengthkm": 20.389431346187674, "order": 7, "uparea": 662719.23706070322 }, "geometry": { "type": "LineString", "coordinates": [ [ 105.306666666666658, 11.934166666666673 ], [ 105.330833333333331, 11.9325 ], [ 105.343333333333334, 11.933333333333337 ], [ 105.353333333333325, 11.931666666666672 ], [ 105.375833333333333, 11.9175 ], [ 105.391666666666666, 11.900833333333338 ], [ 105.396666666666661, 11.8975 ], [ 105.408333333333331, 11.895 ], [ 105.415833333333325, 11.895 ], [ 105.43, 11.898333333333337 ], [ 105.445833333333326, 11.905833333333337 ], [ 105.454166666666666, 11.9125 ], [ 105.4625, 11.9225 ] ] } },
{ "type": "Feature", "properties": { "COMID": 44043941, "id": "6961", "lengthkm": 84.383365843787402, "order": 7, "uparea": 663282.95388426865 }, "geometry": { "type": "LineString", "coordinates": [ [ 104.9475, 11.560833333333338 ], [ 104.941666666666663, 11.595833333333339 ], [ 104.939166666666665, 11.600833333333338 ], [ 104.94, 11.603333333333339 ], [ 104.935, 11.61 ], [ 104.92916666666666, 11.63 ], [ 104.92, 11.648333333333337 ], [ 104.918333333333337, 11.66 ], [ 104.921666666666667, 11.670833333333338 ], [ 104.9325, 11.690833333333337 ], [ 104.961666666666659, 11.714166666666671 ], [ 104.9675, 11.71583333333334 ], [ 105.015, 11.7625 ], [ 105.016666666666666, 11.76583333333334 ], [ 105.018333333333331, 11.7775 ], [ 105.015833333333333, 11.78583333333334 ], [ 105.008333333333326, 11.79333333333334 ], [ 104.99666666666667, 11.80083333333334 ], [ 104.986666666666665, 11.80083333333334 ], [ 104.980833333333337, 11.804166666666671 ], [ 104.979166666666657, 11.81333333333334 ], [ 104.985833333333332, 11.83 ], [ 104.994166666666658, 11.8375 ], [ 105.000833333333333, 11.838333333333338 ], [ 105.005833333333328, 11.835833333333337 ], [ 105.011666666666656, 11.8375 ], [ 105.021666666666661, 11.84833333333334 ], [ 105.028333333333336, 11.85 ], [ 105.039166666666659, 11.849166666666672 ], [ 105.048333333333332, 11.8475 ], [ 105.05, 11.845833333333339 ], [ 105.066666666666663, 11.843333333333337 ], [ 105.088333333333338, 11.845 ], [ 105.098333333333329, 11.8425 ], [ 105.104166666666657, 11.844166666666673 ], [ 105.1325, 11.87 ], [ 105.138333333333335, 11.900833333333338 ], [ 105.145, 11.91083333333334 ], [ 105.170833333333334, 11.933333333333337 ], [ 105.18, 11.943333333333339 ], [ 105.195833333333326, 11.95 ], [ 105.215833333333336, 11.948333333333338 ], [ 105.243333333333325, 11.94 ], [ 105.265, 11.94 ], [ 105.273333333333326, 11.9375 ], [ 105.279166666666669, 11.933333333333337 ], [ 105.285, 11.935 ], [ 105.306666666666658, 11.934166666666673 ] ] } },
{ "type": "Feature", "properties": { "COMID": 44043940, "id": "6961", "lengthkm": 2.6721343464230611, "order": 7, "uparea": 751128.29172518873 }, "geometry": { "type": "LineString", "coordinates": [ [ 104.966666666666669, 11.548333333333339 ], [ 104.953333333333333, 11.555 ], [ 104.9475, 11.560833333333338 ] ] } },
{ "type": "Feature", "properties": { "COMID": 44043939, "id": "6961", "lengthkm": 27.602641817251001, "order": 7, "uparea": 751221.3391168192 }, "geometry": { "type": "LineString", "coordinates": [ [ 105.176666666666662, 11.4575 ], [ 105.1675, 11.463333333333338 ], [ 105.158333333333331, 11.4725 ], [ 105.145833333333329, 11.4775 ], [ 105.135, 11.485 ], [ 105.12166666666667, 11.490833333333338 ], [ 105.111666666666665, 11.5 ], [ 105.1, 11.505833333333339 ], [ 105.085833333333326, 11.518333333333338 ], [ 105.083333333333329, 11.523333333333337 ], [ 105.0775, 11.52833333333334 ], [ 105.061666666666667, 11.533333333333339 ], [ 105.056666666666658, 11.533333333333339 ], [ 105.033333333333331, 11.5425 ], [ 105.016666666666666, 11.54666666666667 ], [ 104.984166666666667, 11.5475 ], [ 104.974166666666662, 11.549166666666672 ], [ 104.966666666666669, 11.548333333333339 ] ] } },
{ "type": "Feature", "properties": { "COMID": 44043938, "id": "6961", "lengthkm": 22.169869394716191, "order": 7, "uparea": 752374.90433129028 }, "geometry": { "type": "LineString", "coordinates": [ [ 105.275, 11.306666666666672 ], [ 105.274166666666659, 11.321666666666673 ], [ 105.264166666666668, 11.35 ], [ 105.261666666666656, 11.3525 ], [ 105.260833333333323, 11.366666666666671 ], [ 105.255, 11.391666666666673 ], [ 105.239166666666662, 11.409166666666671 ], [ 105.229166666666657, 11.415 ], [ 105.210833333333326, 11.435 ], [ 105.195, 11.443333333333339 ], [ 105.176666666666662, 11.4575 ] ] } },
{ "type": "Feature", "properties": { "COMID": 44045069, "id": "6961", "lengthkm": 78.538432929652856, "order": 7, "uparea": 754973.09388872841 }, "geometry": { "type": "LineString", "coordinates": [ [ 105.335833333333326, 10.808333333333337 ], [ 105.325833333333335, 10.818333333333339 ], [ 105.313333333333333, 10.8225 ], [ 105.305, 10.8225 ], [ 105.286666666666662, 10.816666666666674 ], [ 105.283333333333331, 10.810833333333338 ], [ 105.276666666666671, 10.805 ], [ 105.264166666666668, 10.80083333333334 ], [ 105.2425, 10.805 ], [ 105.231666666666669, 10.805 ], [ 105.2275, 10.809166666666673 ], [ 105.2275, 10.811666666666671 ], [ 105.215833333333336, 10.835 ], [ 105.213333333333338, 10.8375 ], [ 105.210833333333326, 10.836666666666673 ], [ 105.203333333333333, 10.84083333333334 ], [ 105.193333333333328, 10.853333333333339 ], [ 105.19083333333333, 10.85916666666667 ], [ 105.19, 10.869166666666672 ], [ 105.1875, 10.871666666666673 ], [ 105.185833333333335, 10.88 ], [ 105.185833333333335, 10.894166666666671 ], [ 105.1875, 10.8975 ], [ 105.188333333333333, 10.9075 ], [ 105.186666666666667, 10.913333333333338 ], [ 105.185833333333335, 10.9475 ], [ 105.183333333333337, 10.964166666666671 ], [ 105.1875, 10.978333333333339 ], [ 105.1875, 11.001666666666672 ], [ 105.19083333333333, 11.020833333333339 ], [ 105.194166666666661, 11.025 ], [ 105.1975, 11.03583333333334 ], [ 105.1975, 11.041666666666671 ], [ 105.195, 11.045833333333338 ], [ 105.1925, 11.083333333333339 ], [ 105.195, 11.088333333333338 ], [ 105.203333333333333, 11.096666666666671 ], [ 105.21, 11.1 ], [ 105.213333333333338, 11.10583333333334 ], [ 105.234166666666667, 11.13 ], [ 105.236666666666665, 11.139166666666672 ], [ 105.235833333333332, 11.143333333333338 ], [ 105.24166666666666, 11.154166666666672 ], [ 105.23833333333333, 11.159166666666671 ], [ 105.235, 11.170833333333338 ], [ 105.235, 11.178333333333338 ], [ 105.250833333333333, 11.194166666666671 ], [ 105.255833333333328, 11.19583333333334 ], [ 105.259166666666658, 11.199166666666674 ], [ 105.268333333333331, 11.21583333333334 ], [ 105.271666666666661, 11.228333333333339 ], [ 105.279166666666669, 11.245833333333337 ], [ 105.280833333333334, 11.255 ], [ 105.28, 11.2775 ], [ 105.275, 11.29666666666667 ], [ 105.275, 11.306666666666672 ] ] } },
{ "type": "Feature", "properties": { "COMID": 44045068, "id": "6961", "lengthkm": 3.6899238053673629, "order": 7, "uparea": 755590.39581178268 }, "geometry": { "type": "LineString", "coordinates": [ [ 105.345833333333331, 10.779166666666672 ], [ 105.3375, 10.8 ], [ 105.335833333333326, 10.808333333333337 ] ] } },
{ "type": "Feature", "properties": { "COMID": 44045067, "id": "6961", "lengthkm": 8.1031903767886284, "order": 7, "uparea": 755633.45288342342 }, "geometry": { "type": "LineString", "coordinates": [ [ 105.350833333333327, 10.715 ], [ 105.355, 10.725 ], [ 105.359166666666667, 10.729166666666671 ], [ 105.359166666666667, 10.73416666666667 ], [ 105.355833333333322, 10.745 ], [ 105.355833333333322, 10.755833333333339 ], [ 105.351666666666659, 10.770833333333339 ], [ 105.345833333333331, 10.779166666666672 ] ] } },
{ "type": "Feature", "properties": { "COMID": 44045066, "id": "6961", "lengthkm": 17.48573855067545, "order": 7, "uparea": 755704.6604524802 }, "geometry": { "type": "LineString", "coordinates": [ [ 105.36666666666666, 10.574166666666674 ], [ 105.365833333333327, 10.583333333333339 ], [ 105.349166666666662, 10.6175 ], [ 105.34, 10.645833333333339 ], [ 105.338333333333338, 10.67583333333334 ], [ 105.345833333333331, 10.690833333333337 ], [ 105.350833333333327, 10.715 ] ] } },
{ "type": "Feature", "properties": { "COMID": 44045065, "id": "6961", "lengthkm": 6.0505441600601344, "order": 7, "uparea": 755739.88482001564 }, "geometry": { "type": "LineString", "coordinates": [ [ 105.3275, 10.540833333333339 ], [ 105.334166666666661, 10.548333333333339 ], [ 105.351666666666659, 10.556666666666672 ], [ 105.36666666666666, 10.574166666666674 ] ] } },
{ "type": "Feature", "properties": { "COMID": 44045924, "id": "6961", "lengthkm": 23.262980328980063, "order": 7, "uparea": 768296.12213371927 }, "geometry": { "type": "LineString", "coordinates": [ [ 105.445, 10.386666666666674 ], [ 105.431666666666658, 10.398333333333341 ], [ 105.414166666666659, 10.4175 ], [ 105.4075, 10.439166666666672 ], [ 105.385, 10.451666666666672 ], [ 105.361666666666665, 10.476666666666674 ], [ 105.346666666666664, 10.49 ], [ 105.33, 10.525833333333338 ], [ 105.3275, 10.540833333333339 ] ] } },
{ "type": "Feature", "properties": { "COMID": 44045923, "id": "6961", "lengthkm": 0.84564859880892596, "order": 7, "uparea": 770011.15033644927 }, "geometry": { "type": "LineString", "coordinates": [ [ 105.451666666666668, 10.384166666666673 ], [ 105.445, 10.386666666666674 ] ] } },
{ "type": "Feature", "properties": { "COMID": 44045922, "id": "6961", "lengthkm": 7.2556288478156619, "order": 7, "uparea": 770287.79144258949 }, "geometry": { "type": "LineString", "coordinates": [ [ 105.48833333333333, 10.334166666666672 ], [ 105.474166666666662, 10.3475 ], [ 105.4625, 10.3625 ], [ 105.456666666666663, 10.3725 ], [ 105.455, 10.38 ], [ 105.451666666666668, 10.384166666666673 ] ] } },
{ "type": "Feature", "properties": { "COMID": 44045921, "id": "6961", "lengthkm": 1.0025688598509439, "order": 7, "uparea": 770557.26773444971 }, "geometry": { "type": "LineString", "coordinates": [ [ 105.494166666666658, 10.3275 ], [ 105.48833333333333, 10.334166666666672 ] ] } },
{ "type": "Feature", "properties": { "COMID": 44045920, "id": "6961", "lengthkm": 22.999195181191958, "order": 7, "uparea": 770975.52559636952 }, "geometry": { "type": "LineString", "coordinates": [ [ 105.625, 10.186666666666671 ], [ 105.624166666666667, 10.1925 ], [ 105.615, 10.2175 ], [ 105.600833333333327, 10.23833333333334 ], [ 105.57, 10.268333333333338 ], [ 105.564166666666665, 10.27 ], [ 105.55916666666667, 10.275 ], [ 105.558333333333337, 10.27833333333334 ], [ 105.548333333333332, 10.2875 ], [ 105.525, 10.3025 ], [ 105.5175, 10.305833333333339 ], [ 105.515833333333333, 10.305 ], [ 105.494166666666658, 10.3275 ] ] } },
{ "type": "Feature", "properties": { "COMID": 44045919, "id": "6961", "lengthkm": 5.7164777464332648, "order": 7, "uparea": 771033.49665386393 }, "geometry": { "type": "LineString", "coordinates": [ [ 105.659166666666664, 10.15 ], [ 105.650833333333324, 10.158333333333339 ], [ 105.65, 10.1625 ], [ 105.625, 10.186666666666671 ] ] } },
{ "type": "Feature", "properties": { "COMID": 44045918, "id": "6961", "lengthkm": 15.015373103071788, "order": 7, "uparea": 772579.76282141218 }, "geometry": { "type": "LineString", "coordinates": [ [ 105.765, 10.0775 ], [ 105.7525, 10.09 ], [ 105.740833333333327, 10.095833333333339 ], [ 105.735, 10.095833333333339 ], [ 105.710833333333326, 10.116666666666671 ], [ 105.694166666666661, 10.12583333333334 ], [ 105.659166666666664, 10.15 ] ] } },
{ "type": "Feature", "properties": { "COMID": 44045917, "id": "6961", "lengthkm": 5.2380466363319433, "order": 7, "uparea": 772650.606293933 }, "geometry": { "type": "LineString", "coordinates": [ [ 105.798333333333332, 10.049166666666672 ], [ 105.793333333333322, 10.058333333333341 ], [ 105.784166666666664, 10.0675 ], [ 105.775833333333324, 10.073333333333338 ], [ 105.765, 10.0775 ] ] } },
{ "type": "Feature", "properties": { "COMID": 44045916, "id": "6961", "lengthkm": 0.57545517070872898, "order": 7, "uparea": 772739.76413985551 }, "geometry": { "type": "LineString", "coordinates": [ [ 105.80083333333333, 10.045 ], [ 105.798333333333332, 10.049166666666672 ] ] } },
{ "type": "Feature", "properties": { "COMID": 44045915, "id": "6961", "lengthkm": 17.013743803694048, "order": 7, "uparea": 773817.92850895261 }, "geometry": { "type": "LineString", "coordinates": [ [ 105.898333333333326, 9.936666666666671 ], [ 105.8775, 9.950833333333339 ], [ 105.846666666666664, 9.98 ], [ 105.819166666666661, 10.013333333333339 ], [ 105.8175, 10.016666666666673 ], [ 105.8175, 10.0225 ], [ 105.814166666666665, 10.03 ], [ 105.808333333333337, 10.038333333333338 ], [ 105.80083333333333, 10.045 ] ] } },
{ "type": "Feature", "properties": { "COMID": 44046400, "id": "6961", "lengthkm": 9.2908474740990226, "order": 7, "uparea": 774697.65067198128 }, "geometry": { "type": "LineString", "coordinates": [ [ 105.955, 9.880833333333339 ], [ 105.953333333333333, 9.885 ], [ 105.925, 9.91 ], [ 105.911666666666662, 9.925 ], [ 105.91, 9.93 ], [ 105.898333333333326, 9.936666666666671 ] ] } },
{ "type": "Feature", "properties": { "COMID": 44046399, "id": "6961", "lengthkm": 10.815765808967447, "order": 7, "uparea": 774772.97603668948 }, "geometry": { "type": "LineString", "coordinates": [ [ 106.025833333333338, 9.8175 ], [ 106.0175, 9.819166666666671 ], [ 106.014166666666668, 9.821666666666673 ], [ 105.955, 9.880833333333339 ] ] } },
{ "type": "Feature", "properties": { "COMID": 44046398, "id": "6961", "lengthkm": 2.955705689749085, "order": 7, "uparea": 775050.41322420561 }, "geometry": { "type": "LineString", "coordinates": [ [ 106.0475, 9.808333333333341 ], [ 106.034166666666664, 9.816666666666674 ], [ 106.025833333333338, 9.8175 ] ] } },
{ "type": "Feature", "properties": { "COMID": 44046397, "id": "6961", "lengthkm": 4.957685663430401, "order": 7, "uparea": 775140.78874230909 }, "geometry": { "type": "LineString", "coordinates": [ [ 106.069166666666661, 9.7725 ], [ 106.066666666666663, 9.7825 ], [ 106.0475, 9.808333333333341 ] ] } },
{ "type": "Feature", "properties": { "COMID": 44046396, "id": "6961", "lengthkm": 3.5701866387717152, "order": 7, "uparea": 775611.55126566498 }, "geometry": { "type": "LineString", "coordinates": [ [ 106.0975, 9.7625 ], [ 106.0775, 9.7725 ], [ 106.069166666666661, 9.7725 ] ] } },
{ "type": "Feature", "properties": { "COMID": 44046395, "id": "6961", "lengthkm": 2.355571900216527, "order": 7, "uparea": 775719.66045150871 }, "geometry": { "type": "LineString", "coordinates": [ [ 106.11333333333333, 9.749166666666671 ], [ 106.0975, 9.7625 ] ] } },
{ "type": "Feature", "properties": { "COMID": 44046394, "id": "6961", "lengthkm": 11.851812812818313, "order": 7, "uparea": 775833.02004996059 }, "geometry": { "type": "LineString", "coordinates": [ [ 106.185833333333335, 9.673333333333339 ], [ 106.161666666666662, 9.696666666666673 ], [ 106.15, 9.710833333333341 ], [ 106.12833333333333, 9.73083333333334 ], [ 106.11333333333333, 9.749166666666671 ] ] } },
{ "type": "Feature", "properties": { "COMID": 44046393, "id": "6961", "lengthkm": 4.0862544170249508, "order": 7, "uparea": 775876.22938334767 }, "geometry": { "type": "LineString", "coordinates": [ [ 106.2125, 9.648333333333341 ], [ 106.185833333333335, 9.673333333333339 ] ] } },
{ "type": "Feature", "properties": { "COMID": 44046392, "id": "6961", "lengthkm": 5.622978429100705, "order": 7, "uparea": 775976.91826970724 }, "geometry": { "type": "LineString", "coordinates": [ [ 106.25, 9.615833333333338 ], [ 106.2125, 9.648333333333341 ] ] } },
{ "type": "Feature", "properties": { "COMID": 44046391, "id": "6961", "lengthkm": 3.9342543909143042, "order": 7, "uparea": 776027.11519115441 }, "geometry": { "type": "LineString", "coordinates": [ [ 106.279166666666669, 9.6 ], [ 106.264166666666668, 9.606666666666673 ], [ 106.25, 9.615833333333338 ] ] } },
{ "type": "Feature", "properties": { "COMID": 44046390, "id": "6961", "lengthkm": 3.3861689994837838, "order": 7, "uparea": 776128.1625807212 }, "geometry": { "type": "LineString", "coordinates": [ [ 106.303333333333327, 9.584166666666672 ], [ 106.279166666666669, 9.6 ] ] } }
]
}
