{
"type": "FeatureCollection",
"name": "downstream_26581",
"crs": { "type": "name", "properties": { "name": "urn:ogc:def:crs:OGC:1.3:CRS84" } },
"features": [
{ "type": "Feature", "properties": { "COMID": 45040312, "id": "38831", "lengthkm": 3.4487884206301969, "order": 4, "uparea": 3740.2491678697652 }, "geometry": { "type": "LineString", "coordinates": [ [ 89.598333333333315, 27.0275 ], [ 89.5975, 27.034166666666678 ], [ 89.591666666666654, 27.0375 ], [ 89.5875, 27.044166666666676 ], [ 89.58, 27.05 ] ] } },
{ "type": "Feature", "properties": { "COMID": 45040307, "id": "38831", "lengthkm": 11.258766259796259, "order": 4, "uparea": 3901.7421834940901 }, "geometry": { "type": "LineString", "coordinates": [ [ 89.5975, 26.945833333333344 ], [ 89.595833333333317, 26.955 ], [ 89.6, 26.9675 ], [ 89.599166666666648, 26.973333333333343 ], [ 89.600833333333313, 26.974166666666676 ], [ 89.601666666666645, 26.980833333333344 ], [ 89.60333333333331, 26.9825 ], [ 89.601666666666645, 26.988333333333344 ], [ 89.604166666666657, 26.990833333333342 ], [ 89.604166666666657, 26.9975 ], [ 89.601666666666645, 27.000833333333343 ], [ 89.601666666666645, 27.005833333333342 ], [ 89.594166666666652, 27.008333333333344 ], [ 89.58833333333331, 27.0175 ], [ 89.598333333333315, 27.025833333333345 ], [ 89.598333333333315, 27.0275 ] ] } },
{ "type": "Feature", "properties": { "COMID": 45040298, "id": "38831", "lengthkm": 8.1570628317883713, "order": 4, "uparea": 3994.320413301707 }, "geometry": { "type": "LineString", "coordinates": [ [ 89.621666666666641, 26.894166666666678 ], [ 89.62, 26.8975 ], [ 89.6125, 26.901666666666678 ], [ 89.605833333333322, 26.915833333333346 ], [ 89.605833333333322, 26.920833333333341 ], [ 89.61, 26.923333333333343 ], [ 89.614166666666648, 26.929166666666674 ], [ 89.614166666666648, 26.935 ], [ 89.610833333333318, 26.935833333333342 ], [ 89.606666666666655, 26.940833333333345 ], [ 89.604166666666657, 26.941666666666677 ], [ 89.6025, 26.945 ], [ 89.5975, 26.945833333333344 ] ] } },
{ "type": "Feature", "properties": { "COMID": 45040293, "id": "38831", "lengthkm": 3.9251389176602429, "order": 4, "uparea": 4034.546114922784 }, "geometry": { "type": "LineString", "coordinates": [ [ 89.6, 26.870833333333344 ], [ 89.604166666666657, 26.8725 ], [ 89.605833333333322, 26.875833333333343 ], [ 89.609166666666653, 26.875833333333343 ], [ 89.615, 26.885 ], [ 89.620833333333309, 26.889166666666675 ], [ 89.621666666666641, 26.894166666666678 ] ] } },
{ "type": "Feature", "properties": { "COMID": 45040289, "id": "38831", "lengthkm": 31.063546271848331, "order": 4, "uparea": 4224.5925232878444 }, "geometry": { "type": "LineString", "coordinates": [ [ 89.735, 26.766666666666676 ], [ 89.73, 26.766666666666676 ], [ 89.725, 26.769166666666678 ], [ 89.72166666666665, 26.773333333333344 ], [ 89.72166666666665, 26.7775 ], [ 89.72, 26.778333333333343 ], [ 89.71833333333332, 26.778333333333343 ], [ 89.715, 26.773333333333344 ], [ 89.711666666666645, 26.771666666666675 ], [ 89.708333333333314, 26.7725 ], [ 89.703333333333319, 26.778333333333343 ], [ 89.7, 26.778333333333343 ], [ 89.7, 26.773333333333344 ], [ 89.6975, 26.770833333333343 ], [ 89.695, 26.771666666666675 ], [ 89.695, 26.781666666666677 ], [ 89.688333333333318, 26.784166666666678 ], [ 89.6875, 26.79 ], [ 89.684166666666641, 26.7925 ], [ 89.6875, 26.7975 ], [ 89.6875, 26.8 ], [ 89.675, 26.806666666666679 ], [ 89.669166666666655, 26.808333333333344 ], [ 89.6675, 26.8075 ], [ 89.665, 26.81 ], [ 89.66583333333331, 26.813333333333343 ], [ 89.664166666666645, 26.815 ], [ 89.658333333333317, 26.815 ], [ 89.65583333333332, 26.813333333333343 ], [ 89.651666666666642, 26.815 ], [ 89.649166666666645, 26.8125 ], [ 89.649166666666645, 26.81 ], [ 89.645833333333314, 26.809166666666677 ], [ 89.641666666666652, 26.815 ], [ 89.635833333333323, 26.811666666666675 ], [ 89.6275, 26.819166666666675 ], [ 89.6225, 26.816666666666677 ], [ 89.6175, 26.82 ], [ 89.615833333333313, 26.824166666666677 ], [ 89.61, 26.821666666666676 ], [ 89.6075, 26.823333333333345 ], [ 89.60833333333332, 26.826666666666675 ], [ 89.60333333333331, 26.829166666666676 ], [ 89.600833333333313, 26.829166666666676 ], [ 89.5975, 26.825833333333343 ], [ 89.591666666666654, 26.826666666666675 ], [ 89.59, 26.828333333333344 ], [ 89.59, 26.835 ], [ 89.585833333333312, 26.844166666666677 ], [ 89.589166666666642, 26.8475 ], [ 89.590833333333308, 26.855 ], [ 89.59, 26.8575 ], [ 89.599166666666648, 26.8625 ], [ 89.598333333333315, 26.865833333333342 ], [ 89.6, 26.8675 ], [ 89.6, 26.870833333333344 ] ] } },
{ "type": "Feature", "properties": { "COMID": 45044299, "id": "38831", "lengthkm": 25.383366731029447, "order": 4, "uparea": 4613.6670543508744 }, "geometry": { "type": "LineString", "coordinates": [ [ 89.81, 26.58 ], [ 89.801666666666648, 26.588333333333345 ], [ 89.79583333333332, 26.6025 ], [ 89.793333333333322, 26.614166666666677 ], [ 89.785833333333315, 26.618333333333343 ], [ 89.77916666666664, 26.625833333333343 ], [ 89.774166666666645, 26.639166666666675 ], [ 89.77, 26.6575 ], [ 89.765, 26.665 ], [ 89.7625, 26.676666666666677 ], [ 89.759166666666644, 26.683333333333344 ], [ 89.759166666666644, 26.704166666666676 ], [ 89.7575, 26.7125 ], [ 89.76, 26.7275 ], [ 89.755, 26.7325 ], [ 89.750833333333318, 26.734166666666678 ], [ 89.746666666666641, 26.738333333333344 ], [ 89.743333333333311, 26.738333333333344 ], [ 89.741666666666646, 26.741666666666678 ], [ 89.74, 26.740833333333342 ], [ 89.735, 26.745 ], [ 89.735, 26.7475 ], [ 89.739166666666648, 26.753333333333345 ], [ 89.739166666666648, 26.758333333333344 ], [ 89.735, 26.766666666666676 ] ] } },
{ "type": "Feature", "properties": { "COMID": 45044290, "id": "38831", "lengthkm": 22.652289448266782, "order": 4, "uparea": 4733.5320087112241 }, "geometry": { "type": "LineString", "coordinates": [ [ 89.760833333333323, 26.429166666666678 ], [ 89.761666666666656, 26.428333333333342 ], [ 89.763333333333321, 26.43 ], [ 89.765, 26.435 ], [ 89.769166666666649, 26.439166666666679 ], [ 89.768333333333317, 26.4475 ], [ 89.77, 26.449166666666677 ], [ 89.770833333333314, 26.448333333333345 ], [ 89.77, 26.454166666666676 ], [ 89.771666666666647, 26.458333333333343 ], [ 89.7775, 26.461666666666677 ], [ 89.78083333333332, 26.465833333333343 ], [ 89.78416666666665, 26.465 ], [ 89.785833333333315, 26.466666666666676 ], [ 89.785, 26.475 ], [ 89.79083333333331, 26.481666666666676 ], [ 89.79, 26.4825 ], [ 89.791666666666657, 26.484166666666678 ], [ 89.7925, 26.483333333333341 ], [ 89.800833333333316, 26.4925 ], [ 89.800833333333316, 26.495833333333344 ], [ 89.803333333333313, 26.5 ], [ 89.803333333333313, 26.504166666666677 ], [ 89.8, 26.505833333333342 ], [ 89.800833333333316, 26.50916666666668 ], [ 89.796666666666653, 26.516666666666676 ], [ 89.798333333333318, 26.518333333333345 ], [ 89.7975, 26.5225 ], [ 89.801666666666648, 26.535833333333343 ], [ 89.8025, 26.5425 ], [ 89.800833333333316, 26.545 ], [ 89.806666666666644, 26.5475 ], [ 89.808333333333309, 26.55 ], [ 89.806666666666644, 26.553333333333342 ], [ 89.808333333333309, 26.5525 ], [ 89.818333333333314, 26.564166666666679 ], [ 89.816666666666649, 26.565833333333345 ], [ 89.818333333333314, 26.570833333333344 ], [ 89.8175, 26.5725 ], [ 89.81, 26.58 ] ] } },
{ "type": "Feature", "properties": { "COMID": 45044250, "id": "38831", "lengthkm": 9.713208562507015, "order": 4, "uparea": 4778.3358386616492 }, "geometry": { "type": "LineString", "coordinates": [ [ 89.79, 26.389166666666675 ], [ 89.785, 26.393333333333345 ], [ 89.78, 26.394166666666678 ], [ 89.776666666666642, 26.390833333333344 ], [ 89.77916666666664, 26.388333333333343 ], [ 89.7775, 26.385833333333345 ], [ 89.775, 26.389166666666675 ], [ 89.774166666666645, 26.388333333333343 ], [ 89.765, 26.395 ], [ 89.768333333333317, 26.400833333333345 ], [ 89.766666666666652, 26.4025 ], [ 89.769166666666649, 26.4075 ], [ 89.7675, 26.410833333333343 ], [ 89.77, 26.413333333333345 ], [ 89.770833333333314, 26.418333333333344 ], [ 89.765833333333319, 26.424166666666679 ], [ 89.7625, 26.423333333333346 ], [ 89.760833333333323, 26.425 ], [ 89.760833333333323, 26.429166666666678 ] ] } },
{ "type": "Feature", "properties": { "COMID": 45044236, "id": "38831", "lengthkm": 9.3063225383491961, "order": 4, "uparea": 4892.7027092863955 }, "geometry": { "type": "LineString", "coordinates": [ [ 89.805, 26.325 ], [ 89.800833333333316, 26.326666666666675 ], [ 89.7975, 26.325833333333343 ], [ 89.791666666666657, 26.331666666666678 ], [ 89.793333333333322, 26.340833333333343 ], [ 89.785, 26.35 ], [ 89.78416666666665, 26.3575 ], [ 89.78083333333332, 26.363333333333344 ], [ 89.78083333333332, 26.3675 ], [ 89.79, 26.3825 ], [ 89.79, 26.389166666666675 ] ] } },
{ "type": "Feature", "properties": { "COMID": 45044105, "id": "38831", "lengthkm": 31.605403227847763, "order": 5, "uparea": 15152.231841305018 }, "geometry": { "type": "LineString", "coordinates": [ [ 89.82, 26.110833333333346 ], [ 89.821666666666644, 26.1125 ], [ 89.82, 26.12 ], [ 89.814166666666651, 26.125 ], [ 89.8075, 26.126666666666679 ], [ 89.804166666666646, 26.131666666666675 ], [ 89.805833333333311, 26.143333333333345 ], [ 89.809166666666641, 26.148333333333344 ], [ 89.8075, 26.1525 ], [ 89.8125, 26.16 ], [ 89.806666666666644, 26.1625 ], [ 89.804166666666646, 26.165833333333346 ], [ 89.804166666666646, 26.183333333333344 ], [ 89.79916666666665, 26.1875 ], [ 89.801666666666648, 26.193333333333342 ], [ 89.800833333333316, 26.2025 ], [ 89.805833333333311, 26.206666666666678 ], [ 89.805, 26.21 ], [ 89.810833333333321, 26.221666666666678 ], [ 89.82, 26.228333333333346 ], [ 89.821666666666644, 26.235 ], [ 89.828333333333319, 26.241666666666678 ], [ 89.839166666666642, 26.2475 ], [ 89.844166666666652, 26.2525 ], [ 89.848333333333315, 26.26 ], [ 89.84666666666665, 26.2625 ], [ 89.8475, 26.265 ], [ 89.844166666666652, 26.268333333333345 ], [ 89.844166666666652, 26.281666666666677 ], [ 89.840833333333308, 26.29 ], [ 89.823333333333323, 26.311666666666678 ], [ 89.819166666666646, 26.310833333333342 ], [ 89.813333333333318, 26.3175 ], [ 89.8125, 26.32166666666668 ], [ 89.805, 26.325 ] ] } },
{ "type": "Feature", "properties": { "COMID": 45048182, "id": "38831", "lengthkm": 20.65667450387344, "order": 5, "uparea": 15263.684250527151 }, "geometry": { "type": "LineString", "coordinates": [ [ 89.8375, 25.971666666666678 ], [ 89.8325, 25.975 ], [ 89.831666666666649, 25.981666666666676 ], [ 89.836666666666645, 25.985 ], [ 89.8425, 25.996666666666677 ], [ 89.83833333333331, 26.004166666666677 ], [ 89.828333333333319, 26.010833333333345 ], [ 89.828333333333319, 26.024166666666677 ], [ 89.835833333333312, 26.029166666666676 ], [ 89.835833333333312, 26.036666666666676 ], [ 89.84, 26.043333333333344 ], [ 89.840833333333308, 26.049166666666679 ], [ 89.830833333333317, 26.059166666666677 ], [ 89.83, 26.061666666666678 ], [ 89.826666666666654, 26.061666666666678 ], [ 89.8225, 26.065833333333345 ], [ 89.8225, 26.069166666666675 ], [ 89.825833333333321, 26.074166666666677 ], [ 89.825, 26.075833333333343 ], [ 89.815833333333316, 26.083333333333343 ], [ 89.815, 26.0825 ], [ 89.809166666666641, 26.085833333333344 ], [ 89.810833333333321, 26.090833333333343 ], [ 89.820833333333312, 26.100833333333345 ], [ 89.82, 26.110833333333346 ] ] } },
{ "type": "Feature", "properties": { "COMID": 45048173, "id": "38831", "lengthkm": 6.2692193016099376, "order": 5, "uparea": 15352.916109634743 }, "geometry": { "type": "LineString", "coordinates": [ [ 89.803333333333313, 25.940833333333345 ], [ 89.805833333333311, 25.940833333333345 ], [ 89.815833333333316, 25.949166666666677 ], [ 89.819166666666646, 25.94666666666668 ], [ 89.828333333333319, 25.95 ], [ 89.839166666666642, 25.961666666666677 ], [ 89.84, 25.9675 ], [ 89.83833333333331, 25.97 ], [ 89.839166666666642, 25.970833333333346 ], [ 89.8375, 25.971666666666678 ] ] } },
{ "type": "Feature", "properties": { "COMID": 45048167, "id": "38831", "lengthkm": 5.2311426994626844, "order": 5, "uparea": 15423.250505432445 }, "geometry": { "type": "LineString", "coordinates": [ [ 89.795, 25.9 ], [ 89.795, 25.904166666666676 ], [ 89.798333333333318, 25.9075 ], [ 89.796666666666653, 25.911666666666676 ], [ 89.796666666666653, 25.919166666666676 ], [ 89.8, 25.9225 ], [ 89.8, 25.936666666666678 ], [ 89.803333333333313, 25.940833333333345 ] ] } },
{ "type": "Feature", "properties": { "COMID": 45048164, "id": "38831", "lengthkm": 3.848924954108957, "order": 5, "uparea": 15473.001179852135 }, "geometry": { "type": "LineString", "coordinates": [ [ 89.774166666666645, 25.875 ], [ 89.7825, 25.88 ], [ 89.788333333333313, 25.885833333333345 ], [ 89.795, 25.9 ] ] } },
{ "type": "Feature", "properties": { "COMID": 45048162, "id": "38831", "lengthkm": 10.03612228458003, "order": 5, "uparea": 22929.45597725912 }, "geometry": { "type": "LineString", "coordinates": [ [ 89.76, 25.796666666666678 ], [ 89.766666666666652, 25.8025 ], [ 89.766666666666652, 25.810833333333342 ], [ 89.765, 25.813333333333347 ], [ 89.765833333333319, 25.82 ], [ 89.7625, 25.820833333333344 ], [ 89.760833333333323, 25.82916666666668 ], [ 89.764166666666654, 25.833333333333343 ], [ 89.766666666666652, 25.855 ], [ 89.774166666666645, 25.875 ] ] } },
{ "type": "Feature", "properties": { "COMID": 45048157, "id": "38831", "lengthkm": 2.7260727497628658, "order": 5, "uparea": 23270.843883910497 }, "geometry": { "type": "LineString", "coordinates": [ [ 89.755833333333314, 25.77416666666668 ], [ 89.755833333333314, 25.790833333333346 ], [ 89.76, 25.796666666666678 ] ] } },
{ "type": "Feature", "properties": { "COMID": 45048153, "id": "38831", "lengthkm": 6.7475419152023566, "order": 5, "uparea": 23355.7194327008 }, "geometry": { "type": "LineString", "coordinates": [ [ 89.76, 25.72 ], [ 89.76, 25.721666666666678 ], [ 89.755833333333314, 25.725 ], [ 89.754166666666649, 25.731666666666676 ], [ 89.749166666666653, 25.74 ], [ 89.75, 25.7475 ], [ 89.7525, 25.750833333333347 ], [ 89.755833333333314, 25.765 ], [ 89.755833333333314, 25.77416666666668 ] ] } },
{ "type": "Feature", "properties": { "COMID": 45047792, "id": "38831", "lengthkm": 11.270497203550587, "order": 7, "uparea": 491992.33437624201 }, "geometry": { "type": "LineString", "coordinates": [ [ 89.734166666666653, 25.63416666666668 ], [ 89.72833333333331, 25.638333333333343 ], [ 89.729166666666657, 25.644166666666678 ], [ 89.735, 25.6525 ], [ 89.735, 25.655833333333344 ], [ 89.73666666666665, 25.6575 ], [ 89.735833333333318, 25.664166666666677 ], [ 89.739166666666648, 25.668333333333344 ], [ 89.738333333333316, 25.673333333333346 ], [ 89.745833333333309, 25.683333333333344 ], [ 89.745833333333309, 25.689166666666679 ], [ 89.749166666666653, 25.695 ], [ 89.749166666666653, 25.700833333333343 ], [ 89.7525, 25.71 ], [ 89.76, 25.72 ] ] } },
{ "type": "Feature", "properties": { "COMID": 45047791, "id": "38831", "lengthkm": 5.2268161370710589, "order": 7, "uparea": 492154.92770060716 }, "geometry": { "type": "LineString", "coordinates": [ [ 89.72, 25.5975 ], [ 89.720833333333317, 25.600833333333345 ], [ 89.729166666666657, 25.609166666666678 ], [ 89.729166666666657, 25.614166666666677 ], [ 89.723333333333315, 25.620833333333344 ], [ 89.724166666666648, 25.625833333333347 ], [ 89.734166666666653, 25.63416666666668 ] ] } },
{ "type": "Feature", "properties": { "COMID": 45047790, "id": "38831", "lengthkm": 2.8515269772629388, "order": 7, "uparea": 498174.03973313101 }, "geometry": { "type": "LineString", "coordinates": [ [ 89.72, 25.574166666666677 ], [ 89.71833333333332, 25.578333333333344 ], [ 89.72, 25.589166666666678 ], [ 89.72166666666665, 25.591666666666676 ], [ 89.72, 25.5975 ] ] } },
{ "type": "Feature", "properties": { "COMID": 45047789, "id": "38831", "lengthkm": 13.170016720503941, "order": 7, "uparea": 498278.81358518288 }, "geometry": { "type": "LineString", "coordinates": [ [ 89.725, 25.468333333333344 ], [ 89.7325, 25.475833333333345 ], [ 89.731666666666655, 25.485833333333346 ], [ 89.735833333333318, 25.4975 ], [ 89.73666666666665, 25.508333333333347 ], [ 89.73333333333332, 25.520833333333343 ], [ 89.73, 25.526666666666678 ], [ 89.73, 25.5475 ], [ 89.725, 25.554166666666678 ], [ 89.726666666666645, 25.564166666666679 ], [ 89.724166666666648, 25.57 ], [ 89.72, 25.574166666666677 ] ] } },
{ "type": "Feature", "properties": { "COMID": 45047788, "id": "38831", "lengthkm": 3.8868614650301918, "order": 7, "uparea": 498382.13093995751 }, "geometry": { "type": "LineString", "coordinates": [ [ 89.695, 25.453333333333344 ], [ 89.703333333333319, 25.4625 ], [ 89.706666666666649, 25.463333333333345 ], [ 89.71333333333331, 25.46916666666668 ], [ 89.725, 25.468333333333344 ] ] } },
{ "type": "Feature", "properties": { "COMID": 45051916, "id": "38831", "lengthkm": 9.5581147127329142, "order": 7, "uparea": 498443.47959675972 }, "geometry": { "type": "LineString", "coordinates": [ [ 89.673333333333318, 25.38416666666668 ], [ 89.678333333333313, 25.395833333333343 ], [ 89.684166666666641, 25.4025 ], [ 89.678333333333313, 25.4425 ], [ 89.6825, 25.44666666666668 ], [ 89.694166666666646, 25.45 ], [ 89.695, 25.453333333333344 ] ] } },
{ "type": "Feature", "properties": { "COMID": 45051915, "id": "38831", "lengthkm": 1.172026711442357, "order": 7, "uparea": 498523.41064977407 }, "geometry": { "type": "LineString", "coordinates": [ [ 89.661666666666648, 25.38416666666668 ], [ 89.673333333333318, 25.38416666666668 ] ] } },
{ "type": "Feature", "properties": { "COMID": 45051914, "id": "38831", "lengthkm": 5.1840129370046766, "order": 7, "uparea": 510357.51254533313 }, "geometry": { "type": "LineString", "coordinates": [ [ 89.639166666666654, 25.345833333333346 ], [ 89.641666666666652, 25.349166666666676 ], [ 89.648333333333312, 25.37 ], [ 89.661666666666648, 25.38416666666668 ] ] } },
{ "type": "Feature", "properties": { "COMID": 45051913, "id": "38831", "lengthkm": 9.548085527857717, "order": 7, "uparea": 511910.22398374655 }, "geometry": { "type": "LineString", "coordinates": [ [ 89.665, 25.27 ], [ 89.6575, 25.2975 ], [ 89.65583333333332, 25.298333333333346 ], [ 89.65583333333332, 25.305 ], [ 89.65083333333331, 25.310833333333342 ], [ 89.649166666666645, 25.3225 ], [ 89.643333333333317, 25.3325 ], [ 89.639166666666654, 25.345833333333346 ] ] } },
{ "type": "Feature", "properties": { "COMID": 45051912, "id": "38831", "lengthkm": 3.4284800539392868, "order": 7, "uparea": 512048.21807303344 }, "geometry": { "type": "LineString", "coordinates": [ [ 89.683333333333309, 25.248333333333346 ], [ 89.67083333333332, 25.255833333333342 ], [ 89.665, 25.27 ] ] } },
{ "type": "Feature", "properties": { "COMID": 45051911, "id": "38831", "lengthkm": 7.9746298468677486, "order": 7, "uparea": 512153.34237600351 }, "geometry": { "type": "LineString", "coordinates": [ [ 89.7, 25.184166666666677 ], [ 89.701666666666654, 25.185833333333346 ], [ 89.701666666666654, 25.19666666666668 ], [ 89.7, 25.201666666666679 ], [ 89.694166666666646, 25.209166666666675 ], [ 89.694166666666646, 25.218333333333344 ], [ 89.691666666666649, 25.230833333333344 ], [ 89.69, 25.235833333333346 ], [ 89.683333333333309, 25.245 ], [ 89.683333333333309, 25.248333333333346 ] ] } },
{ "type": "Feature", "properties": { "COMID": 45051910, "id": "38831", "lengthkm": 6.6134713764343926, "order": 7, "uparea": 512204.92238811468 }, "geometry": { "type": "LineString", "coordinates": [ [ 89.691666666666649, 25.131666666666678 ], [ 89.685833333333321, 25.14 ], [ 89.685833333333321, 25.144166666666678 ], [ 89.6875, 25.150833333333345 ], [ 89.690833333333316, 25.154166666666676 ], [ 89.691666666666649, 25.1625 ], [ 89.6975, 25.173333333333346 ], [ 89.7, 25.184166666666677 ] ] } },
{ "type": "Feature", "properties": { "COMID": 45051909, "id": "38831", "lengthkm": 10.419542008900091, "order": 7, "uparea": 512288.62122467172 }, "geometry": { "type": "LineString", "coordinates": [ [ 89.714166666666642, 25.05 ], [ 89.715, 25.066666666666677 ], [ 89.7125, 25.075 ], [ 89.706666666666649, 25.081666666666678 ], [ 89.7, 25.085833333333344 ], [ 89.6975, 25.095 ], [ 89.6925, 25.099166666666676 ], [ 89.693333333333314, 25.103333333333346 ], [ 89.691666666666649, 25.11 ], [ 89.693333333333314, 25.116666666666678 ], [ 89.691666666666649, 25.12 ], [ 89.691666666666649, 25.131666666666678 ] ] } },
{ "type": "Feature", "properties": { "COMID": 45051908, "id": "38831", "lengthkm": 14.626010437702035, "order": 7, "uparea": 512440.10577275103 }, "geometry": { "type": "LineString", "coordinates": [ [ 89.623333333333321, 24.971666666666678 ], [ 89.63, 24.979166666666679 ], [ 89.631666666666646, 24.988333333333344 ], [ 89.636666666666656, 24.998333333333346 ], [ 89.635833333333323, 25.003333333333345 ], [ 89.639166666666654, 25.0075 ], [ 89.66, 25.020833333333343 ], [ 89.684166666666641, 25.029166666666676 ], [ 89.6875, 25.0325 ], [ 89.6875, 25.035833333333343 ], [ 89.6925, 25.040833333333346 ], [ 89.703333333333319, 25.044166666666676 ], [ 89.706666666666649, 25.046666666666678 ], [ 89.7125, 25.046666666666678 ], [ 89.714166666666642, 25.05 ] ] } },
{ "type": "Feature", "properties": { "COMID": 45051907, "id": "38831", "lengthkm": 7.7523774871329643, "order": 7, "uparea": 512521.55635060318 }, "geometry": { "type": "LineString", "coordinates": [ [ 89.585, 24.92 ], [ 89.5875, 24.925833333333344 ], [ 89.5925, 24.930833333333347 ], [ 89.59333333333332, 24.935833333333346 ], [ 89.598333333333315, 24.940833333333345 ], [ 89.61166666666665, 24.945833333333347 ], [ 89.6125, 24.95 ], [ 89.621666666666641, 24.963333333333345 ], [ 89.623333333333321, 24.971666666666678 ] ] } },
{ "type": "Feature", "properties": { "COMID": 45051906, "id": "38831", "lengthkm": 2.2285378185530118, "order": 7, "uparea": 512672.28503345 }, "geometry": { "type": "LineString", "coordinates": [ [ 89.5825, 24.900833333333345 ], [ 89.585, 24.92 ] ] } },
{ "type": "Feature", "properties": { "COMID": 45051905, "id": "38831", "lengthkm": 7.0960486157572458, "order": 7, "uparea": 516173.1695838829 }, "geometry": { "type": "LineString", "coordinates": [ [ 89.610833333333318, 24.848333333333343 ], [ 89.60333333333331, 24.853333333333346 ], [ 89.6025, 24.859166666666678 ], [ 89.586666666666645, 24.8825 ], [ 89.583333333333314, 24.890833333333347 ], [ 89.5825, 24.900833333333345 ] ] } },
{ "type": "Feature", "properties": { "COMID": 45055823, "id": "38831", "lengthkm": 12.259906060839446, "order": 7, "uparea": 516439.71455311537 }, "geometry": { "type": "LineString", "coordinates": [ [ 89.645833333333314, 24.755833333333346 ], [ 89.623333333333321, 24.7775 ], [ 89.6225, 24.783333333333346 ], [ 89.624166666666653, 24.791666666666679 ], [ 89.613333333333316, 24.808333333333344 ], [ 89.615833333333313, 24.82166666666668 ], [ 89.61166666666665, 24.826666666666679 ], [ 89.61, 24.831666666666678 ], [ 89.61166666666665, 24.8425 ], [ 89.610833333333318, 24.848333333333343 ] ] } },
{ "type": "Feature", "properties": { "COMID": 45055822, "id": "38831", "lengthkm": 5.8606990997794144, "order": 7, "uparea": 516501.66898389673 }, "geometry": { "type": "LineString", "coordinates": [ [ 89.683333333333309, 24.72 ], [ 89.680833333333311, 24.725 ], [ 89.67083333333332, 24.733333333333345 ], [ 89.669166666666655, 24.7375 ], [ 89.661666666666648, 24.745 ], [ 89.645833333333314, 24.755833333333346 ] ] } },
{ "type": "Feature", "properties": { "COMID": 45055821, "id": "38831", "lengthkm": 7.5643640438178608, "order": 7, "uparea": 516649.70442385093 }, "geometry": { "type": "LineString", "coordinates": [ [ 89.6775, 24.659166666666678 ], [ 89.678333333333313, 24.6675 ], [ 89.6875, 24.6775 ], [ 89.689166666666651, 24.685 ], [ 89.689166666666651, 24.7 ], [ 89.685, 24.705 ], [ 89.683333333333309, 24.72 ] ] } },
{ "type": "Feature", "properties": { "COMID": 45055820, "id": "38831", "lengthkm": 5.0029035206189061, "order": 7, "uparea": 516693.86591527151 }, "geometry": { "type": "LineString", "coordinates": [ [ 89.6975, 24.621666666666677 ], [ 89.683333333333309, 24.640833333333347 ], [ 89.681666666666644, 24.651666666666678 ], [ 89.6775, 24.659166666666678 ] ] } },
{ "type": "Feature", "properties": { "COMID": 45055819, "id": "38831", "lengthkm": 8.6600885386777176, "order": 7, "uparea": 516757.49328303756 }, "geometry": { "type": "LineString", "coordinates": [ [ 89.696666666666644, 24.553333333333345 ], [ 89.703333333333319, 24.5625 ], [ 89.7025, 24.575833333333343 ], [ 89.704166666666652, 24.576666666666679 ], [ 89.699166666666656, 24.583333333333343 ], [ 89.6975, 24.588333333333345 ], [ 89.6975, 24.590833333333343 ], [ 89.701666666666654, 24.5975 ], [ 89.701666666666654, 24.613333333333344 ], [ 89.6975, 24.621666666666677 ] ] } },
{ "type": "Feature", "properties": { "COMID": 45055818, "id": "38831", "lengthkm": 7.8989366300372241, "order": 7, "uparea": 516888.81985261728 }, "geometry": { "type": "LineString", "coordinates": [ [ 89.731666666666655, 24.498333333333346 ], [ 89.724166666666648, 24.501666666666679 ], [ 89.724166666666648, 24.508333333333347 ], [ 89.720833333333317, 24.513333333333343 ], [ 89.720833333333317, 24.51666666666668 ], [ 89.714166666666642, 24.520833333333343 ], [ 89.710833333333312, 24.53166666666668 ], [ 89.696666666666644, 24.553333333333345 ] ] } },
{ "type": "Feature", "properties": { "COMID": 45055817, "id": "38831", "lengthkm": 0.46256604511763, "order": 7, "uparea": 516916.70195993572 }, "geometry": { "type": "LineString", "coordinates": [ [ 89.735833333333318, 24.4975 ], [ 89.731666666666655, 24.498333333333346 ] ] } },
{ "type": "Feature", "properties": { "COMID": 45055816, "id": "38831", "lengthkm": 6.598728336237202, "order": 7, "uparea": 516963.70636426669 }, "geometry": { "type": "LineString", "coordinates": [ [ 89.778333333333308, 24.459166666666679 ], [ 89.773333333333312, 24.4625 ], [ 89.773333333333312, 24.465 ], [ 89.761666666666656, 24.48 ], [ 89.755833333333314, 24.481666666666676 ], [ 89.7475, 24.490833333333345 ], [ 89.735833333333318, 24.4975 ] ] } },
{ "type": "Feature", "properties": { "COMID": 45055815, "id": "38831", "lengthkm": 9.8668075598460465, "order": 7, "uparea": 517748.08102689602 }, "geometry": { "type": "LineString", "coordinates": [ [ 89.7925, 24.38 ], [ 89.791666666666657, 24.396666666666679 ], [ 89.7975, 24.413333333333345 ], [ 89.796666666666653, 24.4325 ], [ 89.785833333333315, 24.451666666666679 ], [ 89.778333333333308, 24.459166666666679 ] ] } },
{ "type": "Feature", "properties": { "COMID": 45055814, "id": "38831", "lengthkm": 1.9293618939258701, "order": 7, "uparea": 517779.32589987788 }, "geometry": { "type": "LineString", "coordinates": [ [ 89.785833333333315, 24.365 ], [ 89.791666666666657, 24.374166666666678 ], [ 89.7925, 24.38 ] ] } },
{ "type": "Feature", "properties": { "COMID": 45055813, "id": "38831", "lengthkm": 12.634835249374694, "order": 7, "uparea": 517921.15100870974 }, "geometry": { "type": "LineString", "coordinates": [ [ 89.766666666666652, 24.261666666666677 ], [ 89.7675, 24.268333333333345 ], [ 89.7725, 24.279166666666679 ], [ 89.778333333333308, 24.299166666666679 ], [ 89.778333333333308, 24.3125 ], [ 89.781666666666652, 24.3175 ], [ 89.781666666666652, 24.325833333333346 ], [ 89.78, 24.330833333333345 ], [ 89.786666666666648, 24.345833333333346 ], [ 89.7875, 24.356666666666676 ], [ 89.785833333333315, 24.365 ] ] } },
{ "type": "Feature", "properties": { "COMID": 45055812, "id": "38831", "lengthkm": 1.439260427830152, "order": 7, "uparea": 517959.12190392771 }, "geometry": { "type": "LineString", "coordinates": [ [ 89.758333333333312, 24.251666666666679 ], [ 89.766666666666652, 24.261666666666677 ] ] } },
{ "type": "Feature", "properties": { "COMID": 45059555, "id": "38831", "lengthkm": 10.945284875477547, "order": 7, "uparea": 518038.97333570657 }, "geometry": { "type": "LineString", "coordinates": [ [ 89.7075, 24.1775 ], [ 89.724166666666648, 24.19 ], [ 89.723333333333315, 24.194166666666678 ], [ 89.73666666666665, 24.210833333333348 ], [ 89.7375, 24.2175 ], [ 89.741666666666646, 24.221666666666678 ], [ 89.75, 24.225833333333345 ], [ 89.759166666666644, 24.241666666666681 ], [ 89.758333333333312, 24.251666666666679 ] ] } },
{ "type": "Feature", "properties": { "COMID": 45059554, "id": "38831", "lengthkm": 18.954305682065407, "order": 7, "uparea": 518184.72584258142 }, "geometry": { "type": "LineString", "coordinates": [ [ 89.6625, 24.03166666666668 ], [ 89.6675, 24.035833333333343 ], [ 89.6725, 24.0375 ], [ 89.6825, 24.048333333333346 ], [ 89.685833333333321, 24.059166666666677 ], [ 89.684166666666641, 24.065 ], [ 89.686666666666653, 24.069166666666678 ], [ 89.686666666666653, 24.0725 ], [ 89.6825, 24.0775 ], [ 89.685, 24.080833333333345 ], [ 89.685833333333321, 24.089166666666678 ], [ 89.69, 24.093333333333348 ], [ 89.69, 24.09916666666668 ], [ 89.6925, 24.105 ], [ 89.6925, 24.115833333333345 ], [ 89.694166666666646, 24.12 ], [ 89.694166666666646, 24.125833333333347 ], [ 89.6925, 24.128333333333345 ], [ 89.6925, 24.15 ], [ 89.699166666666656, 24.163333333333345 ], [ 89.706666666666649, 24.173333333333346 ], [ 89.7075, 24.1775 ] ] } },
{ "type": "Feature", "properties": { "COMID": 45059553, "id": "38831", "lengthkm": 0.68146906953977904, "order": 7, "uparea": 537141.17193041742 }, "geometry": { "type": "LineString", "coordinates": [ [ 89.661666666666648, 24.025833333333345 ], [ 89.6625, 24.03166666666668 ] ] } },
{ "type": "Feature", "properties": { "COMID": 45059552, "id": "38831", "lengthkm": 18.675480070709391, "order": 7, "uparea": 537417.63620310393 }, "geometry": { "type": "LineString", "coordinates": [ [ 89.699166666666656, 23.8875 ], [ 89.699166666666656, 23.895833333333346 ], [ 89.701666666666654, 23.905 ], [ 89.701666666666654, 23.933333333333344 ], [ 89.691666666666649, 23.9475 ], [ 89.685, 23.95416666666668 ], [ 89.6775, 23.959166666666679 ], [ 89.666666666666657, 23.96166666666668 ], [ 89.665, 23.965 ], [ 89.666666666666657, 23.975 ], [ 89.665, 23.978333333333346 ], [ 89.666666666666657, 23.983333333333345 ], [ 89.666666666666657, 23.9925 ], [ 89.6725, 24.010833333333345 ], [ 89.665, 24.015833333333347 ], [ 89.661666666666648, 24.025833333333345 ] ] } },
{ "type": "Feature", "properties": { "COMID": 45059551, "id": "38831", "lengthkm": 1.778686451137651, "order": 7, "uparea": 537493.71868278971 }, "geometry": { "type": "LineString", "coordinates": [ [ 89.691666666666649, 23.874166666666678 ], [ 89.696666666666644, 23.88 ], [ 89.699166666666656, 23.8875 ] ] } },
{ "type": "Feature", "properties": { "COMID": 45059550, "id": "38831", "lengthkm": 10.440372897070473, "order": 7, "uparea": 538022.20607306773 }, "geometry": { "type": "LineString", "coordinates": [ [ 89.7425, 23.810833333333346 ], [ 89.72833333333331, 23.8175 ], [ 89.725, 23.824166666666677 ], [ 89.72, 23.82916666666668 ], [ 89.708333333333314, 23.830833333333345 ], [ 89.696666666666644, 23.841666666666679 ], [ 89.693333333333314, 23.848333333333347 ], [ 89.693333333333314, 23.855 ], [ 89.689166666666651, 23.863333333333344 ], [ 89.689166666666651, 23.869166666666679 ], [ 89.691666666666649, 23.874166666666678 ] ] } },
{ "type": "Feature", "properties": { "COMID": 45059537, "id": "38831", "lengthkm": 2.364264633039713, "order": 8, "uparea": 1480070.8617546074 }, "geometry": { "type": "LineString", "coordinates": [ [ 89.763333333333321, 23.8125 ], [ 89.7425, 23.810833333333346 ] ] } },
{ "type": "Feature", "properties": { "COMID": 45059536, "id": "38831", "lengthkm": 3.3533933894008552, "order": 8, "uparea": 1480461.6324491578 }, "geometry": { "type": "LineString", "coordinates": [ [ 89.786666666666648, 23.7925 ], [ 89.765, 23.8125 ], [ 89.763333333333321, 23.8125 ] ] } },
{ "type": "Feature", "properties": { "COMID": 45059535, "id": "38831", "lengthkm": 2.028552639801394, "order": 8, "uparea": 1480549.6332875148 }, "geometry": { "type": "LineString", "coordinates": [ [ 89.79916666666665, 23.779166666666679 ], [ 89.786666666666648, 23.7925 ] ] } },
{ "type": "Feature", "properties": { "COMID": 45059534, "id": "38831", "lengthkm": 24.147820154197287, "order": 8, "uparea": 1480725.0136060892 }, "geometry": { "type": "LineString", "coordinates": [ [ 89.995, 23.705833333333345 ], [ 89.9925, 23.708333333333346 ], [ 89.9825, 23.7125 ], [ 89.960833333333312, 23.715833333333347 ], [ 89.94, 23.723333333333347 ], [ 89.919166666666655, 23.725833333333345 ], [ 89.910833333333315, 23.725 ], [ 89.9025, 23.729166666666679 ], [ 89.886666666666656, 23.729166666666679 ], [ 89.871666666666641, 23.733333333333345 ], [ 89.855, 23.73 ], [ 89.83833333333331, 23.743333333333347 ], [ 89.813333333333318, 23.768333333333345 ], [ 89.79916666666665, 23.779166666666679 ] ] } },
{ "type": "Feature", "properties": { "COMID": 45063347, "id": "38831", "lengthkm": 5.2676845882940846, "order": 8, "uparea": 1480789.2229896402 }, "geometry": { "type": "LineString", "coordinates": [ [ 89.991666666666646, 23.660833333333347 ], [ 89.996666666666641, 23.67666666666668 ], [ 89.995, 23.705833333333345 ] ] } },
{ "type": "Feature", "properties": { "COMID": 45063346, "id": "38831", "lengthkm": 7.283326201289265, "order": 8, "uparea": 1480948.0639584674 }, "geometry": { "type": "LineString", "coordinates": [ [ 90.009166666666644, 23.605 ], [ 90.008333333333312, 23.620833333333344 ], [ 90.0125, 23.628333333333345 ], [ 90.0125, 23.633333333333347 ], [ 90.003333333333316, 23.65 ], [ 89.991666666666646, 23.660833333333347 ] ] } },
{ "type": "Feature", "properties": { "COMID": 45063345, "id": "38831", "lengthkm": 7.3301595308811152, "order": 8, "uparea": 1481136.7888560903 }, "geometry": { "type": "LineString", "coordinates": [ [ 90.059166666666641, 23.5625 ], [ 90.03, 23.5925 ], [ 90.0125, 23.601666666666681 ], [ 90.009166666666644, 23.605 ] ] } },
{ "type": "Feature", "properties": { "COMID": 45063344, "id": "38831", "lengthkm": 12.769887712414294, "order": 8, "uparea": 1481312.4314660509 }, "geometry": { "type": "LineString", "coordinates": [ [ 90.115833333333313, 23.475 ], [ 90.109166666666653, 23.4875 ], [ 90.0975, 23.503333333333345 ], [ 90.0925, 23.514166666666679 ], [ 90.090833333333308, 23.520833333333346 ], [ 90.09166666666664, 23.541666666666679 ], [ 90.084166666666647, 23.5475 ], [ 90.065, 23.5575 ], [ 90.059166666666641, 23.5625 ] ] } },
{ "type": "Feature", "properties": { "COMID": 45063343, "id": "38831", "lengthkm": 7.5193073133645347, "order": 8, "uparea": 1481911.4042069917 }, "geometry": { "type": "LineString", "coordinates": [ [ 90.179166666666646, 23.466666666666679 ], [ 90.176666666666648, 23.4675 ], [ 90.17083333333332, 23.465 ], [ 90.146666666666647, 23.460833333333348 ], [ 90.1275, 23.465833333333347 ], [ 90.115833333333313, 23.475 ] ] } },
{ "type": "Feature", "properties": { "COMID": 45063342, "id": "38831", "lengthkm": 0.084998536493851001, "order": 8, "uparea": 1482022.2761364332 }, "geometry": { "type": "LineString", "coordinates": [ [ 90.18, 23.466666666666679 ], [ 90.179166666666646, 23.466666666666679 ] ] } },
{ "type": "Feature", "properties": { "COMID": 45063341, "id": "38831", "lengthkm": 22.24883309536888, "order": 8, "uparea": 1482212.7252700049 }, "geometry": { "type": "LineString", "coordinates": [ [ 90.373333333333306, 23.42 ], [ 90.355, 23.423333333333346 ], [ 90.3325, 23.433333333333344 ], [ 90.315833333333316, 23.4325 ], [ 90.313333333333318, 23.43416666666668 ], [ 90.301666666666648, 23.435 ], [ 90.28083333333332, 23.44666666666668 ], [ 90.25, 23.45 ], [ 90.241666666666646, 23.4525 ], [ 90.24, 23.451666666666679 ], [ 90.215833333333308, 23.460833333333348 ], [ 90.203333333333319, 23.460833333333348 ], [ 90.193333333333314, 23.465 ], [ 90.18, 23.466666666666679 ] ] } },
{ "type": "Feature", "properties": { "COMID": 45063340, "id": "38831", "lengthkm": 11.879566167536154, "order": 8, "uparea": 1482501.2272524796 }, "geometry": { "type": "LineString", "coordinates": [ [ 90.436666666666653, 23.34 ], [ 90.434166666666641, 23.343333333333344 ], [ 90.430833333333311, 23.360833333333346 ], [ 90.419166666666655, 23.375833333333347 ], [ 90.40916666666665, 23.385833333333345 ], [ 90.399166666666645, 23.401666666666678 ], [ 90.373333333333306, 23.42 ] ] } },
{ "type": "Feature", "properties": { "COMID": 45063339, "id": "38831", "lengthkm": 0.714071485172183, "order": 8, "uparea": 1482555.5706116247 }, "geometry": { "type": "LineString", "coordinates": [ [ 90.441666666666649, 23.335833333333348 ], [ 90.436666666666653, 23.34 ] ] } },
{ "type": "Feature", "properties": { "COMID": 45063338, "id": "38831", "lengthkm": 3.684757535951662, "order": 8, "uparea": 1482765.1194097816 }, "geometry": { "type": "LineString", "coordinates": [ [ 90.474166666666648, 23.331666666666678 ], [ 90.454166666666652, 23.330833333333345 ], [ 90.449166666666656, 23.331666666666678 ], [ 90.441666666666649, 23.335833333333348 ] ] } },
{ "type": "Feature", "properties": { "COMID": 45063337, "id": "38831", "lengthkm": 1.9350875813103481, "order": 8, "uparea": 1482797.5267805532 }, "geometry": { "type": "LineString", "coordinates": [ [ 90.488333333333316, 23.32166666666668 ], [ 90.481666666666655, 23.324166666666681 ], [ 90.474166666666648, 23.331666666666678 ] ] } },
{ "type": "Feature", "properties": { "COMID": 45063336, "id": "38831", "lengthkm": 5.8385379776508346, "order": 8, "uparea": 1482976.942876504 }, "geometry": { "type": "LineString", "coordinates": [ [ 90.538333333333313, 23.306666666666679 ], [ 90.52916666666664, 23.3075 ], [ 90.5225, 23.310833333333346 ], [ 90.5125, 23.32 ], [ 90.488333333333316, 23.32166666666668 ] ] } },
{ "type": "Feature", "properties": { "COMID": 45063335, "id": "38831", "lengthkm": 6.305659495608567, "order": 8, "uparea": 1483033.5524042775 }, "geometry": { "type": "LineString", "coordinates": [ [ 90.5875, 23.295833333333345 ], [ 90.575833333333321, 23.293333333333347 ], [ 90.5625, 23.30166666666668 ], [ 90.554166666666646, 23.305 ], [ 90.550833333333316, 23.31 ], [ 90.543333333333322, 23.306666666666679 ], [ 90.538333333333313, 23.306666666666679 ] ] } },
{ "type": "Feature", "properties": { "COMID": 45063334, "id": "38831", "lengthkm": 7.8191387100587306, "order": 8, "uparea": 1483124.8605031187 }, "geometry": { "type": "LineString", "coordinates": [ [ 90.626666666666651, 23.24 ], [ 90.610833333333318, 23.25916666666668 ], [ 90.60833333333332, 23.268333333333345 ], [ 90.6, 23.276666666666678 ], [ 90.599166666666648, 23.28166666666668 ], [ 90.595833333333317, 23.2875 ], [ 90.5875, 23.295833333333345 ] ] } },
{ "type": "Feature", "properties": { "COMID": 45063333, "id": "38831", "lengthkm": 8.8182140991362683, "order": 8, "uparea": 1572400.525695469 }, "geometry": { "type": "LineString", "coordinates": [ [ 90.61166666666665, 23.166666666666679 ], [ 90.615, 23.186666666666678 ], [ 90.620833333333309, 23.1975 ], [ 90.626666666666651, 23.218333333333344 ], [ 90.626666666666651, 23.24 ] ] } },
{ "type": "Feature", "properties": { "COMID": 45063332, "id": "38831", "lengthkm": 7.6543775006214121, "order": 8, "uparea": 1572504.0563616927 }, "geometry": { "type": "LineString", "coordinates": [ [ 90.59333333333332, 23.105 ], [ 90.5975, 23.113333333333347 ], [ 90.601666666666645, 23.133333333333347 ], [ 90.60833333333332, 23.14916666666668 ], [ 90.6075, 23.1525 ], [ 90.61166666666665, 23.16166666666668 ], [ 90.61166666666665, 23.166666666666679 ] ] } },
{ "type": "Feature", "properties": { "COMID": 45066867, "id": "38831", "lengthkm": 8.8264913247611076, "order": 8, "uparea": 1572667.3889131162 }, "geometry": { "type": "LineString", "coordinates": [ [ 90.584166666666647, 23.0325 ], [ 90.584166666666647, 23.035 ], [ 90.590833333333308, 23.043333333333347 ], [ 90.598333333333315, 23.07166666666668 ], [ 90.598333333333315, 23.085833333333348 ], [ 90.59333333333332, 23.105 ] ] } },
{ "type": "Feature", "properties": { "COMID": 45066866, "id": "38831", "lengthkm": 11.626908692823784, "order": 8, "uparea": 1573607.9737473868 }, "geometry": { "type": "LineString", "coordinates": [ [ 90.631666666666646, 22.945 ], [ 90.628333333333316, 22.953333333333347 ], [ 90.615, 22.975 ], [ 90.61, 22.98 ], [ 90.605, 22.991666666666681 ], [ 90.600833333333313, 22.995833333333348 ], [ 90.594166666666652, 23.0125 ], [ 90.5875, 23.02 ], [ 90.584166666666647, 23.0325 ] ] } },
{ "type": "Feature", "properties": { "COMID": 45066865, "id": "38831", "lengthkm": 2.2123776367557291, "order": 8, "uparea": 1573652.1037601084 }, "geometry": { "type": "LineString", "coordinates": [ [ 90.638333333333321, 22.9275 ], [ 90.631666666666646, 22.945 ] ] } },
{ "type": "Feature", "properties": { "COMID": 45066864, "id": "38831", "lengthkm": 2.286353277797005, "order": 8, "uparea": 1573882.3011841814 }, "geometry": { "type": "LineString", "coordinates": [ [ 90.649166666666645, 22.910833333333347 ], [ 90.638333333333321, 22.9275 ] ] } },
{ "type": "Feature", "properties": { "COMID": 45066863, "id": "38831", "lengthkm": 10.136653461461982, "order": 8, "uparea": 1574012.6907671301 }, "geometry": { "type": "LineString", "coordinates": [ [ 90.7125, 22.846666666666678 ], [ 90.694166666666646, 22.861666666666679 ], [ 90.6875, 22.8725 ], [ 90.673333333333318, 22.8875 ], [ 90.663333333333313, 22.900833333333345 ], [ 90.649166666666645, 22.910833333333347 ] ] } },
{ "type": "Feature", "properties": { "COMID": 45066862, "id": "38831", "lengthkm": 6.9867986145700964, "order": 8, "uparea": 1574545.5744448761 }, "geometry": { "type": "LineString", "coordinates": [ [ 90.723333333333315, 22.788333333333345 ], [ 90.719166666666652, 22.7975 ], [ 90.7125, 22.846666666666678 ] ] } },
{ "type": "Feature", "properties": { "COMID": 45066861, "id": "38831", "lengthkm": 1.3973938849260481, "order": 8, "uparea": 1574591.2623521597 }, "geometry": { "type": "LineString", "coordinates": [ [ 90.720833333333317, 22.776666666666681 ], [ 90.723333333333315, 22.788333333333345 ] ] } },
{ "type": "Feature", "properties": { "COMID": 45066860, "id": "38831", "lengthkm": 3.3249251226456198, "order": 8, "uparea": 1574680.9067696885 }, "geometry": { "type": "LineString", "coordinates": [ [ 90.7275, 22.749166666666678 ], [ 90.7225, 22.764166666666679 ], [ 90.720833333333317, 22.776666666666681 ] ] } },
{ "type": "Feature", "properties": { "COMID": 45066859, "id": "38831", "lengthkm": 0.31137575033335202, "order": 8, "uparea": 1574708.4456096634 }, "geometry": { "type": "LineString", "coordinates": [ [ 90.72833333333331, 22.74666666666668 ], [ 90.7275, 22.749166666666678 ] ] } },
{ "type": "Feature", "properties": { "COMID": 45066858, "id": "38831", "lengthkm": 7.2847450964907097, "order": 8, "uparea": 1574834.2982043759 }, "geometry": { "type": "LineString", "coordinates": [ [ 90.7575, 22.691666666666681 ], [ 90.744166666666644, 22.713333333333345 ], [ 90.740833333333313, 22.725 ], [ 90.72833333333331, 22.74666666666668 ] ] } },
{ "type": "Feature", "properties": { "COMID": 45066857, "id": "38831", "lengthkm": 2.3985656537863922, "order": 8, "uparea": 1574898.6207858638 }, "geometry": { "type": "LineString", "coordinates": [ [ 90.764166666666654, 22.6725 ], [ 90.7575, 22.691666666666681 ] ] } },
{ "type": "Feature", "properties": { "COMID": 45066856, "id": "38831", "lengthkm": 7.0912977241002322, "order": 8, "uparea": 1575032.5004286871 }, "geometry": { "type": "LineString", "coordinates": [ [ 90.81, 22.626666666666679 ], [ 90.795, 22.644166666666681 ], [ 90.764166666666654, 22.6725 ] ] } },
{ "type": "Feature", "properties": { "COMID": 45066855, "id": "38831", "lengthkm": 7.5775848669324732, "order": 8, "uparea": 1575385.9506649468 }, "geometry": { "type": "LineString", "coordinates": [ [ 90.803333333333313, 22.563333333333347 ], [ 90.8, 22.573333333333348 ], [ 90.8, 22.589166666666681 ], [ 90.8075, 22.6125 ], [ 90.81, 22.626666666666679 ] ] } },
{ "type": "Feature", "properties": { "COMID": 45070323, "id": "38831", "lengthkm": 16.643676992320035, "order": 8, "uparea": 1575630.991704083 }, "geometry": { "type": "LineString", "coordinates": [ [ 90.9, 22.4575 ], [ 90.888333333333321, 22.4625 ], [ 90.88, 22.46916666666668 ], [ 90.868333333333311, 22.475 ], [ 90.850833333333313, 22.490833333333345 ], [ 90.839166666666642, 22.508333333333347 ], [ 90.83833333333331, 22.5175 ], [ 90.814166666666651, 22.54416666666668 ], [ 90.803333333333313, 22.563333333333347 ] ] } },
{ "type": "Feature", "properties": { "COMID": 45070322, "id": "38831", "lengthkm": 0.12617354695302499, "order": 8, "uparea": 1575661.803881095 }, "geometry": { "type": "LineString", "coordinates": [ [ 90.90083333333331, 22.456666666666681 ], [ 90.9, 22.4575 ] ] } }
]
}
