{
"type": "FeatureCollection",
"name": "downstream_74220",
"crs": { "type": "name", "properties": { "name": "urn:ogc:def:crs:OGC:1.3:CRS84" } },
"features": [
{ "type": "Feature", "properties": { "COMID": 45039274, "id": "4851", "lengthkm": 19.268869000816807, "order": 1, "uparea": 134.58569042048612 }, "geometry": { "type": "LineString", "coordinates": [ [ 85.173333333333318, 27.575833333333343 ], [ 85.16, 27.575833333333343 ], [ 85.160833333333315, 27.579166666666676 ], [ 85.156666666666652, 27.581666666666678 ], [ 85.155, 27.585833333333341 ], [ 85.158333333333317, 27.591666666666676 ], [ 85.163333333333327, 27.595833333333342 ], [ 85.163333333333327, 27.598333333333343 ], [ 85.156666666666652, 27.605833333333344 ], [ 85.154166666666654, 27.606666666666676 ], [ 85.155, 27.609166666666674 ], [ 85.1525, 27.611666666666679 ], [ 85.1525, 27.615833333333342 ], [ 85.146666666666647, 27.621666666666677 ], [ 85.145, 27.621666666666677 ], [ 85.140833333333319, 27.6275 ], [ 85.136666666666656, 27.629166666666677 ], [ 85.133333333333326, 27.6275 ], [ 85.13, 27.629166666666677 ], [ 85.128333333333316, 27.628333333333345 ], [ 85.126666666666651, 27.630833333333342 ], [ 85.121666666666655, 27.631666666666675 ], [ 85.120833333333323, 27.633333333333344 ], [ 85.1175, 27.6325 ], [ 85.115, 27.635 ], [ 85.113333333333316, 27.633333333333344 ], [ 85.11, 27.633333333333344 ], [ 85.109166666666653, 27.635 ], [ 85.1075, 27.634166666666676 ], [ 85.104166666666657, 27.635833333333345 ], [ 85.1025, 27.633333333333344 ], [ 85.1025, 27.628333333333345 ], [ 85.098333333333315, 27.63 ], [ 85.099166666666648, 27.6325 ], [ 85.0975, 27.633333333333344 ], [ 85.095, 27.630833333333342 ], [ 85.0825, 27.635833333333345 ], [ 85.0725, 27.634166666666676 ] ] } },
{ "type": "Feature", "properties": { "COMID": 45037316, "id": "4851", "lengthkm": 10.773876884705622, "order": 2, "uparea": 211.33014117252529 }, "geometry": { "type": "LineString", "coordinates": [ [ 85.2325, 27.536666666666676 ], [ 85.226666666666659, 27.539166666666677 ], [ 85.230833333333322, 27.544166666666676 ], [ 85.229166666666657, 27.549166666666679 ], [ 85.225833333333327, 27.5525 ], [ 85.21833333333332, 27.553333333333342 ], [ 85.214166666666657, 27.558333333333344 ], [ 85.21, 27.556666666666676 ], [ 85.206666666666649, 27.559166666666677 ], [ 85.2, 27.565833333333345 ], [ 85.2025, 27.57 ], [ 85.200833333333321, 27.57 ], [ 85.199166666666656, 27.5725 ], [ 85.195, 27.571666666666676 ], [ 85.190833333333316, 27.576666666666675 ], [ 85.185833333333321, 27.575 ], [ 85.181666666666644, 27.578333333333344 ], [ 85.18, 27.578333333333344 ], [ 85.1775, 27.575 ], [ 85.173333333333318, 27.575833333333343 ] ] } },
{ "type": "Feature", "properties": { "COMID": 45036301, "id": "4851", "lengthkm": 6.376226557838347, "order": 3, "uparea": 905.57522574438235 }, "geometry": { "type": "LineString", "coordinates": [ [ 85.235833333333318, 27.503333333333345 ], [ 85.234166666666653, 27.506666666666675 ], [ 85.241666666666646, 27.513333333333343 ], [ 85.240833333333313, 27.516666666666676 ], [ 85.243333333333311, 27.519166666666678 ], [ 85.250833333333318, 27.521666666666675 ], [ 85.250833333333318, 27.528333333333343 ], [ 85.246666666666655, 27.528333333333343 ], [ 85.244166666666644, 27.533333333333346 ], [ 85.238333333333316, 27.533333333333346 ], [ 85.2325, 27.536666666666676 ] ] } },
{ "type": "Feature", "properties": { "COMID": 45036278, "id": "4851", "lengthkm": 5.2380272388926734, "order": 3, "uparea": 957.81219558656846 }, "geometry": { "type": "LineString", "coordinates": [ [ 85.254166666666649, 27.470833333333346 ], [ 85.2475, 27.4775 ], [ 85.248333333333321, 27.4825 ], [ 85.245, 27.485833333333343 ], [ 85.2475, 27.491666666666674 ], [ 85.2475, 27.495833333333344 ], [ 85.240833333333313, 27.500833333333343 ], [ 85.2375, 27.5 ], [ 85.235833333333318, 27.503333333333345 ] ] } },
{ "type": "Feature", "properties": { "COMID": 45036259, "id": "4851", "lengthkm": 24.050462954054666, "order": 3, "uparea": 1165.2558856430396 }, "geometry": { "type": "LineString", "coordinates": [ [ 85.418333333333322, 27.4075 ], [ 85.415833333333325, 27.408333333333346 ], [ 85.413333333333327, 27.404166666666676 ], [ 85.41, 27.406666666666677 ], [ 85.406666666666652, 27.403333333333343 ], [ 85.405, 27.405833333333341 ], [ 85.398333333333312, 27.404166666666676 ], [ 85.396666666666647, 27.405833333333341 ], [ 85.395833333333314, 27.411666666666676 ], [ 85.386666666666656, 27.4075 ], [ 85.383333333333326, 27.41 ], [ 85.383333333333326, 27.414166666666677 ], [ 85.376666666666651, 27.418333333333344 ], [ 85.371666666666655, 27.419166666666676 ], [ 85.3675, 27.425 ], [ 85.364166666666648, 27.425 ], [ 85.35, 27.430833333333343 ], [ 85.34666666666665, 27.429166666666674 ], [ 85.340833333333322, 27.4325 ], [ 85.334166666666647, 27.4325 ], [ 85.329166666666652, 27.438333333333343 ], [ 85.315833333333316, 27.435833333333342 ], [ 85.314166666666651, 27.4375 ], [ 85.315833333333316, 27.441666666666677 ], [ 85.311666666666653, 27.445833333333344 ], [ 85.308333333333323, 27.445 ], [ 85.300833333333316, 27.450833333333343 ], [ 85.278333333333322, 27.451666666666675 ], [ 85.273333333333312, 27.454166666666676 ], [ 85.265833333333319, 27.453333333333344 ], [ 85.258333333333326, 27.459166666666675 ], [ 85.258333333333326, 27.4625 ], [ 85.255, 27.465 ], [ 85.2575, 27.468333333333341 ], [ 85.254166666666649, 27.470833333333346 ] ] } },
{ "type": "Feature", "properties": { "COMID": 45036206, "id": "4851", "lengthkm": 11.917485021480514, "order": 3, "uparea": 1262.75566390785 }, "geometry": { "type": "LineString", "coordinates": [ [ 85.479166666666657, 27.376666666666676 ], [ 85.475, 27.376666666666676 ], [ 85.4725, 27.378333333333345 ], [ 85.470833333333317, 27.3875 ], [ 85.4675, 27.388333333333343 ], [ 85.4625, 27.386666666666677 ], [ 85.460833333333312, 27.388333333333343 ], [ 85.460833333333312, 27.393333333333345 ], [ 85.458333333333314, 27.395 ], [ 85.448333333333323, 27.3875 ], [ 85.446666666666658, 27.39 ], [ 85.446666666666658, 27.398333333333341 ], [ 85.445, 27.400833333333345 ], [ 85.440833333333316, 27.403333333333343 ], [ 85.433333333333323, 27.403333333333343 ], [ 85.4325, 27.405 ], [ 85.434166666666655, 27.406666666666677 ], [ 85.431666666666644, 27.41 ], [ 85.43, 27.410833333333343 ], [ 85.426666666666648, 27.405 ], [ 85.4225, 27.405 ], [ 85.42, 27.4025 ], [ 85.418333333333322, 27.4075 ] ] } },
{ "type": "Feature", "properties": { "COMID": 45036192, "id": "4851", "lengthkm": 0.58836179657376197, "order": 3, "uparea": 1335.5863530457848 }, "geometry": { "type": "LineString", "coordinates": [ [ 85.4775, 27.3725 ], [ 85.476666666666659, 27.373333333333342 ], [ 85.479166666666657, 27.376666666666676 ] ] } },
{ "type": "Feature", "properties": { "COMID": 45036191, "id": "4851", "lengthkm": 9.896556042939407, "order": 3, "uparea": 1730.9505467048575 }, "geometry": { "type": "LineString", "coordinates": [ [ 85.419166666666655, 27.3275 ], [ 85.419166666666655, 27.331666666666678 ], [ 85.4225, 27.335 ], [ 85.4225, 27.333333333333343 ], [ 85.426666666666648, 27.333333333333343 ], [ 85.43, 27.335 ], [ 85.4325, 27.334166666666675 ], [ 85.438333333333318, 27.3375 ], [ 85.441666666666649, 27.336666666666677 ], [ 85.445833333333326, 27.345833333333346 ], [ 85.449166666666656, 27.349166666666676 ], [ 85.4475, 27.350833333333341 ], [ 85.449166666666656, 27.3525 ], [ 85.455, 27.355 ], [ 85.46333333333331, 27.355 ], [ 85.465833333333322, 27.356666666666676 ], [ 85.4725, 27.366666666666674 ], [ 85.4725, 27.37 ], [ 85.4775, 27.3725 ] ] } },
{ "type": "Feature", "properties": { "COMID": 45036183, "id": "4851", "lengthkm": 21.645089400836696, "order": 3, "uparea": 1984.0731256603922 }, "geometry": { "type": "LineString", "coordinates": [ [ 85.490833333333313, 27.2225 ], [ 85.488333333333316, 27.225 ], [ 85.4875, 27.229166666666679 ], [ 85.485, 27.230833333333344 ], [ 85.485, 27.2325 ], [ 85.488333333333316, 27.235 ], [ 85.48666666666665, 27.238333333333344 ], [ 85.490833333333313, 27.24 ], [ 85.490833333333313, 27.244166666666679 ], [ 85.4875, 27.2475 ], [ 85.489166666666648, 27.250833333333343 ], [ 85.484166666666653, 27.256666666666675 ], [ 85.485, 27.261666666666677 ], [ 85.481666666666655, 27.264166666666675 ], [ 85.481666666666655, 27.271666666666675 ], [ 85.479166666666657, 27.273333333333344 ], [ 85.476666666666659, 27.271666666666675 ], [ 85.476666666666659, 27.274166666666677 ], [ 85.475, 27.274166666666677 ], [ 85.474166666666648, 27.276666666666678 ], [ 85.47, 27.2775 ], [ 85.465833333333322, 27.275833333333345 ], [ 85.46333333333331, 27.278333333333343 ], [ 85.465, 27.2825 ], [ 85.4625, 27.285 ], [ 85.460833333333312, 27.281666666666677 ], [ 85.455833333333317, 27.2825 ], [ 85.453333333333319, 27.28 ], [ 85.45, 27.280833333333341 ], [ 85.445833333333326, 27.278333333333343 ], [ 85.4425, 27.281666666666677 ], [ 85.44, 27.281666666666677 ], [ 85.438333333333318, 27.283333333333346 ], [ 85.439166666666651, 27.285833333333343 ], [ 85.435, 27.29 ], [ 85.431666666666644, 27.289166666666677 ], [ 85.429166666666646, 27.291666666666679 ], [ 85.428333333333313, 27.3 ], [ 85.431666666666644, 27.305833333333343 ], [ 85.428333333333313, 27.31 ], [ 85.429166666666646, 27.311666666666675 ], [ 85.42416666666665, 27.315 ], [ 85.425833333333316, 27.315833333333345 ], [ 85.423333333333318, 27.3175 ], [ 85.419166666666655, 27.3275 ] ] } },
{ "type": "Feature", "properties": { "COMID": 45036166, "id": "4851", "lengthkm": 2.1671872287199769, "order": 3, "uparea": 2054.0441116938659 }, "geometry": { "type": "LineString", "coordinates": [ [ 85.5025, 27.211666666666677 ], [ 85.500833333333318, 27.216666666666676 ], [ 85.495833333333323, 27.220833333333346 ], [ 85.495833333333323, 27.2225 ], [ 85.490833333333313, 27.2225 ] ] } },
{ "type": "Feature", "properties": { "COMID": 45036164, "id": "4851", "lengthkm": 11.186180032433763, "order": 3, "uparea": 2631.5767627047558 }, "geometry": { "type": "LineString", "coordinates": [ [ 85.5025, 27.173333333333343 ], [ 85.499166666666653, 27.175 ], [ 85.49, 27.171666666666674 ], [ 85.48666666666665, 27.175833333333344 ], [ 85.48333333333332, 27.175833333333344 ], [ 85.480833333333322, 27.18 ], [ 85.4825, 27.184166666666677 ], [ 85.484166666666653, 27.185 ], [ 85.4875, 27.183333333333344 ], [ 85.4925, 27.1875 ], [ 85.48666666666665, 27.195 ], [ 85.489166666666648, 27.198333333333345 ], [ 85.4975, 27.196666666666676 ], [ 85.498333333333321, 27.195 ], [ 85.505833333333314, 27.195 ], [ 85.505, 27.195833333333344 ], [ 85.508333333333326, 27.2 ], [ 85.505833333333314, 27.2025 ], [ 85.505833333333314, 27.205 ], [ 85.503333333333316, 27.205 ], [ 85.504166666666649, 27.206666666666678 ], [ 85.501666666666651, 27.208333333333343 ], [ 85.5025, 27.211666666666677 ] ] } },
{ "type": "Feature", "properties": { "COMID": 45040242, "id": "4851", "lengthkm": 12.138041358970325, "order": 3, "uparea": 2821.3450906366097 }, "geometry": { "type": "LineString", "coordinates": [ [ 85.449166666666656, 27.095833333333346 ], [ 85.459166666666647, 27.100833333333341 ], [ 85.464166666666657, 27.106666666666676 ], [ 85.465, 27.110833333333343 ], [ 85.47166666666665, 27.1175 ], [ 85.470833333333317, 27.118333333333343 ], [ 85.478333333333325, 27.131666666666675 ], [ 85.489166666666648, 27.143333333333345 ], [ 85.489166666666648, 27.155 ], [ 85.4925, 27.161666666666676 ], [ 85.5025, 27.1625 ], [ 85.504166666666649, 27.164166666666677 ], [ 85.5, 27.1675 ], [ 85.5025, 27.173333333333343 ] ] } },
{ "type": "Feature", "properties": { "COMID": 45040210, "id": "4851", "lengthkm": 9.5196068557277158, "order": 3, "uparea": 2895.4022784796448 }, "geometry": { "type": "LineString", "coordinates": [ [ 85.40583333333332, 27.025833333333345 ], [ 85.4125, 27.0325 ], [ 85.4175, 27.045 ], [ 85.435, 27.065 ], [ 85.439166666666651, 27.075 ], [ 85.4475, 27.0875 ], [ 85.449166666666656, 27.095833333333346 ] ] } },
{ "type": "Feature", "properties": { "COMID": 45040189, "id": "4851", "lengthkm": 3.6439961347550578, "order": 3, "uparea": 2945.4190386459709 }, "geometry": { "type": "LineString", "coordinates": [ [ 85.3875, 27.004166666666677 ], [ 85.390833333333319, 27.004166666666677 ], [ 85.395833333333314, 27.009166666666676 ], [ 85.398333333333312, 27.021666666666675 ], [ 85.405, 27.024166666666677 ], [ 85.40583333333332, 27.025833333333345 ] ] } },
{ "type": "Feature", "properties": { "COMID": 45040184, "id": "4851", "lengthkm": 31.333265525197568, "order": 3, "uparea": 3156.8074224401066 }, "geometry": { "type": "LineString", "coordinates": [ [ 85.33, 26.806666666666679 ], [ 85.333333333333314, 26.808333333333344 ], [ 85.3325, 26.814166666666679 ], [ 85.335833333333312, 26.819166666666675 ], [ 85.333333333333314, 26.8225 ], [ 85.335, 26.824166666666677 ], [ 85.334166666666647, 26.826666666666675 ], [ 85.335833333333312, 26.826666666666675 ], [ 85.341666666666654, 26.8325 ], [ 85.340833333333322, 26.836666666666677 ], [ 85.3425, 26.838333333333345 ], [ 85.34, 26.841666666666676 ], [ 85.34333333333332, 26.840833333333343 ], [ 85.348333333333315, 26.845833333333346 ], [ 85.354166666666657, 26.8475 ], [ 85.356666666666655, 26.851666666666677 ], [ 85.355833333333322, 26.853333333333346 ], [ 85.3575, 26.8575 ], [ 85.355833333333322, 26.858333333333341 ], [ 85.354166666666657, 26.855 ], [ 85.350833333333327, 26.854166666666679 ], [ 85.353333333333325, 26.8625 ], [ 85.3525, 26.865833333333342 ], [ 85.355833333333322, 26.8675 ], [ 85.354166666666657, 26.87 ], [ 85.355, 26.886666666666677 ], [ 85.36166666666665, 26.890833333333344 ], [ 85.368333333333311, 26.901666666666678 ], [ 85.384166666666658, 26.9075 ], [ 85.39, 26.9175 ], [ 85.389166666666654, 26.920833333333341 ], [ 85.390833333333319, 26.924166666666679 ], [ 85.3875, 26.926666666666677 ], [ 85.385833333333323, 26.9325 ], [ 85.390833333333319, 26.939166666666679 ], [ 85.389166666666654, 26.9475 ], [ 85.3925, 26.950833333333343 ], [ 85.391666666666652, 26.953333333333344 ], [ 85.393333333333317, 26.954166666666676 ], [ 85.391666666666652, 26.955833333333345 ], [ 85.394166666666649, 26.960833333333344 ], [ 85.398333333333312, 26.964166666666678 ], [ 85.398333333333312, 26.970833333333346 ], [ 85.396666666666647, 26.975833333333341 ], [ 85.394166666666649, 26.9775 ], [ 85.3925, 26.984166666666678 ], [ 85.390833333333319, 26.984166666666678 ], [ 85.390833333333319, 26.994166666666679 ], [ 85.3875, 27.004166666666677 ] ] } },
{ "type": "Feature", "properties": { "COMID": 45040142, "id": "4851", "lengthkm": 5.372123350603311, "order": 3, "uparea": 3495.9888077422634 }, "geometry": { "type": "LineString", "coordinates": [ [ 85.326666666666654, 26.774166666666677 ], [ 85.323333333333323, 26.779166666666676 ], [ 85.320833333333326, 26.78 ], [ 85.323333333333323, 26.783333333333346 ], [ 85.325, 26.783333333333346 ], [ 85.325, 26.785833333333343 ], [ 85.320833333333326, 26.791666666666679 ], [ 85.325833333333321, 26.798333333333343 ], [ 85.328333333333319, 26.796666666666678 ], [ 85.3275, 26.800833333333344 ], [ 85.33, 26.806666666666679 ] ] } },
{ "type": "Feature", "properties": { "COMID": 45040138, "id": "4851", "lengthkm": 19.263010201038906, "order": 3, "uparea": 3839.963259364843 }, "geometry": { "type": "LineString", "coordinates": [ [ 85.283333333333317, 26.648333333333344 ], [ 85.2875, 26.653333333333343 ], [ 85.286666666666648, 26.655 ], [ 85.293333333333322, 26.67 ], [ 85.29583333333332, 26.6725 ], [ 85.295, 26.674166666666679 ], [ 85.296666666666653, 26.675833333333344 ], [ 85.3, 26.675 ], [ 85.301666666666648, 26.676666666666677 ], [ 85.301666666666648, 26.68 ], [ 85.3075, 26.685 ], [ 85.3075, 26.689166666666679 ], [ 85.3125, 26.693333333333342 ], [ 85.3125, 26.698333333333345 ], [ 85.315833333333316, 26.700833333333343 ], [ 85.315833333333316, 26.704166666666676 ], [ 85.314166666666651, 26.705 ], [ 85.318333333333314, 26.706666666666678 ], [ 85.323333333333323, 26.715 ], [ 85.325, 26.72 ], [ 85.324166666666656, 26.721666666666678 ], [ 85.333333333333314, 26.73 ], [ 85.326666666666654, 26.7325 ], [ 85.325833333333321, 26.735 ], [ 85.3275, 26.738333333333344 ], [ 85.325833333333321, 26.740833333333342 ], [ 85.326666666666654, 26.745 ], [ 85.331666666666649, 26.749166666666675 ], [ 85.329166666666652, 26.756666666666675 ], [ 85.3325, 26.758333333333344 ], [ 85.331666666666649, 26.764166666666675 ], [ 85.3275, 26.765 ], [ 85.3275, 26.769166666666678 ], [ 85.329166666666652, 26.770833333333343 ], [ 85.326666666666654, 26.774166666666677 ] ] } },
{ "type": "Feature", "properties": { "COMID": 45040118, "id": "4851", "lengthkm": 1.63514439198554, "order": 3, "uparea": 3913.4225614850825 }, "geometry": { "type": "LineString", "coordinates": [ [ 85.2725, 26.639166666666675 ], [ 85.276666666666657, 26.644166666666678 ], [ 85.283333333333317, 26.648333333333344 ] ] } },
{ "type": "Feature", "properties": { "COMID": 45044144, "id": "4851", "lengthkm": 31.386642991974551, "order": 4, "uparea": 4939.573433419866 }, "geometry": { "type": "LineString", "coordinates": [ [ 85.3525, 26.4725 ], [ 85.35, 26.476666666666677 ], [ 85.350833333333327, 26.479166666666679 ], [ 85.349166666666648, 26.4825 ], [ 85.349166666666648, 26.485 ], [ 85.351666666666659, 26.486666666666679 ], [ 85.353333333333325, 26.490833333333342 ], [ 85.3525, 26.513333333333343 ], [ 85.355, 26.518333333333345 ], [ 85.354166666666657, 26.524166666666677 ], [ 85.350833333333327, 26.5275 ], [ 85.351666666666659, 26.534166666666678 ], [ 85.3375, 26.543333333333344 ], [ 85.333333333333314, 26.5475 ], [ 85.33, 26.554166666666678 ], [ 85.325833333333321, 26.555833333333343 ], [ 85.325833333333321, 26.56 ], [ 85.3175, 26.559166666666677 ], [ 85.315833333333316, 26.560833333333342 ], [ 85.32, 26.565833333333345 ], [ 85.325833333333321, 26.569166666666675 ], [ 85.326666666666654, 26.5725 ], [ 85.324166666666656, 26.575 ], [ 85.315, 26.576666666666675 ], [ 85.310833333333321, 26.580833333333345 ], [ 85.305833333333311, 26.581666666666678 ], [ 85.301666666666648, 26.585 ], [ 85.301666666666648, 26.586666666666677 ], [ 85.305833333333311, 26.589166666666678 ], [ 85.303333333333313, 26.593333333333344 ], [ 85.29916666666665, 26.5925 ], [ 85.2975, 26.594166666666677 ], [ 85.2975, 26.601666666666677 ], [ 85.295, 26.608333333333341 ], [ 85.286666666666648, 26.606666666666676 ], [ 85.283333333333317, 26.609166666666678 ], [ 85.28, 26.606666666666676 ], [ 85.278333333333322, 26.6075 ], [ 85.275833333333324, 26.604166666666679 ], [ 85.273333333333312, 26.606666666666676 ], [ 85.269166666666649, 26.606666666666676 ], [ 85.266666666666652, 26.610833333333346 ], [ 85.265, 26.610833333333346 ], [ 85.263333333333321, 26.614166666666677 ], [ 85.265, 26.615 ], [ 85.26, 26.618333333333343 ], [ 85.259166666666658, 26.620833333333344 ], [ 85.2625, 26.626666666666679 ], [ 85.265833333333319, 26.6275 ], [ 85.265833333333319, 26.629166666666677 ], [ 85.269166666666649, 26.631666666666675 ], [ 85.269166666666649, 26.635 ], [ 85.273333333333312, 26.6375 ], [ 85.2725, 26.639166666666675 ] ] } },
{ "type": "Feature", "properties": { "COMID": 45044118, "id": "4851", "lengthkm": 15.673385830864515, "order": 4, "uparea": 5075.8258241488766 }, "geometry": { "type": "LineString", "coordinates": [ [ 85.395, 26.445 ], [ 85.395833333333314, 26.439166666666679 ], [ 85.40083333333331, 26.431666666666679 ], [ 85.4025, 26.431666666666679 ], [ 85.396666666666647, 26.424166666666679 ], [ 85.40083333333331, 26.414166666666677 ], [ 85.39, 26.416666666666679 ], [ 85.380833333333314, 26.420833333333341 ], [ 85.375833333333318, 26.4275 ], [ 85.3675, 26.426666666666677 ], [ 85.360833333333318, 26.431666666666679 ], [ 85.355, 26.4325 ], [ 85.353333333333325, 26.439166666666679 ], [ 85.350833333333327, 26.44 ], [ 85.3525, 26.451666666666675 ], [ 85.355, 26.451666666666675 ], [ 85.355833333333322, 26.453333333333344 ], [ 85.355833333333322, 26.463333333333345 ], [ 85.353333333333325, 26.466666666666676 ], [ 85.3525, 26.4725 ] ] } },
{ "type": "Feature", "properties": { "COMID": 45044109, "id": "4851", "lengthkm": 25.397343004646412, "order": 4, "uparea": 5457.9225875441207 }, "geometry": { "type": "LineString", "coordinates": [ [ 85.500833333333318, 26.345 ], [ 85.495, 26.349166666666676 ], [ 85.490833333333313, 26.35 ], [ 85.491666666666646, 26.353333333333346 ], [ 85.49, 26.355 ], [ 85.491666666666646, 26.356666666666676 ], [ 85.488333333333316, 26.36 ], [ 85.491666666666646, 26.368333333333347 ], [ 85.490833333333313, 26.370833333333344 ], [ 85.495, 26.370833333333344 ], [ 85.495, 26.373333333333342 ], [ 85.498333333333321, 26.375833333333343 ], [ 85.496666666666655, 26.3775 ], [ 85.4975, 26.379166666666677 ], [ 85.5025, 26.38 ], [ 85.5025, 26.3825 ], [ 85.4975, 26.389166666666675 ], [ 85.495, 26.386666666666677 ], [ 85.493333333333311, 26.39 ], [ 85.495, 26.393333333333345 ], [ 85.493333333333311, 26.395 ], [ 85.489166666666648, 26.394166666666678 ], [ 85.485, 26.400833333333345 ], [ 85.475, 26.405833333333344 ], [ 85.4725, 26.409166666666678 ], [ 85.465, 26.413333333333345 ], [ 85.46, 26.42 ], [ 85.454166666666652, 26.421666666666678 ], [ 85.451666666666654, 26.425 ], [ 85.4475, 26.421666666666678 ], [ 85.445, 26.4225 ], [ 85.444166666666661, 26.420833333333341 ], [ 85.443333333333314, 26.4225 ], [ 85.440833333333316, 26.42 ], [ 85.441666666666649, 26.419166666666676 ], [ 85.436666666666653, 26.421666666666678 ], [ 85.434166666666655, 26.419166666666676 ], [ 85.431666666666644, 26.42 ], [ 85.4275, 26.425833333333344 ], [ 85.4225, 26.4275 ], [ 85.4225, 26.43 ], [ 85.419166666666655, 26.431666666666679 ], [ 85.42, 26.435 ], [ 85.415833333333325, 26.441666666666677 ], [ 85.40583333333332, 26.4425 ], [ 85.406666666666652, 26.448333333333345 ], [ 85.4025, 26.448333333333345 ], [ 85.398333333333312, 26.444166666666675 ], [ 85.395, 26.445 ] ] } },
{ "type": "Feature", "properties": { "COMID": 45044100, "id": "4851", "lengthkm": 30.601858495667425, "order": 4, "uparea": 5609.3779772874341 }, "geometry": { "type": "LineString", "coordinates": [ [ 85.615833333333313, 26.229166666666679 ], [ 85.6225, 26.228333333333346 ], [ 85.624166666666653, 26.226666666666677 ], [ 85.628333333333316, 26.231666666666676 ], [ 85.625833333333318, 26.235 ], [ 85.6275, 26.240833333333342 ], [ 85.625833333333318, 26.244166666666679 ], [ 85.6275, 26.245 ], [ 85.625833333333318, 26.246666666666677 ], [ 85.626666666666651, 26.250833333333343 ], [ 85.624166666666653, 26.255 ], [ 85.621666666666655, 26.2575 ], [ 85.619166666666644, 26.256666666666675 ], [ 85.616666666666646, 26.25916666666668 ], [ 85.6175, 26.26 ], [ 85.614166666666648, 26.2625 ], [ 85.613333333333316, 26.261666666666677 ], [ 85.61, 26.265833333333344 ], [ 85.6, 26.264166666666675 ], [ 85.599166666666648, 26.266666666666676 ], [ 85.595833333333317, 26.268333333333345 ], [ 85.589166666666657, 26.2675 ], [ 85.585833333333312, 26.269166666666678 ], [ 85.579166666666652, 26.265833333333344 ], [ 85.575833333333321, 26.27 ], [ 85.574166666666656, 26.269166666666678 ], [ 85.574166666666656, 26.274166666666677 ], [ 85.569166666666661, 26.2775 ], [ 85.57, 26.284166666666678 ], [ 85.566666666666649, 26.290833333333346 ], [ 85.568333333333314, 26.2925 ], [ 85.566666666666649, 26.295 ], [ 85.5675, 26.296666666666678 ], [ 85.563333333333318, 26.299166666666679 ], [ 85.558333333333323, 26.306666666666679 ], [ 85.559166666666655, 26.308333333333344 ], [ 85.555833333333311, 26.310833333333342 ], [ 85.555, 26.315 ], [ 85.551666666666648, 26.316666666666677 ], [ 85.55, 26.313333333333343 ], [ 85.54916666666665, 26.314166666666679 ], [ 85.55, 26.315 ], [ 85.54583333333332, 26.325 ], [ 85.548333333333318, 26.33 ], [ 85.5475, 26.331666666666678 ], [ 85.54, 26.336666666666677 ], [ 85.538333333333327, 26.336666666666677 ], [ 85.535833333333315, 26.333333333333343 ], [ 85.53083333333332, 26.335 ], [ 85.528333333333322, 26.338333333333345 ], [ 85.53, 26.341666666666676 ], [ 85.529166666666654, 26.343333333333344 ], [ 85.526666666666657, 26.341666666666676 ], [ 85.525, 26.348333333333343 ], [ 85.52, 26.3475 ], [ 85.5175, 26.344166666666677 ], [ 85.518333333333317, 26.343333333333344 ], [ 85.514166666666654, 26.343333333333344 ], [ 85.510833333333323, 26.340833333333343 ], [ 85.509166666666658, 26.340833333333343 ], [ 85.505, 26.346666666666678 ], [ 85.500833333333318, 26.345 ] ] } },
{ "type": "Feature", "properties": { "COMID": 45044092, "id": "4851", "lengthkm": 54.294143089195444, "order": 4, "uparea": 5815.1016807779733 }, "geometry": { "type": "LineString", "coordinates": [ [ 85.773333333333312, 26.045833333333345 ], [ 85.759166666666658, 26.036666666666676 ], [ 85.758333333333326, 26.035833333333343 ], [ 85.76, 26.034166666666678 ], [ 85.758333333333326, 26.0325 ], [ 85.753333333333316, 26.031666666666677 ], [ 85.750833333333318, 26.034166666666678 ], [ 85.750833333333318, 26.038333333333345 ], [ 85.746666666666655, 26.041666666666679 ], [ 85.743333333333311, 26.050833333333344 ], [ 85.741666666666646, 26.050833333333344 ], [ 85.73666666666665, 26.038333333333345 ], [ 85.734166666666653, 26.036666666666676 ], [ 85.729166666666657, 26.04 ], [ 85.728333333333325, 26.046666666666678 ], [ 85.7225, 26.045833333333345 ], [ 85.72, 26.048333333333346 ], [ 85.725, 26.054166666666678 ], [ 85.725, 26.055833333333347 ], [ 85.7225, 26.0575 ], [ 85.729166666666657, 26.064166666666679 ], [ 85.728333333333325, 26.0675 ], [ 85.7325, 26.0725 ], [ 85.73, 26.073333333333345 ], [ 85.725, 26.070833333333344 ], [ 85.7175, 26.065 ], [ 85.715833333333322, 26.066666666666677 ], [ 85.714166666666657, 26.075 ], [ 85.7225, 26.083333333333343 ], [ 85.716666666666654, 26.09 ], [ 85.715833333333322, 26.093333333333344 ], [ 85.7075, 26.094166666666677 ], [ 85.710833333333312, 26.100833333333345 ], [ 85.704166666666652, 26.105833333333344 ], [ 85.704166666666652, 26.1075 ], [ 85.7075, 26.11 ], [ 85.7175, 26.109166666666678 ], [ 85.719166666666652, 26.116666666666678 ], [ 85.7175, 26.118333333333347 ], [ 85.7125, 26.116666666666678 ], [ 85.709166666666647, 26.1225 ], [ 85.706666666666649, 26.121666666666677 ], [ 85.705, 26.123333333333342 ], [ 85.700833333333321, 26.123333333333342 ], [ 85.699166666666656, 26.125833333333343 ], [ 85.6925, 26.1225 ], [ 85.689166666666651, 26.1225 ], [ 85.685833333333321, 26.125833333333343 ], [ 85.6875, 26.129166666666677 ], [ 85.686666666666653, 26.131666666666675 ], [ 85.68, 26.135 ], [ 85.6775, 26.133333333333344 ], [ 85.6775, 26.128333333333345 ], [ 85.67416666666665, 26.128333333333345 ], [ 85.6725, 26.135 ], [ 85.675833333333316, 26.135833333333345 ], [ 85.676666666666648, 26.1375 ], [ 85.675, 26.139166666666675 ], [ 85.67083333333332, 26.139166666666675 ], [ 85.665, 26.14166666666668 ], [ 85.663333333333327, 26.143333333333345 ], [ 85.663333333333327, 26.15 ], [ 85.6575, 26.1525 ], [ 85.66, 26.155833333333344 ], [ 85.66, 26.16 ], [ 85.658333333333317, 26.160833333333343 ], [ 85.65916666666665, 26.164166666666677 ], [ 85.656666666666652, 26.165 ], [ 85.6575, 26.168333333333344 ], [ 85.651666666666657, 26.173333333333346 ], [ 85.651666666666657, 26.175 ], [ 85.653333333333322, 26.173333333333346 ], [ 85.65583333333332, 26.175833333333344 ], [ 85.655, 26.179166666666678 ], [ 85.6575, 26.181666666666679 ], [ 85.656666666666652, 26.183333333333344 ], [ 85.65083333333331, 26.186666666666678 ], [ 85.6475, 26.184166666666677 ], [ 85.639166666666654, 26.19 ], [ 85.634166666666658, 26.19 ], [ 85.6325, 26.188333333333343 ], [ 85.628333333333316, 26.190833333333345 ], [ 85.624166666666653, 26.1875 ], [ 85.620833333333323, 26.19 ], [ 85.621666666666655, 26.193333333333342 ], [ 85.6175, 26.195833333333344 ], [ 85.619166666666644, 26.198333333333345 ], [ 85.615, 26.200833333333343 ], [ 85.616666666666646, 26.2025 ], [ 85.615, 26.203333333333344 ], [ 85.615, 26.206666666666678 ], [ 85.618333333333311, 26.215 ], [ 85.618333333333311, 26.218333333333344 ], [ 85.616666666666646, 26.216666666666676 ], [ 85.615833333333313, 26.2175 ], [ 85.6175, 26.220833333333346 ], [ 85.613333333333316, 26.223333333333343 ], [ 85.616666666666646, 26.228333333333346 ], [ 85.615833333333313, 26.229166666666679 ] ] } },
{ "type": "Feature", "properties": { "COMID": 45044083, "id": "4851", "lengthkm": 1.2970398543291679, "order": 4, "uparea": 5855.0532286990901 }, "geometry": { "type": "LineString", "coordinates": [ [ 85.781666666666652, 26.039166666666677 ], [ 85.776666666666657, 26.045 ], [ 85.775, 26.044166666666676 ], [ 85.773333333333312, 26.045833333333345 ] ] } },
{ "type": "Feature", "properties": { "COMID": 45044081, "id": "4851", "lengthkm": 20.417541355170769, "order": 4, "uparea": 6373.4547909711991 }, "geometry": { "type": "LineString", "coordinates": [ [ 85.875, 26.045833333333345 ], [ 85.866666666666646, 26.035833333333343 ], [ 85.866666666666646, 26.033333333333346 ], [ 85.874166666666653, 26.031666666666677 ], [ 85.876666666666651, 26.028333333333343 ], [ 85.875, 26.025833333333345 ], [ 85.866666666666646, 26.025833333333345 ], [ 85.850833333333327, 26.019166666666678 ], [ 85.84666666666665, 26.019166666666678 ], [ 85.8475, 26.020833333333343 ], [ 85.844166666666652, 26.025 ], [ 85.839166666666657, 26.026666666666678 ], [ 85.8425, 26.03 ], [ 85.8475, 26.03 ], [ 85.848333333333315, 26.033333333333346 ], [ 85.8425, 26.033333333333346 ], [ 85.840833333333322, 26.031666666666677 ], [ 85.83833333333331, 26.0325 ], [ 85.835, 26.031666666666677 ], [ 85.834166666666647, 26.02 ], [ 85.83, 26.015 ], [ 85.826666666666654, 26.015 ], [ 85.819166666666661, 26.0225 ], [ 85.813333333333318, 26.035833333333343 ], [ 85.795, 26.035833333333343 ], [ 85.788333333333327, 26.04 ], [ 85.78416666666665, 26.038333333333345 ], [ 85.781666666666652, 26.039166666666677 ] ] } },
{ "type": "Feature", "properties": { "COMID": 45048180, "id": "4851", "lengthkm": 20.037045854223337, "order": 5, "uparea": 12514.114859677629 }, "geometry": { "type": "LineString", "coordinates": [ [ 85.9675, 25.971666666666678 ], [ 85.96333333333331, 25.97 ], [ 85.961666666666645, 25.970833333333346 ], [ 85.955, 25.976666666666677 ], [ 85.95, 25.984166666666678 ], [ 85.945833333333326, 25.984166666666678 ], [ 85.941666666666649, 25.989166666666677 ], [ 85.9375, 25.986666666666679 ], [ 85.931666666666644, 25.986666666666679 ], [ 85.925, 25.991666666666678 ], [ 85.9175, 25.986666666666679 ], [ 85.915833333333325, 25.9875 ], [ 85.915, 25.990833333333342 ], [ 85.92, 26.005 ], [ 85.92, 26.00916666666668 ], [ 85.910833333333315, 26.011666666666677 ], [ 85.910833333333315, 26.014166666666675 ], [ 85.913333333333327, 26.01666666666668 ], [ 85.919166666666655, 26.015 ], [ 85.919166666666655, 26.018333333333345 ], [ 85.915833333333325, 26.021666666666675 ], [ 85.908333333333317, 26.019166666666678 ], [ 85.9025, 26.019166666666678 ], [ 85.904166666666654, 26.0275 ], [ 85.904166666666654, 26.031666666666677 ], [ 85.9025, 26.033333333333346 ], [ 85.895, 26.035 ], [ 85.893333333333317, 26.039166666666677 ], [ 85.884166666666658, 26.0375 ], [ 85.880833333333314, 26.040833333333346 ], [ 85.8775, 26.041666666666679 ], [ 85.875, 26.045833333333345 ] ] } },
{ "type": "Feature", "properties": { "COMID": 45048169, "id": "4851", "lengthkm": 34.653082887743878, "order": 5, "uparea": 12654.275751635569 }, "geometry": { "type": "LineString", "coordinates": [ [ 86.084166666666647, 25.83 ], [ 86.081666666666649, 25.8325 ], [ 86.080833333333317, 25.838333333333345 ], [ 86.085, 25.8475 ], [ 86.0725, 25.855833333333344 ], [ 86.064166666666651, 25.8575 ], [ 86.060833333333321, 25.86 ], [ 86.061666666666653, 25.861666666666679 ], [ 86.069166666666646, 25.864166666666677 ], [ 86.073333333333323, 25.869166666666679 ], [ 86.071666666666658, 25.870833333333344 ], [ 86.068333333333314, 25.869166666666679 ], [ 86.065833333333316, 25.873333333333342 ], [ 86.066666666666649, 25.8775 ], [ 86.059166666666655, 25.8825 ], [ 86.059166666666655, 25.886666666666677 ], [ 86.063333333333318, 25.89166666666668 ], [ 86.0625, 25.899166666666677 ], [ 86.06, 25.900833333333345 ], [ 86.055833333333311, 25.8975 ], [ 86.0525, 25.8975 ], [ 86.04916666666665, 25.904166666666676 ], [ 86.046666666666653, 25.905833333333344 ], [ 86.041666666666657, 25.905833333333344 ], [ 86.036666666666648, 25.9 ], [ 86.0325, 25.9 ], [ 86.03, 25.9025 ], [ 86.0325, 25.908333333333346 ], [ 86.0175, 25.921666666666678 ], [ 86.001666666666651, 25.915 ], [ 86.0, 25.92 ], [ 86.0025, 25.925 ], [ 86.0125, 25.9275 ], [ 86.015, 25.931666666666679 ], [ 86.013333333333321, 25.935 ], [ 86.006666666666646, 25.935 ], [ 86.001666666666651, 25.938333333333347 ], [ 86.005833333333314, 25.944166666666678 ], [ 86.0075, 25.943333333333342 ], [ 86.0075, 25.960833333333344 ], [ 86.0, 25.968333333333344 ], [ 85.995833333333323, 25.9675 ], [ 85.990833333333313, 25.9625 ], [ 85.98666666666665, 25.9625 ], [ 85.98333333333332, 25.965 ], [ 85.979166666666657, 25.965 ], [ 85.97166666666665, 25.9725 ], [ 85.9675, 25.971666666666678 ] ] } },
{ "type": "Feature", "properties": { "COMID": 45048148, "id": "4851", "lengthkm": 1.9888547701352219, "order": 5, "uparea": 12721.86470560799 }, "geometry": { "type": "LineString", "coordinates": [ [ 86.09333333333332, 25.843333333333344 ], [ 86.09, 25.833333333333343 ], [ 86.084166666666647, 25.83 ] ] } },
{ "type": "Feature", "properties": { "COMID": 45048146, "id": "4851", "lengthkm": 49.847712830705007, "order": 5, "uparea": 12841.560425871508 }, "geometry": { "type": "LineString", "coordinates": [ [ 86.33833333333331, 25.729166666666679 ], [ 86.340833333333322, 25.7275 ], [ 86.33833333333331, 25.723333333333343 ], [ 86.329166666666652, 25.7225 ], [ 86.3225, 25.726666666666677 ], [ 86.320833333333326, 25.725 ], [ 86.3225, 25.720833333333346 ], [ 86.320833333333326, 25.719166666666677 ], [ 86.311666666666653, 25.7125 ], [ 86.306666666666644, 25.710833333333344 ], [ 86.305, 25.7125 ], [ 86.306666666666644, 25.718333333333344 ], [ 86.303333333333313, 25.718333333333344 ], [ 86.3, 25.715 ], [ 86.29583333333332, 25.715 ], [ 86.2925, 25.724166666666676 ], [ 86.29, 25.723333333333343 ], [ 86.289166666666659, 25.718333333333344 ], [ 86.27583333333331, 25.718333333333344 ], [ 86.274166666666645, 25.72 ], [ 86.27583333333331, 25.724166666666676 ], [ 86.281666666666652, 25.7225 ], [ 86.285833333333315, 25.7275 ], [ 86.2825, 25.731666666666676 ], [ 86.27, 25.7325 ], [ 86.268333333333317, 25.734166666666678 ], [ 86.2675, 25.741666666666678 ], [ 86.260833333333323, 25.751666666666679 ], [ 86.261666666666656, 25.7625 ], [ 86.2575, 25.769166666666678 ], [ 86.25, 25.765 ], [ 86.240833333333313, 25.765833333333344 ], [ 86.230833333333322, 25.761666666666677 ], [ 86.230833333333322, 25.769166666666678 ], [ 86.229166666666657, 25.77 ], [ 86.226666666666659, 25.76666666666668 ], [ 86.226666666666659, 25.760833333333345 ], [ 86.225, 25.75916666666668 ], [ 86.219166666666652, 25.765833333333344 ], [ 86.22166666666665, 25.769166666666678 ], [ 86.22166666666665, 25.773333333333344 ], [ 86.2175, 25.778333333333343 ], [ 86.203333333333319, 25.779166666666676 ], [ 86.198333333333323, 25.7825 ], [ 86.193333333333314, 25.7825 ], [ 86.188333333333318, 25.786666666666676 ], [ 86.1825, 25.786666666666676 ], [ 86.18, 25.79 ], [ 86.175833333333316, 25.790833333333346 ], [ 86.17083333333332, 25.796666666666678 ], [ 86.1675, 25.795 ], [ 86.168333333333322, 25.790833333333346 ], [ 86.163333333333327, 25.794166666666676 ], [ 86.154166666666654, 25.794166666666676 ], [ 86.146666666666647, 25.8 ], [ 86.140833333333319, 25.8 ], [ 86.1375, 25.803333333333342 ], [ 86.138333333333321, 25.813333333333347 ], [ 86.1325, 25.82166666666668 ], [ 86.126666666666651, 25.826666666666675 ], [ 86.125833333333318, 25.830833333333345 ], [ 86.115833333333313, 25.82916666666668 ], [ 86.10833333333332, 25.825 ], [ 86.1075, 25.8275 ], [ 86.1125, 25.830833333333345 ], [ 86.113333333333316, 25.835 ], [ 86.10833333333332, 25.8375 ], [ 86.101666666666659, 25.833333333333343 ], [ 86.099166666666648, 25.833333333333343 ], [ 86.098333333333315, 25.835 ], [ 86.101666666666659, 25.840833333333343 ], [ 86.0975, 25.844166666666677 ], [ 86.09333333333332, 25.843333333333344 ] ] } },
{ "type": "Feature", "properties": { "COMID": 45048119, "id": "4851", "lengthkm": 3.1009697238887322, "order": 5, "uparea": 15379.637085333645 }, "geometry": { "type": "LineString", "coordinates": [ [ 86.3625, 25.7325 ], [ 86.359166666666653, 25.733333333333345 ], [ 86.3525, 25.730833333333344 ], [ 86.3475, 25.733333333333345 ], [ 86.3425, 25.730833333333344 ], [ 86.339166666666657, 25.731666666666676 ], [ 86.33833333333331, 25.729166666666679 ] ] } },
{ "type": "Feature", "properties": { "COMID": 45048117, "id": "4851", "lengthkm": 5.9127078358591589, "order": 6, "uparea": 20507.132513120712 }, "geometry": { "type": "LineString", "coordinates": [ [ 86.3925, 25.699166666666677 ], [ 86.388333333333321, 25.701666666666675 ], [ 86.3875, 25.70416666666668 ], [ 86.381666666666646, 25.7025 ], [ 86.369166666666644, 25.710833333333344 ], [ 86.366666666666646, 25.716666666666676 ], [ 86.3675, 25.7275 ], [ 86.3625, 25.7325 ] ] } },
{ "type": "Feature", "properties": { "COMID": 45048114, "id": "4851", "lengthkm": 12.100494944156823, "order": 6, "uparea": 20850.339030362389 }, "geometry": { "type": "LineString", "coordinates": [ [ 86.434166666666655, 25.625833333333347 ], [ 86.423333333333318, 25.6325 ], [ 86.42416666666665, 25.635 ], [ 86.421666666666653, 25.638333333333343 ], [ 86.42, 25.638333333333343 ], [ 86.4225, 25.644166666666678 ], [ 86.413333333333313, 25.654166666666676 ], [ 86.413333333333313, 25.656666666666677 ], [ 86.406666666666652, 25.668333333333344 ], [ 86.404166666666654, 25.68 ], [ 86.408333333333317, 25.6875 ], [ 86.408333333333317, 25.690833333333345 ], [ 86.406666666666652, 25.6925 ], [ 86.408333333333317, 25.695833333333344 ], [ 86.4075, 25.7 ], [ 86.40583333333332, 25.701666666666675 ], [ 86.4025, 25.701666666666675 ], [ 86.3925, 25.699166666666677 ] ] } },
{ "type": "Feature", "properties": { "COMID": 45048113, "id": "4851", "lengthkm": 1.522014893872097, "order": 6, "uparea": 20927.06986959431 }, "geometry": { "type": "LineString", "coordinates": [ [ 86.44, 25.614166666666677 ], [ 86.439166666666651, 25.619166666666679 ], [ 86.434166666666655, 25.625833333333347 ] ] } },
{ "type": "Feature", "properties": { "COMID": 45048112, "id": "4851", "lengthkm": 3.411129357178766, "order": 6, "uparea": 20976.725309858808 }, "geometry": { "type": "LineString", "coordinates": [ [ 86.434166666666655, 25.58666666666668 ], [ 86.433333333333323, 25.590833333333343 ], [ 86.4375, 25.599166666666676 ], [ 86.436666666666653, 25.6075 ], [ 86.44, 25.614166666666677 ] ] } },
{ "type": "Feature", "properties": { "COMID": 45048111, "id": "4851", "lengthkm": 2.828051171490833, "order": 6, "uparea": 21589.869231795765 }, "geometry": { "type": "LineString", "coordinates": [ [ 86.4425, 25.57166666666668 ], [ 86.440833333333316, 25.569166666666678 ], [ 86.4375, 25.57 ], [ 86.435833333333321, 25.575833333333343 ], [ 86.4375, 25.5825 ], [ 86.434166666666655, 25.58666666666668 ] ] } },
{ "type": "Feature", "properties": { "COMID": 45048110, "id": "4851", "lengthkm": 26.197444853491863, "order": 6, "uparea": 21704.706031927399 }, "geometry": { "type": "LineString", "coordinates": [ [ 86.5875, 25.57166666666668 ], [ 86.58, 25.565 ], [ 86.565, 25.565 ], [ 86.561666666666653, 25.559166666666677 ], [ 86.561666666666653, 25.554166666666678 ], [ 86.558333333333323, 25.551666666666677 ], [ 86.5525, 25.553333333333345 ], [ 86.550833333333316, 25.560833333333342 ], [ 86.548333333333318, 25.564166666666679 ], [ 86.544166666666655, 25.564166666666679 ], [ 86.531666666666652, 25.55 ], [ 86.528333333333322, 25.550833333333344 ], [ 86.5175, 25.560833333333342 ], [ 86.516666666666652, 25.565 ], [ 86.520833333333314, 25.570833333333347 ], [ 86.520833333333314, 25.575 ], [ 86.5175, 25.578333333333344 ], [ 86.51, 25.570833333333347 ], [ 86.510833333333323, 25.560833333333342 ], [ 86.509166666666658, 25.56 ], [ 86.505, 25.56 ], [ 86.501666666666651, 25.5625 ], [ 86.504166666666649, 25.5675 ], [ 86.501666666666651, 25.570833333333347 ], [ 86.498333333333321, 25.569166666666678 ], [ 86.49, 25.569166666666678 ], [ 86.485833333333318, 25.570833333333347 ], [ 86.48, 25.57 ], [ 86.473333333333315, 25.5725 ], [ 86.473333333333315, 25.580833333333345 ], [ 86.46, 25.58 ], [ 86.454166666666652, 25.583333333333343 ], [ 86.45, 25.583333333333343 ], [ 86.444166666666646, 25.5775 ], [ 86.4425, 25.57166666666668 ] ] } },
{ "type": "Feature", "properties": { "COMID": 45048106, "id": "4851", "lengthkm": 5.3159603565690352, "order": 6, "uparea": 21797.179493865726 }, "geometry": { "type": "LineString", "coordinates": [ [ 86.614166666666648, 25.543333333333344 ], [ 86.610833333333318, 25.544166666666676 ], [ 86.609166666666653, 25.546666666666678 ], [ 86.610833333333318, 25.5575 ], [ 86.60833333333332, 25.563333333333347 ], [ 86.5975, 25.570833333333347 ], [ 86.5925, 25.5725 ], [ 86.5875, 25.57166666666668 ] ] } },
{ "type": "Feature", "properties": { "COMID": 45048104, "id": "4851", "lengthkm": 12.939451311853864, "order": 6, "uparea": 21884.758502521574 }, "geometry": { "type": "LineString", "coordinates": [ [ 86.715833333333322, 25.545 ], [ 86.7125, 25.540833333333346 ], [ 86.705833333333317, 25.54 ], [ 86.701666666666654, 25.5375 ], [ 86.695, 25.5425 ], [ 86.691666666666649, 25.5425 ], [ 86.685, 25.5375 ], [ 86.679166666666646, 25.539166666666677 ], [ 86.6625, 25.5525 ], [ 86.65583333333332, 25.553333333333345 ], [ 86.651666666666642, 25.551666666666677 ], [ 86.6475, 25.5475 ], [ 86.644166666666649, 25.5475 ], [ 86.640833333333319, 25.550833333333344 ], [ 86.6375, 25.551666666666677 ], [ 86.625833333333318, 25.5425 ], [ 86.614166666666648, 25.543333333333344 ] ] } },
{ "type": "Feature", "properties": { "COMID": 45047848, "id": "4851", "lengthkm": 6.4930525656243923, "order": 7, "uparea": 83739.094780408312 }, "geometry": { "type": "LineString", "coordinates": [ [ 86.739166666666648, 25.500833333333347 ], [ 86.735833333333318, 25.5125 ], [ 86.734166666666653, 25.536666666666676 ], [ 86.7225, 25.544166666666676 ], [ 86.715833333333322, 25.545 ] ] } },
{ "type": "Feature", "properties": { "COMID": 45047847, "id": "4851", "lengthkm": 16.107578387545633, "order": 7, "uparea": 83812.323206839763 }, "geometry": { "type": "LineString", "coordinates": [ [ 86.806666666666644, 25.463333333333345 ], [ 86.79, 25.468333333333344 ], [ 86.7875, 25.470833333333346 ], [ 86.789166666666659, 25.474166666666676 ], [ 86.785, 25.4775 ], [ 86.796666666666653, 25.49 ], [ 86.798333333333318, 25.500833333333347 ], [ 86.7875, 25.5225 ], [ 86.783333333333317, 25.525 ], [ 86.78, 25.526666666666678 ], [ 86.774166666666645, 25.526666666666678 ], [ 86.770833333333314, 25.525 ], [ 86.76, 25.515833333333344 ], [ 86.755833333333314, 25.508333333333347 ], [ 86.7475, 25.499166666666678 ], [ 86.739166666666648, 25.500833333333347 ] ] } },
{ "type": "Feature", "properties": { "COMID": 45047846, "id": "4851", "lengthkm": 7.5643478294324122, "order": 7, "uparea": 84091.476251968503 }, "geometry": { "type": "LineString", "coordinates": [ [ 86.8575, 25.46 ], [ 86.855833333333322, 25.45416666666668 ], [ 86.845833333333317, 25.444166666666678 ], [ 86.8425, 25.4425 ], [ 86.836666666666645, 25.4425 ], [ 86.8275, 25.448333333333345 ], [ 86.82, 25.46 ], [ 86.806666666666644, 25.463333333333345 ] ] } },
{ "type": "Feature", "properties": { "COMID": 45047845, "id": "4851", "lengthkm": 7.5379271880780268, "order": 7, "uparea": 84397.857088387595 }, "geometry": { "type": "LineString", "coordinates": [ [ 86.918333333333322, 25.4825 ], [ 86.916666666666657, 25.480833333333344 ], [ 86.910833333333315, 25.480833333333344 ], [ 86.9, 25.4775 ], [ 86.888333333333321, 25.468333333333344 ], [ 86.875, 25.47 ], [ 86.863333333333316, 25.465 ], [ 86.86, 25.465 ], [ 86.8575, 25.46 ] ] } },
{ "type": "Feature", "properties": { "COMID": 45047844, "id": "4851", "lengthkm": 2.0873195606481429, "order": 7, "uparea": 84732.175110721189 }, "geometry": { "type": "LineString", "coordinates": [ [ 86.936666666666653, 25.4875 ], [ 86.928333333333313, 25.4875 ], [ 86.92083333333332, 25.4825 ], [ 86.918333333333322, 25.4825 ] ] } },
{ "type": "Feature", "properties": { "COMID": 45047843, "id": "4851", "lengthkm": 12.104557084314244, "order": 7, "uparea": 85029.993724829299 }, "geometry": { "type": "LineString", "coordinates": [ [ 87.014166666666654, 25.4225 ], [ 87.005, 25.4325 ], [ 87.005, 25.436666666666678 ], [ 87.000833333333318, 25.445833333333347 ], [ 86.988333333333316, 25.4625 ], [ 86.979166666666657, 25.468333333333344 ], [ 86.9625, 25.468333333333344 ], [ 86.959166666666647, 25.471666666666678 ], [ 86.955, 25.4725 ], [ 86.950833333333321, 25.479166666666679 ], [ 86.945833333333326, 25.480833333333344 ], [ 86.936666666666653, 25.4875 ] ] } },
{ "type": "Feature", "properties": { "COMID": 45047842, "id": "4851", "lengthkm": 4.0515971446332983, "order": 7, "uparea": 85119.73643330537 }, "geometry": { "type": "LineString", "coordinates": [ [ 87.05, 25.421666666666678 ], [ 87.038333333333313, 25.421666666666678 ], [ 87.03416666666665, 25.419166666666676 ], [ 87.02583333333331, 25.418333333333344 ], [ 87.014166666666654, 25.4225 ] ] } },
{ "type": "Feature", "properties": { "COMID": 45047841, "id": "4851", "lengthkm": 2.54789182934935, "order": 7, "uparea": 85304.87757278682 }, "geometry": { "type": "LineString", "coordinates": [ [ 87.0725, 25.4175 ], [ 87.060833333333321, 25.4175 ], [ 87.05, 25.421666666666678 ] ] } },
{ "type": "Feature", "properties": { "COMID": 45047840, "id": "4851", "lengthkm": 4.1758681959871886, "order": 7, "uparea": 85361.811815779103 }, "geometry": { "type": "LineString", "coordinates": [ [ 87.1025, 25.44 ], [ 87.094166666666652, 25.430833333333347 ], [ 87.0775, 25.419166666666676 ], [ 87.0725, 25.4175 ] ] } },
{ "type": "Feature", "properties": { "COMID": 45047839, "id": "4851", "lengthkm": 0.626914066484906, "order": 7, "uparea": 85392.0790603801 }, "geometry": { "type": "LineString", "coordinates": [ [ 87.10833333333332, 25.440833333333345 ], [ 87.1025, 25.44 ] ] } },
{ "type": "Feature", "properties": { "COMID": 45047838, "id": "4851", "lengthkm": 7.4699061414875434, "order": 7, "uparea": 85433.571582678123 }, "geometry": { "type": "LineString", "coordinates": [ [ 87.17083333333332, 25.425 ], [ 87.155, 25.436666666666678 ], [ 87.141666666666652, 25.441666666666677 ], [ 87.1225, 25.445 ], [ 87.110833333333318, 25.443333333333342 ], [ 87.10833333333332, 25.440833333333345 ] ] } },
{ "type": "Feature", "properties": { "COMID": 45047837, "id": "4851", "lengthkm": 4.0927645063178977, "order": 7, "uparea": 85489.851179239573 }, "geometry": { "type": "LineString", "coordinates": [ [ 87.206666666666649, 25.421666666666678 ], [ 87.1975, 25.418333333333344 ], [ 87.1875, 25.418333333333344 ], [ 87.1825, 25.42 ], [ 87.1775, 25.424166666666679 ], [ 87.17083333333332, 25.425 ] ] } },
{ "type": "Feature", "properties": { "COMID": 45047836, "id": "4851", "lengthkm": 3.515100071031132, "order": 7, "uparea": 85529.849490705543 }, "geometry": { "type": "LineString", "coordinates": [ [ 87.220833333333317, 25.443333333333342 ], [ 87.21333333333331, 25.441666666666677 ], [ 87.209166666666647, 25.4375 ], [ 87.205833333333317, 25.425833333333344 ], [ 87.206666666666649, 25.421666666666678 ] ] } },
{ "type": "Feature", "properties": { "COMID": 45051957, "id": "4851", "lengthkm": 7.2925747309238842, "order": 7, "uparea": 87578.626965761709 }, "geometry": { "type": "LineString", "coordinates": [ [ 87.263333333333321, 25.405833333333344 ], [ 87.250833333333318, 25.4075 ], [ 87.23333333333332, 25.4175 ], [ 87.225, 25.428333333333345 ], [ 87.225, 25.4325 ], [ 87.2275, 25.438333333333347 ], [ 87.225, 25.441666666666677 ], [ 87.220833333333317, 25.443333333333342 ] ] } },
{ "type": "Feature", "properties": { "COMID": 45047753, "id": "4851", "lengthkm": 10.63545491288312, "order": 8, "uparea": 908465.45903252438 }, "geometry": { "type": "LineString", "coordinates": [ [ 87.329166666666652, 25.471666666666678 ], [ 87.308333333333309, 25.46166666666668 ], [ 87.281666666666652, 25.43 ], [ 87.27583333333331, 25.419166666666676 ], [ 87.263333333333321, 25.405833333333344 ] ] } },
{ "type": "Feature", "properties": { "COMID": 45047752, "id": "4851", "lengthkm": 11.928686171297414, "order": 8, "uparea": 909001.60085836588 }, "geometry": { "type": "LineString", "coordinates": [ [ 87.425833333333316, 25.43 ], [ 87.41, 25.4425 ], [ 87.399166666666645, 25.448333333333345 ], [ 87.3875, 25.46 ], [ 87.38, 25.465 ], [ 87.374166666666653, 25.465 ], [ 87.359166666666653, 25.46916666666668 ], [ 87.3575, 25.470833333333346 ], [ 87.341666666666654, 25.470833333333346 ], [ 87.3375, 25.473333333333343 ], [ 87.329166666666652, 25.471666666666678 ] ] } },
{ "type": "Feature", "properties": { "COMID": 45047751, "id": "4851", "lengthkm": 0.249715855933, "order": 8, "uparea": 909088.14573655487 }, "geometry": { "type": "LineString", "coordinates": [ [ 87.4275, 25.428333333333345 ], [ 87.425833333333316, 25.43 ] ] } },
{ "type": "Feature", "properties": { "COMID": 45051888, "id": "4851", "lengthkm": 2.542436208690138, "order": 8, "uparea": 909148.18835281557 }, "geometry": { "type": "LineString", "coordinates": [ [ 87.446666666666658, 25.415833333333346 ], [ 87.4275, 25.428333333333345 ] ] } },
{ "type": "Feature", "properties": { "COMID": 45051887, "id": "4851", "lengthkm": 16.223620669381372, "order": 8, "uparea": 909268.28953174292 }, "geometry": { "type": "LineString", "coordinates": [ [ 87.58, 25.37 ], [ 87.565833333333316, 25.375833333333347 ], [ 87.56, 25.381666666666678 ], [ 87.551666666666648, 25.386666666666677 ], [ 87.546666666666653, 25.388333333333343 ], [ 87.545, 25.386666666666677 ], [ 87.535833333333315, 25.386666666666677 ], [ 87.5225, 25.39 ], [ 87.518333333333317, 25.393333333333345 ], [ 87.51, 25.39166666666668 ], [ 87.501666666666651, 25.395 ], [ 87.496666666666655, 25.4025 ], [ 87.493333333333311, 25.404166666666676 ], [ 87.4675, 25.409166666666678 ], [ 87.446666666666658, 25.415833333333346 ] ] } },
{ "type": "Feature", "properties": { "COMID": 45051886, "id": "4851", "lengthkm": 11.340273762566071, "order": 8, "uparea": 911533.71387224959 }, "geometry": { "type": "LineString", "coordinates": [ [ 87.633333333333326, 25.3 ], [ 87.623333333333321, 25.32166666666668 ], [ 87.615833333333313, 25.33 ], [ 87.61166666666665, 25.330833333333345 ], [ 87.6025, 25.326666666666679 ], [ 87.6, 25.32916666666668 ], [ 87.59, 25.3475 ], [ 87.59, 25.3525 ], [ 87.586666666666645, 25.359166666666678 ], [ 87.580833333333317, 25.365 ], [ 87.58, 25.37 ] ] } },
{ "type": "Feature", "properties": { "COMID": 45051885, "id": "4851", "lengthkm": 13.863521198171522, "order": 8, "uparea": 911647.70952676877 }, "geometry": { "type": "LineString", "coordinates": [ [ 87.7475, 25.283333333333346 ], [ 87.735833333333318, 25.294166666666676 ], [ 87.728333333333325, 25.2975 ], [ 87.720833333333317, 25.295833333333345 ], [ 87.703333333333319, 25.296666666666678 ], [ 87.6925, 25.301666666666677 ], [ 87.683333333333309, 25.308333333333344 ], [ 87.678333333333313, 25.305833333333347 ], [ 87.67, 25.305 ], [ 87.651666666666642, 25.299166666666679 ], [ 87.646666666666647, 25.294166666666676 ], [ 87.633333333333326, 25.3 ] ] } },
{ "type": "Feature", "properties": { "COMID": 45051884, "id": "4851", "lengthkm": 19.453443007339239, "order": 8, "uparea": 912311.87636824907 }, "geometry": { "type": "LineString", "coordinates": [ [ 87.79583333333332, 25.138333333333343 ], [ 87.8, 25.146666666666679 ], [ 87.79916666666665, 25.160833333333343 ], [ 87.8025, 25.165833333333346 ], [ 87.8, 25.185833333333346 ], [ 87.7975, 25.19 ], [ 87.7975, 25.19666666666668 ], [ 87.8, 25.203333333333347 ], [ 87.8, 25.216666666666676 ], [ 87.798333333333318, 25.223333333333343 ], [ 87.789166666666645, 25.234166666666678 ], [ 87.7875, 25.244166666666679 ], [ 87.7725, 25.268333333333345 ], [ 87.765833333333319, 25.275 ], [ 87.75, 25.283333333333346 ], [ 87.7475, 25.283333333333346 ] ] } },
{ "type": "Feature", "properties": { "COMID": 45051883, "id": "4851", "lengthkm": 8.4233897037171097, "order": 8, "uparea": 912398.53779064561 }, "geometry": { "type": "LineString", "coordinates": [ [ 87.8425, 25.09 ], [ 87.831666666666649, 25.096666666666678 ], [ 87.824166666666656, 25.0975 ], [ 87.809166666666655, 25.104166666666679 ], [ 87.800833333333316, 25.111666666666679 ], [ 87.79583333333332, 25.138333333333343 ] ] } },
{ "type": "Feature", "properties": { "COMID": 45051882, "id": "4851", "lengthkm": 4.624669222525001, "order": 8, "uparea": 925782.72516854433 }, "geometry": { "type": "LineString", "coordinates": [ [ 87.859166666666653, 25.056666666666679 ], [ 87.859166666666653, 25.065 ], [ 87.855833333333322, 25.07166666666668 ], [ 87.850833333333313, 25.076666666666679 ], [ 87.84333333333332, 25.080833333333345 ], [ 87.8425, 25.09 ] ] } },
{ "type": "Feature", "properties": { "COMID": 45051881, "id": "4851", "lengthkm": 16.310926103587931, "order": 8, "uparea": 926013.7177719574 }, "geometry": { "type": "LineString", "coordinates": [ [ 87.9775, 24.986666666666679 ], [ 87.975, 24.9925 ], [ 87.975, 24.998333333333346 ], [ 87.9725, 25.0025 ], [ 87.955833333333317, 25.02 ], [ 87.945833333333326, 25.02416666666668 ], [ 87.9375, 25.0225 ], [ 87.915, 25.039166666666681 ], [ 87.884166666666658, 25.048333333333346 ], [ 87.88, 25.048333333333346 ], [ 87.859166666666653, 25.056666666666679 ] ] } },
{ "type": "Feature", "properties": { "COMID": 45051880, "id": "4851", "lengthkm": 5.8290387575091316, "order": 8, "uparea": 926120.48174118099 }, "geometry": { "type": "LineString", "coordinates": [ [ 87.954166666666652, 24.945 ], [ 87.958333333333314, 24.964166666666678 ], [ 87.965, 24.9725 ], [ 87.9675, 24.9725 ], [ 87.973333333333315, 24.978333333333346 ], [ 87.9775, 24.986666666666679 ] ] } },
{ "type": "Feature", "properties": { "COMID": 45051879, "id": "4851", "lengthkm": 1.9875447233118191, "order": 8, "uparea": 926150.97283760435 }, "geometry": { "type": "LineString", "coordinates": [ [ 87.948333333333323, 24.929166666666678 ], [ 87.954166666666652, 24.945 ] ] } },
{ "type": "Feature", "properties": { "COMID": 45055811, "id": "4851", "lengthkm": 11.842913045794596, "order": 8, "uparea": 926235.6052297313 }, "geometry": { "type": "LineString", "coordinates": [ [ 87.933333333333309, 24.830833333333345 ], [ 87.9375, 24.838333333333345 ], [ 87.95, 24.8725 ], [ 87.950833333333321, 24.8875 ], [ 87.948333333333323, 24.905 ], [ 87.95, 24.919166666666676 ], [ 87.948333333333323, 24.929166666666678 ] ] } },
{ "type": "Feature", "properties": { "COMID": 45055810, "id": "4851", "lengthkm": 4.1564438395794436, "order": 8, "uparea": 928053.97487974737 }, "geometry": { "type": "LineString", "coordinates": [ [ 87.935833333333321, 24.796666666666678 ], [ 87.93, 24.811666666666678 ], [ 87.933333333333309, 24.830833333333345 ] ] } },
{ "type": "Feature", "properties": { "COMID": 45055809, "id": "4851", "lengthkm": 18.91204942228471, "order": 8, "uparea": 928162.58505011222 }, "geometry": { "type": "LineString", "coordinates": [ [ 87.9975, 24.655 ], [ 87.985, 24.661666666666676 ], [ 87.951666666666654, 24.69666666666668 ], [ 87.948333333333323, 24.7025 ], [ 87.945, 24.7175 ], [ 87.940833333333316, 24.725 ], [ 87.941666666666649, 24.731666666666676 ], [ 87.935833333333321, 24.744166666666679 ], [ 87.935833333333321, 24.753333333333345 ], [ 87.9375, 24.75916666666668 ], [ 87.936666666666653, 24.77 ], [ 87.938333333333318, 24.773333333333348 ], [ 87.938333333333318, 24.785 ], [ 87.935833333333321, 24.79 ], [ 87.935833333333321, 24.796666666666678 ] ] } },
{ "type": "Feature", "properties": { "COMID": 45055808, "id": "4851", "lengthkm": 13.442091377572416, "order": 8, "uparea": 928295.92314064282 }, "geometry": { "type": "LineString", "coordinates": [ [ 88.114166666666648, 24.630833333333346 ], [ 88.106666666666655, 24.630833333333346 ], [ 88.0975, 24.635 ], [ 88.086666666666645, 24.631666666666678 ], [ 88.065833333333316, 24.6325 ], [ 88.0625, 24.636666666666677 ], [ 88.051666666666648, 24.6375 ], [ 88.0425, 24.64166666666668 ], [ 88.03083333333332, 24.64166666666668 ], [ 88.018333333333317, 24.64916666666668 ], [ 88.001666666666651, 24.651666666666678 ], [ 87.9975, 24.655 ] ] } },
{ "type": "Feature", "properties": { "COMID": 45055807, "id": "4851", "lengthkm": 2.017086504194705, "order": 8, "uparea": 928364.89436697715 }, "geometry": { "type": "LineString", "coordinates": [ [ 88.1325, 24.6275 ], [ 88.114166666666648, 24.630833333333346 ] ] } },
{ "type": "Feature", "properties": { "COMID": 45055806, "id": "4851", "lengthkm": 0.58739129867411499, "order": 8, "uparea": 928465.09523491957 }, "geometry": { "type": "LineString", "coordinates": [ [ 88.1375, 24.625833333333347 ], [ 88.1325, 24.6275 ] ] } },
{ "type": "Feature", "properties": { "COMID": 45055805, "id": "4851", "lengthkm": 8.8614851493486899, "order": 8, "uparea": 928806.70236828271 }, "geometry": { "type": "LineString", "coordinates": [ [ 88.17083333333332, 24.563333333333347 ], [ 88.17, 24.58 ], [ 88.168333333333322, 24.581666666666678 ], [ 88.17083333333332, 24.58666666666668 ], [ 88.166666666666657, 24.5975 ], [ 88.16, 24.605 ], [ 88.148333333333312, 24.610833333333346 ], [ 88.141666666666652, 24.6225 ], [ 88.1375, 24.625833333333347 ] ] } },
{ "type": "Feature", "properties": { "COMID": 45055804, "id": "4851", "lengthkm": 14.818630745559563, "order": 8, "uparea": 928925.58192239841 }, "geometry": { "type": "LineString", "coordinates": [ [ 88.166666666666657, 24.4575 ], [ 88.163333333333313, 24.4725 ], [ 88.156666666666652, 24.485 ], [ 88.155, 24.486666666666679 ], [ 88.145833333333314, 24.486666666666679 ], [ 88.144166666666649, 24.488333333333344 ], [ 88.144166666666649, 24.504166666666677 ], [ 88.1425, 24.511666666666677 ], [ 88.148333333333312, 24.5225 ], [ 88.1525, 24.540833333333346 ], [ 88.158333333333317, 24.5425 ], [ 88.166666666666657, 24.551666666666677 ], [ 88.17, 24.553333333333345 ], [ 88.169166666666655, 24.558333333333344 ], [ 88.17083333333332, 24.563333333333347 ] ] } },
{ "type": "Feature", "properties": { "COMID": 45055803, "id": "4851", "lengthkm": 16.926292420309789, "order": 8, "uparea": 929096.59630489291 }, "geometry": { "type": "LineString", "coordinates": [ [ 88.310833333333321, 24.466666666666679 ], [ 88.29, 24.47 ], [ 88.285833333333315, 24.46916666666668 ], [ 88.27583333333331, 24.474166666666676 ], [ 88.2675, 24.4725 ], [ 88.258333333333312, 24.468333333333344 ], [ 88.250833333333318, 24.4675 ], [ 88.23666666666665, 24.46 ], [ 88.214166666666642, 24.4525 ], [ 88.206666666666649, 24.451666666666679 ], [ 88.199166666666656, 24.4475 ], [ 88.194166666666646, 24.44666666666668 ], [ 88.181666666666644, 24.4475 ], [ 88.175833333333316, 24.45 ], [ 88.166666666666657, 24.4575 ] ] } },
{ "type": "Feature", "properties": { "COMID": 45055802, "id": "4851", "lengthkm": 10.477427731132073, "order": 8, "uparea": 939805.3367173369 }, "geometry": { "type": "LineString", "coordinates": [ [ 88.376666666666651, 24.3975 ], [ 88.350833333333313, 24.420833333333345 ], [ 88.310833333333321, 24.466666666666679 ] ] } },
{ "type": "Feature", "properties": { "COMID": 45055801, "id": "4851", "lengthkm": 16.764260880470527, "order": 8, "uparea": 939927.1019903702 }, "geometry": { "type": "LineString", "coordinates": [ [ 88.499166666666653, 24.355833333333344 ], [ 88.4925, 24.354166666666679 ], [ 88.485833333333318, 24.359166666666681 ], [ 88.476666666666645, 24.361666666666679 ], [ 88.47166666666665, 24.365833333333345 ], [ 88.465, 24.368333333333347 ], [ 88.460833333333312, 24.375 ], [ 88.451666666666654, 24.380833333333346 ], [ 88.448333333333323, 24.376666666666679 ], [ 88.44, 24.375 ], [ 88.42416666666665, 24.376666666666679 ], [ 88.415833333333325, 24.375 ], [ 88.40916666666665, 24.368333333333347 ], [ 88.40083333333331, 24.37 ], [ 88.383333333333312, 24.385833333333345 ], [ 88.376666666666651, 24.3975 ] ] } },
{ "type": "Feature", "properties": { "COMID": 45055800, "id": "4851", "lengthkm": 4.7403365705019116, "order": 8, "uparea": 939965.39136937284 }, "geometry": { "type": "LineString", "coordinates": [ [ 88.536666666666648, 24.33666666666668 ], [ 88.52583333333331, 24.346666666666678 ], [ 88.514166666666654, 24.35 ], [ 88.510833333333323, 24.353333333333346 ], [ 88.501666666666651, 24.354166666666679 ], [ 88.499166666666653, 24.355833333333344 ] ] } },
{ "type": "Feature", "properties": { "COMID": 45055799, "id": "4851", "lengthkm": 13.622724206393936, "order": 8, "uparea": 940189.5927166536 }, "geometry": { "type": "LineString", "coordinates": [ [ 88.65083333333331, 24.3425 ], [ 88.6425, 24.348333333333343 ], [ 88.628333333333316, 24.348333333333343 ], [ 88.62, 24.353333333333346 ], [ 88.613333333333316, 24.353333333333346 ], [ 88.599166666666648, 24.3575 ], [ 88.581666666666649, 24.358333333333345 ], [ 88.569166666666646, 24.355 ], [ 88.563333333333318, 24.355 ], [ 88.558333333333309, 24.34916666666668 ], [ 88.536666666666648, 24.33666666666668 ] ] } },
{ "type": "Feature", "properties": { "COMID": 45055798, "id": "4851", "lengthkm": 12.084574955454938, "order": 8, "uparea": 940269.46241819265 }, "geometry": { "type": "LineString", "coordinates": [ [ 88.73, 24.280833333333348 ], [ 88.71833333333332, 24.303333333333345 ], [ 88.71333333333331, 24.308333333333344 ], [ 88.710833333333312, 24.314166666666679 ], [ 88.700833333333321, 24.326666666666679 ], [ 88.691666666666649, 24.3325 ], [ 88.6875, 24.3325 ], [ 88.684166666666641, 24.335833333333348 ], [ 88.67416666666665, 24.34 ], [ 88.65083333333331, 24.3425 ] ] } },
{ "type": "Feature", "properties": { "COMID": 45059549, "id": "4851", "lengthkm": 9.8177318212372029, "order": 8, "uparea": 940453.68058515922 }, "geometry": { "type": "LineString", "coordinates": [ [ 88.7425, 24.201666666666679 ], [ 88.738333333333316, 24.209166666666679 ], [ 88.738333333333316, 24.23 ], [ 88.740833333333313, 24.249166666666678 ], [ 88.7425, 24.251666666666679 ], [ 88.741666666666646, 24.261666666666677 ], [ 88.7375, 24.271666666666679 ], [ 88.73, 24.280833333333348 ] ] } },
{ "type": "Feature", "properties": { "COMID": 45059548, "id": "4851", "lengthkm": 14.781405750183545, "order": 8, "uparea": 940599.66758226848 }, "geometry": { "type": "LineString", "coordinates": [ [ 88.825833333333321, 24.109166666666681 ], [ 88.8225, 24.1125 ], [ 88.810833333333321, 24.116666666666681 ], [ 88.796666666666653, 24.13416666666668 ], [ 88.794166666666655, 24.140833333333347 ], [ 88.795, 24.15 ], [ 88.788333333333313, 24.160833333333343 ], [ 88.783333333333317, 24.165833333333346 ], [ 88.78083333333332, 24.171666666666681 ], [ 88.766666666666652, 24.183333333333344 ], [ 88.758333333333312, 24.1875 ], [ 88.748333333333321, 24.198333333333345 ], [ 88.7425, 24.201666666666679 ] ] } },
{ "type": "Feature", "properties": { "COMID": 45059547, "id": "4851", "lengthkm": 3.7864573176344982, "order": 8, "uparea": 940665.13999928441 }, "geometry": { "type": "LineString", "coordinates": [ [ 88.8575, 24.09916666666668 ], [ 88.8475, 24.09916666666668 ], [ 88.84, 24.105 ], [ 88.825833333333321, 24.109166666666681 ] ] } },
{ "type": "Feature", "properties": { "COMID": 45059546, "id": "4851", "lengthkm": 5.1835086046142838, "order": 8, "uparea": 940831.0093502223 }, "geometry": { "type": "LineString", "coordinates": [ [ 88.903333333333308, 24.106666666666676 ], [ 88.894166666666649, 24.104166666666679 ], [ 88.885833333333323, 24.104166666666679 ], [ 88.883333333333312, 24.1025 ], [ 88.875, 24.103333333333346 ], [ 88.870833333333309, 24.100833333333345 ], [ 88.866666666666646, 24.101666666666681 ], [ 88.8575, 24.09916666666668 ] ] } },
{ "type": "Feature", "properties": { "COMID": 45059545, "id": "4851", "lengthkm": 11.847255038531785, "order": 8, "uparea": 940936.67437459121 }, "geometry": { "type": "LineString", "coordinates": [ [ 88.990833333333313, 24.160833333333343 ], [ 88.978333333333325, 24.153333333333343 ], [ 88.97, 24.151666666666678 ], [ 88.96, 24.140833333333347 ], [ 88.945833333333312, 24.13416666666668 ], [ 88.936666666666653, 24.1325 ], [ 88.92083333333332, 24.115 ], [ 88.9125, 24.113333333333344 ], [ 88.903333333333308, 24.106666666666676 ] ] } },
{ "type": "Feature", "properties": { "COMID": 45059544, "id": "4851", "lengthkm": 15.193131007366883, "order": 8, "uparea": 941063.0249915187 }, "geometry": { "type": "LineString", "coordinates": [ [ 89.029166666666654, 24.051666666666677 ], [ 89.026666666666642, 24.069166666666678 ], [ 89.024166666666645, 24.075 ], [ 89.025, 24.080833333333345 ], [ 89.0225, 24.08666666666668 ], [ 89.021666666666647, 24.096666666666678 ], [ 89.023333333333312, 24.115 ], [ 89.026666666666642, 24.119166666666679 ], [ 89.026666666666642, 24.124166666666678 ], [ 89.024166666666645, 24.133333333333347 ], [ 89.020833333333314, 24.138333333333346 ], [ 89.019166666666649, 24.15 ], [ 89.011666666666656, 24.155833333333348 ], [ 89.005, 24.15666666666668 ], [ 89.0, 24.16 ], [ 88.990833333333313, 24.160833333333343 ] ] } },
{ "type": "Feature", "properties": { "COMID": 45059543, "id": "4851", "lengthkm": 22.919025509622344, "order": 8, "uparea": 941232.2068096787 }, "geometry": { "type": "LineString", "coordinates": [ [ 89.165833333333325, 23.938333333333347 ], [ 89.144166666666649, 23.944166666666678 ], [ 89.13, 23.951666666666679 ], [ 89.123333333333321, 23.951666666666679 ], [ 89.119166666666644, 23.953333333333347 ], [ 89.115, 23.9575 ], [ 89.099166666666648, 23.966666666666679 ], [ 89.090833333333308, 23.965833333333347 ], [ 89.083333333333314, 23.971666666666678 ], [ 89.074166666666656, 23.973333333333347 ], [ 89.0725, 23.975 ], [ 89.074166666666656, 23.9825 ], [ 89.068333333333314, 23.985833333333346 ], [ 89.0575, 23.985833333333346 ], [ 89.054166666666646, 23.991666666666678 ], [ 89.046666666666653, 23.999166666666678 ], [ 89.04583333333332, 24.003333333333345 ], [ 89.04, 24.013333333333346 ], [ 89.035, 24.025833333333345 ], [ 89.03083333333332, 24.05 ], [ 89.029166666666654, 24.051666666666677 ] ] } },
{ "type": "Feature", "properties": { "COMID": 45059542, "id": "4851", "lengthkm": 15.197449232252884, "order": 8, "uparea": 941358.96584197984 }, "geometry": { "type": "LineString", "coordinates": [ [ 89.3025, 23.921666666666678 ], [ 89.279166666666654, 23.9225 ], [ 89.270833333333314, 23.923333333333346 ], [ 89.268333333333317, 23.925 ], [ 89.260833333333323, 23.924166666666679 ], [ 89.255, 23.9275 ], [ 89.230833333333322, 23.931666666666679 ], [ 89.203333333333319, 23.931666666666679 ], [ 89.199166666666656, 23.93 ], [ 89.1875, 23.93 ], [ 89.165833333333325, 23.938333333333347 ] ] } },
{ "type": "Feature", "properties": { "COMID": 45059541, "id": "4851", "lengthkm": 6.1512703978047636, "order": 8, "uparea": 941533.36392942001 }, "geometry": { "type": "LineString", "coordinates": [ [ 89.348333333333315, 23.893333333333345 ], [ 89.336666666666645, 23.901666666666678 ], [ 89.3275, 23.904166666666679 ], [ 89.320833333333312, 23.91166666666668 ], [ 89.315, 23.914166666666677 ], [ 89.310833333333321, 23.914166666666677 ], [ 89.3025, 23.921666666666678 ] ] } },
{ "type": "Feature", "properties": { "COMID": 45059540, "id": "4851", "lengthkm": 9.8895827490848394, "order": 8, "uparea": 941605.2616197234 }, "geometry": { "type": "LineString", "coordinates": [ [ 89.4275, 23.875 ], [ 89.40583333333332, 23.875 ], [ 89.3975, 23.880833333333346 ], [ 89.389166666666654, 23.883333333333347 ], [ 89.3825, 23.8925 ], [ 89.373333333333321, 23.895 ], [ 89.366666666666646, 23.89916666666668 ], [ 89.36, 23.89916666666668 ], [ 89.355833333333322, 23.894166666666678 ], [ 89.348333333333315, 23.893333333333345 ] ] } },
{ "type": "Feature", "properties": { "COMID": 45059539, "id": "4851", "lengthkm": 14.848932183059439, "order": 8, "uparea": 941696.71093742794 }, "geometry": { "type": "LineString", "coordinates": [ [ 89.538333333333313, 23.813333333333347 ], [ 89.52583333333331, 23.82 ], [ 89.508333333333312, 23.8325 ], [ 89.485833333333318, 23.841666666666679 ], [ 89.4775, 23.850833333333345 ], [ 89.466666666666654, 23.851666666666677 ], [ 89.464166666666642, 23.8575 ], [ 89.459166666666647, 23.8625 ], [ 89.439166666666651, 23.875 ], [ 89.4275, 23.875 ] ] } },
{ "type": "Feature", "properties": { "COMID": 45059538, "id": "4851", "lengthkm": 23.557629231964349, "order": 8, "uparea": 942043.13008880126 }, "geometry": { "type": "LineString", "coordinates": [ [ 89.7425, 23.810833333333346 ], [ 89.731666666666655, 23.803333333333345 ], [ 89.706666666666649, 23.798333333333346 ], [ 89.696666666666644, 23.8025 ], [ 89.695, 23.805 ], [ 89.690833333333316, 23.805 ], [ 89.685833333333321, 23.8 ], [ 89.676666666666648, 23.7975 ], [ 89.661666666666648, 23.796666666666678 ], [ 89.65583333333332, 23.798333333333346 ], [ 89.644166666666649, 23.796666666666678 ], [ 89.623333333333321, 23.796666666666678 ], [ 89.619166666666644, 23.798333333333346 ], [ 89.615, 23.8025 ], [ 89.604166666666657, 23.805 ], [ 89.571666666666644, 23.806666666666679 ], [ 89.565833333333316, 23.81 ], [ 89.551666666666648, 23.814166666666679 ], [ 89.538333333333313, 23.813333333333347 ] ] } },
{ "type": "Feature", "properties": { "COMID": 45059537, "id": "4851", "lengthkm": 2.364264633039713, "order": 8, "uparea": 1480070.8617546074 }, "geometry": { "type": "LineString", "coordinates": [ [ 89.763333333333321, 23.8125 ], [ 89.7425, 23.810833333333346 ] ] } },
{ "type": "Feature", "properties": { "COMID": 45059536, "id": "4851", "lengthkm": 3.3533933894008552, "order": 8, "uparea": 1480461.6324491578 }, "geometry": { "type": "LineString", "coordinates": [ [ 89.786666666666648, 23.7925 ], [ 89.765, 23.8125 ], [ 89.763333333333321, 23.8125 ] ] } },
{ "type": "Feature", "properties": { "COMID": 45059535, "id": "4851", "lengthkm": 2.028552639801394, "order": 8, "uparea": 1480549.6332875148 }, "geometry": { "type": "LineString", "coordinates": [ [ 89.79916666666665, 23.779166666666679 ], [ 89.786666666666648, 23.7925 ] ] } },
{ "type": "Feature", "properties": { "COMID": 45059534, "id": "4851", "lengthkm": 24.147820154197287, "order": 8, "uparea": 1480725.0136060892 }, "geometry": { "type": "LineString", "coordinates": [ [ 89.995, 23.705833333333345 ], [ 89.9925, 23.708333333333346 ], [ 89.9825, 23.7125 ], [ 89.960833333333312, 23.715833333333347 ], [ 89.94, 23.723333333333347 ], [ 89.919166666666655, 23.725833333333345 ], [ 89.910833333333315, 23.725 ], [ 89.9025, 23.729166666666679 ], [ 89.886666666666656, 23.729166666666679 ], [ 89.871666666666641, 23.733333333333345 ], [ 89.855, 23.73 ], [ 89.83833333333331, 23.743333333333347 ], [ 89.813333333333318, 23.768333333333345 ], [ 89.79916666666665, 23.779166666666679 ] ] } },
{ "type": "Feature", "properties": { "COMID": 45063347, "id": "4851", "lengthkm": 5.2676845882940846, "order": 8, "uparea": 1480789.2229896402 }, "geometry": { "type": "LineString", "coordinates": [ [ 89.991666666666646, 23.660833333333347 ], [ 89.996666666666641, 23.67666666666668 ], [ 89.995, 23.705833333333345 ] ] } },
{ "type": "Feature", "properties": { "COMID": 45063346, "id": "4851", "lengthkm": 7.283326201289265, "order": 8, "uparea": 1480948.0639584674 }, "geometry": { "type": "LineString", "coordinates": [ [ 90.009166666666644, 23.605 ], [ 90.008333333333312, 23.620833333333344 ], [ 90.0125, 23.628333333333345 ], [ 90.0125, 23.633333333333347 ], [ 90.003333333333316, 23.65 ], [ 89.991666666666646, 23.660833333333347 ] ] } },
{ "type": "Feature", "properties": { "COMID": 45063345, "id": "4851", "lengthkm": 7.3301595308811152, "order": 8, "uparea": 1481136.7888560903 }, "geometry": { "type": "LineString", "coordinates": [ [ 90.059166666666641, 23.5625 ], [ 90.03, 23.5925 ], [ 90.0125, 23.601666666666681 ], [ 90.009166666666644, 23.605 ] ] } },
{ "type": "Feature", "properties": { "COMID": 45063344, "id": "4851", "lengthkm": 12.769887712414294, "order": 8, "uparea": 1481312.4314660509 }, "geometry": { "type": "LineString", "coordinates": [ [ 90.115833333333313, 23.475 ], [ 90.109166666666653, 23.4875 ], [ 90.0975, 23.503333333333345 ], [ 90.0925, 23.514166666666679 ], [ 90.090833333333308, 23.520833333333346 ], [ 90.09166666666664, 23.541666666666679 ], [ 90.084166666666647, 23.5475 ], [ 90.065, 23.5575 ], [ 90.059166666666641, 23.5625 ] ] } },
{ "type": "Feature", "properties": { "COMID": 45063343, "id": "4851", "lengthkm": 7.5193073133645347, "order": 8, "uparea": 1481911.4042069917 }, "geometry": { "type": "LineString", "coordinates": [ [ 90.179166666666646, 23.466666666666679 ], [ 90.176666666666648, 23.4675 ], [ 90.17083333333332, 23.465 ], [ 90.146666666666647, 23.460833333333348 ], [ 90.1275, 23.465833333333347 ], [ 90.115833333333313, 23.475 ] ] } },
{ "type": "Feature", "properties": { "COMID": 45063342, "id": "4851", "lengthkm": 0.084998536493851001, "order": 8, "uparea": 1482022.2761364332 }, "geometry": { "type": "LineString", "coordinates": [ [ 90.18, 23.466666666666679 ], [ 90.179166666666646, 23.466666666666679 ] ] } },
{ "type": "Feature", "properties": { "COMID": 45063341, "id": "4851", "lengthkm": 22.24883309536888, "order": 8, "uparea": 1482212.7252700049 }, "geometry": { "type": "LineString", "coordinates": [ [ 90.373333333333306, 23.42 ], [ 90.355, 23.423333333333346 ], [ 90.3325, 23.433333333333344 ], [ 90.315833333333316, 23.4325 ], [ 90.313333333333318, 23.43416666666668 ], [ 90.301666666666648, 23.435 ], [ 90.28083333333332, 23.44666666666668 ], [ 90.25, 23.45 ], [ 90.241666666666646, 23.4525 ], [ 90.24, 23.451666666666679 ], [ 90.215833333333308, 23.460833333333348 ], [ 90.203333333333319, 23.460833333333348 ], [ 90.193333333333314, 23.465 ], [ 90.18, 23.466666666666679 ] ] } },
{ "type": "Feature", "properties": { "COMID": 45063340, "id": "4851", "lengthkm": 11.879566167536154, "order": 8, "uparea": 1482501.2272524796 }, "geometry": { "type": "LineString", "coordinates": [ [ 90.436666666666653, 23.34 ], [ 90.434166666666641, 23.343333333333344 ], [ 90.430833333333311, 23.360833333333346 ], [ 90.419166666666655, 23.375833333333347 ], [ 90.40916666666665, 23.385833333333345 ], [ 90.399166666666645, 23.401666666666678 ], [ 90.373333333333306, 23.42 ] ] } },
{ "type": "Feature", "properties": { "COMID": 45063339, "id": "4851", "lengthkm": 0.714071485172183, "order": 8, "uparea": 1482555.5706116247 }, "geometry": { "type": "LineString", "coordinates": [ [ 90.441666666666649, 23.335833333333348 ], [ 90.436666666666653, 23.34 ] ] } },
{ "type": "Feature", "properties": { "COMID": 45063338, "id": "4851", "lengthkm": 3.684757535951662, "order": 8, "uparea": 1482765.1194097816 }, "geometry": { "type": "LineString", "coordinates": [ [ 90.474166666666648, 23.331666666666678 ], [ 90.454166666666652, 23.330833333333345 ], [ 90.449166666666656, 23.331666666666678 ], [ 90.441666666666649, 23.335833333333348 ] ] } },
{ "type": "Feature", "properties": { "COMID": 45063337, "id": "4851", "lengthkm": 1.9350875813103481, "order": 8, "uparea": 1482797.5267805532 }, "geometry": { "type": "LineString", "coordinates": [ [ 90.488333333333316, 23.32166666666668 ], [ 90.481666666666655, 23.324166666666681 ], [ 90.474166666666648, 23.331666666666678 ] ] } },
{ "type": "Feature", "properties": { "COMID": 45063336, "id": "4851", "lengthkm": 5.8385379776508346, "order": 8, "uparea": 1482976.942876504 }, "geometry": { "type": "LineString", "coordinates": [ [ 90.538333333333313, 23.306666666666679 ], [ 90.52916666666664, 23.3075 ], [ 90.5225, 23.310833333333346 ], [ 90.5125, 23.32 ], [ 90.488333333333316, 23.32166666666668 ] ] } },
{ "type": "Feature", "properties": { "COMID": 45063335, "id": "4851", "lengthkm": 6.305659495608567, "order": 8, "uparea": 1483033.5524042775 }, "geometry": { "type": "LineString", "coordinates": [ [ 90.5875, 23.295833333333345 ], [ 90.575833333333321, 23.293333333333347 ], [ 90.5625, 23.30166666666668 ], [ 90.554166666666646, 23.305 ], [ 90.550833333333316, 23.31 ], [ 90.543333333333322, 23.306666666666679 ], [ 90.538333333333313, 23.306666666666679 ] ] } },
{ "type": "Feature", "properties": { "COMID": 45063334, "id": "4851", "lengthkm": 7.8191387100587306, "order": 8, "uparea": 1483124.8605031187 }, "geometry": { "type": "LineString", "coordinates": [ [ 90.626666666666651, 23.24 ], [ 90.610833333333318, 23.25916666666668 ], [ 90.60833333333332, 23.268333333333345 ], [ 90.6, 23.276666666666678 ], [ 90.599166666666648, 23.28166666666668 ], [ 90.595833333333317, 23.2875 ], [ 90.5875, 23.295833333333345 ] ] } },
{ "type": "Feature", "properties": { "COMID": 45063333, "id": "4851", "lengthkm": 8.8182140991362683, "order": 8, "uparea": 1572400.525695469 }, "geometry": { "type": "LineString", "coordinates": [ [ 90.61166666666665, 23.166666666666679 ], [ 90.615, 23.186666666666678 ], [ 90.620833333333309, 23.1975 ], [ 90.626666666666651, 23.218333333333344 ], [ 90.626666666666651, 23.24 ] ] } },
{ "type": "Feature", "properties": { "COMID": 45063332, "id": "4851", "lengthkm": 7.6543775006214121, "order": 8, "uparea": 1572504.0563616927 }, "geometry": { "type": "LineString", "coordinates": [ [ 90.59333333333332, 23.105 ], [ 90.5975, 23.113333333333347 ], [ 90.601666666666645, 23.133333333333347 ], [ 90.60833333333332, 23.14916666666668 ], [ 90.6075, 23.1525 ], [ 90.61166666666665, 23.16166666666668 ], [ 90.61166666666665, 23.166666666666679 ] ] } },
{ "type": "Feature", "properties": { "COMID": 45066867, "id": "4851", "lengthkm": 8.8264913247611076, "order": 8, "uparea": 1572667.3889131162 }, "geometry": { "type": "LineString", "coordinates": [ [ 90.584166666666647, 23.0325 ], [ 90.584166666666647, 23.035 ], [ 90.590833333333308, 23.043333333333347 ], [ 90.598333333333315, 23.07166666666668 ], [ 90.598333333333315, 23.085833333333348 ], [ 90.59333333333332, 23.105 ] ] } },
{ "type": "Feature", "properties": { "COMID": 45066866, "id": "4851", "lengthkm": 11.626908692823784, "order": 8, "uparea": 1573607.9737473868 }, "geometry": { "type": "LineString", "coordinates": [ [ 90.631666666666646, 22.945 ], [ 90.628333333333316, 22.953333333333347 ], [ 90.615, 22.975 ], [ 90.61, 22.98 ], [ 90.605, 22.991666666666681 ], [ 90.600833333333313, 22.995833333333348 ], [ 90.594166666666652, 23.0125 ], [ 90.5875, 23.02 ], [ 90.584166666666647, 23.0325 ] ] } },
{ "type": "Feature", "properties": { "COMID": 45066865, "id": "4851", "lengthkm": 2.2123776367557291, "order": 8, "uparea": 1573652.1037601084 }, "geometry": { "type": "LineString", "coordinates": [ [ 90.638333333333321, 22.9275 ], [ 90.631666666666646, 22.945 ] ] } },
{ "type": "Feature", "properties": { "COMID": 45066864, "id": "4851", "lengthkm": 2.286353277797005, "order": 8, "uparea": 1573882.3011841814 }, "geometry": { "type": "LineString", "coordinates": [ [ 90.649166666666645, 22.910833333333347 ], [ 90.638333333333321, 22.9275 ] ] } },
{ "type": "Feature", "properties": { "COMID": 45066863, "id": "4851", "lengthkm": 10.136653461461982, "order": 8, "uparea": 1574012.6907671301 }, "geometry": { "type": "LineString", "coordinates": [ [ 90.7125, 22.846666666666678 ], [ 90.694166666666646, 22.861666666666679 ], [ 90.6875, 22.8725 ], [ 90.673333333333318, 22.8875 ], [ 90.663333333333313, 22.900833333333345 ], [ 90.649166666666645, 22.910833333333347 ] ] } },
{ "type": "Feature", "properties": { "COMID": 45066862, "id": "4851", "lengthkm": 6.9867986145700964, "order": 8, "uparea": 1574545.5744448761 }, "geometry": { "type": "LineString", "coordinates": [ [ 90.723333333333315, 22.788333333333345 ], [ 90.719166666666652, 22.7975 ], [ 90.7125, 22.846666666666678 ] ] } },
{ "type": "Feature", "properties": { "COMID": 45066861, "id": "4851", "lengthkm": 1.3973938849260481, "order": 8, "uparea": 1574591.2623521597 }, "geometry": { "type": "LineString", "coordinates": [ [ 90.720833333333317, 22.776666666666681 ], [ 90.723333333333315, 22.788333333333345 ] ] } },
{ "type": "Feature", "properties": { "COMID": 45066860, "id": "4851", "lengthkm": 3.3249251226456198, "order": 8, "uparea": 1574680.9067696885 }, "geometry": { "type": "LineString", "coordinates": [ [ 90.7275, 22.749166666666678 ], [ 90.7225, 22.764166666666679 ], [ 90.720833333333317, 22.776666666666681 ] ] } },
{ "type": "Feature", "properties": { "COMID": 45066859, "id": "4851", "lengthkm": 0.31137575033335202, "order": 8, "uparea": 1574708.4456096634 }, "geometry": { "type": "LineString", "coordinates": [ [ 90.72833333333331, 22.74666666666668 ], [ 90.7275, 22.749166666666678 ] ] } },
{ "type": "Feature", "properties": { "COMID": 45066858, "id": "4851", "lengthkm": 7.2847450964907097, "order": 8, "uparea": 1574834.2982043759 }, "geometry": { "type": "LineString", "coordinates": [ [ 90.7575, 22.691666666666681 ], [ 90.744166666666644, 22.713333333333345 ], [ 90.740833333333313, 22.725 ], [ 90.72833333333331, 22.74666666666668 ] ] } },
{ "type": "Feature", "properties": { "COMID": 45066857, "id": "4851", "lengthkm": 2.3985656537863922, "order": 8, "uparea": 1574898.6207858638 }, "geometry": { "type": "LineString", "coordinates": [ [ 90.764166666666654, 22.6725 ], [ 90.7575, 22.691666666666681 ] ] } },
{ "type": "Feature", "properties": { "COMID": 45066856, "id": "4851", "lengthkm": 7.0912977241002322, "order": 8, "uparea": 1575032.5004286871 }, "geometry": { "type": "LineString", "coordinates": [ [ 90.81, 22.626666666666679 ], [ 90.795, 22.644166666666681 ], [ 90.764166666666654, 22.6725 ] ] } },
{ "type": "Feature", "properties": { "COMID": 45066855, "id": "4851", "lengthkm": 7.5775848669324732, "order": 8, "uparea": 1575385.9506649468 }, "geometry": { "type": "LineString", "coordinates": [ [ 90.803333333333313, 22.563333333333347 ], [ 90.8, 22.573333333333348 ], [ 90.8, 22.589166666666681 ], [ 90.8075, 22.6125 ], [ 90.81, 22.626666666666679 ] ] } },
{ "type": "Feature", "properties": { "COMID": 45070323, "id": "4851", "lengthkm": 16.643676992320035, "order": 8, "uparea": 1575630.991704083 }, "geometry": { "type": "LineString", "coordinates": [ [ 90.9, 22.4575 ], [ 90.888333333333321, 22.4625 ], [ 90.88, 22.46916666666668 ], [ 90.868333333333311, 22.475 ], [ 90.850833333333313, 22.490833333333345 ], [ 90.839166666666642, 22.508333333333347 ], [ 90.83833333333331, 22.5175 ], [ 90.814166666666651, 22.54416666666668 ], [ 90.803333333333313, 22.563333333333347 ] ] } },
{ "type": "Feature", "properties": { "COMID": 45070322, "id": "4851", "lengthkm": 0.12617354695302499, "order": 8, "uparea": 1575661.803881095 }, "geometry": { "type": "LineString", "coordinates": [ [ 90.90083333333331, 22.456666666666681 ], [ 90.9, 22.4575 ] ] } }
]
}
