{
"type": "FeatureCollection",
"name": "downstream_83973",
"crs": { "type": "name", "properties": { "name": "urn:ogc:def:crs:OGC:1.3:CRS84" } },
"features": [
{ "type": "Feature", "properties": { "COMID": 45040130, "id": "4878", "lengthkm": 11.04013196925518, "order": 4, "uparea": 8415.4369165786647 }, "geometry": { "type": "LineString", "coordinates": [ [ 88.615, 26.739166666666677 ], [ 88.610833333333318, 26.739166666666677 ], [ 88.609166666666653, 26.740833333333342 ], [ 88.61, 26.744166666666679 ], [ 88.606666666666655, 26.743333333333343 ], [ 88.603333333333325, 26.745833333333344 ], [ 88.599166666666648, 26.741666666666678 ], [ 88.5975, 26.743333333333343 ], [ 88.595, 26.7425 ], [ 88.594166666666652, 26.745 ], [ 88.5925, 26.744166666666679 ], [ 88.589166666666642, 26.746666666666677 ], [ 88.5875, 26.748333333333342 ], [ 88.58833333333331, 26.756666666666675 ], [ 88.585, 26.756666666666675 ], [ 88.580833333333317, 26.759166666666676 ], [ 88.58, 26.763333333333343 ], [ 88.574166666666656, 26.769166666666678 ], [ 88.568333333333314, 26.77 ], [ 88.566666666666649, 26.775 ], [ 88.568333333333314, 26.776666666666678 ], [ 88.568333333333314, 26.78 ], [ 88.566666666666649, 26.781666666666677 ], [ 88.5675, 26.7825 ], [ 88.564166666666651, 26.784166666666678 ], [ 88.565, 26.7875 ] ] } },
{ "type": "Feature", "properties": { "COMID": 45043947, "id": "4878", "lengthkm": 30.847721684602352, "order": 4, "uparea": 8745.2295069961365 }, "geometry": { "type": "LineString", "coordinates": [ [ 88.750833333333318, 26.5825 ], [ 88.746666666666641, 26.581666666666678 ], [ 88.744166666666644, 26.583333333333343 ], [ 88.745, 26.581666666666678 ], [ 88.74, 26.581666666666678 ], [ 88.731666666666655, 26.5875 ], [ 88.7225, 26.588333333333345 ], [ 88.719166666666652, 26.594166666666677 ], [ 88.714166666666642, 26.595 ], [ 88.7025, 26.603333333333346 ], [ 88.7, 26.6075 ], [ 88.699166666666656, 26.606666666666676 ], [ 88.695, 26.610833333333346 ], [ 88.693333333333314, 26.615833333333342 ], [ 88.689166666666651, 26.6125 ], [ 88.686666666666653, 26.615833333333342 ], [ 88.6875, 26.619166666666679 ], [ 88.683333333333309, 26.623333333333342 ], [ 88.683333333333309, 26.625833333333343 ], [ 88.679166666666646, 26.625833333333343 ], [ 88.6775, 26.629166666666677 ], [ 88.67416666666665, 26.630833333333342 ], [ 88.6725, 26.629166666666677 ], [ 88.671666666666653, 26.63 ], [ 88.67083333333332, 26.6275 ], [ 88.668333333333322, 26.6275 ], [ 88.6675, 26.629166666666677 ], [ 88.65916666666665, 26.6325 ], [ 88.6525, 26.64 ], [ 88.65083333333331, 26.643333333333345 ], [ 88.6525, 26.645 ], [ 88.649166666666645, 26.65 ], [ 88.651666666666642, 26.655833333333344 ], [ 88.645, 26.664166666666677 ], [ 88.641666666666652, 26.665833333333346 ], [ 88.640833333333319, 26.664166666666677 ], [ 88.639166666666654, 26.665 ], [ 88.639166666666654, 26.668333333333344 ], [ 88.6375, 26.67 ], [ 88.6375, 26.675833333333344 ], [ 88.6425, 26.68 ], [ 88.64, 26.684166666666677 ], [ 88.64, 26.686666666666675 ], [ 88.6425, 26.689166666666679 ], [ 88.639166666666654, 26.693333333333342 ], [ 88.640833333333319, 26.698333333333345 ], [ 88.636666666666656, 26.705833333333345 ], [ 88.633333333333312, 26.708333333333343 ], [ 88.634166666666658, 26.710833333333344 ], [ 88.6325, 26.711666666666677 ], [ 88.63, 26.720833333333346 ], [ 88.629166666666649, 26.72 ], [ 88.624166666666653, 26.724166666666676 ], [ 88.620833333333309, 26.733333333333341 ], [ 88.618333333333311, 26.733333333333341 ], [ 88.615, 26.739166666666677 ] ] } },
{ "type": "Feature", "properties": { "COMID": 45043943, "id": "4878", "lengthkm": 17.609141279841076, "order": 4, "uparea": 9549.8941196868927 }, "geometry": { "type": "LineString", "coordinates": [ [ 88.754166666666649, 26.459166666666675 ], [ 88.755833333333314, 26.461666666666677 ], [ 88.753333333333316, 26.470833333333346 ], [ 88.755, 26.476666666666677 ], [ 88.754166666666649, 26.478333333333346 ], [ 88.751666666666651, 26.478333333333346 ], [ 88.7525, 26.486666666666679 ], [ 88.756666666666646, 26.490833333333342 ], [ 88.755, 26.4925 ], [ 88.755833333333314, 26.496666666666677 ], [ 88.753333333333316, 26.498333333333342 ], [ 88.755, 26.500833333333343 ], [ 88.756666666666646, 26.5 ], [ 88.754166666666649, 26.511666666666677 ], [ 88.7575, 26.52 ], [ 88.756666666666646, 26.521666666666675 ], [ 88.759166666666658, 26.525 ], [ 88.758333333333312, 26.528333333333343 ], [ 88.764166666666654, 26.536666666666676 ], [ 88.765, 26.545 ], [ 88.763333333333321, 26.546666666666678 ], [ 88.765, 26.55 ], [ 88.760833333333323, 26.555833333333343 ], [ 88.761666666666656, 26.5575 ], [ 88.76, 26.559166666666677 ], [ 88.7575, 26.57166666666668 ], [ 88.758333333333312, 26.576666666666675 ], [ 88.754166666666649, 26.578333333333344 ], [ 88.755, 26.58 ], [ 88.751666666666651, 26.58 ], [ 88.750833333333318, 26.5825 ] ] } },
{ "type": "Feature", "properties": { "COMID": 45043937, "id": "4878", "lengthkm": 6.7070998534515347, "order": 4, "uparea": 9697.4218060169405 }, "geometry": { "type": "LineString", "coordinates": [ [ 88.7875, 26.4225 ], [ 88.7875, 26.425 ], [ 88.783333333333317, 26.43 ], [ 88.785, 26.433333333333344 ], [ 88.779166666666654, 26.439166666666679 ], [ 88.78, 26.44 ], [ 88.77583333333331, 26.4425 ], [ 88.774166666666645, 26.441666666666677 ], [ 88.7725, 26.444166666666675 ], [ 88.768333333333317, 26.443333333333342 ], [ 88.765833333333319, 26.445 ], [ 88.754166666666649, 26.459166666666675 ] ] } },
{ "type": "Feature", "properties": { "COMID": 45043935, "id": "4878", "lengthkm": 21.395487562643041, "order": 4, "uparea": 9778.2012689203821 }, "geometry": { "type": "LineString", "coordinates": [ [ 88.90083333333331, 26.315 ], [ 88.888333333333321, 26.315833333333345 ], [ 88.886666666666656, 26.319166666666675 ], [ 88.888333333333321, 26.320833333333344 ], [ 88.889166666666654, 26.32 ], [ 88.889166666666654, 26.323333333333345 ], [ 88.884166666666658, 26.324166666666677 ], [ 88.884166666666658, 26.325833333333343 ], [ 88.8825, 26.324166666666677 ], [ 88.880833333333314, 26.325833333333343 ], [ 88.874166666666653, 26.325 ], [ 88.86166666666665, 26.334166666666675 ], [ 88.859166666666653, 26.338333333333345 ], [ 88.85, 26.344166666666677 ], [ 88.84666666666665, 26.348333333333343 ], [ 88.84666666666665, 26.3575 ], [ 88.844166666666652, 26.361666666666679 ], [ 88.836666666666645, 26.3675 ], [ 88.835833333333312, 26.365833333333342 ], [ 88.831666666666649, 26.366666666666678 ], [ 88.8325, 26.368333333333347 ], [ 88.8275, 26.373333333333342 ], [ 88.828333333333319, 26.375833333333343 ], [ 88.821666666666658, 26.381666666666675 ], [ 88.813333333333318, 26.394166666666678 ], [ 88.808333333333309, 26.396666666666675 ], [ 88.8075, 26.4 ], [ 88.804166666666646, 26.400833333333345 ], [ 88.805833333333311, 26.405833333333344 ], [ 88.8025, 26.405833333333344 ], [ 88.7975, 26.41 ], [ 88.794166666666655, 26.410833333333343 ], [ 88.791666666666657, 26.4175 ], [ 88.7875, 26.4225 ] ] } },
{ "type": "Feature", "properties": { "COMID": 45043928, "id": "4878", "lengthkm": 10.637995455438856, "order": 4, "uparea": 9880.9604724312849 }, "geometry": { "type": "LineString", "coordinates": [ [ 88.958333333333314, 26.27 ], [ 88.956666666666649, 26.270833333333343 ], [ 88.953333333333319, 26.269166666666678 ], [ 88.949166666666656, 26.270833333333343 ], [ 88.945, 26.269166666666678 ], [ 88.935833333333321, 26.2725 ], [ 88.935, 26.270833333333343 ], [ 88.9325, 26.270833333333343 ], [ 88.929166666666646, 26.274166666666677 ], [ 88.925833333333316, 26.274166666666677 ], [ 88.915, 26.284166666666678 ], [ 88.90916666666665, 26.2975 ], [ 88.90916666666665, 26.306666666666679 ], [ 88.903333333333308, 26.31 ], [ 88.90083333333331, 26.315 ] ] } },
{ "type": "Feature", "properties": { "COMID": 45043925, "id": "4878", "lengthkm": 18.776469585451053, "order": 4, "uparea": 9971.6178775614317 }, "geometry": { "type": "LineString", "coordinates": [ [ 89.05, 26.179166666666678 ], [ 89.04583333333332, 26.181666666666679 ], [ 89.039166666666645, 26.181666666666679 ], [ 89.036666666666648, 26.184166666666677 ], [ 89.031666666666652, 26.184166666666677 ], [ 89.023333333333312, 26.189166666666679 ], [ 89.0175, 26.189166666666679 ], [ 89.011666666666656, 26.1975 ], [ 89.008333333333312, 26.1975 ], [ 89.006666666666646, 26.200833333333343 ], [ 89.001666666666651, 26.2 ], [ 88.9975, 26.2075 ], [ 89.0, 26.21 ], [ 88.9975, 26.211666666666677 ], [ 88.9975, 26.215 ], [ 89.0025, 26.218333333333344 ], [ 89.0025, 26.220833333333346 ], [ 88.993333333333311, 26.2325 ], [ 88.989166666666648, 26.240833333333342 ], [ 88.98333333333332, 26.24 ], [ 88.9775, 26.243333333333347 ], [ 88.976666666666645, 26.246666666666677 ], [ 88.974166666666648, 26.248333333333342 ], [ 88.976666666666645, 26.256666666666675 ], [ 88.965833333333308, 26.268333333333345 ], [ 88.965833333333308, 26.271666666666675 ], [ 88.965, 26.2725 ], [ 88.9625, 26.269166666666678 ], [ 88.958333333333314, 26.27 ] ] } },
{ "type": "Feature", "properties": { "COMID": 45043921, "id": "4878", "lengthkm": 0.74749799487760504, "order": 4, "uparea": 10079.271208207858 }, "geometry": { "type": "LineString", "coordinates": [ [ 89.055833333333311, 26.1775 ], [ 89.0525, 26.176666666666677 ], [ 89.05, 26.179166666666678 ] ] } },
{ "type": "Feature", "properties": { "COMID": 45043920, "id": "4878", "lengthkm": 13.884172351673984, "order": 4, "uparea": 10142.035363406179 }, "geometry": { "type": "LineString", "coordinates": [ [ 89.115, 26.1025 ], [ 89.1125, 26.106666666666676 ], [ 89.105833333333322, 26.11 ], [ 89.105833333333322, 26.1125 ], [ 89.1025, 26.114166666666677 ], [ 89.101666666666645, 26.116666666666678 ], [ 89.091666666666654, 26.119166666666679 ], [ 89.086666666666645, 26.125833333333343 ], [ 89.0875, 26.13 ], [ 89.085833333333312, 26.130833333333342 ], [ 89.086666666666645, 26.1325 ], [ 89.084166666666647, 26.13416666666668 ], [ 89.084166666666647, 26.1375 ], [ 89.0825, 26.139166666666675 ], [ 89.076666666666654, 26.14166666666668 ], [ 89.070833333333312, 26.140833333333344 ], [ 89.068333333333314, 26.143333333333345 ], [ 89.0675, 26.15 ], [ 89.063333333333318, 26.153333333333343 ], [ 89.060833333333321, 26.16 ], [ 89.061666666666653, 26.161666666666676 ], [ 89.064166666666651, 26.16 ], [ 89.065, 26.160833333333343 ], [ 89.065833333333316, 26.171666666666678 ], [ 89.060833333333321, 26.176666666666677 ], [ 89.055833333333311, 26.1775 ] ] } },
{ "type": "Feature", "properties": { "COMID": 45043917, "id": "4878", "lengthkm": 3.9462986917665681, "order": 4, "uparea": 10437.196215271706 }, "geometry": { "type": "LineString", "coordinates": [ [ 89.134166666666644, 26.078333333333344 ], [ 89.134166666666644, 26.081666666666678 ], [ 89.131666666666646, 26.083333333333343 ], [ 89.130833333333314, 26.089166666666678 ], [ 89.128333333333316, 26.0925 ], [ 89.120833333333309, 26.099166666666676 ], [ 89.116666666666646, 26.099166666666676 ], [ 89.115, 26.1025 ] ] } },
{ "type": "Feature", "properties": { "COMID": 45048008, "id": "4878", "lengthkm": 12.397198294311851, "order": 4, "uparea": 10518.971576327725 }, "geometry": { "type": "LineString", "coordinates": [ [ 89.1275, 25.985 ], [ 89.130833333333314, 25.99 ], [ 89.128333333333316, 25.996666666666677 ], [ 89.131666666666646, 26.0 ], [ 89.13, 26.001666666666679 ], [ 89.128333333333316, 26.013333333333343 ], [ 89.13, 26.015833333333344 ], [ 89.129166666666649, 26.01666666666668 ], [ 89.135, 26.0225 ], [ 89.139166666666654, 26.033333333333346 ], [ 89.136666666666656, 26.045 ], [ 89.134166666666644, 26.0475 ], [ 89.133333333333312, 26.0525 ], [ 89.133333333333312, 26.0575 ], [ 89.135, 26.06 ], [ 89.134166666666644, 26.0625 ], [ 89.1375, 26.065 ], [ 89.1375, 26.068333333333342 ], [ 89.133333333333312, 26.074166666666677 ], [ 89.134166666666644, 26.078333333333344 ] ] } },
{ "type": "Feature", "properties": { "COMID": 45048005, "id": "4878", "lengthkm": 13.186735161270366, "order": 4, "uparea": 10711.480585971154 }, "geometry": { "type": "LineString", "coordinates": [ [ 89.190833333333316, 25.923333333333346 ], [ 89.188333333333318, 25.925833333333344 ], [ 89.184166666666641, 25.925 ], [ 89.183333333333309, 25.926666666666677 ], [ 89.179166666666646, 25.926666666666677 ], [ 89.176666666666648, 25.923333333333346 ], [ 89.17083333333332, 25.924166666666679 ], [ 89.166666666666657, 25.929166666666678 ], [ 89.1625, 25.928333333333342 ], [ 89.156666666666652, 25.933333333333344 ], [ 89.1525, 25.933333333333344 ], [ 89.146666666666647, 25.936666666666678 ], [ 89.143333333333317, 25.940833333333345 ], [ 89.140833333333319, 25.940833333333345 ], [ 89.133333333333312, 25.95 ], [ 89.136666666666656, 25.956666666666678 ], [ 89.133333333333312, 25.958333333333343 ], [ 89.131666666666646, 25.9625 ], [ 89.1325, 25.9675 ], [ 89.13, 25.971666666666678 ], [ 89.1325, 25.976666666666677 ], [ 89.1275, 25.985 ] ] } },
{ "type": "Feature", "properties": { "COMID": 45048002, "id": "4878", "lengthkm": 26.520692687245948, "order": 4, "uparea": 10837.871368134931 }, "geometry": { "type": "LineString", "coordinates": [ [ 89.356666666666655, 25.855833333333344 ], [ 89.355833333333322, 25.853333333333346 ], [ 89.35, 25.8525 ], [ 89.33833333333331, 25.845 ], [ 89.330833333333317, 25.848333333333343 ], [ 89.325833333333321, 25.8475 ], [ 89.3225, 25.8525 ], [ 89.324166666666656, 25.854166666666679 ], [ 89.320833333333312, 25.855 ], [ 89.318333333333314, 25.853333333333346 ], [ 89.314166666666651, 25.853333333333346 ], [ 89.31, 25.86 ], [ 89.305833333333311, 25.86 ], [ 89.3075, 25.861666666666679 ], [ 89.305, 25.864166666666677 ], [ 89.296666666666653, 25.866666666666678 ], [ 89.2925, 25.865833333333342 ], [ 89.289166666666645, 25.87 ], [ 89.283333333333317, 25.870833333333344 ], [ 89.27583333333331, 25.869166666666679 ], [ 89.275, 25.865833333333342 ], [ 89.271666666666647, 25.864166666666677 ], [ 89.265833333333319, 25.865 ], [ 89.26, 25.869166666666679 ], [ 89.25, 25.869166666666679 ], [ 89.24, 25.874166666666678 ], [ 89.2275, 25.876666666666679 ], [ 89.223333333333315, 25.879166666666677 ], [ 89.2225, 25.8825 ], [ 89.22166666666665, 25.881666666666678 ], [ 89.2175, 25.885 ], [ 89.216666666666654, 25.88416666666668 ], [ 89.2125, 25.889166666666675 ], [ 89.21333333333331, 25.89 ], [ 89.208333333333314, 25.893333333333345 ], [ 89.205833333333317, 25.901666666666678 ], [ 89.198333333333323, 25.905 ], [ 89.2, 25.9075 ], [ 89.196666666666644, 25.9075 ], [ 89.190833333333316, 25.923333333333346 ] ] } },
{ "type": "Feature", "properties": { "COMID": 45047996, "id": "4878", "lengthkm": 11.889098562369632, "order": 4, "uparea": 10924.463371743888 }, "geometry": { "type": "LineString", "coordinates": [ [ 89.421666666666653, 25.806666666666679 ], [ 89.418333333333322, 25.805 ], [ 89.4125, 25.81 ], [ 89.411666666666648, 25.8125 ], [ 89.413333333333313, 25.815 ], [ 89.411666666666648, 25.816666666666677 ], [ 89.41, 25.815833333333345 ], [ 89.41, 25.82166666666668 ], [ 89.403333333333308, 25.82916666666668 ], [ 89.405, 25.833333333333343 ], [ 89.398333333333312, 25.841666666666676 ], [ 89.395, 25.841666666666676 ], [ 89.3925, 25.844166666666677 ], [ 89.386666666666656, 25.843333333333344 ], [ 89.380833333333314, 25.8475 ], [ 89.3775, 25.8475 ], [ 89.375833333333318, 25.850833333333345 ], [ 89.374166666666653, 25.85 ], [ 89.37, 25.855 ], [ 89.36166666666665, 25.855 ], [ 89.36, 25.856666666666676 ], [ 89.356666666666655, 25.855833333333344 ] ] } },
{ "type": "Feature", "properties": { "COMID": 45047994, "id": "4878", "lengthkm": 2.470201994225881, "order": 4, "uparea": 11210.565403407028 }, "geometry": { "type": "LineString", "coordinates": [ [ 89.431666666666644, 25.796666666666678 ], [ 89.434166666666641, 25.798333333333346 ], [ 89.434166666666641, 25.800833333333344 ], [ 89.43, 25.803333333333342 ], [ 89.425, 25.801666666666677 ], [ 89.42416666666665, 25.805 ], [ 89.421666666666653, 25.806666666666679 ] ] } },
{ "type": "Feature", "properties": { "COMID": 45047992, "id": "4878", "lengthkm": 13.158801737029496, "order": 4, "uparea": 11334.629235536268 }, "geometry": { "type": "LineString", "coordinates": [ [ 89.506666666666646, 25.746666666666677 ], [ 89.504166666666649, 25.753333333333345 ], [ 89.495833333333309, 25.7575 ], [ 89.496666666666641, 25.75916666666668 ], [ 89.495, 25.765 ], [ 89.4925, 25.765 ], [ 89.493333333333311, 25.7675 ], [ 89.491666666666646, 25.769166666666678 ], [ 89.490833333333313, 25.768333333333345 ], [ 89.49, 25.771666666666675 ], [ 89.48666666666665, 25.775 ], [ 89.485833333333318, 25.773333333333344 ], [ 89.478333333333325, 25.776666666666678 ], [ 89.474166666666648, 25.77416666666668 ], [ 89.4725, 25.775 ], [ 89.474166666666648, 25.776666666666678 ], [ 89.474166666666648, 25.779166666666676 ], [ 89.4725, 25.78 ], [ 89.4675, 25.779166666666676 ], [ 89.465833333333308, 25.780833333333344 ], [ 89.461666666666645, 25.780833333333344 ], [ 89.4525, 25.785833333333343 ], [ 89.450833333333321, 25.784166666666678 ], [ 89.445, 25.785 ], [ 89.431666666666644, 25.796666666666678 ] ] } },
{ "type": "Feature", "properties": { "COMID": 45047989, "id": "4878", "lengthkm": 7.3095372860990926, "order": 4, "uparea": 11417.439187159956 }, "geometry": { "type": "LineString", "coordinates": [ [ 89.529166666666654, 25.69666666666668 ], [ 89.529166666666654, 25.7025 ], [ 89.525, 25.7075 ], [ 89.52583333333331, 25.713333333333345 ], [ 89.523333333333312, 25.716666666666676 ], [ 89.520833333333314, 25.7275 ], [ 89.516666666666652, 25.7275 ], [ 89.5125, 25.730833333333344 ], [ 89.510833333333323, 25.735833333333346 ], [ 89.5075, 25.738333333333344 ], [ 89.508333333333312, 25.7425 ], [ 89.506666666666646, 25.746666666666677 ] ] } },
{ "type": "Feature", "properties": { "COMID": 45047987, "id": "4878", "lengthkm": 4.8995059258329574, "order": 4, "uparea": 11500.341063587317 }, "geometry": { "type": "LineString", "coordinates": [ [ 89.54, 25.663333333333345 ], [ 89.541666666666657, 25.669166666666676 ], [ 89.54, 25.669166666666676 ], [ 89.538333333333313, 25.679166666666678 ], [ 89.535, 25.681666666666679 ], [ 89.535, 25.69 ], [ 89.533333333333317, 25.694166666666678 ], [ 89.529166666666654, 25.69666666666668 ] ] } },
{ "type": "Feature", "properties": { "COMID": 45047986, "id": "4878", "lengthkm": 31.363347862679511, "order": 4, "uparea": 11686.880837823031 }, "geometry": { "type": "LineString", "coordinates": [ [ 89.6575, 25.5175 ], [ 89.65416666666664, 25.51666666666668 ], [ 89.6525, 25.518333333333345 ], [ 89.6525, 25.521666666666675 ], [ 89.645833333333314, 25.526666666666678 ], [ 89.643333333333317, 25.525 ], [ 89.63, 25.526666666666678 ], [ 89.624166666666653, 25.531666666666677 ], [ 89.623333333333321, 25.53 ], [ 89.621666666666641, 25.530833333333344 ], [ 89.6225, 25.531666666666677 ], [ 89.614166666666648, 25.540833333333346 ], [ 89.613333333333316, 25.544166666666676 ], [ 89.61, 25.5425 ], [ 89.605833333333322, 25.545833333333345 ], [ 89.6075, 25.549166666666679 ], [ 89.605, 25.550833333333344 ], [ 89.605833333333322, 25.554166666666678 ], [ 89.60333333333331, 25.556666666666679 ], [ 89.5975, 25.556666666666679 ], [ 89.59333333333332, 25.56 ], [ 89.5925, 25.564166666666679 ], [ 89.585833333333312, 25.566666666666677 ], [ 89.5825, 25.561666666666678 ], [ 89.5825, 25.566666666666677 ], [ 89.578333333333319, 25.57 ], [ 89.58, 25.573333333333345 ], [ 89.578333333333319, 25.575833333333343 ], [ 89.5725, 25.580833333333345 ], [ 89.571666666666644, 25.58 ], [ 89.563333333333318, 25.583333333333343 ], [ 89.561666666666653, 25.58666666666668 ], [ 89.558333333333309, 25.588333333333345 ], [ 89.556666666666644, 25.58666666666668 ], [ 89.555, 25.589166666666678 ], [ 89.5575, 25.591666666666676 ], [ 89.553333333333313, 25.595833333333346 ], [ 89.554166666666646, 25.598333333333343 ], [ 89.5525, 25.601666666666677 ], [ 89.54916666666665, 25.6 ], [ 89.54583333333332, 25.601666666666677 ], [ 89.5425, 25.6075 ], [ 89.540833333333325, 25.606666666666676 ], [ 89.539166666666645, 25.609166666666678 ], [ 89.5375, 25.608333333333345 ], [ 89.535833333333315, 25.61 ], [ 89.535, 25.611666666666679 ], [ 89.5375, 25.616666666666678 ], [ 89.53416666666665, 25.620833333333344 ], [ 89.535833333333315, 25.6225 ], [ 89.5325, 25.624166666666678 ], [ 89.531666666666652, 25.630833333333342 ], [ 89.538333333333313, 25.635 ], [ 89.5375, 25.638333333333343 ], [ 89.540833333333325, 25.64 ], [ 89.54, 25.6425 ], [ 89.543333333333322, 25.645833333333343 ], [ 89.5425, 25.651666666666678 ], [ 89.544166666666655, 25.6575 ], [ 89.539166666666645, 25.66 ], [ 89.54, 25.663333333333345 ] ] } },
{ "type": "Feature", "properties": { "COMID": 45047981, "id": "4878", "lengthkm": 9.6336757510523157, "order": 4, "uparea": 11757.777733611336 }, "geometry": { "type": "LineString", "coordinates": [ [ 89.645833333333314, 25.46166666666668 ], [ 89.6475, 25.46166666666668 ], [ 89.648333333333312, 25.464166666666678 ], [ 89.648333333333312, 25.470833333333346 ], [ 89.65, 25.471666666666678 ], [ 89.649166666666645, 25.475 ], [ 89.65583333333332, 25.48 ], [ 89.6575, 25.483333333333345 ], [ 89.65583333333332, 25.485 ], [ 89.660833333333315, 25.490833333333345 ], [ 89.661666666666648, 25.495 ], [ 89.6675, 25.5 ], [ 89.669166666666655, 25.499166666666678 ], [ 89.671666666666653, 25.5025 ], [ 89.669166666666655, 25.506666666666678 ], [ 89.67, 25.50916666666668 ], [ 89.664166666666645, 25.50916666666668 ], [ 89.660833333333315, 25.510833333333345 ], [ 89.6575, 25.5175 ] ] } },
{ "type": "Feature", "properties": { "COMID": 45052012, "id": "4878", "lengthkm": 10.699562259510444, "order": 4, "uparea": 11822.302018789216 }, "geometry": { "type": "LineString", "coordinates": [ [ 89.661666666666648, 25.38416666666668 ], [ 89.6625, 25.385 ], [ 89.65916666666665, 25.390833333333344 ], [ 89.65916666666665, 25.413333333333345 ], [ 89.653333333333308, 25.420833333333345 ], [ 89.65416666666664, 25.425833333333344 ], [ 89.6525, 25.43 ], [ 89.648333333333312, 25.428333333333345 ], [ 89.646666666666647, 25.43 ], [ 89.646666666666647, 25.434166666666677 ], [ 89.645, 25.434166666666677 ], [ 89.643333333333317, 25.439166666666679 ], [ 89.644166666666649, 25.445833333333347 ], [ 89.645833333333314, 25.4475 ], [ 89.644166666666649, 25.449166666666677 ], [ 89.646666666666647, 25.451666666666679 ], [ 89.645833333333314, 25.46166666666668 ] ] } },
{ "type": "Feature", "properties": { "COMID": 45051914, "id": "4878", "lengthkm": 5.1840129370046766, "order": 7, "uparea": 510357.51254533313 }, "geometry": { "type": "LineString", "coordinates": [ [ 89.639166666666654, 25.345833333333346 ], [ 89.641666666666652, 25.349166666666676 ], [ 89.648333333333312, 25.37 ], [ 89.661666666666648, 25.38416666666668 ] ] } },
{ "type": "Feature", "properties": { "COMID": 45051913, "id": "4878", "lengthkm": 9.548085527857717, "order": 7, "uparea": 511910.22398374655 }, "geometry": { "type": "LineString", "coordinates": [ [ 89.665, 25.27 ], [ 89.6575, 25.2975 ], [ 89.65583333333332, 25.298333333333346 ], [ 89.65583333333332, 25.305 ], [ 89.65083333333331, 25.310833333333342 ], [ 89.649166666666645, 25.3225 ], [ 89.643333333333317, 25.3325 ], [ 89.639166666666654, 25.345833333333346 ] ] } },
{ "type": "Feature", "properties": { "COMID": 45051912, "id": "4878", "lengthkm": 3.4284800539392868, "order": 7, "uparea": 512048.21807303344 }, "geometry": { "type": "LineString", "coordinates": [ [ 89.683333333333309, 25.248333333333346 ], [ 89.67083333333332, 25.255833333333342 ], [ 89.665, 25.27 ] ] } },
{ "type": "Feature", "properties": { "COMID": 45051911, "id": "4878", "lengthkm": 7.9746298468677486, "order": 7, "uparea": 512153.34237600351 }, "geometry": { "type": "LineString", "coordinates": [ [ 89.7, 25.184166666666677 ], [ 89.701666666666654, 25.185833333333346 ], [ 89.701666666666654, 25.19666666666668 ], [ 89.7, 25.201666666666679 ], [ 89.694166666666646, 25.209166666666675 ], [ 89.694166666666646, 25.218333333333344 ], [ 89.691666666666649, 25.230833333333344 ], [ 89.69, 25.235833333333346 ], [ 89.683333333333309, 25.245 ], [ 89.683333333333309, 25.248333333333346 ] ] } },
{ "type": "Feature", "properties": { "COMID": 45051910, "id": "4878", "lengthkm": 6.6134713764343926, "order": 7, "uparea": 512204.92238811468 }, "geometry": { "type": "LineString", "coordinates": [ [ 89.691666666666649, 25.131666666666678 ], [ 89.685833333333321, 25.14 ], [ 89.685833333333321, 25.144166666666678 ], [ 89.6875, 25.150833333333345 ], [ 89.690833333333316, 25.154166666666676 ], [ 89.691666666666649, 25.1625 ], [ 89.6975, 25.173333333333346 ], [ 89.7, 25.184166666666677 ] ] } },
{ "type": "Feature", "properties": { "COMID": 45051909, "id": "4878", "lengthkm": 10.419542008900091, "order": 7, "uparea": 512288.62122467172 }, "geometry": { "type": "LineString", "coordinates": [ [ 89.714166666666642, 25.05 ], [ 89.715, 25.066666666666677 ], [ 89.7125, 25.075 ], [ 89.706666666666649, 25.081666666666678 ], [ 89.7, 25.085833333333344 ], [ 89.6975, 25.095 ], [ 89.6925, 25.099166666666676 ], [ 89.693333333333314, 25.103333333333346 ], [ 89.691666666666649, 25.11 ], [ 89.693333333333314, 25.116666666666678 ], [ 89.691666666666649, 25.12 ], [ 89.691666666666649, 25.131666666666678 ] ] } },
{ "type": "Feature", "properties": { "COMID": 45051908, "id": "4878", "lengthkm": 14.626010437702035, "order": 7, "uparea": 512440.10577275103 }, "geometry": { "type": "LineString", "coordinates": [ [ 89.623333333333321, 24.971666666666678 ], [ 89.63, 24.979166666666679 ], [ 89.631666666666646, 24.988333333333344 ], [ 89.636666666666656, 24.998333333333346 ], [ 89.635833333333323, 25.003333333333345 ], [ 89.639166666666654, 25.0075 ], [ 89.66, 25.020833333333343 ], [ 89.684166666666641, 25.029166666666676 ], [ 89.6875, 25.0325 ], [ 89.6875, 25.035833333333343 ], [ 89.6925, 25.040833333333346 ], [ 89.703333333333319, 25.044166666666676 ], [ 89.706666666666649, 25.046666666666678 ], [ 89.7125, 25.046666666666678 ], [ 89.714166666666642, 25.05 ] ] } },
{ "type": "Feature", "properties": { "COMID": 45051907, "id": "4878", "lengthkm": 7.7523774871329643, "order": 7, "uparea": 512521.55635060318 }, "geometry": { "type": "LineString", "coordinates": [ [ 89.585, 24.92 ], [ 89.5875, 24.925833333333344 ], [ 89.5925, 24.930833333333347 ], [ 89.59333333333332, 24.935833333333346 ], [ 89.598333333333315, 24.940833333333345 ], [ 89.61166666666665, 24.945833333333347 ], [ 89.6125, 24.95 ], [ 89.621666666666641, 24.963333333333345 ], [ 89.623333333333321, 24.971666666666678 ] ] } },
{ "type": "Feature", "properties": { "COMID": 45051906, "id": "4878", "lengthkm": 2.2285378185530118, "order": 7, "uparea": 512672.28503345 }, "geometry": { "type": "LineString", "coordinates": [ [ 89.5825, 24.900833333333345 ], [ 89.585, 24.92 ] ] } },
{ "type": "Feature", "properties": { "COMID": 45051905, "id": "4878", "lengthkm": 7.0960486157572458, "order": 7, "uparea": 516173.1695838829 }, "geometry": { "type": "LineString", "coordinates": [ [ 89.610833333333318, 24.848333333333343 ], [ 89.60333333333331, 24.853333333333346 ], [ 89.6025, 24.859166666666678 ], [ 89.586666666666645, 24.8825 ], [ 89.583333333333314, 24.890833333333347 ], [ 89.5825, 24.900833333333345 ] ] } },
{ "type": "Feature", "properties": { "COMID": 45055823, "id": "4878", "lengthkm": 12.259906060839446, "order": 7, "uparea": 516439.71455311537 }, "geometry": { "type": "LineString", "coordinates": [ [ 89.645833333333314, 24.755833333333346 ], [ 89.623333333333321, 24.7775 ], [ 89.6225, 24.783333333333346 ], [ 89.624166666666653, 24.791666666666679 ], [ 89.613333333333316, 24.808333333333344 ], [ 89.615833333333313, 24.82166666666668 ], [ 89.61166666666665, 24.826666666666679 ], [ 89.61, 24.831666666666678 ], [ 89.61166666666665, 24.8425 ], [ 89.610833333333318, 24.848333333333343 ] ] } },
{ "type": "Feature", "properties": { "COMID": 45055822, "id": "4878", "lengthkm": 5.8606990997794144, "order": 7, "uparea": 516501.66898389673 }, "geometry": { "type": "LineString", "coordinates": [ [ 89.683333333333309, 24.72 ], [ 89.680833333333311, 24.725 ], [ 89.67083333333332, 24.733333333333345 ], [ 89.669166666666655, 24.7375 ], [ 89.661666666666648, 24.745 ], [ 89.645833333333314, 24.755833333333346 ] ] } },
{ "type": "Feature", "properties": { "COMID": 45055821, "id": "4878", "lengthkm": 7.5643640438178608, "order": 7, "uparea": 516649.70442385093 }, "geometry": { "type": "LineString", "coordinates": [ [ 89.6775, 24.659166666666678 ], [ 89.678333333333313, 24.6675 ], [ 89.6875, 24.6775 ], [ 89.689166666666651, 24.685 ], [ 89.689166666666651, 24.7 ], [ 89.685, 24.705 ], [ 89.683333333333309, 24.72 ] ] } },
{ "type": "Feature", "properties": { "COMID": 45055820, "id": "4878", "lengthkm": 5.0029035206189061, "order": 7, "uparea": 516693.86591527151 }, "geometry": { "type": "LineString", "coordinates": [ [ 89.6975, 24.621666666666677 ], [ 89.683333333333309, 24.640833333333347 ], [ 89.681666666666644, 24.651666666666678 ], [ 89.6775, 24.659166666666678 ] ] } },
{ "type": "Feature", "properties": { "COMID": 45055819, "id": "4878", "lengthkm": 8.6600885386777176, "order": 7, "uparea": 516757.49328303756 }, "geometry": { "type": "LineString", "coordinates": [ [ 89.696666666666644, 24.553333333333345 ], [ 89.703333333333319, 24.5625 ], [ 89.7025, 24.575833333333343 ], [ 89.704166666666652, 24.576666666666679 ], [ 89.699166666666656, 24.583333333333343 ], [ 89.6975, 24.588333333333345 ], [ 89.6975, 24.590833333333343 ], [ 89.701666666666654, 24.5975 ], [ 89.701666666666654, 24.613333333333344 ], [ 89.6975, 24.621666666666677 ] ] } },
{ "type": "Feature", "properties": { "COMID": 45055818, "id": "4878", "lengthkm": 7.8989366300372241, "order": 7, "uparea": 516888.81985261728 }, "geometry": { "type": "LineString", "coordinates": [ [ 89.731666666666655, 24.498333333333346 ], [ 89.724166666666648, 24.501666666666679 ], [ 89.724166666666648, 24.508333333333347 ], [ 89.720833333333317, 24.513333333333343 ], [ 89.720833333333317, 24.51666666666668 ], [ 89.714166666666642, 24.520833333333343 ], [ 89.710833333333312, 24.53166666666668 ], [ 89.696666666666644, 24.553333333333345 ] ] } },
{ "type": "Feature", "properties": { "COMID": 45055817, "id": "4878", "lengthkm": 0.46256604511763, "order": 7, "uparea": 516916.70195993572 }, "geometry": { "type": "LineString", "coordinates": [ [ 89.735833333333318, 24.4975 ], [ 89.731666666666655, 24.498333333333346 ] ] } },
{ "type": "Feature", "properties": { "COMID": 45055816, "id": "4878", "lengthkm": 6.598728336237202, "order": 7, "uparea": 516963.70636426669 }, "geometry": { "type": "LineString", "coordinates": [ [ 89.778333333333308, 24.459166666666679 ], [ 89.773333333333312, 24.4625 ], [ 89.773333333333312, 24.465 ], [ 89.761666666666656, 24.48 ], [ 89.755833333333314, 24.481666666666676 ], [ 89.7475, 24.490833333333345 ], [ 89.735833333333318, 24.4975 ] ] } },
{ "type": "Feature", "properties": { "COMID": 45055815, "id": "4878", "lengthkm": 9.8668075598460465, "order": 7, "uparea": 517748.08102689602 }, "geometry": { "type": "LineString", "coordinates": [ [ 89.7925, 24.38 ], [ 89.791666666666657, 24.396666666666679 ], [ 89.7975, 24.413333333333345 ], [ 89.796666666666653, 24.4325 ], [ 89.785833333333315, 24.451666666666679 ], [ 89.778333333333308, 24.459166666666679 ] ] } },
{ "type": "Feature", "properties": { "COMID": 45055814, "id": "4878", "lengthkm": 1.9293618939258701, "order": 7, "uparea": 517779.32589987788 }, "geometry": { "type": "LineString", "coordinates": [ [ 89.785833333333315, 24.365 ], [ 89.791666666666657, 24.374166666666678 ], [ 89.7925, 24.38 ] ] } },
{ "type": "Feature", "properties": { "COMID": 45055813, "id": "4878", "lengthkm": 12.634835249374694, "order": 7, "uparea": 517921.15100870974 }, "geometry": { "type": "LineString", "coordinates": [ [ 89.766666666666652, 24.261666666666677 ], [ 89.7675, 24.268333333333345 ], [ 89.7725, 24.279166666666679 ], [ 89.778333333333308, 24.299166666666679 ], [ 89.778333333333308, 24.3125 ], [ 89.781666666666652, 24.3175 ], [ 89.781666666666652, 24.325833333333346 ], [ 89.78, 24.330833333333345 ], [ 89.786666666666648, 24.345833333333346 ], [ 89.7875, 24.356666666666676 ], [ 89.785833333333315, 24.365 ] ] } },
{ "type": "Feature", "properties": { "COMID": 45055812, "id": "4878", "lengthkm": 1.439260427830152, "order": 7, "uparea": 517959.12190392771 }, "geometry": { "type": "LineString", "coordinates": [ [ 89.758333333333312, 24.251666666666679 ], [ 89.766666666666652, 24.261666666666677 ] ] } },
{ "type": "Feature", "properties": { "COMID": 45059555, "id": "4878", "lengthkm": 10.945284875477547, "order": 7, "uparea": 518038.97333570657 }, "geometry": { "type": "LineString", "coordinates": [ [ 89.7075, 24.1775 ], [ 89.724166666666648, 24.19 ], [ 89.723333333333315, 24.194166666666678 ], [ 89.73666666666665, 24.210833333333348 ], [ 89.7375, 24.2175 ], [ 89.741666666666646, 24.221666666666678 ], [ 89.75, 24.225833333333345 ], [ 89.759166666666644, 24.241666666666681 ], [ 89.758333333333312, 24.251666666666679 ] ] } },
{ "type": "Feature", "properties": { "COMID": 45059554, "id": "4878", "lengthkm": 18.954305682065407, "order": 7, "uparea": 518184.72584258142 }, "geometry": { "type": "LineString", "coordinates": [ [ 89.6625, 24.03166666666668 ], [ 89.6675, 24.035833333333343 ], [ 89.6725, 24.0375 ], [ 89.6825, 24.048333333333346 ], [ 89.685833333333321, 24.059166666666677 ], [ 89.684166666666641, 24.065 ], [ 89.686666666666653, 24.069166666666678 ], [ 89.686666666666653, 24.0725 ], [ 89.6825, 24.0775 ], [ 89.685, 24.080833333333345 ], [ 89.685833333333321, 24.089166666666678 ], [ 89.69, 24.093333333333348 ], [ 89.69, 24.09916666666668 ], [ 89.6925, 24.105 ], [ 89.6925, 24.115833333333345 ], [ 89.694166666666646, 24.12 ], [ 89.694166666666646, 24.125833333333347 ], [ 89.6925, 24.128333333333345 ], [ 89.6925, 24.15 ], [ 89.699166666666656, 24.163333333333345 ], [ 89.706666666666649, 24.173333333333346 ], [ 89.7075, 24.1775 ] ] } },
{ "type": "Feature", "properties": { "COMID": 45059553, "id": "4878", "lengthkm": 0.68146906953977904, "order": 7, "uparea": 537141.17193041742 }, "geometry": { "type": "LineString", "coordinates": [ [ 89.661666666666648, 24.025833333333345 ], [ 89.6625, 24.03166666666668 ] ] } },
{ "type": "Feature", "properties": { "COMID": 45059552, "id": "4878", "lengthkm": 18.675480070709391, "order": 7, "uparea": 537417.63620310393 }, "geometry": { "type": "LineString", "coordinates": [ [ 89.699166666666656, 23.8875 ], [ 89.699166666666656, 23.895833333333346 ], [ 89.701666666666654, 23.905 ], [ 89.701666666666654, 23.933333333333344 ], [ 89.691666666666649, 23.9475 ], [ 89.685, 23.95416666666668 ], [ 89.6775, 23.959166666666679 ], [ 89.666666666666657, 23.96166666666668 ], [ 89.665, 23.965 ], [ 89.666666666666657, 23.975 ], [ 89.665, 23.978333333333346 ], [ 89.666666666666657, 23.983333333333345 ], [ 89.666666666666657, 23.9925 ], [ 89.6725, 24.010833333333345 ], [ 89.665, 24.015833333333347 ], [ 89.661666666666648, 24.025833333333345 ] ] } },
{ "type": "Feature", "properties": { "COMID": 45059551, "id": "4878", "lengthkm": 1.778686451137651, "order": 7, "uparea": 537493.71868278971 }, "geometry": { "type": "LineString", "coordinates": [ [ 89.691666666666649, 23.874166666666678 ], [ 89.696666666666644, 23.88 ], [ 89.699166666666656, 23.8875 ] ] } },
{ "type": "Feature", "properties": { "COMID": 45059550, "id": "4878", "lengthkm": 10.440372897070473, "order": 7, "uparea": 538022.20607306773 }, "geometry": { "type": "LineString", "coordinates": [ [ 89.7425, 23.810833333333346 ], [ 89.72833333333331, 23.8175 ], [ 89.725, 23.824166666666677 ], [ 89.72, 23.82916666666668 ], [ 89.708333333333314, 23.830833333333345 ], [ 89.696666666666644, 23.841666666666679 ], [ 89.693333333333314, 23.848333333333347 ], [ 89.693333333333314, 23.855 ], [ 89.689166666666651, 23.863333333333344 ], [ 89.689166666666651, 23.869166666666679 ], [ 89.691666666666649, 23.874166666666678 ] ] } },
{ "type": "Feature", "properties": { "COMID": 45059537, "id": "4878", "lengthkm": 2.364264633039713, "order": 8, "uparea": 1480070.8617546074 }, "geometry": { "type": "LineString", "coordinates": [ [ 89.763333333333321, 23.8125 ], [ 89.7425, 23.810833333333346 ] ] } },
{ "type": "Feature", "properties": { "COMID": 45059536, "id": "4878", "lengthkm": 3.3533933894008552, "order": 8, "uparea": 1480461.6324491578 }, "geometry": { "type": "LineString", "coordinates": [ [ 89.786666666666648, 23.7925 ], [ 89.765, 23.8125 ], [ 89.763333333333321, 23.8125 ] ] } },
{ "type": "Feature", "properties": { "COMID": 45059535, "id": "4878", "lengthkm": 2.028552639801394, "order": 8, "uparea": 1480549.6332875148 }, "geometry": { "type": "LineString", "coordinates": [ [ 89.79916666666665, 23.779166666666679 ], [ 89.786666666666648, 23.7925 ] ] } },
{ "type": "Feature", "properties": { "COMID": 45059534, "id": "4878", "lengthkm": 24.147820154197287, "order": 8, "uparea": 1480725.0136060892 }, "geometry": { "type": "LineString", "coordinates": [ [ 89.995, 23.705833333333345 ], [ 89.9925, 23.708333333333346 ], [ 89.9825, 23.7125 ], [ 89.960833333333312, 23.715833333333347 ], [ 89.94, 23.723333333333347 ], [ 89.919166666666655, 23.725833333333345 ], [ 89.910833333333315, 23.725 ], [ 89.9025, 23.729166666666679 ], [ 89.886666666666656, 23.729166666666679 ], [ 89.871666666666641, 23.733333333333345 ], [ 89.855, 23.73 ], [ 89.83833333333331, 23.743333333333347 ], [ 89.813333333333318, 23.768333333333345 ], [ 89.79916666666665, 23.779166666666679 ] ] } },
{ "type": "Feature", "properties": { "COMID": 45063347, "id": "4878", "lengthkm": 5.2676845882940846, "order": 8, "uparea": 1480789.2229896402 }, "geometry": { "type": "LineString", "coordinates": [ [ 89.991666666666646, 23.660833333333347 ], [ 89.996666666666641, 23.67666666666668 ], [ 89.995, 23.705833333333345 ] ] } },
{ "type": "Feature", "properties": { "COMID": 45063346, "id": "4878", "lengthkm": 7.283326201289265, "order": 8, "uparea": 1480948.0639584674 }, "geometry": { "type": "LineString", "coordinates": [ [ 90.009166666666644, 23.605 ], [ 90.008333333333312, 23.620833333333344 ], [ 90.0125, 23.628333333333345 ], [ 90.0125, 23.633333333333347 ], [ 90.003333333333316, 23.65 ], [ 89.991666666666646, 23.660833333333347 ] ] } },
{ "type": "Feature", "properties": { "COMID": 45063345, "id": "4878", "lengthkm": 7.3301595308811152, "order": 8, "uparea": 1481136.7888560903 }, "geometry": { "type": "LineString", "coordinates": [ [ 90.059166666666641, 23.5625 ], [ 90.03, 23.5925 ], [ 90.0125, 23.601666666666681 ], [ 90.009166666666644, 23.605 ] ] } },
{ "type": "Feature", "properties": { "COMID": 45063344, "id": "4878", "lengthkm": 12.769887712414294, "order": 8, "uparea": 1481312.4314660509 }, "geometry": { "type": "LineString", "coordinates": [ [ 90.115833333333313, 23.475 ], [ 90.109166666666653, 23.4875 ], [ 90.0975, 23.503333333333345 ], [ 90.0925, 23.514166666666679 ], [ 90.090833333333308, 23.520833333333346 ], [ 90.09166666666664, 23.541666666666679 ], [ 90.084166666666647, 23.5475 ], [ 90.065, 23.5575 ], [ 90.059166666666641, 23.5625 ] ] } },
{ "type": "Feature", "properties": { "COMID": 45063343, "id": "4878", "lengthkm": 7.5193073133645347, "order": 8, "uparea": 1481911.4042069917 }, "geometry": { "type": "LineString", "coordinates": [ [ 90.179166666666646, 23.466666666666679 ], [ 90.176666666666648, 23.4675 ], [ 90.17083333333332, 23.465 ], [ 90.146666666666647, 23.460833333333348 ], [ 90.1275, 23.465833333333347 ], [ 90.115833333333313, 23.475 ] ] } },
{ "type": "Feature", "properties": { "COMID": 45063342, "id": "4878", "lengthkm": 0.084998536493851001, "order": 8, "uparea": 1482022.2761364332 }, "geometry": { "type": "LineString", "coordinates": [ [ 90.18, 23.466666666666679 ], [ 90.179166666666646, 23.466666666666679 ] ] } },
{ "type": "Feature", "properties": { "COMID": 45063341, "id": "4878", "lengthkm": 22.24883309536888, "order": 8, "uparea": 1482212.7252700049 }, "geometry": { "type": "LineString", "coordinates": [ [ 90.373333333333306, 23.42 ], [ 90.355, 23.423333333333346 ], [ 90.3325, 23.433333333333344 ], [ 90.315833333333316, 23.4325 ], [ 90.313333333333318, 23.43416666666668 ], [ 90.301666666666648, 23.435 ], [ 90.28083333333332, 23.44666666666668 ], [ 90.25, 23.45 ], [ 90.241666666666646, 23.4525 ], [ 90.24, 23.451666666666679 ], [ 90.215833333333308, 23.460833333333348 ], [ 90.203333333333319, 23.460833333333348 ], [ 90.193333333333314, 23.465 ], [ 90.18, 23.466666666666679 ] ] } },
{ "type": "Feature", "properties": { "COMID": 45063340, "id": "4878", "lengthkm": 11.879566167536154, "order": 8, "uparea": 1482501.2272524796 }, "geometry": { "type": "LineString", "coordinates": [ [ 90.436666666666653, 23.34 ], [ 90.434166666666641, 23.343333333333344 ], [ 90.430833333333311, 23.360833333333346 ], [ 90.419166666666655, 23.375833333333347 ], [ 90.40916666666665, 23.385833333333345 ], [ 90.399166666666645, 23.401666666666678 ], [ 90.373333333333306, 23.42 ] ] } },
{ "type": "Feature", "properties": { "COMID": 45063339, "id": "4878", "lengthkm": 0.714071485172183, "order": 8, "uparea": 1482555.5706116247 }, "geometry": { "type": "LineString", "coordinates": [ [ 90.441666666666649, 23.335833333333348 ], [ 90.436666666666653, 23.34 ] ] } },
{ "type": "Feature", "properties": { "COMID": 45063338, "id": "4878", "lengthkm": 3.684757535951662, "order": 8, "uparea": 1482765.1194097816 }, "geometry": { "type": "LineString", "coordinates": [ [ 90.474166666666648, 23.331666666666678 ], [ 90.454166666666652, 23.330833333333345 ], [ 90.449166666666656, 23.331666666666678 ], [ 90.441666666666649, 23.335833333333348 ] ] } },
{ "type": "Feature", "properties": { "COMID": 45063337, "id": "4878", "lengthkm": 1.9350875813103481, "order": 8, "uparea": 1482797.5267805532 }, "geometry": { "type": "LineString", "coordinates": [ [ 90.488333333333316, 23.32166666666668 ], [ 90.481666666666655, 23.324166666666681 ], [ 90.474166666666648, 23.331666666666678 ] ] } },
{ "type": "Feature", "properties": { "COMID": 45063336, "id": "4878", "lengthkm": 5.8385379776508346, "order": 8, "uparea": 1482976.942876504 }, "geometry": { "type": "LineString", "coordinates": [ [ 90.538333333333313, 23.306666666666679 ], [ 90.52916666666664, 23.3075 ], [ 90.5225, 23.310833333333346 ], [ 90.5125, 23.32 ], [ 90.488333333333316, 23.32166666666668 ] ] } },
{ "type": "Feature", "properties": { "COMID": 45063335, "id": "4878", "lengthkm": 6.305659495608567, "order": 8, "uparea": 1483033.5524042775 }, "geometry": { "type": "LineString", "coordinates": [ [ 90.5875, 23.295833333333345 ], [ 90.575833333333321, 23.293333333333347 ], [ 90.5625, 23.30166666666668 ], [ 90.554166666666646, 23.305 ], [ 90.550833333333316, 23.31 ], [ 90.543333333333322, 23.306666666666679 ], [ 90.538333333333313, 23.306666666666679 ] ] } },
{ "type": "Feature", "properties": { "COMID": 45063334, "id": "4878", "lengthkm": 7.8191387100587306, "order": 8, "uparea": 1483124.8605031187 }, "geometry": { "type": "LineString", "coordinates": [ [ 90.626666666666651, 23.24 ], [ 90.610833333333318, 23.25916666666668 ], [ 90.60833333333332, 23.268333333333345 ], [ 90.6, 23.276666666666678 ], [ 90.599166666666648, 23.28166666666668 ], [ 90.595833333333317, 23.2875 ], [ 90.5875, 23.295833333333345 ] ] } },
{ "type": "Feature", "properties": { "COMID": 45063333, "id": "4878", "lengthkm": 8.8182140991362683, "order": 8, "uparea": 1572400.525695469 }, "geometry": { "type": "LineString", "coordinates": [ [ 90.61166666666665, 23.166666666666679 ], [ 90.615, 23.186666666666678 ], [ 90.620833333333309, 23.1975 ], [ 90.626666666666651, 23.218333333333344 ], [ 90.626666666666651, 23.24 ] ] } },
{ "type": "Feature", "properties": { "COMID": 45063332, "id": "4878", "lengthkm": 7.6543775006214121, "order": 8, "uparea": 1572504.0563616927 }, "geometry": { "type": "LineString", "coordinates": [ [ 90.59333333333332, 23.105 ], [ 90.5975, 23.113333333333347 ], [ 90.601666666666645, 23.133333333333347 ], [ 90.60833333333332, 23.14916666666668 ], [ 90.6075, 23.1525 ], [ 90.61166666666665, 23.16166666666668 ], [ 90.61166666666665, 23.166666666666679 ] ] } },
{ "type": "Feature", "properties": { "COMID": 45066867, "id": "4878", "lengthkm": 8.8264913247611076, "order": 8, "uparea": 1572667.3889131162 }, "geometry": { "type": "LineString", "coordinates": [ [ 90.584166666666647, 23.0325 ], [ 90.584166666666647, 23.035 ], [ 90.590833333333308, 23.043333333333347 ], [ 90.598333333333315, 23.07166666666668 ], [ 90.598333333333315, 23.085833333333348 ], [ 90.59333333333332, 23.105 ] ] } },
{ "type": "Feature", "properties": { "COMID": 45066866, "id": "4878", "lengthkm": 11.626908692823784, "order": 8, "uparea": 1573607.9737473868 }, "geometry": { "type": "LineString", "coordinates": [ [ 90.631666666666646, 22.945 ], [ 90.628333333333316, 22.953333333333347 ], [ 90.615, 22.975 ], [ 90.61, 22.98 ], [ 90.605, 22.991666666666681 ], [ 90.600833333333313, 22.995833333333348 ], [ 90.594166666666652, 23.0125 ], [ 90.5875, 23.02 ], [ 90.584166666666647, 23.0325 ] ] } },
{ "type": "Feature", "properties": { "COMID": 45066865, "id": "4878", "lengthkm": 2.2123776367557291, "order": 8, "uparea": 1573652.1037601084 }, "geometry": { "type": "LineString", "coordinates": [ [ 90.638333333333321, 22.9275 ], [ 90.631666666666646, 22.945 ] ] } },
{ "type": "Feature", "properties": { "COMID": 45066864, "id": "4878", "lengthkm": 2.286353277797005, "order": 8, "uparea": 1573882.3011841814 }, "geometry": { "type": "LineString", "coordinates": [ [ 90.649166666666645, 22.910833333333347 ], [ 90.638333333333321, 22.9275 ] ] } },
{ "type": "Feature", "properties": { "COMID": 45066863, "id": "4878", "lengthkm": 10.136653461461982, "order": 8, "uparea": 1574012.6907671301 }, "geometry": { "type": "LineString", "coordinates": [ [ 90.7125, 22.846666666666678 ], [ 90.694166666666646, 22.861666666666679 ], [ 90.6875, 22.8725 ], [ 90.673333333333318, 22.8875 ], [ 90.663333333333313, 22.900833333333345 ], [ 90.649166666666645, 22.910833333333347 ] ] } },
{ "type": "Feature", "properties": { "COMID": 45066862, "id": "4878", "lengthkm": 6.9867986145700964, "order": 8, "uparea": 1574545.5744448761 }, "geometry": { "type": "LineString", "coordinates": [ [ 90.723333333333315, 22.788333333333345 ], [ 90.719166666666652, 22.7975 ], [ 90.7125, 22.846666666666678 ] ] } },
{ "type": "Feature", "properties": { "COMID": 45066861, "id": "4878", "lengthkm": 1.3973938849260481, "order": 8, "uparea": 1574591.2623521597 }, "geometry": { "type": "LineString", "coordinates": [ [ 90.720833333333317, 22.776666666666681 ], [ 90.723333333333315, 22.788333333333345 ] ] } },
{ "type": "Feature", "properties": { "COMID": 45066860, "id": "4878", "lengthkm": 3.3249251226456198, "order": 8, "uparea": 1574680.9067696885 }, "geometry": { "type": "LineString", "coordinates": [ [ 90.7275, 22.749166666666678 ], [ 90.7225, 22.764166666666679 ], [ 90.720833333333317, 22.776666666666681 ] ] } },
{ "type": "Feature", "properties": { "COMID": 45066859, "id": "4878", "lengthkm": 0.31137575033335202, "order": 8, "uparea": 1574708.4456096634 }, "geometry": { "type": "LineString", "coordinates": [ [ 90.72833333333331, 22.74666666666668 ], [ 90.7275, 22.749166666666678 ] ] } },
{ "type": "Feature", "properties": { "COMID": 45066858, "id": "4878", "lengthkm": 7.2847450964907097, "order": 8, "uparea": 1574834.2982043759 }, "geometry": { "type": "LineString", "coordinates": [ [ 90.7575, 22.691666666666681 ], [ 90.744166666666644, 22.713333333333345 ], [ 90.740833333333313, 22.725 ], [ 90.72833333333331, 22.74666666666668 ] ] } },
{ "type": "Feature", "properties": { "COMID": 45066857, "id": "4878", "lengthkm": 2.3985656537863922, "order": 8, "uparea": 1574898.6207858638 }, "geometry": { "type": "LineString", "coordinates": [ [ 90.764166666666654, 22.6725 ], [ 90.7575, 22.691666666666681 ] ] } },
{ "type": "Feature", "properties": { "COMID": 45066856, "id": "4878", "lengthkm": 7.0912977241002322, "order": 8, "uparea": 1575032.5004286871 }, "geometry": { "type": "LineString", "coordinates": [ [ 90.81, 22.626666666666679 ], [ 90.795, 22.644166666666681 ], [ 90.764166666666654, 22.6725 ] ] } },
{ "type": "Feature", "properties": { "COMID": 45066855, "id": "4878", "lengthkm": 7.5775848669324732, "order": 8, "uparea": 1575385.9506649468 }, "geometry": { "type": "LineString", "coordinates": [ [ 90.803333333333313, 22.563333333333347 ], [ 90.8, 22.573333333333348 ], [ 90.8, 22.589166666666681 ], [ 90.8075, 22.6125 ], [ 90.81, 22.626666666666679 ] ] } },
{ "type": "Feature", "properties": { "COMID": 45070323, "id": "4878", "lengthkm": 16.643676992320035, "order": 8, "uparea": 1575630.991704083 }, "geometry": { "type": "LineString", "coordinates": [ [ 90.9, 22.4575 ], [ 90.888333333333321, 22.4625 ], [ 90.88, 22.46916666666668 ], [ 90.868333333333311, 22.475 ], [ 90.850833333333313, 22.490833333333345 ], [ 90.839166666666642, 22.508333333333347 ], [ 90.83833333333331, 22.5175 ], [ 90.814166666666651, 22.54416666666668 ], [ 90.803333333333313, 22.563333333333347 ] ] } },
{ "type": "Feature", "properties": { "COMID": 45070322, "id": "4878", "lengthkm": 0.12617354695302499, "order": 8, "uparea": 1575661.803881095 }, "geometry": { "type": "LineString", "coordinates": [ [ 90.90083333333331, 22.456666666666681 ], [ 90.9, 22.4575 ] ] } }
]
}
