{
"type": "FeatureCollection",
"name": "downstream_77757",
"crs": { "type": "name", "properties": { "name": "urn:ogc:def:crs:OGC:1.3:CRS84" } },
"features": [
{ "type": "Feature", "properties": { "COMID": 44036329, "id": "39214", "lengthkm": 12.604233338743727, "order": 3, "uparea": 523.61102255559535 }, "geometry": { "type": "LineString", "coordinates": [ [ 108.106666666666655, 14.19916666666667 ], [ 108.105, 14.2 ], [ 108.101666666666659, 14.194166666666671 ], [ 108.098333333333329, 14.195 ], [ 108.0975, 14.19 ], [ 108.101666666666659, 14.18833333333334 ], [ 108.103333333333325, 14.185833333333338 ], [ 108.105, 14.186666666666671 ], [ 108.1075, 14.185 ], [ 108.106666666666655, 14.181666666666672 ], [ 108.1175, 14.17 ], [ 108.1175, 14.1575 ], [ 108.115833333333327, 14.155833333333337 ], [ 108.1175, 14.1525 ], [ 108.115833333333327, 14.15 ], [ 108.115833333333327, 14.145 ], [ 108.1175, 14.143333333333338 ], [ 108.11666666666666, 14.139166666666672 ], [ 108.12, 14.13666666666667 ], [ 108.12166666666667, 14.139166666666672 ], [ 108.124166666666667, 14.135833333333338 ], [ 108.126666666666665, 14.13 ], [ 108.125833333333333, 14.125 ] ] } },
{ "type": "Feature", "properties": { "COMID": 44036328, "id": "39214", "lengthkm": 1.824356690336997, "order": 3, "uparea": 556.50497782410991 }, "geometry": { "type": "LineString", "coordinates": [ [ 108.110833333333332, 14.21 ], [ 108.11, 14.205833333333338 ], [ 108.106666666666655, 14.204166666666673 ], [ 108.106666666666655, 14.19916666666667 ] ] } },
{ "type": "Feature", "properties": { "COMID": 44036327, "id": "39214", "lengthkm": 7.3055709516510907, "order": 3, "uparea": 717.0789389803183 }, "geometry": { "type": "LineString", "coordinates": [ [ 108.095833333333331, 14.255833333333339 ], [ 108.1, 14.256666666666671 ], [ 108.101666666666659, 14.2525 ], [ 108.106666666666655, 14.249166666666671 ], [ 108.106666666666655, 14.244166666666672 ], [ 108.104166666666657, 14.241666666666671 ], [ 108.104166666666657, 14.239166666666673 ], [ 108.1075, 14.238333333333337 ], [ 108.106666666666655, 14.23416666666667 ], [ 108.108333333333334, 14.2325 ], [ 108.108333333333334, 14.221666666666671 ], [ 108.111666666666665, 14.2175 ], [ 108.108333333333334, 14.211666666666673 ], [ 108.110833333333332, 14.21 ] ] } },
{ "type": "Feature", "properties": { "COMID": 44036326, "id": "39214", "lengthkm": 9.858486955828516, "order": 3, "uparea": 893.37249705130523 }, "geometry": { "type": "LineString", "coordinates": [ [ 108.0875, 14.31666666666667 ], [ 108.088333333333338, 14.314166666666672 ], [ 108.085833333333326, 14.310833333333338 ], [ 108.088333333333338, 14.304166666666671 ], [ 108.085833333333326, 14.3025 ], [ 108.085833333333326, 14.298333333333339 ], [ 108.0875, 14.29666666666667 ], [ 108.0875, 14.298333333333339 ], [ 108.091666666666669, 14.29666666666667 ], [ 108.0925, 14.284166666666671 ], [ 108.096666666666664, 14.285 ], [ 108.099166666666662, 14.283333333333339 ], [ 108.095833333333331, 14.2775 ], [ 108.099166666666662, 14.275833333333338 ], [ 108.099166666666662, 14.273333333333337 ], [ 108.1025, 14.27 ], [ 108.1025, 14.264166666666672 ], [ 108.095833333333331, 14.255833333333339 ] ] } },
{ "type": "Feature", "properties": { "COMID": 44036325, "id": "39214", "lengthkm": 11.880258246776155, "order": 4, "uparea": 2894.4630247652226 }, "geometry": { "type": "LineString", "coordinates": [ [ 108.034166666666664, 14.37 ], [ 108.039166666666659, 14.37166666666667 ], [ 108.05083333333333, 14.3625 ], [ 108.055, 14.346666666666671 ], [ 108.058333333333337, 14.34 ], [ 108.05916666666667, 14.333333333333339 ], [ 108.065, 14.330833333333338 ], [ 108.066666666666663, 14.328333333333337 ], [ 108.065, 14.32 ], [ 108.070833333333326, 14.31666666666667 ], [ 108.08, 14.32416666666667 ], [ 108.0825, 14.321666666666673 ], [ 108.083333333333329, 14.315833333333337 ], [ 108.085833333333326, 14.315 ], [ 108.0875, 14.31666666666667 ] ] } },
{ "type": "Feature", "properties": { "COMID": 44036324, "id": "39214", "lengthkm": 17.559727525118127, "order": 4, "uparea": 2996.7210669852466 }, "geometry": { "type": "LineString", "coordinates": [ [ 107.9725, 14.3525 ], [ 107.981666666666655, 14.353333333333339 ], [ 107.989166666666662, 14.356666666666673 ], [ 107.99, 14.354166666666671 ], [ 107.986666666666665, 14.35 ], [ 107.9875, 14.34416666666667 ], [ 107.989166666666662, 14.3425 ], [ 107.9925, 14.3425 ], [ 107.99666666666667, 14.345 ], [ 108.0, 14.345 ], [ 108.0025, 14.3425 ], [ 108.005, 14.33 ], [ 108.009166666666658, 14.325833333333339 ], [ 108.015833333333333, 14.325833333333339 ], [ 108.021666666666661, 14.329166666666673 ], [ 108.018333333333331, 14.335833333333337 ], [ 108.02, 14.34 ], [ 108.026666666666671, 14.34083333333334 ], [ 108.030833333333334, 14.345 ], [ 108.043333333333322, 14.3525 ], [ 108.043333333333322, 14.354166666666671 ], [ 108.04, 14.356666666666673 ], [ 108.033333333333331, 14.355833333333337 ], [ 108.028333333333336, 14.35916666666667 ], [ 108.0275, 14.364166666666673 ], [ 108.034166666666664, 14.37 ] ] } },
{ "type": "Feature", "properties": { "COMID": 44036323, "id": "39214", "lengthkm": 2.0398296449962849, "order": 4, "uparea": 3070.0252685528644 }, "geometry": { "type": "LineString", "coordinates": [ [ 107.9625, 14.363333333333337 ], [ 107.965833333333336, 14.361666666666672 ], [ 107.965833333333336, 14.355833333333337 ], [ 107.968333333333334, 14.353333333333339 ], [ 107.9725, 14.3525 ] ] } },
{ "type": "Feature", "properties": { "COMID": 44036322, "id": "39214", "lengthkm": 10.459619453333236, "order": 4, "uparea": 3270.033660401778 }, "geometry": { "type": "LineString", "coordinates": [ [ 107.9075, 14.368333333333339 ], [ 107.9075, 14.363333333333337 ], [ 107.910833333333329, 14.36 ], [ 107.923333333333332, 14.355 ], [ 107.92583333333333, 14.355833333333337 ], [ 107.930833333333325, 14.369166666666672 ], [ 107.935, 14.374166666666671 ], [ 107.9375, 14.374166666666671 ], [ 107.950833333333321, 14.364166666666673 ], [ 107.953333333333333, 14.355833333333337 ], [ 107.955833333333331, 14.356666666666673 ], [ 107.956666666666663, 14.363333333333337 ], [ 107.9625, 14.363333333333337 ] ] } },
{ "type": "Feature", "properties": { "COMID": 44036321, "id": "39214", "lengthkm": 4.2188299479452809, "order": 4, "uparea": 3434.193536579854 }, "geometry": { "type": "LineString", "coordinates": [ [ 107.87833333333333, 14.365 ], [ 107.885833333333323, 14.370833333333337 ], [ 107.8875, 14.370833333333337 ], [ 107.889166666666668, 14.366666666666671 ], [ 107.893333333333331, 14.366666666666671 ], [ 107.8975, 14.370833333333337 ], [ 107.904166666666669, 14.370833333333337 ], [ 107.9075, 14.368333333333339 ] ] } },
{ "type": "Feature", "properties": { "COMID": 44036320, "id": "39214", "lengthkm": 5.3451319524330421, "order": 4, "uparea": 6673.9492278255339 }, "geometry": { "type": "LineString", "coordinates": [ [ 107.864166666666662, 14.328333333333337 ], [ 107.874166666666667, 14.336666666666673 ], [ 107.875, 14.34 ], [ 107.87833333333333, 14.343333333333337 ], [ 107.883333333333326, 14.356666666666673 ], [ 107.883333333333326, 14.360833333333339 ], [ 107.87833333333333, 14.365 ] ] } },
{ "type": "Feature", "properties": { "COMID": 44036319, "id": "39214", "lengthkm": 9.1483072738051181, "order": 4, "uparea": 6742.8629803241829 }, "geometry": { "type": "LineString", "coordinates": [ [ 107.836666666666659, 14.268333333333338 ], [ 107.8425, 14.271666666666672 ], [ 107.848333333333329, 14.271666666666672 ], [ 107.85, 14.276666666666671 ], [ 107.854166666666657, 14.280833333333337 ], [ 107.854166666666657, 14.294166666666673 ], [ 107.856666666666655, 14.2975 ], [ 107.8575, 14.304166666666671 ], [ 107.856666666666655, 14.306666666666672 ], [ 107.850833333333327, 14.311666666666671 ], [ 107.855, 14.31666666666667 ], [ 107.856666666666655, 14.321666666666673 ], [ 107.864166666666662, 14.328333333333337 ] ] } },
{ "type": "Feature", "properties": { "COMID": 44036318, "id": "39214", "lengthkm": 1.628110442398552, "order": 4, "uparea": 7149.3912367326575 }, "geometry": { "type": "LineString", "coordinates": [ [ 107.836666666666659, 14.255 ], [ 107.835, 14.263333333333339 ], [ 107.836666666666659, 14.268333333333338 ] ] } },
{ "type": "Feature", "properties": { "COMID": 44036317, "id": "39214", "lengthkm": 7.0896813074832368, "order": 4, "uparea": 7394.5524854440018 }, "geometry": { "type": "LineString", "coordinates": [ [ 107.8125, 14.2125 ], [ 107.819166666666661, 14.215 ], [ 107.820833333333326, 14.2175 ], [ 107.820833333333326, 14.224166666666672 ], [ 107.823333333333323, 14.224166666666672 ], [ 107.826666666666668, 14.2275 ], [ 107.83, 14.233333333333338 ], [ 107.835, 14.231666666666673 ], [ 107.838333333333338, 14.235 ], [ 107.836666666666659, 14.255 ] ] } },
{ "type": "Feature", "properties": { "COMID": 44036316, "id": "39214", "lengthkm": 17.83203955338757, "order": 4, "uparea": 7721.1989785207006 }, "geometry": { "type": "LineString", "coordinates": [ [ 107.689166666666665, 14.220833333333339 ], [ 107.691666666666663, 14.220833333333339 ], [ 107.695833333333326, 14.216666666666672 ], [ 107.7, 14.215 ], [ 107.708333333333329, 14.216666666666672 ], [ 107.7125, 14.214166666666671 ], [ 107.73, 14.214166666666671 ], [ 107.7375, 14.21 ], [ 107.739166666666662, 14.2075 ], [ 107.7475, 14.2075 ], [ 107.758333333333326, 14.2025 ], [ 107.761666666666656, 14.2025 ], [ 107.763333333333321, 14.204166666666673 ], [ 107.763333333333321, 14.2125 ], [ 107.771666666666661, 14.215 ], [ 107.7725, 14.218333333333337 ], [ 107.775833333333338, 14.218333333333337 ], [ 107.778333333333336, 14.21583333333334 ], [ 107.783333333333331, 14.225 ], [ 107.7875, 14.224166666666672 ], [ 107.789166666666659, 14.220833333333339 ], [ 107.795, 14.221666666666671 ], [ 107.799166666666665, 14.22 ], [ 107.806666666666672, 14.2125 ], [ 107.8125, 14.2125 ] ] } },
{ "type": "Feature", "properties": { "COMID": 44036315, "id": "39214", "lengthkm": 9.410805020119998, "order": 4, "uparea": 7888.8108105281344 }, "geometry": { "type": "LineString", "coordinates": [ [ 107.66, 14.15333333333334 ], [ 107.660833333333329, 14.158333333333339 ], [ 107.658333333333331, 14.165 ], [ 107.664166666666659, 14.1725 ], [ 107.6675, 14.173333333333339 ], [ 107.670833333333334, 14.176666666666673 ], [ 107.674166666666665, 14.184166666666673 ], [ 107.6775, 14.1875 ], [ 107.67916666666666, 14.19166666666667 ], [ 107.678333333333327, 14.200833333333339 ], [ 107.683333333333337, 14.205833333333338 ], [ 107.6875, 14.21583333333334 ], [ 107.6875, 14.22 ], [ 107.689166666666665, 14.220833333333339 ] ] } },
{ "type": "Feature", "properties": { "COMID": 44036314, "id": "39214", "lengthkm": 1.793727290243166, "order": 4, "uparea": 7946.7251900951615 }, "geometry": { "type": "LineString", "coordinates": [ [ 107.665, 14.139166666666672 ], [ 107.660833333333329, 14.146666666666672 ], [ 107.66, 14.15333333333334 ] ] } },
{ "type": "Feature", "properties": { "COMID": 44036313, "id": "39214", "lengthkm": 10.49617208852318, "order": 4, "uparea": 8021.3277156344175 }, "geometry": { "type": "LineString", "coordinates": [ [ 107.646666666666661, 14.064166666666672 ], [ 107.650833333333338, 14.068333333333339 ], [ 107.650833333333338, 14.075833333333339 ], [ 107.6575, 14.084166666666672 ], [ 107.655, 14.09083333333334 ], [ 107.649166666666659, 14.095833333333339 ], [ 107.648333333333326, 14.099166666666672 ], [ 107.650833333333338, 14.10166666666667 ], [ 107.6575, 14.103333333333339 ], [ 107.6575, 14.114166666666673 ], [ 107.660833333333329, 14.121666666666673 ], [ 107.660833333333329, 14.13 ], [ 107.665, 14.135833333333338 ], [ 107.665, 14.139166666666672 ] ] } },
{ "type": "Feature", "properties": { "COMID": 44036312, "id": "39214", "lengthkm": 5.0026011258020144, "order": 4, "uparea": 8836.3023709818135 }, "geometry": { "type": "LineString", "coordinates": [ [ 107.614166666666662, 14.0625 ], [ 107.615833333333327, 14.064166666666672 ], [ 107.6175, 14.0625 ], [ 107.62, 14.06333333333334 ], [ 107.625, 14.055833333333339 ], [ 107.634166666666658, 14.053333333333338 ], [ 107.6425, 14.06333333333334 ], [ 107.646666666666661, 14.064166666666672 ] ] } },
{ "type": "Feature", "properties": { "COMID": 44036311, "id": "39214", "lengthkm": 4.7979470663221422, "order": 4, "uparea": 8945.8360726284191 }, "geometry": { "type": "LineString", "coordinates": [ [ 107.6, 14.0275 ], [ 107.6, 14.040833333333339 ], [ 107.601666666666659, 14.045833333333338 ], [ 107.61333333333333, 14.054166666666671 ], [ 107.614166666666662, 14.0625 ] ] } },
{ "type": "Feature", "properties": { "COMID": 44036310, "id": "39214", "lengthkm": 7.2042968403446759, "order": 4, "uparea": 9019.7126149155938 }, "geometry": { "type": "LineString", "coordinates": [ [ 107.548333333333332, 14.021666666666672 ], [ 107.549166666666665, 14.024166666666673 ], [ 107.553333333333327, 14.025 ], [ 107.5575, 14.020833333333339 ], [ 107.561666666666667, 14.023333333333337 ], [ 107.57, 14.018333333333338 ], [ 107.579166666666666, 14.018333333333338 ], [ 107.586666666666659, 14.0225 ], [ 107.593333333333334, 14.0225 ], [ 107.6, 14.0275 ] ] } },
{ "type": "Feature", "properties": { "COMID": 44036309, "id": "39214", "lengthkm": 0.88707980665371799, "order": 4, "uparea": 9103.0417262390329 }, "geometry": { "type": "LineString", "coordinates": [ [ 107.545, 14.015 ], [ 107.545833333333334, 14.019166666666671 ], [ 107.548333333333332, 14.021666666666672 ] ] } },
{ "type": "Feature", "properties": { "COMID": 44036308, "id": "39214", "lengthkm": 3.1703639917299888, "order": 4, "uparea": 9169.1811409774418 }, "geometry": { "type": "LineString", "coordinates": [ [ 107.520833333333329, 14.0125 ], [ 107.524166666666659, 14.014166666666672 ], [ 107.526666666666671, 14.0125 ], [ 107.530833333333334, 14.013333333333339 ], [ 107.535, 14.010833333333338 ], [ 107.540833333333325, 14.010833333333338 ], [ 107.545, 14.015 ] ] } },
{ "type": "Feature", "properties": { "COMID": 44038127, "id": "39214", "lengthkm": 6.3679626497293089, "order": 4, "uparea": 9220.7802032860636 }, "geometry": { "type": "LineString", "coordinates": [ [ 107.5075, 13.97666666666667 ], [ 107.513333333333321, 13.98416666666667 ], [ 107.521666666666661, 13.981666666666673 ], [ 107.526666666666671, 13.98416666666667 ], [ 107.5225, 14.003333333333337 ], [ 107.520833333333329, 14.005 ], [ 107.520833333333329, 14.0125 ] ] } },
{ "type": "Feature", "properties": { "COMID": 44038123, "id": "39214", "lengthkm": 9.6176238823843043, "order": 4, "uparea": 9295.7903074333863 }, "geometry": { "type": "LineString", "coordinates": [ [ 107.458333333333329, 13.923333333333339 ], [ 107.4625, 13.930833333333339 ], [ 107.47, 13.934166666666673 ], [ 107.470833333333331, 13.93833333333334 ], [ 107.469166666666666, 13.9525 ], [ 107.476666666666659, 13.959166666666672 ], [ 107.484166666666667, 13.96 ], [ 107.49, 13.9625 ], [ 107.493333333333325, 13.965 ], [ 107.493333333333325, 13.966666666666672 ], [ 107.504166666666663, 13.9725 ], [ 107.5075, 13.97666666666667 ] ] } },
{ "type": "Feature", "properties": { "COMID": 44038122, "id": "39214", "lengthkm": 5.5859557713464678, "order": 4, "uparea": 10881.700474316003 }, "geometry": { "type": "LineString", "coordinates": [ [ 107.470833333333331, 13.890833333333337 ], [ 107.47, 13.901666666666671 ], [ 107.471666666666664, 13.905 ], [ 107.470833333333331, 13.91083333333334 ], [ 107.473333333333329, 13.915833333333339 ], [ 107.473333333333329, 13.92 ], [ 107.466666666666669, 13.9225 ], [ 107.4575, 13.92166666666667 ], [ 107.458333333333329, 13.923333333333339 ] ] } },
{ "type": "Feature", "properties": { "COMID": 44038121, "id": "39214", "lengthkm": 4.8749553514447834, "order": 4, "uparea": 10984.041428166414 }, "geometry": { "type": "LineString", "coordinates": [ [ 107.465, 13.861666666666672 ], [ 107.4575, 13.865833333333338 ], [ 107.454166666666666, 13.87 ], [ 107.454166666666666, 13.8725 ], [ 107.4575, 13.87916666666667 ], [ 107.470833333333331, 13.890833333333337 ] ] } },
{ "type": "Feature", "properties": { "COMID": 44038120, "id": "39214", "lengthkm": 9.6708439143585778, "order": 4, "uparea": 11051.661256454863 }, "geometry": { "type": "LineString", "coordinates": [ [ 107.451666666666668, 13.795833333333338 ], [ 107.455, 13.8025 ], [ 107.459166666666661, 13.806666666666672 ], [ 107.461666666666659, 13.815 ], [ 107.461666666666659, 13.8175 ], [ 107.455, 13.82416666666667 ], [ 107.455833333333331, 13.83 ], [ 107.465, 13.8375 ], [ 107.473333333333329, 13.854166666666671 ], [ 107.465, 13.861666666666672 ] ] } },
{ "type": "Feature", "properties": { "COMID": 44038119, "id": "39214", "lengthkm": 2.7297895103166518, "order": 4, "uparea": 11351.405329636133 }, "geometry": { "type": "LineString", "coordinates": [ [ 107.443333333333328, 13.776666666666671 ], [ 107.445, 13.776666666666671 ], [ 107.4475, 13.78 ], [ 107.446666666666658, 13.790833333333339 ], [ 107.451666666666668, 13.795833333333338 ] ] } },
{ "type": "Feature", "properties": { "COMID": 44038118, "id": "39214", "lengthkm": 4.4225190264021466, "order": 4, "uparea": 11463.716392737651 }, "geometry": { "type": "LineString", "coordinates": [ [ 107.41, 13.790833333333339 ], [ 107.425, 13.779166666666672 ], [ 107.435833333333335, 13.779166666666672 ], [ 107.44083333333333, 13.775833333333338 ], [ 107.443333333333328, 13.776666666666671 ] ] } },
{ "type": "Feature", "properties": { "COMID": 44038117, "id": "39214", "lengthkm": 2.9353965141417131, "order": 4, "uparea": 11519.720199975583 }, "geometry": { "type": "LineString", "coordinates": [ [ 107.390833333333333, 13.805833333333339 ], [ 107.3925, 13.803333333333338 ], [ 107.404166666666669, 13.798333333333339 ], [ 107.41, 13.790833333333339 ] ] } },
{ "type": "Feature", "properties": { "COMID": 44038116, "id": "39214", "lengthkm": 2.2057928401111688, "order": 4, "uparea": 11549.976540656353 }, "geometry": { "type": "LineString", "coordinates": [ [ 107.374166666666667, 13.808333333333337 ], [ 107.37833333333333, 13.81 ], [ 107.3825, 13.809166666666673 ], [ 107.383333333333326, 13.8075 ], [ 107.389166666666668, 13.8075 ], [ 107.390833333333333, 13.805833333333339 ] ] } },
{ "type": "Feature", "properties": { "COMID": 44038115, "id": "39214", "lengthkm": 16.999323087459146, "order": 4, "uparea": 11721.746846612481 }, "geometry": { "type": "LineString", "coordinates": [ [ 107.306666666666672, 13.8675 ], [ 107.30916666666667, 13.865833333333338 ], [ 107.32, 13.8675 ], [ 107.323333333333323, 13.87 ], [ 107.329166666666666, 13.87916666666667 ], [ 107.336666666666659, 13.885833333333338 ], [ 107.340833333333336, 13.888333333333339 ], [ 107.346666666666664, 13.8875 ], [ 107.351666666666659, 13.880833333333339 ], [ 107.349166666666662, 13.869166666666672 ], [ 107.35, 13.85166666666667 ], [ 107.359166666666667, 13.841666666666672 ], [ 107.361666666666665, 13.8425 ], [ 107.36333333333333, 13.839166666666671 ], [ 107.3625, 13.82416666666667 ], [ 107.36, 13.819166666666671 ], [ 107.360833333333332, 13.814166666666672 ], [ 107.365833333333327, 13.81 ], [ 107.374166666666667, 13.808333333333337 ] ] } },
{ "type": "Feature", "properties": { "COMID": 44038114, "id": "39214", "lengthkm": 11.71503356196351, "order": 4, "uparea": 12111.760004136688 }, "geometry": { "type": "LineString", "coordinates": [ [ 107.2425, 13.935833333333338 ], [ 107.255, 13.9325 ], [ 107.256666666666661, 13.933333333333337 ], [ 107.275833333333338, 13.916666666666671 ], [ 107.289166666666659, 13.9 ], [ 107.295833333333334, 13.884166666666673 ], [ 107.296666666666667, 13.875 ], [ 107.306666666666672, 13.8675 ] ] } },
{ "type": "Feature", "properties": { "COMID": 44038113, "id": "39214", "lengthkm": 0.48886898271748602, "order": 4, "uparea": 12178.723427611123 }, "geometry": { "type": "LineString", "coordinates": [ [ 107.23833333333333, 13.936666666666671 ], [ 107.2425, 13.935833333333338 ] ] } },
{ "type": "Feature", "properties": { "COMID": 44036299, "id": "39214", "lengthkm": 11.075160844708192, "order": 4, "uparea": 12396.218442887866 }, "geometry": { "type": "LineString", "coordinates": [ [ 107.2275, 14.015 ], [ 107.2325, 14.009166666666673 ], [ 107.233333333333334, 14.005 ], [ 107.228333333333325, 13.994166666666672 ], [ 107.220833333333331, 13.986666666666672 ], [ 107.214166666666671, 13.975 ], [ 107.214166666666671, 13.965 ], [ 107.228333333333325, 13.944166666666671 ], [ 107.235, 13.9375 ], [ 107.23833333333333, 13.936666666666671 ] ] } },
{ "type": "Feature", "properties": { "COMID": 44036298, "id": "39214", "lengthkm": 9.2678287939606712, "order": 4, "uparea": 12565.870407660501 }, "geometry": { "type": "LineString", "coordinates": [ [ 107.17, 14.059166666666673 ], [ 107.173333333333332, 14.056666666666672 ], [ 107.180833333333325, 14.055833333333339 ], [ 107.183333333333337, 14.053333333333338 ], [ 107.189166666666665, 14.053333333333338 ], [ 107.195, 14.050833333333337 ], [ 107.198333333333323, 14.044166666666673 ], [ 107.199166666666656, 14.03583333333334 ], [ 107.2125, 14.0275 ], [ 107.215833333333336, 14.0275 ], [ 107.226666666666659, 14.0175 ], [ 107.2275, 14.015 ] ] } },
{ "type": "Feature", "properties": { "COMID": 44036297, "id": "39214", "lengthkm": 1.5859629304519149, "order": 4, "uparea": 12910.723309612657 }, "geometry": { "type": "LineString", "coordinates": [ [ 107.1625, 14.07 ], [ 107.165, 14.06333333333334 ], [ 107.17, 14.059166666666673 ] ] } },
{ "type": "Feature", "properties": { "COMID": 44036295, "id": "39214", "lengthkm": 5.5815883647512594, "order": 4, "uparea": 14214.907676108089 }, "geometry": { "type": "LineString", "coordinates": [ [ 107.124166666666667, 14.071666666666673 ], [ 107.129166666666663, 14.081666666666671 ], [ 107.133333333333326, 14.081666666666671 ], [ 107.140833333333333, 14.075833333333339 ], [ 107.158333333333331, 14.075 ], [ 107.1625, 14.07 ] ] } },
{ "type": "Feature", "properties": { "COMID": 44036294, "id": "39214", "lengthkm": 2.8547337463146838, "order": 4, "uparea": 14862.643583203968 }, "geometry": { "type": "LineString", "coordinates": [ [ 107.109166666666667, 14.053333333333338 ], [ 107.115833333333327, 14.061666666666671 ], [ 107.1225, 14.06666666666667 ], [ 107.124166666666667, 14.071666666666673 ] ] } },
{ "type": "Feature", "properties": { "COMID": 44036293, "id": "39214", "lengthkm": 8.1181806706559421, "order": 4, "uparea": 14972.066479095214 }, "geometry": { "type": "LineString", "coordinates": [ [ 107.060833333333335, 14.0875 ], [ 107.06583333333333, 14.081666666666671 ], [ 107.08, 14.075833333333339 ], [ 107.086666666666659, 14.069166666666671 ], [ 107.089166666666671, 14.065833333333337 ], [ 107.090833333333336, 14.055833333333339 ], [ 107.0975, 14.049166666666672 ], [ 107.103333333333325, 14.0475 ], [ 107.109166666666667, 14.053333333333338 ] ] } },
{ "type": "Feature", "properties": { "COMID": 44036291, "id": "39214", "lengthkm": 9.0870593602550809, "order": 4, "uparea": 15139.049355666642 }, "geometry": { "type": "LineString", "coordinates": [ [ 107.028333333333336, 14.044166666666673 ], [ 107.03, 14.049166666666672 ], [ 107.03, 14.060833333333338 ], [ 107.033333333333331, 14.064166666666672 ], [ 107.044166666666655, 14.065833333333337 ], [ 107.051666666666662, 14.075 ], [ 107.0525, 14.083333333333339 ], [ 107.048333333333332, 14.089166666666671 ], [ 107.049166666666665, 14.091666666666672 ], [ 107.055, 14.09416666666667 ], [ 107.060833333333335, 14.0875 ] ] } },
{ "type": "Feature", "properties": { "COMID": 44036289, "id": "39214", "lengthkm": 8.195439731977082, "order": 4, "uparea": 15220.984605151067 }, "geometry": { "type": "LineString", "coordinates": [ [ 106.974166666666662, 14.02833333333334 ], [ 106.9775, 14.02833333333334 ], [ 106.980833333333322, 14.03166666666667 ], [ 106.985, 14.043333333333337 ], [ 106.99166666666666, 14.049166666666672 ], [ 106.9975, 14.049166666666672 ], [ 107.014166666666668, 14.04 ], [ 107.0225, 14.038333333333338 ], [ 107.025833333333338, 14.04 ], [ 107.028333333333336, 14.044166666666673 ] ] } },
{ "type": "Feature", "properties": { "COMID": 44036287, "id": "39214", "lengthkm": 3.3490744788809228, "order": 4, "uparea": 15304.945394465738 }, "geometry": { "type": "LineString", "coordinates": [ [ 106.956666666666663, 14.049166666666672 ], [ 106.96, 14.045833333333338 ], [ 106.9625, 14.04 ], [ 106.966666666666669, 14.038333333333338 ], [ 106.970833333333331, 14.030833333333337 ], [ 106.974166666666662, 14.02833333333334 ] ] } },
{ "type": "Feature", "properties": { "COMID": 44038102, "id": "39214", "lengthkm": 12.804965278648346, "order": 4, "uparea": 15465.215062609725 }, "geometry": { "type": "LineString", "coordinates": [ [ 106.9, 13.97666666666667 ], [ 106.9, 13.979166666666671 ], [ 106.910833333333329, 13.993333333333339 ], [ 106.910833333333329, 14.00083333333334 ], [ 106.905, 14.0125 ], [ 106.905833333333334, 14.0225 ], [ 106.9125, 14.029166666666672 ], [ 106.92916666666666, 14.034166666666671 ], [ 106.950833333333321, 14.049166666666672 ], [ 106.956666666666663, 14.049166666666672 ] ] } },
{ "type": "Feature", "properties": { "COMID": 44038096, "id": "39214", "lengthkm": 2.538582294451365, "order": 4, "uparea": 15524.159409898335 }, "geometry": { "type": "LineString", "coordinates": [ [ 106.880833333333328, 13.971666666666671 ], [ 106.885833333333323, 13.96916666666667 ], [ 106.891666666666666, 13.97 ], [ 106.9, 13.97666666666667 ] ] } },
{ "type": "Feature", "properties": { "COMID": 44038093, "id": "39214", "lengthkm": 9.8364361121854991, "order": 4, "uparea": 15610.454398934975 }, "geometry": { "type": "LineString", "coordinates": [ [ 106.819166666666661, 13.978333333333339 ], [ 106.824166666666656, 13.978333333333339 ], [ 106.836666666666659, 13.971666666666671 ], [ 106.849166666666662, 13.971666666666671 ], [ 106.854166666666657, 13.975833333333338 ], [ 106.854166666666657, 13.98 ], [ 106.858333333333334, 13.986666666666672 ], [ 106.864166666666662, 13.991666666666671 ], [ 106.86666666666666, 13.991666666666671 ], [ 106.870833333333337, 13.989166666666673 ], [ 106.874166666666667, 13.98 ], [ 106.880833333333328, 13.971666666666671 ] ] } },
{ "type": "Feature", "properties": { "COMID": 44038089, "id": "39214", "lengthkm": 7.2490323311388112, "order": 4, "uparea": 16228.227068006492 }, "geometry": { "type": "LineString", "coordinates": [ [ 106.801666666666662, 13.928333333333338 ], [ 106.801666666666662, 13.935 ], [ 106.794166666666655, 13.946666666666673 ], [ 106.794166666666655, 13.9525 ], [ 106.801666666666662, 13.964166666666671 ], [ 106.8125, 13.975 ], [ 106.816666666666663, 13.978333333333339 ], [ 106.819166666666661, 13.978333333333339 ] ] } },
{ "type": "Feature", "properties": { "COMID": 44038084, "id": "39214", "lengthkm": 4.5769552409505216, "order": 4, "uparea": 16273.328515460957 }, "geometry": { "type": "LineString", "coordinates": [ [ 106.775833333333338, 13.946666666666673 ], [ 106.788333333333327, 13.9275 ], [ 106.7975, 13.924166666666672 ], [ 106.801666666666662, 13.928333333333338 ] ] } },
{ "type": "Feature", "properties": { "COMID": 44038082, "id": "39214", "lengthkm": 3.662253553377667, "order": 4, "uparea": 16309.302496510745 }, "geometry": { "type": "LineString", "coordinates": [ [ 106.7575, 13.931666666666672 ], [ 106.7575, 13.94166666666667 ], [ 106.760833333333323, 13.946666666666673 ], [ 106.765, 13.948333333333338 ], [ 106.7725, 13.948333333333338 ], [ 106.775833333333338, 13.946666666666673 ] ] } },
{ "type": "Feature", "properties": { "COMID": 44038080, "id": "39214", "lengthkm": 4.8687536732335062, "order": 4, "uparea": 16362.51823094624 }, "geometry": { "type": "LineString", "coordinates": [ [ 106.761666666666656, 13.890833333333337 ], [ 106.755833333333328, 13.905833333333337 ], [ 106.755833333333328, 13.911666666666672 ], [ 106.7575, 13.915 ], [ 106.7575, 13.931666666666672 ] ] } },
{ "type": "Feature", "properties": { "COMID": 44038077, "id": "39214", "lengthkm": 1.24704294943352, "order": 4, "uparea": 16550.508897067892 }, "geometry": { "type": "LineString", "coordinates": [ [ 106.755, 13.884166666666673 ], [ 106.76, 13.885833333333338 ], [ 106.761666666666656, 13.890833333333337 ] ] } },
{ "type": "Feature", "properties": { "COMID": 44038076, "id": "39214", "lengthkm": 4.6668935968391834, "order": 4, "uparea": 16613.03991189694 }, "geometry": { "type": "LineString", "coordinates": [ [ 106.739166666666662, 13.85166666666667 ], [ 106.745833333333337, 13.863333333333337 ], [ 106.745, 13.876666666666672 ], [ 106.748333333333335, 13.880833333333339 ], [ 106.755, 13.884166666666673 ] ] } },
{ "type": "Feature", "properties": { "COMID": 44038073, "id": "39214", "lengthkm": 2.899404954716819, "order": 4, "uparea": 16876.253238030626 }, "geometry": { "type": "LineString", "coordinates": [ [ 106.716666666666669, 13.841666666666672 ], [ 106.724166666666662, 13.843333333333337 ], [ 106.739166666666662, 13.85166666666667 ] ] } },
{ "type": "Feature", "properties": { "COMID": 44038070, "id": "39214", "lengthkm": 8.4991014644802636, "order": 4, "uparea": 16987.729634144467 }, "geometry": { "type": "LineString", "coordinates": [ [ 106.6725, 13.833333333333339 ], [ 106.678333333333327, 13.845 ], [ 106.676666666666662, 13.855 ], [ 106.680833333333325, 13.86 ], [ 106.688333333333333, 13.8575 ], [ 106.693333333333328, 13.85 ], [ 106.7, 13.84416666666667 ], [ 106.711666666666659, 13.84083333333334 ], [ 106.716666666666669, 13.841666666666672 ] ] } },
{ "type": "Feature", "properties": { "COMID": 44038067, "id": "39214", "lengthkm": 7.1946419779419539, "order": 4, "uparea": 17077.284915805143 }, "geometry": { "type": "LineString", "coordinates": [ [ 106.660833333333329, 13.783333333333339 ], [ 106.659166666666664, 13.78916666666667 ], [ 106.66, 13.791666666666671 ], [ 106.6525, 13.804166666666671 ], [ 106.653333333333336, 13.814166666666672 ], [ 106.656666666666666, 13.821666666666673 ], [ 106.6725, 13.833333333333339 ] ] } },
{ "type": "Feature", "properties": { "COMID": 44038061, "id": "39214", "lengthkm": 5.6994130579993971, "order": 4, "uparea": 17123.556231670726 }, "geometry": { "type": "LineString", "coordinates": [ [ 106.61666666666666, 13.78583333333334 ], [ 106.6275, 13.786666666666672 ], [ 106.636666666666656, 13.780833333333337 ], [ 106.648333333333326, 13.776666666666671 ], [ 106.655833333333334, 13.7775 ], [ 106.660833333333329, 13.783333333333339 ] ] } },
{ "type": "Feature", "properties": { "COMID": 44038058, "id": "39214", "lengthkm": 2.403774805267533, "order": 4, "uparea": 17204.448143390688 }, "geometry": { "type": "LineString", "coordinates": [ [ 106.611666666666665, 13.766666666666673 ], [ 106.611666666666665, 13.78 ], [ 106.61666666666666, 13.78583333333334 ] ] } },
{ "type": "Feature", "properties": { "COMID": 44038057, "id": "39214", "lengthkm": 4.1278284207576306, "order": 4, "uparea": 17263.909338201476 }, "geometry": { "type": "LineString", "coordinates": [ [ 106.6125, 13.7325 ], [ 106.615, 13.738333333333337 ], [ 106.615, 13.743333333333339 ], [ 106.61333333333333, 13.746666666666673 ], [ 106.614166666666662, 13.7525 ], [ 106.611666666666665, 13.766666666666673 ] ] } },
{ "type": "Feature", "properties": { "COMID": 44038055, "id": "39214", "lengthkm": 6.2474748726425071, "order": 4, "uparea": 17335.021665365013 }, "geometry": { "type": "LineString", "coordinates": [ [ 106.566666666666663, 13.713333333333338 ], [ 106.569166666666661, 13.715 ], [ 106.579166666666666, 13.714166666666671 ], [ 106.581666666666663, 13.7125 ], [ 106.590833333333336, 13.714166666666671 ], [ 106.606666666666655, 13.724166666666672 ], [ 106.6125, 13.7325 ] ] } },
{ "type": "Feature", "properties": { "COMID": 44038053, "id": "39214", "lengthkm": 5.2321792311799111, "order": 4, "uparea": 17390.880651850966 }, "geometry": { "type": "LineString", "coordinates": [ [ 106.524166666666659, 13.704166666666673 ], [ 106.5375, 13.708333333333339 ], [ 106.541666666666657, 13.706666666666671 ], [ 106.551666666666662, 13.710833333333337 ], [ 106.566666666666663, 13.713333333333338 ] ] } },
{ "type": "Feature", "properties": { "COMID": 44038051, "id": "39214", "lengthkm": 4.6225163154152886, "order": 4, "uparea": 17567.817174925869 }, "geometry": { "type": "LineString", "coordinates": [ [ 106.510833333333323, 13.668333333333337 ], [ 106.515833333333333, 13.685833333333338 ], [ 106.516666666666666, 13.69583333333334 ], [ 106.524166666666659, 13.704166666666673 ] ] } },
{ "type": "Feature", "properties": { "COMID": 44038049, "id": "39214", "lengthkm": 7.3613739923720338, "order": 4, "uparea": 18373.849745968782 }, "geometry": { "type": "LineString", "coordinates": [ [ 106.460833333333326, 13.6825 ], [ 106.468333333333334, 13.680833333333339 ], [ 106.486666666666665, 13.680833333333339 ], [ 106.493333333333325, 13.675 ], [ 106.4975, 13.663333333333338 ], [ 106.500833333333333, 13.66083333333334 ], [ 106.505833333333328, 13.661666666666672 ], [ 106.510833333333323, 13.668333333333337 ] ] } },
{ "type": "Feature", "properties": { "COMID": 44038046, "id": "39214", "lengthkm": 3.5036604454846438, "order": 4, "uparea": 18417.629674654432 }, "geometry": { "type": "LineString", "coordinates": [ [ 106.431666666666672, 13.676666666666673 ], [ 106.439166666666665, 13.680833333333339 ], [ 106.460833333333326, 13.6825 ] ] } },
{ "type": "Feature", "properties": { "COMID": 44038044, "id": "39214", "lengthkm": 13.319012429706696, "order": 4, "uparea": 18598.457778450618 }, "geometry": { "type": "LineString", "coordinates": [ [ 106.355833333333322, 13.604166666666671 ], [ 106.365, 13.6075 ], [ 106.375, 13.616666666666671 ], [ 106.388333333333335, 13.623333333333338 ], [ 106.41, 13.644166666666671 ], [ 106.421666666666667, 13.646666666666672 ], [ 106.426666666666662, 13.651666666666671 ], [ 106.428333333333327, 13.655833333333337 ], [ 106.42583333333333, 13.67 ], [ 106.431666666666672, 13.676666666666673 ] ] } },
{ "type": "Feature", "properties": { "COMID": 44038040, "id": "39214", "lengthkm": 6.9309101049616011, "order": 4, "uparea": 18684.144725502894 }, "geometry": { "type": "LineString", "coordinates": [ [ 106.2975, 13.604166666666671 ], [ 106.30916666666667, 13.605 ], [ 106.320833333333326, 13.60166666666667 ], [ 106.331666666666663, 13.60166666666667 ], [ 106.335, 13.603333333333339 ], [ 106.341666666666669, 13.6025 ], [ 106.349166666666662, 13.605 ], [ 106.355833333333322, 13.604166666666671 ] ] } },
{ "type": "Feature", "properties": { "COMID": 44038038, "id": "39214", "lengthkm": 9.3339553841505278, "order": 4, "uparea": 18769.263285580018 }, "geometry": { "type": "LineString", "coordinates": [ [ 106.283333333333331, 13.54666666666667 ], [ 106.29, 13.553333333333338 ], [ 106.29, 13.555 ], [ 106.281666666666666, 13.559166666666673 ], [ 106.2825, 13.5675 ], [ 106.280833333333334, 13.573333333333338 ], [ 106.2825, 13.580833333333338 ], [ 106.276666666666671, 13.585833333333337 ], [ 106.284166666666664, 13.593333333333337 ], [ 106.283333333333331, 13.595833333333339 ], [ 106.285833333333329, 13.59833333333334 ], [ 106.2975, 13.604166666666671 ] ] } },
{ "type": "Feature", "properties": { "COMID": 44038028, "id": "39214", "lengthkm": 18.214258555360878, "order": 6, "uparea": 49568.235081109386 }, "geometry": { "type": "LineString", "coordinates": [ [ 106.143333333333331, 13.561666666666671 ], [ 106.1475, 13.564166666666672 ], [ 106.17, 13.57 ], [ 106.18, 13.581666666666671 ], [ 106.18416666666667, 13.581666666666671 ], [ 106.193333333333328, 13.575833333333339 ], [ 106.1975, 13.575 ], [ 106.21, 13.57416666666667 ], [ 106.220833333333331, 13.575833333333339 ], [ 106.228333333333325, 13.573333333333338 ], [ 106.258333333333326, 13.553333333333338 ], [ 106.2675, 13.549166666666672 ], [ 106.283333333333331, 13.54666666666667 ] ] } },
{ "type": "Feature", "properties": { "COMID": 44038024, "id": "39214", "lengthkm": 4.7869945673042666, "order": 6, "uparea": 49668.251265041625 }, "geometry": { "type": "LineString", "coordinates": [ [ 106.105833333333322, 13.561666666666671 ], [ 106.1075, 13.56333333333334 ], [ 106.114166666666662, 13.56333333333334 ], [ 106.1175, 13.560833333333338 ], [ 106.12, 13.561666666666671 ], [ 106.12166666666667, 13.559166666666673 ], [ 106.125, 13.5625 ], [ 106.12833333333333, 13.5625 ], [ 106.13, 13.560833333333338 ], [ 106.143333333333331, 13.561666666666671 ] ] } },
{ "type": "Feature", "properties": { "COMID": 44038023, "id": "39214", "lengthkm": 5.0050706067004214, "order": 6, "uparea": 49740.804857064963 }, "geometry": { "type": "LineString", "coordinates": [ [ 106.0675, 13.543333333333337 ], [ 106.073333333333323, 13.548333333333339 ], [ 106.095, 13.559166666666673 ], [ 106.105833333333322, 13.561666666666671 ] ] } },
{ "type": "Feature", "properties": { "COMID": 44038021, "id": "39214", "lengthkm": 5.5966527499708736, "order": 6, "uparea": 49817.81026198047 }, "geometry": { "type": "LineString", "coordinates": [ [ 106.023333333333326, 13.554166666666671 ], [ 106.039166666666659, 13.545833333333338 ], [ 106.055, 13.540833333333339 ], [ 106.064166666666665, 13.540833333333339 ], [ 106.0675, 13.543333333333337 ] ] } },
{ "type": "Feature", "properties": { "COMID": 44037971, "id": "39214", "lengthkm": 8.5615938112327186, "order": 6, "uparea": 78732.020376826404 }, "geometry": { "type": "LineString", "coordinates": [ [ 105.955, 13.53916666666667 ], [ 105.964166666666671, 13.53583333333334 ], [ 105.980833333333322, 13.534166666666671 ], [ 105.993333333333325, 13.538333333333338 ], [ 105.998333333333335, 13.5425 ], [ 106.023333333333326, 13.554166666666671 ] ] } },
{ "type": "Feature", "properties": { "COMID": 44037953, "id": "39214", "lengthkm": 2.583551005728872, "order": 7, "uparea": 636985.77554160007 }, "geometry": { "type": "LineString", "coordinates": [ [ 105.936666666666667, 13.5275 ], [ 105.9425, 13.534166666666671 ], [ 105.955, 13.53916666666667 ] ] } },
{ "type": "Feature", "properties": { "COMID": 44037952, "id": "39214", "lengthkm": 3.3480699799657119, "order": 7, "uparea": 637551.33338222909 }, "geometry": { "type": "LineString", "coordinates": [ [ 105.92583333333333, 13.501666666666672 ], [ 105.9275, 13.514166666666672 ], [ 105.93416666666667, 13.521666666666672 ], [ 105.936666666666667, 13.5275 ] ] } },
{ "type": "Feature", "properties": { "COMID": 44037951, "id": "39214", "lengthkm": 7.0523683629704763, "order": 7, "uparea": 638082.72870787384 }, "geometry": { "type": "LineString", "coordinates": [ [ 105.9375, 13.444166666666671 ], [ 105.9375, 13.45 ], [ 105.931666666666658, 13.460833333333337 ], [ 105.92583333333333, 13.480833333333337 ], [ 105.92583333333333, 13.501666666666672 ] ] } },
{ "type": "Feature", "properties": { "COMID": 44037950, "id": "39214", "lengthkm": 2.9628881589546898, "order": 7, "uparea": 638140.71273385023 }, "geometry": { "type": "LineString", "coordinates": [ [ 105.933333333333337, 13.419166666666673 ], [ 105.936666666666667, 13.431666666666672 ], [ 105.9375, 13.444166666666671 ] ] } },
{ "type": "Feature", "properties": { "COMID": 44039774, "id": "39214", "lengthkm": 4.7727344026077034, "order": 7, "uparea": 638264.63766759238 }, "geometry": { "type": "LineString", "coordinates": [ [ 105.9325, 13.3825 ], [ 105.925, 13.401666666666671 ], [ 105.9275, 13.411666666666672 ], [ 105.933333333333337, 13.419166666666673 ] ] } },
{ "type": "Feature", "properties": { "COMID": 44039773, "id": "39214", "lengthkm": 6.672210038725404, "order": 7, "uparea": 638331.75427837751 }, "geometry": { "type": "LineString", "coordinates": [ [ 105.92916666666666, 13.339166666666671 ], [ 105.9325, 13.34 ], [ 105.943333333333328, 13.3525 ], [ 105.943333333333328, 13.355 ], [ 105.94083333333333, 13.3575 ], [ 105.93416666666667, 13.358333333333338 ], [ 105.93, 13.365 ], [ 105.93, 13.375 ], [ 105.9325, 13.37916666666667 ], [ 105.9325, 13.3825 ] ] } },
{ "type": "Feature", "properties": { "COMID": 44039772, "id": "39214", "lengthkm": 5.9777412697085142, "order": 7, "uparea": 638494.33212055825 }, "geometry": { "type": "LineString", "coordinates": [ [ 105.928333333333327, 13.291666666666671 ], [ 105.92583333333333, 13.31333333333334 ], [ 105.920833333333334, 13.319166666666671 ], [ 105.920833333333334, 13.328333333333337 ], [ 105.92916666666666, 13.339166666666671 ] ] } },
{ "type": "Feature", "properties": { "COMID": 44039771, "id": "39214", "lengthkm": 6.4296245377850756, "order": 7, "uparea": 639113.16834218067 }, "geometry": { "type": "LineString", "coordinates": [ [ 105.963333333333324, 13.2525 ], [ 105.9575, 13.25833333333334 ], [ 105.9575, 13.26 ], [ 105.936666666666667, 13.28 ], [ 105.92916666666666, 13.281666666666673 ], [ 105.928333333333327, 13.291666666666671 ] ] } },
{ "type": "Feature", "properties": { "COMID": 44039770, "id": "39214", "lengthkm": 8.258818620673896, "order": 7, "uparea": 639240.75469895452 }, "geometry": { "type": "LineString", "coordinates": [ [ 106.015, 13.221666666666671 ], [ 106.0125, 13.224166666666672 ], [ 106.005833333333328, 13.225 ], [ 106.001666666666665, 13.23 ], [ 105.995, 13.23416666666667 ], [ 105.990833333333327, 13.2325 ], [ 105.989166666666662, 13.23416666666667 ], [ 105.98, 13.231666666666673 ], [ 105.973333333333329, 13.231666666666673 ], [ 105.97, 13.235 ], [ 105.969166666666666, 13.240833333333338 ], [ 105.963333333333324, 13.2525 ] ] } },
{ "type": "Feature", "properties": { "COMID": 44039769, "id": "39214", "lengthkm": 6.4591977451643352, "order": 7, "uparea": 639519.52412222314 }, "geometry": { "type": "LineString", "coordinates": [ [ 106.025, 13.179166666666671 ], [ 106.02, 13.185833333333338 ], [ 106.014166666666668, 13.18833333333334 ], [ 106.014166666666668, 13.19583333333334 ], [ 106.0075, 13.201666666666672 ], [ 106.0075, 13.208333333333339 ], [ 106.01, 13.2125 ], [ 106.01, 13.21583333333334 ], [ 106.015, 13.219166666666673 ], [ 106.015, 13.221666666666671 ] ] } },
{ "type": "Feature", "properties": { "COMID": 44039768, "id": "39214", "lengthkm": 3.89551214223484, "order": 7, "uparea": 639686.40565063769 }, "geometry": { "type": "LineString", "coordinates": [ [ 106.015833333333333, 13.151666666666671 ], [ 106.02, 13.15333333333334 ], [ 106.0225, 13.16416666666667 ], [ 106.0275, 13.17166666666667 ], [ 106.025, 13.179166666666671 ] ] } },
{ "type": "Feature", "properties": { "COMID": 44039767, "id": "39214", "lengthkm": 9.6404352267185693, "order": 7, "uparea": 640426.18005107692 }, "geometry": { "type": "LineString", "coordinates": [ [ 106.0075, 13.076666666666672 ], [ 106.008333333333326, 13.0775 ], [ 106.005, 13.080833333333338 ], [ 106.006666666666661, 13.09083333333334 ], [ 106.005833333333328, 13.096666666666671 ], [ 106.0025, 13.099166666666672 ], [ 106.00333333333333, 13.108333333333338 ], [ 106.000833333333333, 13.115 ], [ 106.000833333333333, 13.120833333333337 ], [ 106.0025, 13.1225 ], [ 106.005, 13.134166666666673 ], [ 106.011666666666656, 13.1425 ], [ 106.015833333333333, 13.151666666666671 ] ] } },
{ "type": "Feature", "properties": { "COMID": 44039766, "id": "39214", "lengthkm": 9.4455768148937072, "order": 7, "uparea": 640496.77977728797 }, "geometry": { "type": "LineString", "coordinates": [ [ 105.973333333333329, 13.01 ], [ 105.975833333333327, 13.015 ], [ 105.974166666666662, 13.019166666666671 ], [ 105.9775, 13.025 ], [ 105.98833333333333, 13.034166666666671 ], [ 106.005, 13.056666666666672 ], [ 106.01, 13.06666666666667 ], [ 106.0075, 13.076666666666672 ] ] } },
{ "type": "Feature", "properties": { "COMID": 44039765, "id": "39214", "lengthkm": 6.4675468217871934, "order": 7, "uparea": 640798.77722031262 }, "geometry": { "type": "LineString", "coordinates": [ [ 105.9875, 12.9625 ], [ 105.99, 12.9775 ], [ 105.986666666666665, 12.98083333333334 ], [ 105.984166666666667, 12.98083333333334 ], [ 105.98, 12.99 ], [ 105.980833333333322, 12.993333333333339 ], [ 105.978333333333325, 12.9975 ], [ 105.9775, 13.005833333333339 ], [ 105.974166666666662, 13.0075 ], [ 105.973333333333329, 13.01 ] ] } },
{ "type": "Feature", "properties": { "COMID": 44039764, "id": "39214", "lengthkm": 11.508104759015081, "order": 7, "uparea": 640898.06793841161 }, "geometry": { "type": "LineString", "coordinates": [ [ 105.945833333333326, 12.876666666666672 ], [ 105.955, 12.89 ], [ 105.960833333333326, 12.90333333333334 ], [ 105.971666666666664, 12.91416666666667 ], [ 105.9775, 12.925833333333337 ], [ 105.985833333333332, 12.936666666666671 ], [ 105.9875, 12.9425 ], [ 105.9875, 12.9625 ] ] } },
{ "type": "Feature", "properties": { "COMID": 44039763, "id": "39214", "lengthkm": 3.903894491935366, "order": 7, "uparea": 640950.52136998496 }, "geometry": { "type": "LineString", "coordinates": [ [ 105.93416666666667, 12.846666666666671 ], [ 105.935, 12.856666666666673 ], [ 105.939166666666665, 12.869166666666672 ], [ 105.945833333333326, 12.876666666666672 ] ] } },
{ "type": "Feature", "properties": { "COMID": 44041371, "id": "39214", "lengthkm": 9.9073192351102133, "order": 7, "uparea": 641374.55556545558 }, "geometry": { "type": "LineString", "coordinates": [ [ 105.945833333333326, 12.774166666666673 ], [ 105.9425, 12.78 ], [ 105.936666666666667, 12.781666666666673 ], [ 105.93416666666667, 12.784166666666671 ], [ 105.9325, 12.78916666666667 ], [ 105.933333333333337, 12.805 ], [ 105.938333333333333, 12.809166666666673 ], [ 105.941666666666663, 12.815 ], [ 105.941666666666663, 12.8225 ], [ 105.93416666666667, 12.830833333333338 ], [ 105.93416666666667, 12.846666666666671 ] ] } },
{ "type": "Feature", "properties": { "COMID": 44041370, "id": "39214", "lengthkm": 1.216211418280952, "order": 7, "uparea": 641806.17016289127 }, "geometry": { "type": "LineString", "coordinates": [ [ 105.954166666666666, 12.7675 ], [ 105.945833333333326, 12.774166666666673 ] ] } },
{ "type": "Feature", "properties": { "COMID": 44041369, "id": "39214", "lengthkm": 3.537607767254328, "order": 7, "uparea": 646382.30820591503 }, "geometry": { "type": "LineString", "coordinates": [ [ 105.973333333333329, 12.746666666666673 ], [ 105.969166666666666, 12.749166666666671 ], [ 105.965, 12.749166666666671 ], [ 105.9625, 12.751666666666672 ], [ 105.954166666666666, 12.7675 ] ] } },
{ "type": "Feature", "properties": { "COMID": 44041368, "id": "39214", "lengthkm": 7.4622228208111681, "order": 7, "uparea": 646437.510342428 }, "geometry": { "type": "LineString", "coordinates": [ [ 105.999166666666667, 12.69583333333334 ], [ 105.993333333333325, 12.696666666666673 ], [ 105.99166666666666, 12.698333333333338 ], [ 105.99, 12.705833333333338 ], [ 105.986666666666665, 12.711666666666673 ], [ 105.99, 12.724166666666672 ], [ 105.9875, 12.73 ], [ 105.980833333333322, 12.735833333333339 ], [ 105.973333333333329, 12.746666666666673 ] ] } },
{ "type": "Feature", "properties": { "COMID": 44041367, "id": "39214", "lengthkm": 4.6077178156201866, "order": 7, "uparea": 646627.78126730688 }, "geometry": { "type": "LineString", "coordinates": [ [ 106.009166666666658, 12.66083333333334 ], [ 106.01, 12.6725 ], [ 106.0025, 12.68 ], [ 106.00333333333333, 12.684166666666673 ], [ 105.999166666666667, 12.69 ], [ 105.999166666666667, 12.69583333333334 ] ] } },
{ "type": "Feature", "properties": { "COMID": 44041366, "id": "39214", "lengthkm": 6.3808392470588444, "order": 7, "uparea": 646775.75605947291 }, "geometry": { "type": "LineString", "coordinates": [ [ 106.015, 12.611666666666672 ], [ 106.013333333333335, 12.620833333333337 ], [ 106.015833333333333, 12.621666666666673 ], [ 106.015833333333333, 12.63 ], [ 106.015, 12.635 ], [ 106.010833333333323, 12.638333333333339 ], [ 106.008333333333326, 12.6475 ], [ 106.008333333333326, 12.650833333333338 ], [ 106.01, 12.6525 ], [ 106.009166666666658, 12.66083333333334 ] ] } },
{ "type": "Feature", "properties": { "COMID": 44041365, "id": "39214", "lengthkm": 1.3328214982114741, "order": 7, "uparea": 647908.40840288217 }, "geometry": { "type": "LineString", "coordinates": [ [ 106.013333333333335, 12.60166666666667 ], [ 106.015, 12.603333333333339 ], [ 106.015, 12.606666666666673 ], [ 106.013333333333335, 12.608333333333338 ], [ 106.015, 12.611666666666672 ] ] } },
{ "type": "Feature", "properties": { "COMID": 44041364, "id": "39214", "lengthkm": 11.570842923750705, "order": 7, "uparea": 648096.66400981671 }, "geometry": { "type": "LineString", "coordinates": [ [ 106.006666666666661, 12.514166666666672 ], [ 105.993333333333325, 12.531666666666673 ], [ 105.995833333333337, 12.54333333333334 ], [ 106.006666666666661, 12.559166666666673 ], [ 106.014166666666668, 12.575 ], [ 106.016666666666666, 12.585 ], [ 106.015833333333333, 12.59 ], [ 106.0125, 12.595833333333339 ], [ 106.013333333333335, 12.60166666666667 ] ] } },
{ "type": "Feature", "properties": { "COMID": 44041363, "id": "39214", "lengthkm": 6.0386574047387596, "order": 7, "uparea": 648148.94085788494 }, "geometry": { "type": "LineString", "coordinates": [ [ 106.0175, 12.464166666666671 ], [ 106.015833333333333, 12.4775 ], [ 106.0125, 12.485833333333339 ], [ 106.0125, 12.5075 ], [ 106.006666666666661, 12.514166666666672 ] ] } },
{ "type": "Feature", "properties": { "COMID": 44041362, "id": "39214", "lengthkm": 2.2038544995270102, "order": 7, "uparea": 648853.42888243613 }, "geometry": { "type": "LineString", "coordinates": [ [ 106.023333333333326, 12.446666666666673 ], [ 106.0175, 12.464166666666671 ] ] } },
{ "type": "Feature", "properties": { "COMID": 44041361, "id": "39214", "lengthkm": 6.1694526719263374, "order": 7, "uparea": 653083.63648448454 }, "geometry": { "type": "LineString", "coordinates": [ [ 106.024166666666659, 12.394166666666671 ], [ 106.024166666666659, 12.404166666666672 ], [ 106.0275, 12.41833333333334 ], [ 106.024166666666659, 12.430833333333339 ], [ 106.023333333333326, 12.446666666666673 ] ] } },
{ "type": "Feature", "properties": { "COMID": 44041360, "id": "39214", "lengthkm": 7.352355896994438, "order": 7, "uparea": 653163.37290180451 }, "geometry": { "type": "LineString", "coordinates": [ [ 106.045833333333334, 12.336666666666673 ], [ 106.043333333333322, 12.34083333333334 ], [ 106.040833333333325, 12.35583333333334 ], [ 106.028333333333336, 12.376666666666672 ], [ 106.024166666666659, 12.394166666666671 ] ] } },
{ "type": "Feature", "properties": { "COMID": 44041359, "id": "39214", "lengthkm": 6.6851841476435974, "order": 7, "uparea": 653224.82392602402 }, "geometry": { "type": "LineString", "coordinates": [ [ 106.0225, 12.28583333333334 ], [ 106.0375, 12.311666666666671 ], [ 106.045833333333334, 12.336666666666673 ] ] } },
{ "type": "Feature", "properties": { "COMID": 44041358, "id": "39214", "lengthkm": 9.1935201241211519, "order": 7, "uparea": 653329.96944927471 }, "geometry": { "type": "LineString", "coordinates": [ [ 105.951666666666668, 12.266666666666673 ], [ 105.9675, 12.265 ], [ 105.975, 12.26166666666667 ], [ 105.9925, 12.26166666666667 ], [ 106.008333333333326, 12.270833333333339 ], [ 106.0225, 12.28583333333334 ] ] } },
{ "type": "Feature", "properties": { "COMID": 44041357, "id": "39214", "lengthkm": 33.68761811582732, "order": 7, "uparea": 653783.82358288323 }, "geometry": { "type": "LineString", "coordinates": [ [ 105.668333333333322, 12.2875 ], [ 105.6725, 12.28583333333334 ], [ 105.68416666666667, 12.28583333333334 ], [ 105.7, 12.281666666666673 ], [ 105.710833333333326, 12.280833333333337 ], [ 105.725833333333327, 12.2675 ], [ 105.743333333333325, 12.2625 ], [ 105.75, 12.2575 ], [ 105.761666666666656, 12.253333333333337 ], [ 105.776666666666671, 12.254166666666674 ], [ 105.798333333333332, 12.260833333333338 ], [ 105.825, 12.260833333333338 ], [ 105.831666666666663, 12.259166666666673 ], [ 105.834166666666661, 12.26 ], [ 105.838333333333324, 12.2575 ], [ 105.86, 12.2575 ], [ 105.8925, 12.26 ], [ 105.898333333333326, 12.2625 ], [ 105.943333333333328, 12.263333333333339 ], [ 105.951666666666668, 12.266666666666673 ] ] } },
{ "type": "Feature", "properties": { "COMID": 44042793, "id": "39214", "lengthkm": 20.237458916282328, "order": 7, "uparea": 654225.06609869457 }, "geometry": { "type": "LineString", "coordinates": [ [ 105.5375, 12.23 ], [ 105.544166666666669, 12.255 ], [ 105.549166666666665, 12.264166666666672 ], [ 105.55916666666667, 12.279166666666672 ], [ 105.566666666666663, 12.286666666666672 ], [ 105.5775, 12.294166666666673 ], [ 105.595, 12.301666666666673 ], [ 105.6125, 12.300833333333337 ], [ 105.625, 12.2975 ], [ 105.645, 12.2875 ], [ 105.650833333333324, 12.29 ], [ 105.659166666666664, 12.29 ], [ 105.668333333333322, 12.2875 ] ] } },
{ "type": "Feature", "properties": { "COMID": 44042792, "id": "39214", "lengthkm": 23.135426857617691, "order": 7, "uparea": 654581.86323657469 }, "geometry": { "type": "LineString", "coordinates": [ [ 105.49, 12.04666666666667 ], [ 105.495833333333337, 12.054166666666671 ], [ 105.500833333333333, 12.066666666666674 ], [ 105.5075, 12.076666666666672 ], [ 105.52, 12.09 ], [ 105.529166666666669, 12.105 ], [ 105.530833333333334, 12.125 ], [ 105.5325, 12.128333333333337 ], [ 105.535, 12.16416666666667 ], [ 105.541666666666657, 12.178333333333338 ], [ 105.538333333333327, 12.20333333333334 ], [ 105.535, 12.209166666666672 ], [ 105.5375, 12.219166666666673 ], [ 105.5375, 12.23 ] ] } },
{ "type": "Feature", "properties": { "COMID": 44042791, "id": "39214", "lengthkm": 8.7960497322341791, "order": 7, "uparea": 654949.48601183575 }, "geometry": { "type": "LineString", "coordinates": [ [ 105.469166666666666, 11.9775 ], [ 105.471666666666664, 11.994166666666672 ], [ 105.470833333333331, 12.01 ], [ 105.479166666666657, 12.02833333333334 ], [ 105.48, 12.034166666666671 ], [ 105.486666666666665, 12.039166666666674 ], [ 105.49, 12.04666666666667 ] ] } },
{ "type": "Feature", "properties": { "COMID": 44042790, "id": "39214", "lengthkm": 6.6333288003118724, "order": 7, "uparea": 655008.22297141701 }, "geometry": { "type": "LineString", "coordinates": [ [ 105.4625, 11.9225 ], [ 105.47, 11.93833333333334 ], [ 105.471666666666664, 11.9475 ], [ 105.471666666666664, 11.9625 ], [ 105.469166666666666, 11.9775 ] ] } },
{ "type": "Feature", "properties": { "COMID": 44042789, "id": "39214", "lengthkm": 20.389431346187674, "order": 7, "uparea": 662719.23706070322 }, "geometry": { "type": "LineString", "coordinates": [ [ 105.306666666666658, 11.934166666666673 ], [ 105.330833333333331, 11.9325 ], [ 105.343333333333334, 11.933333333333337 ], [ 105.353333333333325, 11.931666666666672 ], [ 105.375833333333333, 11.9175 ], [ 105.391666666666666, 11.900833333333338 ], [ 105.396666666666661, 11.8975 ], [ 105.408333333333331, 11.895 ], [ 105.415833333333325, 11.895 ], [ 105.43, 11.898333333333337 ], [ 105.445833333333326, 11.905833333333337 ], [ 105.454166666666666, 11.9125 ], [ 105.4625, 11.9225 ] ] } },
{ "type": "Feature", "properties": { "COMID": 44043941, "id": "39214", "lengthkm": 84.383365843787402, "order": 7, "uparea": 663282.95388426865 }, "geometry": { "type": "LineString", "coordinates": [ [ 104.9475, 11.560833333333338 ], [ 104.941666666666663, 11.595833333333339 ], [ 104.939166666666665, 11.600833333333338 ], [ 104.94, 11.603333333333339 ], [ 104.935, 11.61 ], [ 104.92916666666666, 11.63 ], [ 104.92, 11.648333333333337 ], [ 104.918333333333337, 11.66 ], [ 104.921666666666667, 11.670833333333338 ], [ 104.9325, 11.690833333333337 ], [ 104.961666666666659, 11.714166666666671 ], [ 104.9675, 11.71583333333334 ], [ 105.015, 11.7625 ], [ 105.016666666666666, 11.76583333333334 ], [ 105.018333333333331, 11.7775 ], [ 105.015833333333333, 11.78583333333334 ], [ 105.008333333333326, 11.79333333333334 ], [ 104.99666666666667, 11.80083333333334 ], [ 104.986666666666665, 11.80083333333334 ], [ 104.980833333333337, 11.804166666666671 ], [ 104.979166666666657, 11.81333333333334 ], [ 104.985833333333332, 11.83 ], [ 104.994166666666658, 11.8375 ], [ 105.000833333333333, 11.838333333333338 ], [ 105.005833333333328, 11.835833333333337 ], [ 105.011666666666656, 11.8375 ], [ 105.021666666666661, 11.84833333333334 ], [ 105.028333333333336, 11.85 ], [ 105.039166666666659, 11.849166666666672 ], [ 105.048333333333332, 11.8475 ], [ 105.05, 11.845833333333339 ], [ 105.066666666666663, 11.843333333333337 ], [ 105.088333333333338, 11.845 ], [ 105.098333333333329, 11.8425 ], [ 105.104166666666657, 11.844166666666673 ], [ 105.1325, 11.87 ], [ 105.138333333333335, 11.900833333333338 ], [ 105.145, 11.91083333333334 ], [ 105.170833333333334, 11.933333333333337 ], [ 105.18, 11.943333333333339 ], [ 105.195833333333326, 11.95 ], [ 105.215833333333336, 11.948333333333338 ], [ 105.243333333333325, 11.94 ], [ 105.265, 11.94 ], [ 105.273333333333326, 11.9375 ], [ 105.279166666666669, 11.933333333333337 ], [ 105.285, 11.935 ], [ 105.306666666666658, 11.934166666666673 ] ] } },
{ "type": "Feature", "properties": { "COMID": 44043940, "id": "39214", "lengthkm": 2.6721343464230611, "order": 7, "uparea": 751128.29172518873 }, "geometry": { "type": "LineString", "coordinates": [ [ 104.966666666666669, 11.548333333333339 ], [ 104.953333333333333, 11.555 ], [ 104.9475, 11.560833333333338 ] ] } },
{ "type": "Feature", "properties": { "COMID": 44043939, "id": "39214", "lengthkm": 27.602641817251001, "order": 7, "uparea": 751221.3391168192 }, "geometry": { "type": "LineString", "coordinates": [ [ 105.176666666666662, 11.4575 ], [ 105.1675, 11.463333333333338 ], [ 105.158333333333331, 11.4725 ], [ 105.145833333333329, 11.4775 ], [ 105.135, 11.485 ], [ 105.12166666666667, 11.490833333333338 ], [ 105.111666666666665, 11.5 ], [ 105.1, 11.505833333333339 ], [ 105.085833333333326, 11.518333333333338 ], [ 105.083333333333329, 11.523333333333337 ], [ 105.0775, 11.52833333333334 ], [ 105.061666666666667, 11.533333333333339 ], [ 105.056666666666658, 11.533333333333339 ], [ 105.033333333333331, 11.5425 ], [ 105.016666666666666, 11.54666666666667 ], [ 104.984166666666667, 11.5475 ], [ 104.974166666666662, 11.549166666666672 ], [ 104.966666666666669, 11.548333333333339 ] ] } },
{ "type": "Feature", "properties": { "COMID": 44043938, "id": "39214", "lengthkm": 22.169869394716191, "order": 7, "uparea": 752374.90433129028 }, "geometry": { "type": "LineString", "coordinates": [ [ 105.275, 11.306666666666672 ], [ 105.274166666666659, 11.321666666666673 ], [ 105.264166666666668, 11.35 ], [ 105.261666666666656, 11.3525 ], [ 105.260833333333323, 11.366666666666671 ], [ 105.255, 11.391666666666673 ], [ 105.239166666666662, 11.409166666666671 ], [ 105.229166666666657, 11.415 ], [ 105.210833333333326, 11.435 ], [ 105.195, 11.443333333333339 ], [ 105.176666666666662, 11.4575 ] ] } },
{ "type": "Feature", "properties": { "COMID": 44045069, "id": "39214", "lengthkm": 78.538432929652856, "order": 7, "uparea": 754973.09388872841 }, "geometry": { "type": "LineString", "coordinates": [ [ 105.335833333333326, 10.808333333333337 ], [ 105.325833333333335, 10.818333333333339 ], [ 105.313333333333333, 10.8225 ], [ 105.305, 10.8225 ], [ 105.286666666666662, 10.816666666666674 ], [ 105.283333333333331, 10.810833333333338 ], [ 105.276666666666671, 10.805 ], [ 105.264166666666668, 10.80083333333334 ], [ 105.2425, 10.805 ], [ 105.231666666666669, 10.805 ], [ 105.2275, 10.809166666666673 ], [ 105.2275, 10.811666666666671 ], [ 105.215833333333336, 10.835 ], [ 105.213333333333338, 10.8375 ], [ 105.210833333333326, 10.836666666666673 ], [ 105.203333333333333, 10.84083333333334 ], [ 105.193333333333328, 10.853333333333339 ], [ 105.19083333333333, 10.85916666666667 ], [ 105.19, 10.869166666666672 ], [ 105.1875, 10.871666666666673 ], [ 105.185833333333335, 10.88 ], [ 105.185833333333335, 10.894166666666671 ], [ 105.1875, 10.8975 ], [ 105.188333333333333, 10.9075 ], [ 105.186666666666667, 10.913333333333338 ], [ 105.185833333333335, 10.9475 ], [ 105.183333333333337, 10.964166666666671 ], [ 105.1875, 10.978333333333339 ], [ 105.1875, 11.001666666666672 ], [ 105.19083333333333, 11.020833333333339 ], [ 105.194166666666661, 11.025 ], [ 105.1975, 11.03583333333334 ], [ 105.1975, 11.041666666666671 ], [ 105.195, 11.045833333333338 ], [ 105.1925, 11.083333333333339 ], [ 105.195, 11.088333333333338 ], [ 105.203333333333333, 11.096666666666671 ], [ 105.21, 11.1 ], [ 105.213333333333338, 11.10583333333334 ], [ 105.234166666666667, 11.13 ], [ 105.236666666666665, 11.139166666666672 ], [ 105.235833333333332, 11.143333333333338 ], [ 105.24166666666666, 11.154166666666672 ], [ 105.23833333333333, 11.159166666666671 ], [ 105.235, 11.170833333333338 ], [ 105.235, 11.178333333333338 ], [ 105.250833333333333, 11.194166666666671 ], [ 105.255833333333328, 11.19583333333334 ], [ 105.259166666666658, 11.199166666666674 ], [ 105.268333333333331, 11.21583333333334 ], [ 105.271666666666661, 11.228333333333339 ], [ 105.279166666666669, 11.245833333333337 ], [ 105.280833333333334, 11.255 ], [ 105.28, 11.2775 ], [ 105.275, 11.29666666666667 ], [ 105.275, 11.306666666666672 ] ] } },
{ "type": "Feature", "properties": { "COMID": 44045068, "id": "39214", "lengthkm": 3.6899238053673629, "order": 7, "uparea": 755590.39581178268 }, "geometry": { "type": "LineString", "coordinates": [ [ 105.345833333333331, 10.779166666666672 ], [ 105.3375, 10.8 ], [ 105.335833333333326, 10.808333333333337 ] ] } },
{ "type": "Feature", "properties": { "COMID": 44045067, "id": "39214", "lengthkm": 8.1031903767886284, "order": 7, "uparea": 755633.45288342342 }, "geometry": { "type": "LineString", "coordinates": [ [ 105.350833333333327, 10.715 ], [ 105.355, 10.725 ], [ 105.359166666666667, 10.729166666666671 ], [ 105.359166666666667, 10.73416666666667 ], [ 105.355833333333322, 10.745 ], [ 105.355833333333322, 10.755833333333339 ], [ 105.351666666666659, 10.770833333333339 ], [ 105.345833333333331, 10.779166666666672 ] ] } },
{ "type": "Feature", "properties": { "COMID": 44045066, "id": "39214", "lengthkm": 17.48573855067545, "order": 7, "uparea": 755704.6604524802 }, "geometry": { "type": "LineString", "coordinates": [ [ 105.36666666666666, 10.574166666666674 ], [ 105.365833333333327, 10.583333333333339 ], [ 105.349166666666662, 10.6175 ], [ 105.34, 10.645833333333339 ], [ 105.338333333333338, 10.67583333333334 ], [ 105.345833333333331, 10.690833333333337 ], [ 105.350833333333327, 10.715 ] ] } },
{ "type": "Feature", "properties": { "COMID": 44045065, "id": "39214", "lengthkm": 6.0505441600601344, "order": 7, "uparea": 755739.88482001564 }, "geometry": { "type": "LineString", "coordinates": [ [ 105.3275, 10.540833333333339 ], [ 105.334166666666661, 10.548333333333339 ], [ 105.351666666666659, 10.556666666666672 ], [ 105.36666666666666, 10.574166666666674 ] ] } },
{ "type": "Feature", "properties": { "COMID": 44045924, "id": "39214", "lengthkm": 23.262980328980063, "order": 7, "uparea": 768296.12213371927 }, "geometry": { "type": "LineString", "coordinates": [ [ 105.445, 10.386666666666674 ], [ 105.431666666666658, 10.398333333333341 ], [ 105.414166666666659, 10.4175 ], [ 105.4075, 10.439166666666672 ], [ 105.385, 10.451666666666672 ], [ 105.361666666666665, 10.476666666666674 ], [ 105.346666666666664, 10.49 ], [ 105.33, 10.525833333333338 ], [ 105.3275, 10.540833333333339 ] ] } },
{ "type": "Feature", "properties": { "COMID": 44045923, "id": "39214", "lengthkm": 0.84564859880892596, "order": 7, "uparea": 770011.15033644927 }, "geometry": { "type": "LineString", "coordinates": [ [ 105.451666666666668, 10.384166666666673 ], [ 105.445, 10.386666666666674 ] ] } },
{ "type": "Feature", "properties": { "COMID": 44045922, "id": "39214", "lengthkm": 7.2556288478156619, "order": 7, "uparea": 770287.79144258949 }, "geometry": { "type": "LineString", "coordinates": [ [ 105.48833333333333, 10.334166666666672 ], [ 105.474166666666662, 10.3475 ], [ 105.4625, 10.3625 ], [ 105.456666666666663, 10.3725 ], [ 105.455, 10.38 ], [ 105.451666666666668, 10.384166666666673 ] ] } },
{ "type": "Feature", "properties": { "COMID": 44045921, "id": "39214", "lengthkm": 1.0025688598509439, "order": 7, "uparea": 770557.26773444971 }, "geometry": { "type": "LineString", "coordinates": [ [ 105.494166666666658, 10.3275 ], [ 105.48833333333333, 10.334166666666672 ] ] } },
{ "type": "Feature", "properties": { "COMID": 44045920, "id": "39214", "lengthkm": 22.999195181191958, "order": 7, "uparea": 770975.52559636952 }, "geometry": { "type": "LineString", "coordinates": [ [ 105.625, 10.186666666666671 ], [ 105.624166666666667, 10.1925 ], [ 105.615, 10.2175 ], [ 105.600833333333327, 10.23833333333334 ], [ 105.57, 10.268333333333338 ], [ 105.564166666666665, 10.27 ], [ 105.55916666666667, 10.275 ], [ 105.558333333333337, 10.27833333333334 ], [ 105.548333333333332, 10.2875 ], [ 105.525, 10.3025 ], [ 105.5175, 10.305833333333339 ], [ 105.515833333333333, 10.305 ], [ 105.494166666666658, 10.3275 ] ] } },
{ "type": "Feature", "properties": { "COMID": 44045919, "id": "39214", "lengthkm": 5.7164777464332648, "order": 7, "uparea": 771033.49665386393 }, "geometry": { "type": "LineString", "coordinates": [ [ 105.659166666666664, 10.15 ], [ 105.650833333333324, 10.158333333333339 ], [ 105.65, 10.1625 ], [ 105.625, 10.186666666666671 ] ] } },
{ "type": "Feature", "properties": { "COMID": 44045918, "id": "39214", "lengthkm": 15.015373103071788, "order": 7, "uparea": 772579.76282141218 }, "geometry": { "type": "LineString", "coordinates": [ [ 105.765, 10.0775 ], [ 105.7525, 10.09 ], [ 105.740833333333327, 10.095833333333339 ], [ 105.735, 10.095833333333339 ], [ 105.710833333333326, 10.116666666666671 ], [ 105.694166666666661, 10.12583333333334 ], [ 105.659166666666664, 10.15 ] ] } },
{ "type": "Feature", "properties": { "COMID": 44045917, "id": "39214", "lengthkm": 5.2380466363319433, "order": 7, "uparea": 772650.606293933 }, "geometry": { "type": "LineString", "coordinates": [ [ 105.798333333333332, 10.049166666666672 ], [ 105.793333333333322, 10.058333333333341 ], [ 105.784166666666664, 10.0675 ], [ 105.775833333333324, 10.073333333333338 ], [ 105.765, 10.0775 ] ] } },
{ "type": "Feature", "properties": { "COMID": 44045916, "id": "39214", "lengthkm": 0.57545517070872898, "order": 7, "uparea": 772739.76413985551 }, "geometry": { "type": "LineString", "coordinates": [ [ 105.80083333333333, 10.045 ], [ 105.798333333333332, 10.049166666666672 ] ] } },
{ "type": "Feature", "properties": { "COMID": 44045915, "id": "39214", "lengthkm": 17.013743803694048, "order": 7, "uparea": 773817.92850895261 }, "geometry": { "type": "LineString", "coordinates": [ [ 105.898333333333326, 9.936666666666671 ], [ 105.8775, 9.950833333333339 ], [ 105.846666666666664, 9.98 ], [ 105.819166666666661, 10.013333333333339 ], [ 105.8175, 10.016666666666673 ], [ 105.8175, 10.0225 ], [ 105.814166666666665, 10.03 ], [ 105.808333333333337, 10.038333333333338 ], [ 105.80083333333333, 10.045 ] ] } },
{ "type": "Feature", "properties": { "COMID": 44046400, "id": "39214", "lengthkm": 9.2908474740990226, "order": 7, "uparea": 774697.65067198128 }, "geometry": { "type": "LineString", "coordinates": [ [ 105.955, 9.880833333333339 ], [ 105.953333333333333, 9.885 ], [ 105.925, 9.91 ], [ 105.911666666666662, 9.925 ], [ 105.91, 9.93 ], [ 105.898333333333326, 9.936666666666671 ] ] } },
{ "type": "Feature", "properties": { "COMID": 44046399, "id": "39214", "lengthkm": 10.815765808967447, "order": 7, "uparea": 774772.97603668948 }, "geometry": { "type": "LineString", "coordinates": [ [ 106.025833333333338, 9.8175 ], [ 106.0175, 9.819166666666671 ], [ 106.014166666666668, 9.821666666666673 ], [ 105.955, 9.880833333333339 ] ] } },
{ "type": "Feature", "properties": { "COMID": 44046398, "id": "39214", "lengthkm": 2.955705689749085, "order": 7, "uparea": 775050.41322420561 }, "geometry": { "type": "LineString", "coordinates": [ [ 106.0475, 9.808333333333341 ], [ 106.034166666666664, 9.816666666666674 ], [ 106.025833333333338, 9.8175 ] ] } },
{ "type": "Feature", "properties": { "COMID": 44046397, "id": "39214", "lengthkm": 4.957685663430401, "order": 7, "uparea": 775140.78874230909 }, "geometry": { "type": "LineString", "coordinates": [ [ 106.069166666666661, 9.7725 ], [ 106.066666666666663, 9.7825 ], [ 106.0475, 9.808333333333341 ] ] } },
{ "type": "Feature", "properties": { "COMID": 44046396, "id": "39214", "lengthkm": 3.5701866387717152, "order": 7, "uparea": 775611.55126566498 }, "geometry": { "type": "LineString", "coordinates": [ [ 106.0975, 9.7625 ], [ 106.0775, 9.7725 ], [ 106.069166666666661, 9.7725 ] ] } },
{ "type": "Feature", "properties": { "COMID": 44046395, "id": "39214", "lengthkm": 2.355571900216527, "order": 7, "uparea": 775719.66045150871 }, "geometry": { "type": "LineString", "coordinates": [ [ 106.11333333333333, 9.749166666666671 ], [ 106.0975, 9.7625 ] ] } },
{ "type": "Feature", "properties": { "COMID": 44046394, "id": "39214", "lengthkm": 11.851812812818313, "order": 7, "uparea": 775833.02004996059 }, "geometry": { "type": "LineString", "coordinates": [ [ 106.185833333333335, 9.673333333333339 ], [ 106.161666666666662, 9.696666666666673 ], [ 106.15, 9.710833333333341 ], [ 106.12833333333333, 9.73083333333334 ], [ 106.11333333333333, 9.749166666666671 ] ] } },
{ "type": "Feature", "properties": { "COMID": 44046393, "id": "39214", "lengthkm": 4.0862544170249508, "order": 7, "uparea": 775876.22938334767 }, "geometry": { "type": "LineString", "coordinates": [ [ 106.2125, 9.648333333333341 ], [ 106.185833333333335, 9.673333333333339 ] ] } },
{ "type": "Feature", "properties": { "COMID": 44046392, "id": "39214", "lengthkm": 5.622978429100705, "order": 7, "uparea": 775976.91826970724 }, "geometry": { "type": "LineString", "coordinates": [ [ 106.25, 9.615833333333338 ], [ 106.2125, 9.648333333333341 ] ] } },
{ "type": "Feature", "properties": { "COMID": 44046391, "id": "39214", "lengthkm": 3.9342543909143042, "order": 7, "uparea": 776027.11519115441 }, "geometry": { "type": "LineString", "coordinates": [ [ 106.279166666666669, 9.6 ], [ 106.264166666666668, 9.606666666666673 ], [ 106.25, 9.615833333333338 ] ] } },
{ "type": "Feature", "properties": { "COMID": 44046390, "id": "39214", "lengthkm": 3.3861689994837838, "order": 7, "uparea": 776128.1625807212 }, "geometry": { "type": "LineString", "coordinates": [ [ 106.303333333333327, 9.584166666666672 ], [ 106.279166666666669, 9.6 ] ] } }
]
}
