{
"type": "FeatureCollection",
"name": "downstream_61137",
"crs": { "type": "name", "properties": { "name": "urn:ogc:def:crs:OGC:1.3:CRS84" } },
"features": [
{ "type": "Feature", "properties": { "COMID": 45036689, "id": "18525", "lengthkm": 38.050718122292658, "order": 1, "uparea": 119.32778082036087 }, "geometry": { "type": "LineString", "coordinates": [ [ 82.136666666666656, 27.56 ], [ 82.1375, 27.560833333333342 ], [ 82.133333333333326, 27.568333333333342 ], [ 82.129166666666663, 27.566666666666677 ], [ 82.125833333333318, 27.570833333333344 ], [ 82.128333333333316, 27.579166666666676 ], [ 82.124166666666653, 27.583333333333343 ], [ 82.125833333333318, 27.584166666666675 ], [ 82.125833333333318, 27.5875 ], [ 82.128333333333316, 27.590833333333343 ], [ 82.125833333333318, 27.595 ], [ 82.129166666666663, 27.595833333333342 ], [ 82.13, 27.598333333333343 ], [ 82.135, 27.599166666666676 ], [ 82.134166666666658, 27.604166666666679 ], [ 82.138333333333321, 27.608333333333341 ], [ 82.135, 27.613333333333344 ], [ 82.138333333333321, 27.614166666666677 ], [ 82.136666666666656, 27.615833333333342 ], [ 82.136666666666656, 27.62 ], [ 82.1475, 27.631666666666675 ], [ 82.150833333333324, 27.630833333333342 ], [ 82.15, 27.635 ], [ 82.155, 27.6425 ], [ 82.164166666666659, 27.6475 ], [ 82.163333333333327, 27.643333333333345 ], [ 82.168333333333322, 27.640833333333344 ], [ 82.18, 27.649166666666677 ], [ 82.1775, 27.650833333333345 ], [ 82.180833333333325, 27.655833333333341 ], [ 82.18, 27.66 ], [ 82.185, 27.660833333333343 ], [ 82.183333333333323, 27.664166666666674 ], [ 82.185833333333321, 27.665 ], [ 82.185, 27.666666666666679 ], [ 82.186666666666653, 27.668333333333344 ], [ 82.181666666666658, 27.671666666666674 ], [ 82.180833333333325, 27.675 ], [ 82.189166666666651, 27.678333333333342 ], [ 82.1925, 27.6825 ], [ 82.196666666666658, 27.68 ], [ 82.199166666666656, 27.681666666666676 ], [ 82.198333333333323, 27.6825 ], [ 82.200833333333321, 27.685 ], [ 82.199166666666656, 27.690833333333345 ], [ 82.203333333333319, 27.694166666666675 ], [ 82.200833333333321, 27.695833333333344 ], [ 82.203333333333319, 27.699166666666677 ], [ 82.2025, 27.700833333333343 ], [ 82.205, 27.7025 ], [ 82.206666666666649, 27.706666666666678 ], [ 82.210833333333326, 27.709166666666675 ], [ 82.2125, 27.7125 ], [ 82.211666666666659, 27.714166666666678 ], [ 82.215, 27.7175 ], [ 82.216666666666654, 27.716666666666676 ], [ 82.22, 27.719166666666677 ], [ 82.219166666666652, 27.720833333333342 ], [ 82.22166666666665, 27.724166666666676 ], [ 82.22, 27.7275 ], [ 82.2225, 27.74 ], [ 82.22, 27.741666666666674 ], [ 82.22, 27.743333333333343 ], [ 82.225, 27.748333333333342 ], [ 82.22166666666665, 27.751666666666676 ], [ 82.220833333333317, 27.755 ], [ 82.226666666666659, 27.759166666666676 ], [ 82.229166666666657, 27.759166666666676 ], [ 82.23, 27.761666666666677 ], [ 82.2325, 27.761666666666677 ] ] } },
{ "type": "Feature", "properties": { "COMID": 45036315, "id": "18525", "lengthkm": 8.8952859440814489, "order": 3, "uparea": 538.16346480680738 }, "geometry": { "type": "LineString", "coordinates": [ [ 82.1875, 27.534166666666678 ], [ 82.185833333333321, 27.538333333333341 ], [ 82.183333333333323, 27.535833333333343 ], [ 82.180833333333325, 27.54 ], [ 82.179166666666646, 27.539166666666677 ], [ 82.175833333333316, 27.543333333333344 ], [ 82.175, 27.541666666666679 ], [ 82.171666666666653, 27.541666666666679 ], [ 82.1625, 27.546666666666674 ], [ 82.161666666666662, 27.545 ], [ 82.1575, 27.545 ], [ 82.15583333333332, 27.5475 ], [ 82.153333333333322, 27.5475 ], [ 82.1525, 27.545 ], [ 82.150833333333324, 27.546666666666674 ], [ 82.15, 27.545833333333341 ], [ 82.145833333333314, 27.549166666666679 ], [ 82.145833333333314, 27.5525 ], [ 82.143333333333317, 27.555 ], [ 82.141666666666652, 27.554166666666674 ], [ 82.136666666666656, 27.56 ] ] } },
{ "type": "Feature", "properties": { "COMID": 45036281, "id": "18525", "lengthkm": 6.9348518186208299, "order": 3, "uparea": 599.82585696340891 }, "geometry": { "type": "LineString", "coordinates": [ [ 82.1825, 27.494166666666676 ], [ 82.180833333333325, 27.495 ], [ 82.180833333333325, 27.4975 ], [ 82.185833333333321, 27.499166666666675 ], [ 82.1875, 27.505833333333342 ], [ 82.189166666666651, 27.506666666666675 ], [ 82.1875, 27.509166666666676 ], [ 82.181666666666658, 27.509166666666676 ], [ 82.185833333333321, 27.515833333333344 ], [ 82.188333333333318, 27.515833333333344 ], [ 82.185833333333321, 27.52 ], [ 82.186666666666653, 27.523333333333341 ], [ 82.190833333333316, 27.525833333333345 ], [ 82.1875, 27.53 ], [ 82.1875, 27.534166666666678 ] ] } },
{ "type": "Feature", "properties": { "COMID": 45035878, "id": "18525", "lengthkm": 39.957737527009421, "order": 4, "uparea": 9182.2864631662742 }, "geometry": { "type": "LineString", "coordinates": [ [ 82.344166666666652, 27.381666666666675 ], [ 82.345833333333317, 27.391666666666676 ], [ 82.35, 27.3975 ], [ 82.349166666666662, 27.4 ], [ 82.35833333333332, 27.406666666666677 ], [ 82.356666666666655, 27.41 ], [ 82.35, 27.413333333333341 ], [ 82.345, 27.413333333333341 ], [ 82.3425, 27.415 ], [ 82.34333333333332, 27.416666666666679 ], [ 82.333333333333314, 27.415833333333342 ], [ 82.331666666666649, 27.4175 ], [ 82.333333333333314, 27.423333333333343 ], [ 82.3325, 27.425833333333344 ], [ 82.325833333333321, 27.425833333333344 ], [ 82.316666666666663, 27.423333333333343 ], [ 82.310833333333321, 27.43 ], [ 82.296666666666653, 27.428333333333342 ], [ 82.286666666666662, 27.436666666666675 ], [ 82.28416666666665, 27.436666666666675 ], [ 82.28, 27.430833333333343 ], [ 82.2725, 27.425 ], [ 82.2675, 27.425833333333344 ], [ 82.264166666666654, 27.436666666666675 ], [ 82.26, 27.44 ], [ 82.234166666666653, 27.433333333333344 ], [ 82.2275, 27.439166666666676 ], [ 82.225, 27.450833333333343 ], [ 82.215, 27.450833333333343 ], [ 82.209166666666647, 27.449166666666677 ], [ 82.199166666666656, 27.456666666666678 ], [ 82.204166666666652, 27.461666666666677 ], [ 82.2075, 27.461666666666677 ], [ 82.211666666666659, 27.465 ], [ 82.2125, 27.469166666666677 ], [ 82.215833333333322, 27.469166666666677 ], [ 82.2275, 27.474166666666676 ], [ 82.229166666666657, 27.478333333333342 ], [ 82.215833333333322, 27.479166666666679 ], [ 82.186666666666653, 27.469166666666677 ], [ 82.185833333333321, 27.475833333333341 ], [ 82.1875, 27.478333333333342 ], [ 82.1875, 27.494166666666676 ], [ 82.185833333333321, 27.495833333333344 ], [ 82.1825, 27.494166666666676 ] ] } },
{ "type": "Feature", "properties": { "COMID": 45035874, "id": "18525", "lengthkm": 41.829887088280969, "order": 4, "uparea": 9490.0464718403782 }, "geometry": { "type": "LineString", "coordinates": [ [ 82.495, 27.294166666666676 ], [ 82.493333333333325, 27.295833333333341 ], [ 82.495, 27.2975 ], [ 82.499166666666653, 27.299166666666679 ], [ 82.508333333333326, 27.3075 ], [ 82.5125, 27.3175 ], [ 82.509166666666658, 27.32 ], [ 82.491666666666646, 27.314166666666676 ], [ 82.485833333333318, 27.314166666666676 ], [ 82.4725, 27.32 ], [ 82.470833333333317, 27.321666666666676 ], [ 82.4725, 27.325 ], [ 82.4775, 27.323333333333345 ], [ 82.481666666666655, 27.326666666666675 ], [ 82.479166666666657, 27.329166666666676 ], [ 82.480833333333322, 27.331666666666678 ], [ 82.474166666666662, 27.338333333333345 ], [ 82.4725, 27.336666666666677 ], [ 82.463333333333324, 27.341666666666676 ], [ 82.455, 27.34 ], [ 82.450833333333321, 27.3425 ], [ 82.451666666666654, 27.346666666666678 ], [ 82.454166666666652, 27.348333333333343 ], [ 82.453333333333319, 27.351666666666677 ], [ 82.458333333333314, 27.361666666666679 ], [ 82.455833333333317, 27.370833333333344 ], [ 82.4525, 27.371666666666677 ], [ 82.45, 27.369166666666679 ], [ 82.445, 27.3575 ], [ 82.441666666666663, 27.355833333333344 ], [ 82.435, 27.370833333333344 ], [ 82.4275, 27.375 ], [ 82.42083333333332, 27.3675 ], [ 82.416666666666657, 27.365833333333342 ], [ 82.415833333333325, 27.3675 ], [ 82.410833333333329, 27.364166666666677 ], [ 82.413333333333327, 27.3675 ], [ 82.4125, 27.368333333333343 ], [ 82.401666666666657, 27.368333333333343 ], [ 82.401666666666657, 27.375 ], [ 82.41, 27.3825 ], [ 82.408333333333317, 27.384166666666676 ], [ 82.406666666666652, 27.383333333333344 ], [ 82.403333333333322, 27.388333333333343 ], [ 82.39, 27.386666666666677 ], [ 82.3875, 27.380833333333342 ], [ 82.3825, 27.376666666666676 ], [ 82.381666666666661, 27.37 ], [ 82.38, 27.368333333333343 ], [ 82.376666666666651, 27.368333333333343 ], [ 82.373333333333321, 27.370833333333344 ], [ 82.375, 27.373333333333342 ], [ 82.375, 27.378333333333345 ], [ 82.365833333333313, 27.381666666666675 ], [ 82.36166666666665, 27.385 ], [ 82.3525, 27.3775 ], [ 82.35, 27.3775 ], [ 82.344166666666652, 27.381666666666675 ] ] } },
{ "type": "Feature", "properties": { "COMID": 45035873, "id": "18525", "lengthkm": 19.997865350641817, "order": 4, "uparea": 9698.2919284585205 }, "geometry": { "type": "LineString", "coordinates": [ [ 82.555833333333325, 27.214166666666678 ], [ 82.553333333333313, 27.218333333333341 ], [ 82.54916666666665, 27.219166666666677 ], [ 82.5475, 27.2175 ], [ 82.544166666666655, 27.218333333333341 ], [ 82.535, 27.215 ], [ 82.529166666666654, 27.215 ], [ 82.524166666666659, 27.2075 ], [ 82.526666666666657, 27.205 ], [ 82.525833333333324, 27.201666666666675 ], [ 82.518333333333317, 27.2025 ], [ 82.516666666666652, 27.205 ], [ 82.515, 27.204166666666676 ], [ 82.510833333333323, 27.206666666666678 ], [ 82.5125, 27.211666666666677 ], [ 82.510833333333323, 27.213333333333345 ], [ 82.513333333333321, 27.22 ], [ 82.5125, 27.223333333333343 ], [ 82.514166666666654, 27.225833333333341 ], [ 82.511666666666656, 27.229166666666679 ], [ 82.52, 27.239166666666677 ], [ 82.52, 27.2425 ], [ 82.505833333333328, 27.248333333333342 ], [ 82.505833333333328, 27.250833333333343 ], [ 82.51, 27.256666666666675 ], [ 82.506666666666661, 27.261666666666677 ], [ 82.505833333333328, 27.266666666666676 ], [ 82.5025, 27.27 ], [ 82.504166666666663, 27.278333333333343 ], [ 82.503333333333316, 27.280833333333341 ], [ 82.505, 27.283333333333346 ], [ 82.495, 27.294166666666676 ] ] } },
{ "type": "Feature", "properties": { "COMID": 45035872, "id": "18525", "lengthkm": 7.5466154316081866, "order": 4, "uparea": 9806.5620924130708 }, "geometry": { "type": "LineString", "coordinates": [ [ 82.565833333333316, 27.176666666666677 ], [ 82.565, 27.195 ], [ 82.561666666666653, 27.1975 ], [ 82.5475, 27.2 ], [ 82.543333333333322, 27.2025 ], [ 82.544166666666655, 27.205 ], [ 82.555, 27.2025 ], [ 82.556666666666658, 27.205 ], [ 82.555833333333325, 27.214166666666678 ] ] } },
{ "type": "Feature", "properties": { "COMID": 45035871, "id": "18525", "lengthkm": 45.343017999461708, "order": 4, "uparea": 10500.570652721917 }, "geometry": { "type": "LineString", "coordinates": [ [ 82.83, 27.17 ], [ 82.824166666666656, 27.179166666666674 ], [ 82.821666666666658, 27.179166666666674 ], [ 82.814166666666651, 27.173333333333343 ], [ 82.8125, 27.185 ], [ 82.809166666666655, 27.1875 ], [ 82.801666666666648, 27.1875 ], [ 82.7925, 27.2 ], [ 82.774166666666659, 27.1975 ], [ 82.7725, 27.199166666666677 ], [ 82.774166666666659, 27.2075 ], [ 82.771666666666647, 27.21 ], [ 82.761666666666656, 27.209166666666675 ], [ 82.754166666666649, 27.201666666666675 ], [ 82.751666666666651, 27.201666666666675 ], [ 82.746666666666655, 27.205 ], [ 82.740833333333313, 27.2 ], [ 82.735, 27.213333333333345 ], [ 82.724166666666662, 27.2075 ], [ 82.7225, 27.21 ], [ 82.7225, 27.215833333333343 ], [ 82.72, 27.219166666666677 ], [ 82.715833333333322, 27.216666666666676 ], [ 82.7075, 27.2 ], [ 82.6975, 27.193333333333342 ], [ 82.680833333333325, 27.190833333333345 ], [ 82.664166666666659, 27.190833333333345 ], [ 82.663333333333327, 27.191666666666677 ], [ 82.6675, 27.196666666666676 ], [ 82.665833333333325, 27.2025 ], [ 82.658333333333317, 27.2125 ], [ 82.648333333333312, 27.215833333333343 ], [ 82.641666666666652, 27.209166666666675 ], [ 82.629166666666663, 27.200833333333343 ], [ 82.623333333333321, 27.208333333333343 ], [ 82.619166666666658, 27.208333333333343 ], [ 82.613333333333316, 27.205833333333345 ], [ 82.6025, 27.2 ], [ 82.594166666666652, 27.190833333333345 ], [ 82.5875, 27.1875 ], [ 82.584166666666647, 27.1875 ], [ 82.578333333333319, 27.191666666666677 ], [ 82.57, 27.191666666666677 ], [ 82.57, 27.1875 ], [ 82.5775, 27.181666666666679 ], [ 82.58, 27.175833333333344 ], [ 82.571666666666658, 27.171666666666674 ], [ 82.565833333333316, 27.176666666666677 ] ] } },
{ "type": "Feature", "properties": { "COMID": 45035870, "id": "18525", "lengthkm": 7.7184381317897186, "order": 4, "uparea": 10537.472212445207 }, "geometry": { "type": "LineString", "coordinates": [ [ 82.8675, 27.190833333333345 ], [ 82.8775, 27.185833333333342 ], [ 82.875833333333318, 27.179166666666674 ], [ 82.870833333333323, 27.1725 ], [ 82.86, 27.176666666666677 ], [ 82.8525, 27.176666666666677 ], [ 82.84333333333332, 27.174166666666679 ], [ 82.835, 27.168333333333344 ], [ 82.83, 27.17 ] ] } },
{ "type": "Feature", "properties": { "COMID": 45039981, "id": "18525", "lengthkm": 26.139531034187456, "order": 4, "uparea": 10610.150141652635 }, "geometry": { "type": "LineString", "coordinates": [ [ 83.019166666666649, 27.144166666666678 ], [ 83.0125, 27.149166666666677 ], [ 83.011666666666656, 27.154166666666676 ], [ 83.015, 27.1575 ], [ 83.019166666666649, 27.1575 ], [ 83.020833333333314, 27.160833333333343 ], [ 83.008333333333326, 27.169166666666676 ], [ 83.0, 27.171666666666674 ], [ 82.995833333333323, 27.175833333333344 ], [ 82.9975, 27.180833333333343 ], [ 82.990833333333313, 27.183333333333344 ], [ 82.990833333333313, 27.186666666666675 ], [ 82.995833333333323, 27.191666666666677 ], [ 82.991666666666646, 27.194166666666675 ], [ 82.98666666666665, 27.194166666666675 ], [ 82.979166666666657, 27.1975 ], [ 82.976666666666659, 27.1975 ], [ 82.97, 27.193333333333342 ], [ 82.959166666666647, 27.194166666666675 ], [ 82.953333333333319, 27.2 ], [ 82.941666666666649, 27.190833333333345 ], [ 82.94, 27.1825 ], [ 82.938333333333318, 27.180833333333343 ], [ 82.935, 27.180833333333343 ], [ 82.925, 27.1875 ], [ 82.9075, 27.188333333333343 ], [ 82.8925, 27.203333333333344 ], [ 82.89, 27.203333333333344 ], [ 82.8875, 27.200833333333343 ], [ 82.885833333333323, 27.195833333333344 ], [ 82.881666666666661, 27.191666666666677 ], [ 82.871666666666655, 27.193333333333342 ], [ 82.868333333333325, 27.1925 ], [ 82.8675, 27.190833333333345 ] ] } },
{ "type": "Feature", "properties": { "COMID": 45039858, "id": "18525", "lengthkm": 23.211146986550897, "order": 4, "uparea": 10699.962072152501 }, "geometry": { "type": "LineString", "coordinates": [ [ 83.120833333333323, 27.15 ], [ 83.1125, 27.1475 ], [ 83.105, 27.149166666666677 ], [ 83.100833333333327, 27.1525 ], [ 83.1025, 27.155 ], [ 83.1075, 27.154166666666676 ], [ 83.10833333333332, 27.155833333333341 ], [ 83.105, 27.159166666666678 ], [ 83.091666666666654, 27.168333333333344 ], [ 83.085833333333312, 27.17 ], [ 83.079166666666652, 27.169166666666676 ], [ 83.0725, 27.174166666666679 ], [ 83.070833333333326, 27.1725 ], [ 83.071666666666658, 27.160833333333343 ], [ 83.07, 27.158333333333346 ], [ 83.055833333333325, 27.166666666666679 ], [ 83.051666666666648, 27.164166666666677 ], [ 83.055, 27.148333333333344 ], [ 83.0525, 27.144166666666678 ], [ 83.048333333333318, 27.1425 ], [ 83.043333333333322, 27.146666666666675 ], [ 83.039166666666659, 27.146666666666675 ], [ 83.036666666666662, 27.145 ], [ 83.033333333333317, 27.146666666666675 ], [ 83.03083333333332, 27.15 ], [ 83.0325, 27.151666666666678 ], [ 83.044166666666655, 27.156666666666677 ], [ 83.044166666666655, 27.159166666666678 ], [ 83.04, 27.16 ], [ 83.035833333333329, 27.159166666666678 ], [ 83.03416666666665, 27.156666666666677 ], [ 83.0325, 27.1575 ], [ 83.024166666666659, 27.146666666666675 ], [ 83.021666666666647, 27.144166666666678 ], [ 83.019166666666649, 27.144166666666678 ] ] } },
{ "type": "Feature", "properties": { "COMID": 45039857, "id": "18525", "lengthkm": 3.67452516057807, "order": 5, "uparea": 18271.288536247237 }, "geometry": { "type": "LineString", "coordinates": [ [ 83.1375, 27.125 ], [ 83.129166666666649, 27.134166666666676 ], [ 83.128333333333316, 27.145 ], [ 83.120833333333323, 27.15 ] ] } },
{ "type": "Feature", "properties": { "COMID": 45039856, "id": "18525", "lengthkm": 8.7626285415542799, "order": 5, "uparea": 18316.89671720297 }, "geometry": { "type": "LineString", "coordinates": [ [ 83.169166666666655, 27.076666666666675 ], [ 83.1675, 27.080833333333345 ], [ 83.17416666666665, 27.100833333333341 ], [ 83.173333333333318, 27.105 ], [ 83.169166666666655, 27.108333333333341 ], [ 83.164166666666659, 27.108333333333341 ], [ 83.161666666666662, 27.104166666666679 ], [ 83.16, 27.104166666666679 ], [ 83.155, 27.108333333333341 ], [ 83.150833333333324, 27.115833333333342 ], [ 83.1375, 27.125 ] ] } },
{ "type": "Feature", "properties": { "COMID": 45039855, "id": "18525", "lengthkm": 9.3733358122737425, "order": 5, "uparea": 18395.568743311 }, "geometry": { "type": "LineString", "coordinates": [ [ 83.2, 27.0475 ], [ 83.195833333333326, 27.051666666666677 ], [ 83.190833333333316, 27.049166666666679 ], [ 83.1875, 27.05 ], [ 83.189166666666651, 27.055 ], [ 83.199166666666656, 27.064166666666676 ], [ 83.1975, 27.0725 ], [ 83.193333333333328, 27.0725 ], [ 83.185833333333321, 27.064166666666676 ], [ 83.18, 27.069166666666675 ], [ 83.180833333333325, 27.071666666666676 ], [ 83.179166666666646, 27.0775 ], [ 83.169166666666655, 27.076666666666675 ] ] } },
{ "type": "Feature", "properties": { "COMID": 45039854, "id": "18525", "lengthkm": 4.2871211315823512, "order": 5, "uparea": 18804.033476668425 }, "geometry": { "type": "LineString", "coordinates": [ [ 83.185, 27.021666666666675 ], [ 83.1825, 27.025 ], [ 83.184166666666655, 27.029166666666676 ], [ 83.190833333333316, 27.035 ], [ 83.203333333333319, 27.041666666666679 ], [ 83.203333333333319, 27.044166666666676 ], [ 83.2, 27.0475 ] ] } },
{ "type": "Feature", "properties": { "COMID": 45039853, "id": "18525", "lengthkm": 43.034199166516295, "order": 5, "uparea": 18947.201838749108 }, "geometry": { "type": "LineString", "coordinates": [ [ 83.230833333333322, 26.83 ], [ 83.24, 26.8325 ], [ 83.244166666666658, 26.83 ], [ 83.250833333333318, 26.8375 ], [ 83.249166666666653, 26.845 ], [ 83.243333333333325, 26.8425 ], [ 83.24, 26.843333333333344 ], [ 83.23333333333332, 26.841666666666676 ], [ 83.230833333333322, 26.845 ], [ 83.230833333333322, 26.848333333333343 ], [ 83.24, 26.855833333333344 ], [ 83.243333333333325, 26.860833333333343 ], [ 83.248333333333321, 26.871666666666677 ], [ 83.2475, 26.875833333333343 ], [ 83.251666666666651, 26.883333333333344 ], [ 83.243333333333325, 26.89 ], [ 83.243333333333325, 26.8925 ], [ 83.23666666666665, 26.895833333333343 ], [ 83.230833333333322, 26.908333333333346 ], [ 83.225833333333327, 26.914166666666677 ], [ 83.21833333333332, 26.9175 ], [ 83.21, 26.9175 ], [ 83.2025, 26.92 ], [ 83.2025, 26.921666666666678 ], [ 83.205833333333317, 26.924166666666679 ], [ 83.224166666666662, 26.9325 ], [ 83.226666666666659, 26.938333333333343 ], [ 83.215833333333322, 26.950833333333343 ], [ 83.195833333333326, 26.961666666666677 ], [ 83.193333333333328, 26.964166666666678 ], [ 83.193333333333328, 26.968333333333341 ], [ 83.195833333333326, 26.971666666666678 ], [ 83.2, 26.973333333333343 ], [ 83.21, 26.970833333333346 ], [ 83.2225, 26.971666666666678 ], [ 83.228333333333325, 26.975833333333341 ], [ 83.231666666666655, 26.980833333333344 ], [ 83.231666666666655, 26.983333333333341 ], [ 83.226666666666659, 26.986666666666679 ], [ 83.215, 26.986666666666679 ], [ 83.2125, 26.989166666666677 ], [ 83.2125, 26.995833333333344 ], [ 83.215, 27.001666666666679 ], [ 83.215, 27.0125 ], [ 83.2075, 27.023333333333344 ], [ 83.2, 27.019166666666678 ], [ 83.196666666666658, 27.023333333333344 ], [ 83.195833333333326, 27.0275 ], [ 83.1925, 27.030833333333341 ], [ 83.19, 27.029166666666676 ], [ 83.188333333333318, 27.023333333333344 ], [ 83.185, 27.021666666666675 ] ] } },
{ "type": "Feature", "properties": { "COMID": 45039852, "id": "18525", "lengthkm": 25.498146446962473, "order": 5, "uparea": 19290.393503056308 }, "geometry": { "type": "LineString", "coordinates": [ [ 83.331666666666649, 26.755 ], [ 83.325833333333321, 26.755 ], [ 83.319166666666661, 26.748333333333342 ], [ 83.308333333333323, 26.7425 ], [ 83.294166666666655, 26.741666666666678 ], [ 83.289166666666659, 26.7425 ], [ 83.285833333333315, 26.745833333333344 ], [ 83.285833333333315, 26.758333333333344 ], [ 83.2825, 26.761666666666677 ], [ 83.2775, 26.761666666666677 ], [ 83.275, 26.756666666666675 ], [ 83.2725, 26.755833333333342 ], [ 83.268333333333317, 26.7475 ], [ 83.256666666666661, 26.746666666666677 ], [ 83.253333333333316, 26.748333333333342 ], [ 83.244166666666658, 26.765 ], [ 83.241666666666646, 26.776666666666678 ], [ 83.231666666666655, 26.781666666666677 ], [ 83.229166666666657, 26.785 ], [ 83.231666666666655, 26.79 ], [ 83.239166666666648, 26.7925 ], [ 83.246666666666655, 26.800833333333344 ], [ 83.251666666666651, 26.81 ], [ 83.2525, 26.816666666666677 ], [ 83.249166666666653, 26.820833333333344 ], [ 83.229166666666657, 26.8225 ], [ 83.2275, 26.825833333333343 ], [ 83.230833333333322, 26.83 ] ] } },
{ "type": "Feature", "properties": { "COMID": 45039851, "id": "18525", "lengthkm": 42.094122322491643, "order": 5, "uparea": 22176.238732112706 }, "geometry": { "type": "LineString", "coordinates": [ [ 83.46833333333332, 26.605 ], [ 83.450833333333321, 26.595833333333346 ], [ 83.436666666666653, 26.595 ], [ 83.4325, 26.5975 ], [ 83.4325, 26.600833333333341 ], [ 83.434166666666655, 26.6025 ], [ 83.445, 26.6075 ], [ 83.46, 26.623333333333342 ], [ 83.46, 26.628333333333345 ], [ 83.455833333333317, 26.63 ], [ 83.434166666666655, 26.6225 ], [ 83.4225, 26.621666666666677 ], [ 83.414166666666659, 26.624166666666675 ], [ 83.403333333333322, 26.63 ], [ 83.400833333333324, 26.63416666666668 ], [ 83.405, 26.6375 ], [ 83.42, 26.6375 ], [ 83.423333333333318, 26.64 ], [ 83.425833333333316, 26.644166666666678 ], [ 83.425833333333316, 26.6525 ], [ 83.4175, 26.661666666666676 ], [ 83.406666666666652, 26.661666666666676 ], [ 83.395833333333314, 26.659166666666678 ], [ 83.386666666666656, 26.659166666666678 ], [ 83.3825, 26.661666666666676 ], [ 83.380833333333328, 26.664166666666677 ], [ 83.381666666666661, 26.666666666666679 ], [ 83.388333333333321, 26.673333333333346 ], [ 83.386666666666656, 26.6875 ], [ 83.389166666666654, 26.6925 ], [ 83.389166666666654, 26.696666666666676 ], [ 83.384166666666658, 26.700833333333343 ], [ 83.379166666666649, 26.700833333333343 ], [ 83.368333333333325, 26.696666666666676 ], [ 83.3575, 26.695 ], [ 83.350833333333327, 26.695833333333344 ], [ 83.3475, 26.698333333333345 ], [ 83.35, 26.708333333333343 ], [ 83.349166666666662, 26.733333333333341 ], [ 83.3475, 26.7375 ], [ 83.340833333333322, 26.743333333333343 ], [ 83.341666666666654, 26.745 ], [ 83.331666666666649, 26.755 ] ] } },
{ "type": "Feature", "properties": { "COMID": 45043892, "id": "18525", "lengthkm": 10.072876233344491, "order": 5, "uparea": 22512.395513537529 }, "geometry": { "type": "LineString", "coordinates": [ [ 83.4425, 26.548333333333346 ], [ 83.4475, 26.555833333333343 ], [ 83.445833333333326, 26.561666666666675 ], [ 83.443333333333328, 26.563333333333343 ], [ 83.444166666666661, 26.569166666666675 ], [ 83.449166666666656, 26.5725 ], [ 83.4575, 26.5725 ], [ 83.461666666666645, 26.570833333333344 ], [ 83.466666666666654, 26.573333333333345 ], [ 83.4725, 26.579166666666676 ], [ 83.4775, 26.589166666666678 ], [ 83.4775, 26.599166666666676 ], [ 83.474166666666662, 26.6025 ], [ 83.46833333333332, 26.605 ] ] } },
{ "type": "Feature", "properties": { "COMID": 45043888, "id": "18525", "lengthkm": 49.090280898152209, "order": 5, "uparea": 24461.062709942031 }, "geometry": { "type": "LineString", "coordinates": [ [ 83.5575, 26.393333333333345 ], [ 83.55, 26.394166666666678 ], [ 83.545, 26.39 ], [ 83.546666666666653, 26.388333333333343 ], [ 83.554166666666646, 26.388333333333343 ], [ 83.558333333333323, 26.385 ], [ 83.554166666666646, 26.3775 ], [ 83.548333333333318, 26.3575 ], [ 83.544166666666655, 26.353333333333346 ], [ 83.540833333333325, 26.353333333333346 ], [ 83.535833333333315, 26.36 ], [ 83.53416666666665, 26.369166666666679 ], [ 83.53083333333332, 26.373333333333342 ], [ 83.53083333333332, 26.3775 ], [ 83.535, 26.38416666666668 ], [ 83.53083333333332, 26.385833333333345 ], [ 83.52, 26.3825 ], [ 83.515, 26.383333333333344 ], [ 83.515833333333319, 26.385833333333345 ], [ 83.528333333333322, 26.398333333333344 ], [ 83.515833333333319, 26.403333333333343 ], [ 83.508333333333326, 26.4025 ], [ 83.5025, 26.398333333333344 ], [ 83.499166666666653, 26.398333333333344 ], [ 83.4975, 26.4 ], [ 83.494166666666658, 26.4175 ], [ 83.5, 26.4175 ], [ 83.503333333333316, 26.420833333333341 ], [ 83.504166666666649, 26.424166666666679 ], [ 83.479166666666657, 26.443333333333342 ], [ 83.4775, 26.455 ], [ 83.4775, 26.460833333333344 ], [ 83.479166666666657, 26.4625 ], [ 83.485, 26.460833333333344 ], [ 83.493333333333325, 26.460833333333344 ], [ 83.495833333333323, 26.4625 ], [ 83.495833333333323, 26.465 ], [ 83.4875, 26.474166666666676 ], [ 83.48666666666665, 26.48 ], [ 83.494166666666658, 26.490833333333342 ], [ 83.48666666666665, 26.495 ], [ 83.473333333333315, 26.4975 ], [ 83.473333333333315, 26.5 ], [ 83.4825, 26.51 ], [ 83.484166666666653, 26.5175 ], [ 83.469166666666652, 26.5275 ], [ 83.465833333333322, 26.533333333333346 ], [ 83.469166666666652, 26.539166666666677 ], [ 83.478333333333325, 26.543333333333344 ], [ 83.4775, 26.5475 ], [ 83.470833333333317, 26.551666666666677 ], [ 83.454166666666652, 26.545833333333341 ], [ 83.446666666666658, 26.545833333333341 ], [ 83.4425, 26.548333333333346 ] ] } },
{ "type": "Feature", "properties": { "COMID": 45043880, "id": "18525", "lengthkm": 3.1116579514365421, "order": 5, "uparea": 24522.610678906229 }, "geometry": { "type": "LineString", "coordinates": [ [ 83.585, 26.3975 ], [ 83.583333333333314, 26.399166666666677 ], [ 83.58, 26.399166666666677 ], [ 83.571666666666658, 26.395 ], [ 83.5575, 26.393333333333345 ] ] } },
{ "type": "Feature", "properties": { "COMID": 45043878, "id": "18525", "lengthkm": 6.4546824006039767, "order": 5, "uparea": 25276.715207023368 }, "geometry": { "type": "LineString", "coordinates": [ [ 83.599166666666662, 26.364166666666677 ], [ 83.5925, 26.36 ], [ 83.5875, 26.359166666666678 ], [ 83.585, 26.360833333333346 ], [ 83.5775, 26.373333333333342 ], [ 83.5775, 26.3775 ], [ 83.585833333333312, 26.393333333333345 ], [ 83.585, 26.3975 ] ] } },
{ "type": "Feature", "properties": { "COMID": 45043877, "id": "18525", "lengthkm": 8.1681233969003326, "order": 5, "uparea": 26109.306597272094 }, "geometry": { "type": "LineString", "coordinates": [ [ 83.6175, 26.343333333333344 ], [ 83.6075, 26.346666666666678 ], [ 83.599166666666662, 26.3475 ], [ 83.595833333333317, 26.35 ], [ 83.6025, 26.355833333333344 ], [ 83.614166666666648, 26.361666666666679 ], [ 83.616666666666646, 26.365 ], [ 83.616666666666646, 26.369166666666679 ], [ 83.613333333333316, 26.371666666666677 ], [ 83.599166666666662, 26.364166666666677 ] ] } },
{ "type": "Feature", "properties": { "COMID": 45043876, "id": "18525", "lengthkm": 4.3716695225157682, "order": 5, "uparea": 26144.720955573011 }, "geometry": { "type": "LineString", "coordinates": [ [ 83.625833333333318, 26.3125 ], [ 83.618333333333325, 26.315 ], [ 83.619166666666658, 26.32166666666668 ], [ 83.6225, 26.325833333333343 ], [ 83.6225, 26.336666666666677 ], [ 83.6175, 26.343333333333344 ] ] } },
{ "type": "Feature", "properties": { "COMID": 45043875, "id": "18525", "lengthkm": 8.0000690406431669, "order": 5, "uparea": 26847.555800619208 }, "geometry": { "type": "LineString", "coordinates": [ [ 83.67083333333332, 26.285 ], [ 83.669166666666655, 26.29 ], [ 83.668333333333322, 26.309166666666677 ], [ 83.666666666666657, 26.313333333333343 ], [ 83.6625, 26.316666666666677 ], [ 83.654166666666654, 26.318333333333342 ], [ 83.650833333333324, 26.315833333333345 ], [ 83.6425, 26.315833333333345 ], [ 83.625833333333318, 26.3125 ] ] } },
{ "type": "Feature", "properties": { "COMID": 45043772, "id": "18525", "lengthkm": 7.5334870956690372, "order": 6, "uparea": 121501.68592743877 }, "geometry": { "type": "LineString", "coordinates": [ [ 83.7325, 26.2675 ], [ 83.7225, 26.2675 ], [ 83.714166666666657, 26.2725 ], [ 83.704166666666652, 26.275833333333345 ], [ 83.693333333333328, 26.286666666666676 ], [ 83.686666666666653, 26.285 ], [ 83.67083333333332, 26.285 ] ] } },
{ "type": "Feature", "properties": { "COMID": 45043771, "id": "18525", "lengthkm": 2.0119269472448882, "order": 6, "uparea": 121554.77942586913 }, "geometry": { "type": "LineString", "coordinates": [ [ 83.7475, 26.2725 ], [ 83.740833333333313, 26.2725 ], [ 83.73666666666665, 26.2675 ], [ 83.7325, 26.2675 ] ] } },
{ "type": "Feature", "properties": { "COMID": 45043770, "id": "18525", "lengthkm": 15.802765805511552, "order": 6, "uparea": 121727.55542210773 }, "geometry": { "type": "LineString", "coordinates": [ [ 83.840833333333322, 26.1925 ], [ 83.839166666666657, 26.2 ], [ 83.833333333333314, 26.2075 ], [ 83.829166666666652, 26.2075 ], [ 83.824166666666656, 26.211666666666677 ], [ 83.820833333333326, 26.211666666666677 ], [ 83.8175, 26.214166666666678 ], [ 83.8025, 26.215833333333343 ], [ 83.79583333333332, 26.213333333333345 ], [ 83.7925, 26.215833333333343 ], [ 83.79, 26.220833333333346 ], [ 83.778333333333322, 26.2275 ], [ 83.775833333333324, 26.233333333333341 ], [ 83.775, 26.243333333333347 ], [ 83.7725, 26.243333333333347 ], [ 83.771666666666647, 26.245 ], [ 83.773333333333312, 26.248333333333342 ], [ 83.7725, 26.250833333333343 ], [ 83.7625, 26.261666666666677 ], [ 83.7525, 26.2675 ], [ 83.7475, 26.2725 ] ] } },
{ "type": "Feature", "properties": { "COMID": 45043769, "id": "18525", "lengthkm": 1.3067334834508439, "order": 6, "uparea": 122198.52564587224 }, "geometry": { "type": "LineString", "coordinates": [ [ 83.85, 26.186666666666678 ], [ 83.844166666666652, 26.1875 ], [ 83.840833333333322, 26.1925 ] ] } },
{ "type": "Feature", "properties": { "COMID": 45043768, "id": "18525", "lengthkm": 2.702024646756235, "order": 6, "uparea": 122429.02056299704 }, "geometry": { "type": "LineString", "coordinates": [ [ 83.863333333333316, 26.168333333333344 ], [ 83.859166666666653, 26.170833333333341 ], [ 83.8575, 26.175833333333344 ], [ 83.853333333333325, 26.179166666666678 ], [ 83.85, 26.186666666666678 ] ] } },
{ "type": "Feature", "properties": { "COMID": 45043767, "id": "18525", "lengthkm": 2.618977173484998, "order": 6, "uparea": 122514.25978439275 }, "geometry": { "type": "LineString", "coordinates": [ [ 83.874166666666653, 26.15 ], [ 83.871666666666655, 26.158333333333346 ], [ 83.868333333333311, 26.16 ], [ 83.869166666666658, 26.160833333333343 ], [ 83.863333333333316, 26.168333333333344 ] ] } },
{ "type": "Feature", "properties": { "COMID": 45043766, "id": "18525", "lengthkm": 0.71526036727880904, "order": 6, "uparea": 122542.97700644766 }, "geometry": { "type": "LineString", "coordinates": [ [ 83.878333333333316, 26.145 ], [ 83.874166666666653, 26.15 ] ] } },
{ "type": "Feature", "properties": { "COMID": 45043765, "id": "18525", "lengthkm": 4.3052641708606698, "order": 6, "uparea": 122669.58861393404 }, "geometry": { "type": "LineString", "coordinates": [ [ 83.906666666666652, 26.118333333333347 ], [ 83.9, 26.1225 ], [ 83.8925, 26.130833333333342 ], [ 83.890833333333319, 26.130833333333342 ], [ 83.878333333333316, 26.145 ] ] } },
{ "type": "Feature", "properties": { "COMID": 45043764, "id": "18525", "lengthkm": 5.3299456916862189, "order": 6, "uparea": 122735.22851776249 }, "geometry": { "type": "LineString", "coordinates": [ [ 83.9525, 26.129166666666677 ], [ 83.949166666666656, 26.125 ], [ 83.93, 26.119166666666679 ], [ 83.923333333333318, 26.119166666666679 ], [ 83.92, 26.116666666666678 ], [ 83.906666666666652, 26.118333333333347 ] ] } },
{ "type": "Feature", "properties": { "COMID": 45043763, "id": "18525", "lengthkm": 6.6956690259382006, "order": 6, "uparea": 122801.1864407976 }, "geometry": { "type": "LineString", "coordinates": [ [ 83.996666666666655, 26.111666666666679 ], [ 83.988333333333316, 26.1175 ], [ 83.98666666666665, 26.115833333333342 ], [ 83.984166666666653, 26.118333333333347 ], [ 83.973333333333315, 26.12 ], [ 83.970833333333317, 26.124166666666678 ], [ 83.974166666666662, 26.125833333333343 ], [ 83.974166666666662, 26.128333333333345 ], [ 83.96833333333332, 26.131666666666675 ], [ 83.959166666666647, 26.129166666666677 ], [ 83.9525, 26.129166666666677 ] ] } },
{ "type": "Feature", "properties": { "COMID": 45043762, "id": "18525", "lengthkm": 7.3153187320478388, "order": 6, "uparea": 122852.26314809744 }, "geometry": { "type": "LineString", "coordinates": [ [ 84.059166666666655, 26.108333333333341 ], [ 84.05, 26.105 ], [ 84.044166666666655, 26.105 ], [ 84.04, 26.100833333333345 ], [ 84.035833333333315, 26.100833333333345 ], [ 84.0275, 26.104166666666679 ], [ 84.019166666666649, 26.1025 ], [ 84.015833333333319, 26.105833333333344 ], [ 84.005, 26.1075 ], [ 83.996666666666655, 26.111666666666679 ] ] } },
{ "type": "Feature", "properties": { "COMID": 45043761, "id": "18525", "lengthkm": 7.8913779496079028, "order": 6, "uparea": 126353.11970736894 }, "geometry": { "type": "LineString", "coordinates": [ [ 84.119166666666658, 26.075833333333343 ], [ 84.113333333333316, 26.07916666666668 ], [ 84.110833333333318, 26.085 ], [ 84.105833333333322, 26.09 ], [ 84.100833333333327, 26.09 ], [ 84.085833333333312, 26.095833333333346 ], [ 84.0675, 26.1075 ], [ 84.059166666666655, 26.108333333333341 ] ] } },
{ "type": "Feature", "properties": { "COMID": 45043760, "id": "18525", "lengthkm": 2.5336430156666312, "order": 6, "uparea": 126409.75783781572 }, "geometry": { "type": "LineString", "coordinates": [ [ 84.1375, 26.061666666666678 ], [ 84.119166666666658, 26.075833333333343 ] ] } },
{ "type": "Feature", "properties": { "COMID": 45047833, "id": "18525", "lengthkm": 18.988504406456865, "order": 6, "uparea": 127257.22417268164 }, "geometry": { "type": "LineString", "coordinates": [ [ 84.26, 25.9525 ], [ 84.245, 25.968333333333344 ], [ 84.245, 25.973333333333343 ], [ 84.2425, 25.975833333333345 ], [ 84.241666666666646, 25.98 ], [ 84.223333333333315, 25.998333333333342 ], [ 84.2075, 26.004166666666677 ], [ 84.198333333333323, 26.004166666666677 ], [ 84.186666666666653, 26.01 ], [ 84.1775, 26.019166666666678 ], [ 84.1625, 26.028333333333343 ], [ 84.15583333333332, 26.035 ], [ 84.154166666666654, 26.041666666666679 ], [ 84.144166666666649, 26.053333333333342 ], [ 84.139166666666654, 26.055833333333347 ], [ 84.1375, 26.061666666666678 ] ] } },
{ "type": "Feature", "properties": { "COMID": 45047832, "id": "18525", "lengthkm": 14.277636147387348, "order": 6, "uparea": 127883.0538452796 }, "geometry": { "type": "LineString", "coordinates": [ [ 84.376666666666651, 25.9125 ], [ 84.37, 25.919166666666676 ], [ 84.36, 25.920833333333345 ], [ 84.341666666666654, 25.934166666666677 ], [ 84.3375, 25.934166666666677 ], [ 84.331666666666649, 25.93 ], [ 84.3275, 25.93 ], [ 84.3225, 25.933333333333344 ], [ 84.319166666666661, 25.933333333333344 ], [ 84.3125, 25.938333333333347 ], [ 84.304166666666646, 25.9375 ], [ 84.2975, 25.941666666666677 ], [ 84.2825, 25.9425 ], [ 84.278333333333322, 25.945 ], [ 84.265833333333319, 25.9475 ], [ 84.26, 25.9525 ] ] } },
{ "type": "Feature", "properties": { "COMID": 45047831, "id": "18525", "lengthkm": 14.357982128380533, "order": 6, "uparea": 128018.72478015035 }, "geometry": { "type": "LineString", "coordinates": [ [ 84.4875, 25.896666666666675 ], [ 84.48, 25.903333333333343 ], [ 84.465833333333322, 25.903333333333343 ], [ 84.456666666666649, 25.905833333333344 ], [ 84.4525, 25.9025 ], [ 84.439166666666651, 25.9125 ], [ 84.435833333333321, 25.9125 ], [ 84.4275, 25.904166666666676 ], [ 84.428333333333313, 25.9025 ], [ 84.4225, 25.899166666666677 ], [ 84.40916666666665, 25.895833333333343 ], [ 84.399166666666645, 25.903333333333343 ], [ 84.393333333333317, 25.904166666666676 ], [ 84.390833333333319, 25.9075 ], [ 84.383333333333326, 25.908333333333346 ], [ 84.380833333333328, 25.911666666666676 ], [ 84.376666666666651, 25.9125 ] ] } },
{ "type": "Feature", "properties": { "COMID": 45047830, "id": "18525", "lengthkm": 14.243949799287677, "order": 6, "uparea": 129277.17601130727 }, "geometry": { "type": "LineString", "coordinates": [ [ 84.5775, 25.824166666666677 ], [ 84.5675, 25.835833333333344 ], [ 84.555, 25.844166666666677 ], [ 84.554166666666646, 25.848333333333343 ], [ 84.541666666666657, 25.853333333333346 ], [ 84.535, 25.854166666666679 ], [ 84.53083333333332, 25.859166666666678 ], [ 84.53083333333332, 25.8625 ], [ 84.5275, 25.865833333333342 ], [ 84.524166666666645, 25.864166666666677 ], [ 84.518333333333317, 25.865833333333342 ], [ 84.516666666666652, 25.87 ], [ 84.511666666666656, 25.875 ], [ 84.506666666666661, 25.876666666666679 ], [ 84.500833333333318, 25.875833333333347 ], [ 84.494166666666658, 25.885 ], [ 84.4875, 25.889166666666675 ], [ 84.4875, 25.896666666666675 ] ] } },
{ "type": "Feature", "properties": { "COMID": 45047829, "id": "18525", "lengthkm": 10.104264715184421, "order": 6, "uparea": 129766.24751426074 }, "geometry": { "type": "LineString", "coordinates": [ [ 84.65, 25.770833333333343 ], [ 84.645, 25.77416666666668 ], [ 84.643333333333317, 25.778333333333343 ], [ 84.633333333333326, 25.7825 ], [ 84.6125, 25.801666666666677 ], [ 84.6, 25.81 ], [ 84.591666666666654, 25.813333333333347 ], [ 84.5775, 25.824166666666677 ] ] } },
{ "type": "Feature", "properties": { "COMID": 45047828, "id": "18525", "lengthkm": 3.6870101646549411, "order": 6, "uparea": 130574.15176071953 }, "geometry": { "type": "LineString", "coordinates": [ [ 84.6625, 25.746666666666677 ], [ 84.65916666666665, 25.750833333333347 ], [ 84.655, 25.750833333333347 ], [ 84.656666666666652, 25.754166666666677 ], [ 84.65583333333332, 25.76 ], [ 84.650833333333324, 25.765 ], [ 84.65, 25.770833333333343 ] ] } },
{ "type": "Feature", "properties": { "COMID": 45047768, "id": "18525", "lengthkm": 19.867446654314282, "order": 7, "uparea": 654169.8918963169 }, "geometry": { "type": "LineString", "coordinates": [ [ 84.8275, 25.725833333333345 ], [ 84.815, 25.735 ], [ 84.803333333333313, 25.74 ], [ 84.8, 25.74 ], [ 84.791666666666657, 25.748333333333342 ], [ 84.7875, 25.749166666666678 ], [ 84.783333333333317, 25.749166666666678 ], [ 84.7775, 25.746666666666677 ], [ 84.765833333333319, 25.738333333333344 ], [ 84.754166666666649, 25.7325 ], [ 84.746666666666655, 25.730833333333344 ], [ 84.735833333333318, 25.731666666666676 ], [ 84.714166666666657, 25.743333333333347 ], [ 84.701666666666654, 25.741666666666678 ], [ 84.699166666666656, 25.743333333333347 ], [ 84.6875, 25.743333333333347 ], [ 84.6825, 25.745 ], [ 84.676666666666648, 25.744166666666679 ], [ 84.67083333333332, 25.749166666666678 ], [ 84.665833333333325, 25.749166666666678 ], [ 84.6625, 25.746666666666677 ] ] } },
{ "type": "Feature", "properties": { "COMID": 45047767, "id": "18525", "lengthkm": 4.9668784044983534, "order": 7, "uparea": 655804.84740852099 }, "geometry": { "type": "LineString", "coordinates": [ [ 84.868333333333311, 25.709166666666675 ], [ 84.8625, 25.714166666666678 ], [ 84.84666666666665, 25.718333333333344 ], [ 84.8275, 25.725833333333345 ] ] } },
{ "type": "Feature", "properties": { "COMID": 45047766, "id": "18525", "lengthkm": 0.33294504959229998, "order": 7, "uparea": 723070.40022800479 }, "geometry": { "type": "LineString", "coordinates": [ [ 84.870833333333323, 25.7075 ], [ 84.868333333333311, 25.709166666666675 ] ] } },
{ "type": "Feature", "properties": { "COMID": 45047765, "id": "18525", "lengthkm": 7.5233841715602416, "order": 7, "uparea": 723147.2849433081 }, "geometry": { "type": "LineString", "coordinates": [ [ 84.92, 25.6675 ], [ 84.903333333333322, 25.6725 ], [ 84.8975, 25.6775 ], [ 84.891666666666652, 25.68 ], [ 84.885833333333323, 25.685833333333342 ], [ 84.880833333333314, 25.6875 ], [ 84.873333333333321, 25.695833333333344 ], [ 84.870833333333323, 25.7075 ] ] } },
{ "type": "Feature", "properties": { "COMID": 45047764, "id": "18525", "lengthkm": 15.603854057999206, "order": 7, "uparea": 723353.45167212817 }, "geometry": { "type": "LineString", "coordinates": [ [ 85.041666666666657, 25.6425 ], [ 85.04, 25.640833333333344 ], [ 85.03083333333332, 25.6425 ], [ 85.028333333333322, 25.645833333333343 ], [ 85.025, 25.66 ], [ 85.013333333333321, 25.6725 ], [ 85.0075, 25.675 ], [ 85.005, 25.675 ], [ 85.001666666666651, 25.671666666666678 ], [ 84.98666666666665, 25.671666666666678 ], [ 84.98333333333332, 25.674166666666679 ], [ 84.9775, 25.674166666666679 ], [ 84.956666666666649, 25.67 ], [ 84.938333333333318, 25.668333333333344 ], [ 84.928333333333313, 25.668333333333344 ], [ 84.92416666666665, 25.670833333333345 ], [ 84.92, 25.6675 ] ] } },
{ "type": "Feature", "properties": { "COMID": 45047763, "id": "18525", "lengthkm": 4.4174258623186677, "order": 7, "uparea": 723613.35287147295 }, "geometry": { "type": "LineString", "coordinates": [ [ 85.078333333333319, 25.655833333333344 ], [ 85.073333333333323, 25.655 ], [ 85.0525, 25.644166666666678 ], [ 85.044166666666655, 25.645 ], [ 85.041666666666657, 25.6425 ] ] } },
{ "type": "Feature", "properties": { "COMID": 45047762, "id": "18525", "lengthkm": 13.62517435667665, "order": 7, "uparea": 723818.65044348629 }, "geometry": { "type": "LineString", "coordinates": [ [ 85.1825, 25.623333333333342 ], [ 85.163333333333327, 25.624166666666678 ], [ 85.158333333333317, 25.625833333333347 ], [ 85.151666666666657, 25.625 ], [ 85.145833333333314, 25.6275 ], [ 85.143333333333317, 25.630833333333342 ], [ 85.140833333333319, 25.64166666666668 ], [ 85.130833333333314, 25.651666666666678 ], [ 85.1275, 25.6525 ], [ 85.125833333333318, 25.655833333333344 ], [ 85.1225, 25.6575 ], [ 85.11, 25.660833333333343 ], [ 85.105833333333322, 25.664166666666677 ], [ 85.078333333333319, 25.655833333333344 ] ] } },
{ "type": "Feature", "properties": { "COMID": 45047761, "id": "18525", "lengthkm": 30.113487532903513, "order": 7, "uparea": 767508.01009255531 }, "geometry": { "type": "LineString", "coordinates": [ [ 85.430833333333311, 25.58 ], [ 85.413333333333327, 25.581666666666678 ], [ 85.4, 25.585833333333344 ], [ 85.385833333333323, 25.595833333333346 ], [ 85.3675, 25.601666666666677 ], [ 85.349166666666648, 25.61 ], [ 85.338333333333324, 25.619166666666679 ], [ 85.326666666666654, 25.625 ], [ 85.323333333333323, 25.628333333333345 ], [ 85.301666666666648, 25.638333333333343 ], [ 85.285833333333315, 25.639166666666675 ], [ 85.28, 25.635833333333345 ], [ 85.273333333333312, 25.6275 ], [ 85.2675, 25.626666666666679 ], [ 85.2625, 25.621666666666677 ], [ 85.255, 25.6225 ], [ 85.253333333333316, 25.620833333333344 ], [ 85.2475, 25.62 ], [ 85.230833333333322, 25.610833333333346 ], [ 85.219166666666652, 25.613333333333344 ], [ 85.2025, 25.62 ], [ 85.195833333333326, 25.62 ], [ 85.1825, 25.623333333333342 ] ] } },
{ "type": "Feature", "properties": { "COMID": 45047760, "id": "18525", "lengthkm": 9.0384393626184476, "order": 7, "uparea": 767569.71665228531 }, "geometry": { "type": "LineString", "coordinates": [ [ 85.4925, 25.535833333333343 ], [ 85.488333333333316, 25.5425 ], [ 85.4825, 25.545833333333345 ], [ 85.476666666666659, 25.5525 ], [ 85.4725, 25.559166666666677 ], [ 85.470833333333317, 25.565833333333345 ], [ 85.465833333333322, 25.57 ], [ 85.460833333333312, 25.5725 ], [ 85.439166666666651, 25.575 ], [ 85.430833333333311, 25.58 ] ] } },
{ "type": "Feature", "properties": { "COMID": 45047759, "id": "18525", "lengthkm": 8.2564527523421436, "order": 7, "uparea": 767659.27251053485 }, "geometry": { "type": "LineString", "coordinates": [ [ 85.539166666666659, 25.483333333333345 ], [ 85.5175, 25.499166666666678 ], [ 85.510833333333323, 25.501666666666679 ], [ 85.503333333333316, 25.50916666666668 ], [ 85.498333333333321, 25.528333333333343 ], [ 85.4925, 25.535833333333343 ] ] } },
{ "type": "Feature", "properties": { "COMID": 45047758, "id": "18525", "lengthkm": 8.8055427635086136, "order": 7, "uparea": 777324.74148085795 }, "geometry": { "type": "LineString", "coordinates": [ [ 85.615, 25.5025 ], [ 85.609166666666653, 25.501666666666679 ], [ 85.598333333333315, 25.504166666666677 ], [ 85.583333333333314, 25.501666666666679 ], [ 85.575, 25.499166666666678 ], [ 85.56, 25.489166666666677 ], [ 85.539166666666659, 25.483333333333345 ] ] } },
{ "type": "Feature", "properties": { "COMID": 45047757, "id": "18525", "lengthkm": 22.634750168892783, "order": 7, "uparea": 777513.88358226442 }, "geometry": { "type": "LineString", "coordinates": [ [ 85.814166666666651, 25.508333333333347 ], [ 85.800833333333316, 25.510833333333345 ], [ 85.769166666666649, 25.510833333333345 ], [ 85.7525, 25.515 ], [ 85.730833333333322, 25.515 ], [ 85.723333333333315, 25.513333333333343 ], [ 85.7125, 25.5025 ], [ 85.686666666666653, 25.4975 ], [ 85.673333333333318, 25.491666666666678 ], [ 85.66, 25.491666666666678 ], [ 85.653333333333322, 25.494166666666679 ], [ 85.6325, 25.4925 ], [ 85.623333333333321, 25.499166666666678 ], [ 85.615, 25.5025 ] ] } },
{ "type": "Feature", "properties": { "COMID": 45047756, "id": "18525", "lengthkm": 10.308416660271217, "order": 7, "uparea": 777638.42763592943 }, "geometry": { "type": "LineString", "coordinates": [ [ 85.903333333333322, 25.4875 ], [ 85.8875, 25.493333333333347 ], [ 85.871666666666655, 25.490833333333345 ], [ 85.853333333333325, 25.500833333333347 ], [ 85.8475, 25.5025 ], [ 85.833333333333314, 25.5025 ], [ 85.814166666666651, 25.508333333333347 ] ] } },
{ "type": "Feature", "properties": { "COMID": 45047755, "id": "18525", "lengthkm": 0.99993157790438203, "order": 7, "uparea": 777695.62104906433 }, "geometry": { "type": "LineString", "coordinates": [ [ 85.910833333333315, 25.4825 ], [ 85.903333333333322, 25.4875 ] ] } },
{ "type": "Feature", "properties": { "COMID": 45051904, "id": "18525", "lengthkm": 13.817278566774267, "order": 7, "uparea": 779994.32015777251 }, "geometry": { "type": "LineString", "coordinates": [ [ 85.988333333333316, 25.403333333333343 ], [ 85.98666666666665, 25.415833333333346 ], [ 85.98, 25.431666666666679 ], [ 85.975833333333327, 25.435833333333342 ], [ 85.938333333333318, 25.443333333333342 ], [ 85.930833333333311, 25.453333333333344 ], [ 85.92416666666665, 25.46916666666668 ], [ 85.910833333333315, 25.4825 ] ] } },
{ "type": "Feature", "properties": { "COMID": 45051903, "id": "18525", "lengthkm": 9.658181609541872, "order": 7, "uparea": 780083.72666677891 }, "geometry": { "type": "LineString", "coordinates": [ [ 86.033333333333317, 25.335833333333344 ], [ 86.01, 25.360833333333346 ], [ 85.994166666666644, 25.375 ], [ 85.9925, 25.380833333333342 ], [ 85.98666666666665, 25.389166666666679 ], [ 85.99, 25.398333333333344 ], [ 85.99, 25.401666666666678 ], [ 85.988333333333316, 25.403333333333343 ] ] } },
{ "type": "Feature", "properties": { "COMID": 45051902, "id": "18525", "lengthkm": 15.462205649258101, "order": 7, "uparea": 780184.89537061797 }, "geometry": { "type": "LineString", "coordinates": [ [ 86.169166666666655, 25.32916666666668 ], [ 86.15083333333331, 25.3275 ], [ 86.146666666666647, 25.32916666666668 ], [ 86.141666666666652, 25.334166666666675 ], [ 86.134166666666658, 25.33666666666668 ], [ 86.1175, 25.335 ], [ 86.1125, 25.3325 ], [ 86.09333333333332, 25.3325 ], [ 86.0875, 25.334166666666675 ], [ 86.081666666666649, 25.330833333333345 ], [ 86.071666666666658, 25.335833333333344 ], [ 86.063333333333318, 25.330833333333345 ], [ 86.0475, 25.331666666666678 ], [ 86.043333333333322, 25.334166666666675 ], [ 86.033333333333317, 25.335833333333344 ] ] } },
{ "type": "Feature", "properties": { "COMID": 45051901, "id": "18525", "lengthkm": 3.344402738247271, "order": 7, "uparea": 780233.96666283952 }, "geometry": { "type": "LineString", "coordinates": [ [ 86.199166666666656, 25.3275 ], [ 86.195, 25.328333333333344 ], [ 86.185833333333321, 25.325833333333343 ], [ 86.179166666666646, 25.325833333333343 ], [ 86.169166666666655, 25.32916666666668 ] ] } },
{ "type": "Feature", "properties": { "COMID": 45051900, "id": "18525", "lengthkm": 2.6302205788259521, "order": 7, "uparea": 780284.04408593173 }, "geometry": { "type": "LineString", "coordinates": [ [ 86.220833333333317, 25.33666666666668 ], [ 86.199166666666656, 25.3275 ] ] } },
{ "type": "Feature", "properties": { "COMID": 45051899, "id": "18525", "lengthkm": 30.224758920126764, "order": 7, "uparea": 780524.47802505293 }, "geometry": { "type": "LineString", "coordinates": [ [ 86.455, 25.390833333333344 ], [ 86.4525, 25.388333333333343 ], [ 86.4425, 25.385833333333345 ], [ 86.4275, 25.379166666666677 ], [ 86.42083333333332, 25.378333333333345 ], [ 86.418333333333322, 25.375833333333347 ], [ 86.413333333333313, 25.376666666666679 ], [ 86.408333333333317, 25.3725 ], [ 86.405, 25.371666666666677 ], [ 86.4, 25.360833333333346 ], [ 86.40083333333331, 25.358333333333345 ], [ 86.399166666666645, 25.354166666666679 ], [ 86.386666666666656, 25.3375 ], [ 86.383333333333326, 25.33 ], [ 86.375833333333318, 25.3225 ], [ 86.366666666666646, 25.316666666666677 ], [ 86.35, 25.313333333333347 ], [ 86.34, 25.313333333333347 ], [ 86.320833333333326, 25.3175 ], [ 86.3075, 25.3225 ], [ 86.286666666666648, 25.333333333333343 ], [ 86.264166666666654, 25.3325 ], [ 86.26, 25.33 ], [ 86.255, 25.33 ], [ 86.245833333333323, 25.330833333333345 ], [ 86.235833333333318, 25.33666666666668 ], [ 86.220833333333317, 25.33666666666668 ] ] } },
{ "type": "Feature", "properties": { "COMID": 45051898, "id": "18525", "lengthkm": 1.517771935763004, "order": 7, "uparea": 797978.70179993298 }, "geometry": { "type": "LineString", "coordinates": [ [ 86.464166666666642, 25.400833333333345 ], [ 86.464166666666642, 25.39916666666668 ], [ 86.455, 25.390833333333344 ] ] } },
{ "type": "Feature", "properties": { "COMID": 45047754, "id": "18525", "lengthkm": 20.421149380785184, "order": 7, "uparea": 798180.41303007549 }, "geometry": { "type": "LineString", "coordinates": [ [ 86.605833333333322, 25.445 ], [ 86.599166666666648, 25.455 ], [ 86.581666666666649, 25.470833333333346 ], [ 86.565, 25.478333333333346 ], [ 86.546666666666653, 25.476666666666677 ], [ 86.538333333333313, 25.473333333333343 ], [ 86.505833333333314, 25.4375 ], [ 86.493333333333311, 25.4275 ], [ 86.4875, 25.418333333333344 ], [ 86.481666666666655, 25.4125 ], [ 86.470833333333317, 25.4075 ], [ 86.464166666666642, 25.400833333333345 ] ] } },
{ "type": "Feature", "properties": { "COMID": 45051897, "id": "18525", "lengthkm": 12.983959519354329, "order": 7, "uparea": 812325.75933562126 }, "geometry": { "type": "LineString", "coordinates": [ [ 86.573333333333323, 25.348333333333343 ], [ 86.574166666666656, 25.35 ], [ 86.5675, 25.36 ], [ 86.5675, 25.365833333333345 ], [ 86.569166666666646, 25.368333333333347 ], [ 86.566666666666649, 25.375 ], [ 86.569166666666646, 25.38416666666668 ], [ 86.573333333333323, 25.393333333333345 ], [ 86.576666666666654, 25.396666666666675 ], [ 86.5775, 25.40666666666668 ], [ 86.6, 25.4275 ], [ 86.606666666666655, 25.439166666666679 ], [ 86.605833333333322, 25.445 ] ] } },
{ "type": "Feature", "properties": { "COMID": 45051896, "id": "18525", "lengthkm": 14.840987314726481, "order": 7, "uparea": 812440.08428712515 }, "geometry": { "type": "LineString", "coordinates": [ [ 86.639166666666654, 25.248333333333346 ], [ 86.636666666666656, 25.250833333333347 ], [ 86.6325, 25.250833333333347 ], [ 86.629166666666649, 25.253333333333345 ], [ 86.629166666666649, 25.258333333333347 ], [ 86.623333333333321, 25.264166666666679 ], [ 86.616666666666646, 25.268333333333345 ], [ 86.609166666666653, 25.269166666666678 ], [ 86.5875, 25.290833333333346 ], [ 86.584166666666647, 25.2975 ], [ 86.585833333333312, 25.31 ], [ 86.576666666666654, 25.331666666666678 ], [ 86.573333333333323, 25.348333333333343 ] ] } },
{ "type": "Feature", "properties": { "COMID": 45051895, "id": "18525", "lengthkm": 2.3420771517654129, "order": 7, "uparea": 812804.86404177081 }, "geometry": { "type": "LineString", "coordinates": [ [ 86.66, 25.245 ], [ 86.65583333333332, 25.246666666666677 ], [ 86.646666666666647, 25.245833333333344 ], [ 86.639166666666654, 25.248333333333346 ] ] } },
{ "type": "Feature", "properties": { "COMID": 45051894, "id": "18525", "lengthkm": 8.5315261258591235, "order": 7, "uparea": 813444.02121682768 }, "geometry": { "type": "LineString", "coordinates": [ [ 86.735833333333318, 25.263333333333343 ], [ 86.7325, 25.26 ], [ 86.719166666666652, 25.254166666666677 ], [ 86.7025, 25.249166666666678 ], [ 86.671666666666653, 25.245 ], [ 86.66, 25.245 ] ] } },
{ "type": "Feature", "properties": { "COMID": 45051893, "id": "18525", "lengthkm": 22.268182584772731, "order": 7, "uparea": 813709.90019180183 }, "geometry": { "type": "LineString", "coordinates": [ [ 86.919166666666655, 25.3275 ], [ 86.916666666666657, 25.328333333333344 ], [ 86.906666666666652, 25.3225 ], [ 86.9025, 25.318333333333342 ], [ 86.90083333333331, 25.314166666666679 ], [ 86.896666666666647, 25.311666666666678 ], [ 86.876666666666651, 25.3075 ], [ 86.863333333333316, 25.308333333333344 ], [ 86.855833333333322, 25.305 ], [ 86.83833333333331, 25.306666666666679 ], [ 86.835833333333312, 25.305833333333347 ], [ 86.826666666666654, 25.295 ], [ 86.8225, 25.2925 ], [ 86.81, 25.29 ], [ 86.803333333333313, 25.285 ], [ 86.78416666666665, 25.28166666666668 ], [ 86.754166666666649, 25.27 ], [ 86.7475, 25.265833333333344 ], [ 86.735833333333318, 25.263333333333343 ] ] } },
{ "type": "Feature", "properties": { "COMID": 45051892, "id": "18525", "lengthkm": 12.385365758953569, "order": 7, "uparea": 813980.71451910015 }, "geometry": { "type": "LineString", "coordinates": [ [ 87.005833333333314, 25.275833333333345 ], [ 87.0025, 25.289166666666677 ], [ 86.994166666666644, 25.301666666666677 ], [ 86.975833333333313, 25.309166666666677 ], [ 86.97166666666665, 25.3125 ], [ 86.956666666666649, 25.313333333333347 ], [ 86.951666666666654, 25.316666666666677 ], [ 86.948333333333323, 25.316666666666677 ], [ 86.9425, 25.3225 ], [ 86.934166666666655, 25.32166666666668 ], [ 86.9225, 25.325 ], [ 86.919166666666655, 25.3275 ] ] } },
{ "type": "Feature", "properties": { "COMID": 45051891, "id": "18525", "lengthkm": 19.399482122811264, "order": 7, "uparea": 815681.5700693588 }, "geometry": { "type": "LineString", "coordinates": [ [ 87.1775, 25.285833333333343 ], [ 87.165833333333325, 25.285833333333343 ], [ 87.1575, 25.289166666666677 ], [ 87.143333333333317, 25.291666666666679 ], [ 87.13, 25.289166666666677 ], [ 87.119166666666644, 25.291666666666679 ], [ 87.099166666666648, 25.2825 ], [ 87.09666666666665, 25.28 ], [ 87.078333333333319, 25.275 ], [ 87.066666666666649, 25.275833333333345 ], [ 87.055833333333311, 25.2725 ], [ 87.0325, 25.2725 ], [ 87.014166666666654, 25.275833333333345 ], [ 87.005833333333314, 25.275833333333345 ] ] } },
{ "type": "Feature", "properties": { "COMID": 45051890, "id": "18525", "lengthkm": 5.6081068768050901, "order": 7, "uparea": 815785.04170398985 }, "geometry": { "type": "LineString", "coordinates": [ [ 87.21833333333332, 25.261666666666677 ], [ 87.211666666666645, 25.264166666666679 ], [ 87.206666666666649, 25.264166666666679 ], [ 87.189166666666651, 25.270833333333343 ], [ 87.181666666666644, 25.280833333333344 ], [ 87.180833333333311, 25.284166666666678 ], [ 87.1775, 25.285833333333343 ] ] } },
{ "type": "Feature", "properties": { "COMID": 45051889, "id": "18525", "lengthkm": 18.197669785274751, "order": 7, "uparea": 820852.02448098827 }, "geometry": { "type": "LineString", "coordinates": [ [ 87.263333333333321, 25.405833333333344 ], [ 87.263333333333321, 25.388333333333343 ], [ 87.26, 25.380833333333342 ], [ 87.260833333333323, 25.378333333333345 ], [ 87.2575, 25.364166666666677 ], [ 87.259166666666658, 25.3525 ], [ 87.2575, 25.345 ], [ 87.251666666666651, 25.334166666666675 ], [ 87.251666666666651, 25.326666666666679 ], [ 87.248333333333321, 25.314166666666679 ], [ 87.248333333333321, 25.296666666666678 ], [ 87.238333333333316, 25.2825 ], [ 87.223333333333315, 25.268333333333345 ], [ 87.21833333333332, 25.261666666666677 ] ] } },
{ "type": "Feature", "properties": { "COMID": 45047753, "id": "18525", "lengthkm": 10.63545491288312, "order": 8, "uparea": 908465.45903252438 }, "geometry": { "type": "LineString", "coordinates": [ [ 87.329166666666652, 25.471666666666678 ], [ 87.308333333333309, 25.46166666666668 ], [ 87.281666666666652, 25.43 ], [ 87.27583333333331, 25.419166666666676 ], [ 87.263333333333321, 25.405833333333344 ] ] } },
{ "type": "Feature", "properties": { "COMID": 45047752, "id": "18525", "lengthkm": 11.928686171297414, "order": 8, "uparea": 909001.60085836588 }, "geometry": { "type": "LineString", "coordinates": [ [ 87.425833333333316, 25.43 ], [ 87.41, 25.4425 ], [ 87.399166666666645, 25.448333333333345 ], [ 87.3875, 25.46 ], [ 87.38, 25.465 ], [ 87.374166666666653, 25.465 ], [ 87.359166666666653, 25.46916666666668 ], [ 87.3575, 25.470833333333346 ], [ 87.341666666666654, 25.470833333333346 ], [ 87.3375, 25.473333333333343 ], [ 87.329166666666652, 25.471666666666678 ] ] } },
{ "type": "Feature", "properties": { "COMID": 45047751, "id": "18525", "lengthkm": 0.249715855933, "order": 8, "uparea": 909088.14573655487 }, "geometry": { "type": "LineString", "coordinates": [ [ 87.4275, 25.428333333333345 ], [ 87.425833333333316, 25.43 ] ] } },
{ "type": "Feature", "properties": { "COMID": 45051888, "id": "18525", "lengthkm": 2.542436208690138, "order": 8, "uparea": 909148.18835281557 }, "geometry": { "type": "LineString", "coordinates": [ [ 87.446666666666658, 25.415833333333346 ], [ 87.4275, 25.428333333333345 ] ] } },
{ "type": "Feature", "properties": { "COMID": 45051887, "id": "18525", "lengthkm": 16.223620669381372, "order": 8, "uparea": 909268.28953174292 }, "geometry": { "type": "LineString", "coordinates": [ [ 87.58, 25.37 ], [ 87.565833333333316, 25.375833333333347 ], [ 87.56, 25.381666666666678 ], [ 87.551666666666648, 25.386666666666677 ], [ 87.546666666666653, 25.388333333333343 ], [ 87.545, 25.386666666666677 ], [ 87.535833333333315, 25.386666666666677 ], [ 87.5225, 25.39 ], [ 87.518333333333317, 25.393333333333345 ], [ 87.51, 25.39166666666668 ], [ 87.501666666666651, 25.395 ], [ 87.496666666666655, 25.4025 ], [ 87.493333333333311, 25.404166666666676 ], [ 87.4675, 25.409166666666678 ], [ 87.446666666666658, 25.415833333333346 ] ] } },
{ "type": "Feature", "properties": { "COMID": 45051886, "id": "18525", "lengthkm": 11.340273762566071, "order": 8, "uparea": 911533.71387224959 }, "geometry": { "type": "LineString", "coordinates": [ [ 87.633333333333326, 25.3 ], [ 87.623333333333321, 25.32166666666668 ], [ 87.615833333333313, 25.33 ], [ 87.61166666666665, 25.330833333333345 ], [ 87.6025, 25.326666666666679 ], [ 87.6, 25.32916666666668 ], [ 87.59, 25.3475 ], [ 87.59, 25.3525 ], [ 87.586666666666645, 25.359166666666678 ], [ 87.580833333333317, 25.365 ], [ 87.58, 25.37 ] ] } },
{ "type": "Feature", "properties": { "COMID": 45051885, "id": "18525", "lengthkm": 13.863521198171522, "order": 8, "uparea": 911647.70952676877 }, "geometry": { "type": "LineString", "coordinates": [ [ 87.7475, 25.283333333333346 ], [ 87.735833333333318, 25.294166666666676 ], [ 87.728333333333325, 25.2975 ], [ 87.720833333333317, 25.295833333333345 ], [ 87.703333333333319, 25.296666666666678 ], [ 87.6925, 25.301666666666677 ], [ 87.683333333333309, 25.308333333333344 ], [ 87.678333333333313, 25.305833333333347 ], [ 87.67, 25.305 ], [ 87.651666666666642, 25.299166666666679 ], [ 87.646666666666647, 25.294166666666676 ], [ 87.633333333333326, 25.3 ] ] } },
{ "type": "Feature", "properties": { "COMID": 45051884, "id": "18525", "lengthkm": 19.453443007339239, "order": 8, "uparea": 912311.87636824907 }, "geometry": { "type": "LineString", "coordinates": [ [ 87.79583333333332, 25.138333333333343 ], [ 87.8, 25.146666666666679 ], [ 87.79916666666665, 25.160833333333343 ], [ 87.8025, 25.165833333333346 ], [ 87.8, 25.185833333333346 ], [ 87.7975, 25.19 ], [ 87.7975, 25.19666666666668 ], [ 87.8, 25.203333333333347 ], [ 87.8, 25.216666666666676 ], [ 87.798333333333318, 25.223333333333343 ], [ 87.789166666666645, 25.234166666666678 ], [ 87.7875, 25.244166666666679 ], [ 87.7725, 25.268333333333345 ], [ 87.765833333333319, 25.275 ], [ 87.75, 25.283333333333346 ], [ 87.7475, 25.283333333333346 ] ] } },
{ "type": "Feature", "properties": { "COMID": 45051883, "id": "18525", "lengthkm": 8.4233897037171097, "order": 8, "uparea": 912398.53779064561 }, "geometry": { "type": "LineString", "coordinates": [ [ 87.8425, 25.09 ], [ 87.831666666666649, 25.096666666666678 ], [ 87.824166666666656, 25.0975 ], [ 87.809166666666655, 25.104166666666679 ], [ 87.800833333333316, 25.111666666666679 ], [ 87.79583333333332, 25.138333333333343 ] ] } },
{ "type": "Feature", "properties": { "COMID": 45051882, "id": "18525", "lengthkm": 4.624669222525001, "order": 8, "uparea": 925782.72516854433 }, "geometry": { "type": "LineString", "coordinates": [ [ 87.859166666666653, 25.056666666666679 ], [ 87.859166666666653, 25.065 ], [ 87.855833333333322, 25.07166666666668 ], [ 87.850833333333313, 25.076666666666679 ], [ 87.84333333333332, 25.080833333333345 ], [ 87.8425, 25.09 ] ] } },
{ "type": "Feature", "properties": { "COMID": 45051881, "id": "18525", "lengthkm": 16.310926103587931, "order": 8, "uparea": 926013.7177719574 }, "geometry": { "type": "LineString", "coordinates": [ [ 87.9775, 24.986666666666679 ], [ 87.975, 24.9925 ], [ 87.975, 24.998333333333346 ], [ 87.9725, 25.0025 ], [ 87.955833333333317, 25.02 ], [ 87.945833333333326, 25.02416666666668 ], [ 87.9375, 25.0225 ], [ 87.915, 25.039166666666681 ], [ 87.884166666666658, 25.048333333333346 ], [ 87.88, 25.048333333333346 ], [ 87.859166666666653, 25.056666666666679 ] ] } },
{ "type": "Feature", "properties": { "COMID": 45051880, "id": "18525", "lengthkm": 5.8290387575091316, "order": 8, "uparea": 926120.48174118099 }, "geometry": { "type": "LineString", "coordinates": [ [ 87.954166666666652, 24.945 ], [ 87.958333333333314, 24.964166666666678 ], [ 87.965, 24.9725 ], [ 87.9675, 24.9725 ], [ 87.973333333333315, 24.978333333333346 ], [ 87.9775, 24.986666666666679 ] ] } },
{ "type": "Feature", "properties": { "COMID": 45051879, "id": "18525", "lengthkm": 1.9875447233118191, "order": 8, "uparea": 926150.97283760435 }, "geometry": { "type": "LineString", "coordinates": [ [ 87.948333333333323, 24.929166666666678 ], [ 87.954166666666652, 24.945 ] ] } },
{ "type": "Feature", "properties": { "COMID": 45055811, "id": "18525", "lengthkm": 11.842913045794596, "order": 8, "uparea": 926235.6052297313 }, "geometry": { "type": "LineString", "coordinates": [ [ 87.933333333333309, 24.830833333333345 ], [ 87.9375, 24.838333333333345 ], [ 87.95, 24.8725 ], [ 87.950833333333321, 24.8875 ], [ 87.948333333333323, 24.905 ], [ 87.95, 24.919166666666676 ], [ 87.948333333333323, 24.929166666666678 ] ] } },
{ "type": "Feature", "properties": { "COMID": 45055810, "id": "18525", "lengthkm": 4.1564438395794436, "order": 8, "uparea": 928053.97487974737 }, "geometry": { "type": "LineString", "coordinates": [ [ 87.935833333333321, 24.796666666666678 ], [ 87.93, 24.811666666666678 ], [ 87.933333333333309, 24.830833333333345 ] ] } },
{ "type": "Feature", "properties": { "COMID": 45055809, "id": "18525", "lengthkm": 18.91204942228471, "order": 8, "uparea": 928162.58505011222 }, "geometry": { "type": "LineString", "coordinates": [ [ 87.9975, 24.655 ], [ 87.985, 24.661666666666676 ], [ 87.951666666666654, 24.69666666666668 ], [ 87.948333333333323, 24.7025 ], [ 87.945, 24.7175 ], [ 87.940833333333316, 24.725 ], [ 87.941666666666649, 24.731666666666676 ], [ 87.935833333333321, 24.744166666666679 ], [ 87.935833333333321, 24.753333333333345 ], [ 87.9375, 24.75916666666668 ], [ 87.936666666666653, 24.77 ], [ 87.938333333333318, 24.773333333333348 ], [ 87.938333333333318, 24.785 ], [ 87.935833333333321, 24.79 ], [ 87.935833333333321, 24.796666666666678 ] ] } },
{ "type": "Feature", "properties": { "COMID": 45055808, "id": "18525", "lengthkm": 13.442091377572416, "order": 8, "uparea": 928295.92314064282 }, "geometry": { "type": "LineString", "coordinates": [ [ 88.114166666666648, 24.630833333333346 ], [ 88.106666666666655, 24.630833333333346 ], [ 88.0975, 24.635 ], [ 88.086666666666645, 24.631666666666678 ], [ 88.065833333333316, 24.6325 ], [ 88.0625, 24.636666666666677 ], [ 88.051666666666648, 24.6375 ], [ 88.0425, 24.64166666666668 ], [ 88.03083333333332, 24.64166666666668 ], [ 88.018333333333317, 24.64916666666668 ], [ 88.001666666666651, 24.651666666666678 ], [ 87.9975, 24.655 ] ] } },
{ "type": "Feature", "properties": { "COMID": 45055807, "id": "18525", "lengthkm": 2.017086504194705, "order": 8, "uparea": 928364.89436697715 }, "geometry": { "type": "LineString", "coordinates": [ [ 88.1325, 24.6275 ], [ 88.114166666666648, 24.630833333333346 ] ] } },
{ "type": "Feature", "properties": { "COMID": 45055806, "id": "18525", "lengthkm": 0.58739129867411499, "order": 8, "uparea": 928465.09523491957 }, "geometry": { "type": "LineString", "coordinates": [ [ 88.1375, 24.625833333333347 ], [ 88.1325, 24.6275 ] ] } },
{ "type": "Feature", "properties": { "COMID": 45055805, "id": "18525", "lengthkm": 8.8614851493486899, "order": 8, "uparea": 928806.70236828271 }, "geometry": { "type": "LineString", "coordinates": [ [ 88.17083333333332, 24.563333333333347 ], [ 88.17, 24.58 ], [ 88.168333333333322, 24.581666666666678 ], [ 88.17083333333332, 24.58666666666668 ], [ 88.166666666666657, 24.5975 ], [ 88.16, 24.605 ], [ 88.148333333333312, 24.610833333333346 ], [ 88.141666666666652, 24.6225 ], [ 88.1375, 24.625833333333347 ] ] } },
{ "type": "Feature", "properties": { "COMID": 45055804, "id": "18525", "lengthkm": 14.818630745559563, "order": 8, "uparea": 928925.58192239841 }, "geometry": { "type": "LineString", "coordinates": [ [ 88.166666666666657, 24.4575 ], [ 88.163333333333313, 24.4725 ], [ 88.156666666666652, 24.485 ], [ 88.155, 24.486666666666679 ], [ 88.145833333333314, 24.486666666666679 ], [ 88.144166666666649, 24.488333333333344 ], [ 88.144166666666649, 24.504166666666677 ], [ 88.1425, 24.511666666666677 ], [ 88.148333333333312, 24.5225 ], [ 88.1525, 24.540833333333346 ], [ 88.158333333333317, 24.5425 ], [ 88.166666666666657, 24.551666666666677 ], [ 88.17, 24.553333333333345 ], [ 88.169166666666655, 24.558333333333344 ], [ 88.17083333333332, 24.563333333333347 ] ] } },
{ "type": "Feature", "properties": { "COMID": 45055803, "id": "18525", "lengthkm": 16.926292420309789, "order": 8, "uparea": 929096.59630489291 }, "geometry": { "type": "LineString", "coordinates": [ [ 88.310833333333321, 24.466666666666679 ], [ 88.29, 24.47 ], [ 88.285833333333315, 24.46916666666668 ], [ 88.27583333333331, 24.474166666666676 ], [ 88.2675, 24.4725 ], [ 88.258333333333312, 24.468333333333344 ], [ 88.250833333333318, 24.4675 ], [ 88.23666666666665, 24.46 ], [ 88.214166666666642, 24.4525 ], [ 88.206666666666649, 24.451666666666679 ], [ 88.199166666666656, 24.4475 ], [ 88.194166666666646, 24.44666666666668 ], [ 88.181666666666644, 24.4475 ], [ 88.175833333333316, 24.45 ], [ 88.166666666666657, 24.4575 ] ] } },
{ "type": "Feature", "properties": { "COMID": 45055802, "id": "18525", "lengthkm": 10.477427731132073, "order": 8, "uparea": 939805.3367173369 }, "geometry": { "type": "LineString", "coordinates": [ [ 88.376666666666651, 24.3975 ], [ 88.350833333333313, 24.420833333333345 ], [ 88.310833333333321, 24.466666666666679 ] ] } },
{ "type": "Feature", "properties": { "COMID": 45055801, "id": "18525", "lengthkm": 16.764260880470527, "order": 8, "uparea": 939927.1019903702 }, "geometry": { "type": "LineString", "coordinates": [ [ 88.499166666666653, 24.355833333333344 ], [ 88.4925, 24.354166666666679 ], [ 88.485833333333318, 24.359166666666681 ], [ 88.476666666666645, 24.361666666666679 ], [ 88.47166666666665, 24.365833333333345 ], [ 88.465, 24.368333333333347 ], [ 88.460833333333312, 24.375 ], [ 88.451666666666654, 24.380833333333346 ], [ 88.448333333333323, 24.376666666666679 ], [ 88.44, 24.375 ], [ 88.42416666666665, 24.376666666666679 ], [ 88.415833333333325, 24.375 ], [ 88.40916666666665, 24.368333333333347 ], [ 88.40083333333331, 24.37 ], [ 88.383333333333312, 24.385833333333345 ], [ 88.376666666666651, 24.3975 ] ] } },
{ "type": "Feature", "properties": { "COMID": 45055800, "id": "18525", "lengthkm": 4.7403365705019116, "order": 8, "uparea": 939965.39136937284 }, "geometry": { "type": "LineString", "coordinates": [ [ 88.536666666666648, 24.33666666666668 ], [ 88.52583333333331, 24.346666666666678 ], [ 88.514166666666654, 24.35 ], [ 88.510833333333323, 24.353333333333346 ], [ 88.501666666666651, 24.354166666666679 ], [ 88.499166666666653, 24.355833333333344 ] ] } },
{ "type": "Feature", "properties": { "COMID": 45055799, "id": "18525", "lengthkm": 13.622724206393936, "order": 8, "uparea": 940189.5927166536 }, "geometry": { "type": "LineString", "coordinates": [ [ 88.65083333333331, 24.3425 ], [ 88.6425, 24.348333333333343 ], [ 88.628333333333316, 24.348333333333343 ], [ 88.62, 24.353333333333346 ], [ 88.613333333333316, 24.353333333333346 ], [ 88.599166666666648, 24.3575 ], [ 88.581666666666649, 24.358333333333345 ], [ 88.569166666666646, 24.355 ], [ 88.563333333333318, 24.355 ], [ 88.558333333333309, 24.34916666666668 ], [ 88.536666666666648, 24.33666666666668 ] ] } },
{ "type": "Feature", "properties": { "COMID": 45055798, "id": "18525", "lengthkm": 12.084574955454938, "order": 8, "uparea": 940269.46241819265 }, "geometry": { "type": "LineString", "coordinates": [ [ 88.73, 24.280833333333348 ], [ 88.71833333333332, 24.303333333333345 ], [ 88.71333333333331, 24.308333333333344 ], [ 88.710833333333312, 24.314166666666679 ], [ 88.700833333333321, 24.326666666666679 ], [ 88.691666666666649, 24.3325 ], [ 88.6875, 24.3325 ], [ 88.684166666666641, 24.335833333333348 ], [ 88.67416666666665, 24.34 ], [ 88.65083333333331, 24.3425 ] ] } },
{ "type": "Feature", "properties": { "COMID": 45059549, "id": "18525", "lengthkm": 9.8177318212372029, "order": 8, "uparea": 940453.68058515922 }, "geometry": { "type": "LineString", "coordinates": [ [ 88.7425, 24.201666666666679 ], [ 88.738333333333316, 24.209166666666679 ], [ 88.738333333333316, 24.23 ], [ 88.740833333333313, 24.249166666666678 ], [ 88.7425, 24.251666666666679 ], [ 88.741666666666646, 24.261666666666677 ], [ 88.7375, 24.271666666666679 ], [ 88.73, 24.280833333333348 ] ] } },
{ "type": "Feature", "properties": { "COMID": 45059548, "id": "18525", "lengthkm": 14.781405750183545, "order": 8, "uparea": 940599.66758226848 }, "geometry": { "type": "LineString", "coordinates": [ [ 88.825833333333321, 24.109166666666681 ], [ 88.8225, 24.1125 ], [ 88.810833333333321, 24.116666666666681 ], [ 88.796666666666653, 24.13416666666668 ], [ 88.794166666666655, 24.140833333333347 ], [ 88.795, 24.15 ], [ 88.788333333333313, 24.160833333333343 ], [ 88.783333333333317, 24.165833333333346 ], [ 88.78083333333332, 24.171666666666681 ], [ 88.766666666666652, 24.183333333333344 ], [ 88.758333333333312, 24.1875 ], [ 88.748333333333321, 24.198333333333345 ], [ 88.7425, 24.201666666666679 ] ] } },
{ "type": "Feature", "properties": { "COMID": 45059547, "id": "18525", "lengthkm": 3.7864573176344982, "order": 8, "uparea": 940665.13999928441 }, "geometry": { "type": "LineString", "coordinates": [ [ 88.8575, 24.09916666666668 ], [ 88.8475, 24.09916666666668 ], [ 88.84, 24.105 ], [ 88.825833333333321, 24.109166666666681 ] ] } },
{ "type": "Feature", "properties": { "COMID": 45059546, "id": "18525", "lengthkm": 5.1835086046142838, "order": 8, "uparea": 940831.0093502223 }, "geometry": { "type": "LineString", "coordinates": [ [ 88.903333333333308, 24.106666666666676 ], [ 88.894166666666649, 24.104166666666679 ], [ 88.885833333333323, 24.104166666666679 ], [ 88.883333333333312, 24.1025 ], [ 88.875, 24.103333333333346 ], [ 88.870833333333309, 24.100833333333345 ], [ 88.866666666666646, 24.101666666666681 ], [ 88.8575, 24.09916666666668 ] ] } },
{ "type": "Feature", "properties": { "COMID": 45059545, "id": "18525", "lengthkm": 11.847255038531785, "order": 8, "uparea": 940936.67437459121 }, "geometry": { "type": "LineString", "coordinates": [ [ 88.990833333333313, 24.160833333333343 ], [ 88.978333333333325, 24.153333333333343 ], [ 88.97, 24.151666666666678 ], [ 88.96, 24.140833333333347 ], [ 88.945833333333312, 24.13416666666668 ], [ 88.936666666666653, 24.1325 ], [ 88.92083333333332, 24.115 ], [ 88.9125, 24.113333333333344 ], [ 88.903333333333308, 24.106666666666676 ] ] } },
{ "type": "Feature", "properties": { "COMID": 45059544, "id": "18525", "lengthkm": 15.193131007366883, "order": 8, "uparea": 941063.0249915187 }, "geometry": { "type": "LineString", "coordinates": [ [ 89.029166666666654, 24.051666666666677 ], [ 89.026666666666642, 24.069166666666678 ], [ 89.024166666666645, 24.075 ], [ 89.025, 24.080833333333345 ], [ 89.0225, 24.08666666666668 ], [ 89.021666666666647, 24.096666666666678 ], [ 89.023333333333312, 24.115 ], [ 89.026666666666642, 24.119166666666679 ], [ 89.026666666666642, 24.124166666666678 ], [ 89.024166666666645, 24.133333333333347 ], [ 89.020833333333314, 24.138333333333346 ], [ 89.019166666666649, 24.15 ], [ 89.011666666666656, 24.155833333333348 ], [ 89.005, 24.15666666666668 ], [ 89.0, 24.16 ], [ 88.990833333333313, 24.160833333333343 ] ] } },
{ "type": "Feature", "properties": { "COMID": 45059543, "id": "18525", "lengthkm": 22.919025509622344, "order": 8, "uparea": 941232.2068096787 }, "geometry": { "type": "LineString", "coordinates": [ [ 89.165833333333325, 23.938333333333347 ], [ 89.144166666666649, 23.944166666666678 ], [ 89.13, 23.951666666666679 ], [ 89.123333333333321, 23.951666666666679 ], [ 89.119166666666644, 23.953333333333347 ], [ 89.115, 23.9575 ], [ 89.099166666666648, 23.966666666666679 ], [ 89.090833333333308, 23.965833333333347 ], [ 89.083333333333314, 23.971666666666678 ], [ 89.074166666666656, 23.973333333333347 ], [ 89.0725, 23.975 ], [ 89.074166666666656, 23.9825 ], [ 89.068333333333314, 23.985833333333346 ], [ 89.0575, 23.985833333333346 ], [ 89.054166666666646, 23.991666666666678 ], [ 89.046666666666653, 23.999166666666678 ], [ 89.04583333333332, 24.003333333333345 ], [ 89.04, 24.013333333333346 ], [ 89.035, 24.025833333333345 ], [ 89.03083333333332, 24.05 ], [ 89.029166666666654, 24.051666666666677 ] ] } },
{ "type": "Feature", "properties": { "COMID": 45059542, "id": "18525", "lengthkm": 15.197449232252884, "order": 8, "uparea": 941358.96584197984 }, "geometry": { "type": "LineString", "coordinates": [ [ 89.3025, 23.921666666666678 ], [ 89.279166666666654, 23.9225 ], [ 89.270833333333314, 23.923333333333346 ], [ 89.268333333333317, 23.925 ], [ 89.260833333333323, 23.924166666666679 ], [ 89.255, 23.9275 ], [ 89.230833333333322, 23.931666666666679 ], [ 89.203333333333319, 23.931666666666679 ], [ 89.199166666666656, 23.93 ], [ 89.1875, 23.93 ], [ 89.165833333333325, 23.938333333333347 ] ] } },
{ "type": "Feature", "properties": { "COMID": 45059541, "id": "18525", "lengthkm": 6.1512703978047636, "order": 8, "uparea": 941533.36392942001 }, "geometry": { "type": "LineString", "coordinates": [ [ 89.348333333333315, 23.893333333333345 ], [ 89.336666666666645, 23.901666666666678 ], [ 89.3275, 23.904166666666679 ], [ 89.320833333333312, 23.91166666666668 ], [ 89.315, 23.914166666666677 ], [ 89.310833333333321, 23.914166666666677 ], [ 89.3025, 23.921666666666678 ] ] } },
{ "type": "Feature", "properties": { "COMID": 45059540, "id": "18525", "lengthkm": 9.8895827490848394, "order": 8, "uparea": 941605.2616197234 }, "geometry": { "type": "LineString", "coordinates": [ [ 89.4275, 23.875 ], [ 89.40583333333332, 23.875 ], [ 89.3975, 23.880833333333346 ], [ 89.389166666666654, 23.883333333333347 ], [ 89.3825, 23.8925 ], [ 89.373333333333321, 23.895 ], [ 89.366666666666646, 23.89916666666668 ], [ 89.36, 23.89916666666668 ], [ 89.355833333333322, 23.894166666666678 ], [ 89.348333333333315, 23.893333333333345 ] ] } },
{ "type": "Feature", "properties": { "COMID": 45059539, "id": "18525", "lengthkm": 14.848932183059439, "order": 8, "uparea": 941696.71093742794 }, "geometry": { "type": "LineString", "coordinates": [ [ 89.538333333333313, 23.813333333333347 ], [ 89.52583333333331, 23.82 ], [ 89.508333333333312, 23.8325 ], [ 89.485833333333318, 23.841666666666679 ], [ 89.4775, 23.850833333333345 ], [ 89.466666666666654, 23.851666666666677 ], [ 89.464166666666642, 23.8575 ], [ 89.459166666666647, 23.8625 ], [ 89.439166666666651, 23.875 ], [ 89.4275, 23.875 ] ] } },
{ "type": "Feature", "properties": { "COMID": 45059538, "id": "18525", "lengthkm": 23.557629231964349, "order": 8, "uparea": 942043.13008880126 }, "geometry": { "type": "LineString", "coordinates": [ [ 89.7425, 23.810833333333346 ], [ 89.731666666666655, 23.803333333333345 ], [ 89.706666666666649, 23.798333333333346 ], [ 89.696666666666644, 23.8025 ], [ 89.695, 23.805 ], [ 89.690833333333316, 23.805 ], [ 89.685833333333321, 23.8 ], [ 89.676666666666648, 23.7975 ], [ 89.661666666666648, 23.796666666666678 ], [ 89.65583333333332, 23.798333333333346 ], [ 89.644166666666649, 23.796666666666678 ], [ 89.623333333333321, 23.796666666666678 ], [ 89.619166666666644, 23.798333333333346 ], [ 89.615, 23.8025 ], [ 89.604166666666657, 23.805 ], [ 89.571666666666644, 23.806666666666679 ], [ 89.565833333333316, 23.81 ], [ 89.551666666666648, 23.814166666666679 ], [ 89.538333333333313, 23.813333333333347 ] ] } },
{ "type": "Feature", "properties": { "COMID": 45059537, "id": "18525", "lengthkm": 2.364264633039713, "order": 8, "uparea": 1480070.8617546074 }, "geometry": { "type": "LineString", "coordinates": [ [ 89.763333333333321, 23.8125 ], [ 89.7425, 23.810833333333346 ] ] } },
{ "type": "Feature", "properties": { "COMID": 45059536, "id": "18525", "lengthkm": 3.3533933894008552, "order": 8, "uparea": 1480461.6324491578 }, "geometry": { "type": "LineString", "coordinates": [ [ 89.786666666666648, 23.7925 ], [ 89.765, 23.8125 ], [ 89.763333333333321, 23.8125 ] ] } },
{ "type": "Feature", "properties": { "COMID": 45059535, "id": "18525", "lengthkm": 2.028552639801394, "order": 8, "uparea": 1480549.6332875148 }, "geometry": { "type": "LineString", "coordinates": [ [ 89.79916666666665, 23.779166666666679 ], [ 89.786666666666648, 23.7925 ] ] } },
{ "type": "Feature", "properties": { "COMID": 45059534, "id": "18525", "lengthkm": 24.147820154197287, "order": 8, "uparea": 1480725.0136060892 }, "geometry": { "type": "LineString", "coordinates": [ [ 89.995, 23.705833333333345 ], [ 89.9925, 23.708333333333346 ], [ 89.9825, 23.7125 ], [ 89.960833333333312, 23.715833333333347 ], [ 89.94, 23.723333333333347 ], [ 89.919166666666655, 23.725833333333345 ], [ 89.910833333333315, 23.725 ], [ 89.9025, 23.729166666666679 ], [ 89.886666666666656, 23.729166666666679 ], [ 89.871666666666641, 23.733333333333345 ], [ 89.855, 23.73 ], [ 89.83833333333331, 23.743333333333347 ], [ 89.813333333333318, 23.768333333333345 ], [ 89.79916666666665, 23.779166666666679 ] ] } },
{ "type": "Feature", "properties": { "COMID": 45063347, "id": "18525", "lengthkm": 5.2676845882940846, "order": 8, "uparea": 1480789.2229896402 }, "geometry": { "type": "LineString", "coordinates": [ [ 89.991666666666646, 23.660833333333347 ], [ 89.996666666666641, 23.67666666666668 ], [ 89.995, 23.705833333333345 ] ] } },
{ "type": "Feature", "properties": { "COMID": 45063346, "id": "18525", "lengthkm": 7.283326201289265, "order": 8, "uparea": 1480948.0639584674 }, "geometry": { "type": "LineString", "coordinates": [ [ 90.009166666666644, 23.605 ], [ 90.008333333333312, 23.620833333333344 ], [ 90.0125, 23.628333333333345 ], [ 90.0125, 23.633333333333347 ], [ 90.003333333333316, 23.65 ], [ 89.991666666666646, 23.660833333333347 ] ] } },
{ "type": "Feature", "properties": { "COMID": 45063345, "id": "18525", "lengthkm": 7.3301595308811152, "order": 8, "uparea": 1481136.7888560903 }, "geometry": { "type": "LineString", "coordinates": [ [ 90.059166666666641, 23.5625 ], [ 90.03, 23.5925 ], [ 90.0125, 23.601666666666681 ], [ 90.009166666666644, 23.605 ] ] } },
{ "type": "Feature", "properties": { "COMID": 45063344, "id": "18525", "lengthkm": 12.769887712414294, "order": 8, "uparea": 1481312.4314660509 }, "geometry": { "type": "LineString", "coordinates": [ [ 90.115833333333313, 23.475 ], [ 90.109166666666653, 23.4875 ], [ 90.0975, 23.503333333333345 ], [ 90.0925, 23.514166666666679 ], [ 90.090833333333308, 23.520833333333346 ], [ 90.09166666666664, 23.541666666666679 ], [ 90.084166666666647, 23.5475 ], [ 90.065, 23.5575 ], [ 90.059166666666641, 23.5625 ] ] } },
{ "type": "Feature", "properties": { "COMID": 45063343, "id": "18525", "lengthkm": 7.5193073133645347, "order": 8, "uparea": 1481911.4042069917 }, "geometry": { "type": "LineString", "coordinates": [ [ 90.179166666666646, 23.466666666666679 ], [ 90.176666666666648, 23.4675 ], [ 90.17083333333332, 23.465 ], [ 90.146666666666647, 23.460833333333348 ], [ 90.1275, 23.465833333333347 ], [ 90.115833333333313, 23.475 ] ] } },
{ "type": "Feature", "properties": { "COMID": 45063342, "id": "18525", "lengthkm": 0.084998536493851001, "order": 8, "uparea": 1482022.2761364332 }, "geometry": { "type": "LineString", "coordinates": [ [ 90.18, 23.466666666666679 ], [ 90.179166666666646, 23.466666666666679 ] ] } },
{ "type": "Feature", "properties": { "COMID": 45063341, "id": "18525", "lengthkm": 22.24883309536888, "order": 8, "uparea": 1482212.7252700049 }, "geometry": { "type": "LineString", "coordinates": [ [ 90.373333333333306, 23.42 ], [ 90.355, 23.423333333333346 ], [ 90.3325, 23.433333333333344 ], [ 90.315833333333316, 23.4325 ], [ 90.313333333333318, 23.43416666666668 ], [ 90.301666666666648, 23.435 ], [ 90.28083333333332, 23.44666666666668 ], [ 90.25, 23.45 ], [ 90.241666666666646, 23.4525 ], [ 90.24, 23.451666666666679 ], [ 90.215833333333308, 23.460833333333348 ], [ 90.203333333333319, 23.460833333333348 ], [ 90.193333333333314, 23.465 ], [ 90.18, 23.466666666666679 ] ] } },
{ "type": "Feature", "properties": { "COMID": 45063340, "id": "18525", "lengthkm": 11.879566167536154, "order": 8, "uparea": 1482501.2272524796 }, "geometry": { "type": "LineString", "coordinates": [ [ 90.436666666666653, 23.34 ], [ 90.434166666666641, 23.343333333333344 ], [ 90.430833333333311, 23.360833333333346 ], [ 90.419166666666655, 23.375833333333347 ], [ 90.40916666666665, 23.385833333333345 ], [ 90.399166666666645, 23.401666666666678 ], [ 90.373333333333306, 23.42 ] ] } },
{ "type": "Feature", "properties": { "COMID": 45063339, "id": "18525", "lengthkm": 0.714071485172183, "order": 8, "uparea": 1482555.5706116247 }, "geometry": { "type": "LineString", "coordinates": [ [ 90.441666666666649, 23.335833333333348 ], [ 90.436666666666653, 23.34 ] ] } },
{ "type": "Feature", "properties": { "COMID": 45063338, "id": "18525", "lengthkm": 3.684757535951662, "order": 8, "uparea": 1482765.1194097816 }, "geometry": { "type": "LineString", "coordinates": [ [ 90.474166666666648, 23.331666666666678 ], [ 90.454166666666652, 23.330833333333345 ], [ 90.449166666666656, 23.331666666666678 ], [ 90.441666666666649, 23.335833333333348 ] ] } },
{ "type": "Feature", "properties": { "COMID": 45063337, "id": "18525", "lengthkm": 1.9350875813103481, "order": 8, "uparea": 1482797.5267805532 }, "geometry": { "type": "LineString", "coordinates": [ [ 90.488333333333316, 23.32166666666668 ], [ 90.481666666666655, 23.324166666666681 ], [ 90.474166666666648, 23.331666666666678 ] ] } },
{ "type": "Feature", "properties": { "COMID": 45063336, "id": "18525", "lengthkm": 5.8385379776508346, "order": 8, "uparea": 1482976.942876504 }, "geometry": { "type": "LineString", "coordinates": [ [ 90.538333333333313, 23.306666666666679 ], [ 90.52916666666664, 23.3075 ], [ 90.5225, 23.310833333333346 ], [ 90.5125, 23.32 ], [ 90.488333333333316, 23.32166666666668 ] ] } },
{ "type": "Feature", "properties": { "COMID": 45063335, "id": "18525", "lengthkm": 6.305659495608567, "order": 8, "uparea": 1483033.5524042775 }, "geometry": { "type": "LineString", "coordinates": [ [ 90.5875, 23.295833333333345 ], [ 90.575833333333321, 23.293333333333347 ], [ 90.5625, 23.30166666666668 ], [ 90.554166666666646, 23.305 ], [ 90.550833333333316, 23.31 ], [ 90.543333333333322, 23.306666666666679 ], [ 90.538333333333313, 23.306666666666679 ] ] } },
{ "type": "Feature", "properties": { "COMID": 45063334, "id": "18525", "lengthkm": 7.8191387100587306, "order": 8, "uparea": 1483124.8605031187 }, "geometry": { "type": "LineString", "coordinates": [ [ 90.626666666666651, 23.24 ], [ 90.610833333333318, 23.25916666666668 ], [ 90.60833333333332, 23.268333333333345 ], [ 90.6, 23.276666666666678 ], [ 90.599166666666648, 23.28166666666668 ], [ 90.595833333333317, 23.2875 ], [ 90.5875, 23.295833333333345 ] ] } },
{ "type": "Feature", "properties": { "COMID": 45063333, "id": "18525", "lengthkm": 8.8182140991362683, "order": 8, "uparea": 1572400.525695469 }, "geometry": { "type": "LineString", "coordinates": [ [ 90.61166666666665, 23.166666666666679 ], [ 90.615, 23.186666666666678 ], [ 90.620833333333309, 23.1975 ], [ 90.626666666666651, 23.218333333333344 ], [ 90.626666666666651, 23.24 ] ] } },
{ "type": "Feature", "properties": { "COMID": 45063332, "id": "18525", "lengthkm": 7.6543775006214121, "order": 8, "uparea": 1572504.0563616927 }, "geometry": { "type": "LineString", "coordinates": [ [ 90.59333333333332, 23.105 ], [ 90.5975, 23.113333333333347 ], [ 90.601666666666645, 23.133333333333347 ], [ 90.60833333333332, 23.14916666666668 ], [ 90.6075, 23.1525 ], [ 90.61166666666665, 23.16166666666668 ], [ 90.61166666666665, 23.166666666666679 ] ] } },
{ "type": "Feature", "properties": { "COMID": 45066867, "id": "18525", "lengthkm": 8.8264913247611076, "order": 8, "uparea": 1572667.3889131162 }, "geometry": { "type": "LineString", "coordinates": [ [ 90.584166666666647, 23.0325 ], [ 90.584166666666647, 23.035 ], [ 90.590833333333308, 23.043333333333347 ], [ 90.598333333333315, 23.07166666666668 ], [ 90.598333333333315, 23.085833333333348 ], [ 90.59333333333332, 23.105 ] ] } },
{ "type": "Feature", "properties": { "COMID": 45066866, "id": "18525", "lengthkm": 11.626908692823784, "order": 8, "uparea": 1573607.9737473868 }, "geometry": { "type": "LineString", "coordinates": [ [ 90.631666666666646, 22.945 ], [ 90.628333333333316, 22.953333333333347 ], [ 90.615, 22.975 ], [ 90.61, 22.98 ], [ 90.605, 22.991666666666681 ], [ 90.600833333333313, 22.995833333333348 ], [ 90.594166666666652, 23.0125 ], [ 90.5875, 23.02 ], [ 90.584166666666647, 23.0325 ] ] } },
{ "type": "Feature", "properties": { "COMID": 45066865, "id": "18525", "lengthkm": 2.2123776367557291, "order": 8, "uparea": 1573652.1037601084 }, "geometry": { "type": "LineString", "coordinates": [ [ 90.638333333333321, 22.9275 ], [ 90.631666666666646, 22.945 ] ] } },
{ "type": "Feature", "properties": { "COMID": 45066864, "id": "18525", "lengthkm": 2.286353277797005, "order": 8, "uparea": 1573882.3011841814 }, "geometry": { "type": "LineString", "coordinates": [ [ 90.649166666666645, 22.910833333333347 ], [ 90.638333333333321, 22.9275 ] ] } },
{ "type": "Feature", "properties": { "COMID": 45066863, "id": "18525", "lengthkm": 10.136653461461982, "order": 8, "uparea": 1574012.6907671301 }, "geometry": { "type": "LineString", "coordinates": [ [ 90.7125, 22.846666666666678 ], [ 90.694166666666646, 22.861666666666679 ], [ 90.6875, 22.8725 ], [ 90.673333333333318, 22.8875 ], [ 90.663333333333313, 22.900833333333345 ], [ 90.649166666666645, 22.910833333333347 ] ] } },
{ "type": "Feature", "properties": { "COMID": 45066862, "id": "18525", "lengthkm": 6.9867986145700964, "order": 8, "uparea": 1574545.5744448761 }, "geometry": { "type": "LineString", "coordinates": [ [ 90.723333333333315, 22.788333333333345 ], [ 90.719166666666652, 22.7975 ], [ 90.7125, 22.846666666666678 ] ] } },
{ "type": "Feature", "properties": { "COMID": 45066861, "id": "18525", "lengthkm": 1.3973938849260481, "order": 8, "uparea": 1574591.2623521597 }, "geometry": { "type": "LineString", "coordinates": [ [ 90.720833333333317, 22.776666666666681 ], [ 90.723333333333315, 22.788333333333345 ] ] } },
{ "type": "Feature", "properties": { "COMID": 45066860, "id": "18525", "lengthkm": 3.3249251226456198, "order": 8, "uparea": 1574680.9067696885 }, "geometry": { "type": "LineString", "coordinates": [ [ 90.7275, 22.749166666666678 ], [ 90.7225, 22.764166666666679 ], [ 90.720833333333317, 22.776666666666681 ] ] } },
{ "type": "Feature", "properties": { "COMID": 45066859, "id": "18525", "lengthkm": 0.31137575033335202, "order": 8, "uparea": 1574708.4456096634 }, "geometry": { "type": "LineString", "coordinates": [ [ 90.72833333333331, 22.74666666666668 ], [ 90.7275, 22.749166666666678 ] ] } },
{ "type": "Feature", "properties": { "COMID": 45066858, "id": "18525", "lengthkm": 7.2847450964907097, "order": 8, "uparea": 1574834.2982043759 }, "geometry": { "type": "LineString", "coordinates": [ [ 90.7575, 22.691666666666681 ], [ 90.744166666666644, 22.713333333333345 ], [ 90.740833333333313, 22.725 ], [ 90.72833333333331, 22.74666666666668 ] ] } },
{ "type": "Feature", "properties": { "COMID": 45066857, "id": "18525", "lengthkm": 2.3985656537863922, "order": 8, "uparea": 1574898.6207858638 }, "geometry": { "type": "LineString", "coordinates": [ [ 90.764166666666654, 22.6725 ], [ 90.7575, 22.691666666666681 ] ] } },
{ "type": "Feature", "properties": { "COMID": 45066856, "id": "18525", "lengthkm": 7.0912977241002322, "order": 8, "uparea": 1575032.5004286871 }, "geometry": { "type": "LineString", "coordinates": [ [ 90.81, 22.626666666666679 ], [ 90.795, 22.644166666666681 ], [ 90.764166666666654, 22.6725 ] ] } },
{ "type": "Feature", "properties": { "COMID": 45066855, "id": "18525", "lengthkm": 7.5775848669324732, "order": 8, "uparea": 1575385.9506649468 }, "geometry": { "type": "LineString", "coordinates": [ [ 90.803333333333313, 22.563333333333347 ], [ 90.8, 22.573333333333348 ], [ 90.8, 22.589166666666681 ], [ 90.8075, 22.6125 ], [ 90.81, 22.626666666666679 ] ] } },
{ "type": "Feature", "properties": { "COMID": 45070323, "id": "18525", "lengthkm": 16.643676992320035, "order": 8, "uparea": 1575630.991704083 }, "geometry": { "type": "LineString", "coordinates": [ [ 90.9, 22.4575 ], [ 90.888333333333321, 22.4625 ], [ 90.88, 22.46916666666668 ], [ 90.868333333333311, 22.475 ], [ 90.850833333333313, 22.490833333333345 ], [ 90.839166666666642, 22.508333333333347 ], [ 90.83833333333331, 22.5175 ], [ 90.814166666666651, 22.54416666666668 ], [ 90.803333333333313, 22.563333333333347 ] ] } },
{ "type": "Feature", "properties": { "COMID": 45070322, "id": "18525", "lengthkm": 0.12617354695302499, "order": 8, "uparea": 1575661.803881095 }, "geometry": { "type": "LineString", "coordinates": [ [ 90.90083333333331, 22.456666666666681 ], [ 90.9, 22.4575 ] ] } }
]
}
