{
"type": "FeatureCollection",
"name": "downstream_23471",
"crs": { "type": "name", "properties": { "name": "urn:ogc:def:crs:OGC:1.3:CRS84" } },
"features": [
{ "type": "Feature", "properties": { "COMID": 44042753, "id": "22818", "lengthkm": 23.022170531028934, "order": 1, "uparea": 82.426380731955007 }, "geometry": { "type": "LineString", "coordinates": [ [ 108.436666666666667, 12.72666666666667 ], [ 108.44, 12.725833333333338 ], [ 108.441666666666663, 12.724166666666672 ], [ 108.44083333333333, 12.7225 ], [ 108.443333333333328, 12.720833333333339 ], [ 108.4475, 12.72333333333334 ], [ 108.4525, 12.72333333333334 ], [ 108.4575, 12.719166666666673 ], [ 108.463333333333338, 12.7175 ], [ 108.47, 12.721666666666671 ], [ 108.476666666666659, 12.7175 ], [ 108.48, 12.710833333333337 ], [ 108.485833333333332, 12.711666666666673 ], [ 108.485833333333332, 12.71583333333334 ], [ 108.483333333333334, 12.7175 ], [ 108.49, 12.725833333333338 ], [ 108.4875, 12.739166666666673 ], [ 108.485, 12.740833333333338 ], [ 108.485833333333332, 12.7425 ], [ 108.479166666666657, 12.7475 ], [ 108.4825, 12.7525 ], [ 108.48, 12.759166666666673 ], [ 108.476666666666659, 12.7625 ], [ 108.475, 12.77 ], [ 108.469166666666666, 12.773333333333337 ], [ 108.469166666666666, 12.776666666666671 ], [ 108.4675, 12.77833333333334 ], [ 108.4625, 12.77833333333334 ], [ 108.459166666666661, 12.783333333333339 ], [ 108.46, 12.785 ], [ 108.4575, 12.786666666666672 ], [ 108.458333333333329, 12.788333333333338 ], [ 108.449166666666656, 12.79 ], [ 108.443333333333328, 12.795 ], [ 108.4425, 12.7975 ] ] } },
{ "type": "Feature", "properties": { "COMID": 44041884, "id": "22818", "lengthkm": 4.0165925369613431, "order": 2, "uparea": 131.88580748444508 }, "geometry": { "type": "LineString", "coordinates": [ [ 108.420833333333334, 12.713333333333338 ], [ 108.426666666666662, 12.71 ], [ 108.435, 12.713333333333338 ], [ 108.436666666666667, 12.716666666666672 ], [ 108.435, 12.725 ], [ 108.436666666666667, 12.72666666666667 ] ] } },
{ "type": "Feature", "properties": { "COMID": 44041857, "id": "22818", "lengthkm": 1.813686905432021, "order": 2, "uparea": 166.45755888494818 }, "geometry": { "type": "LineString", "coordinates": [ [ 108.421666666666667, 12.7 ], [ 108.420833333333334, 12.704166666666673 ], [ 108.4225, 12.705833333333338 ], [ 108.420833333333334, 12.708333333333339 ], [ 108.420833333333334, 12.713333333333338 ] ] } },
{ "type": "Feature", "properties": { "COMID": 44041576, "id": "22818", "lengthkm": 10.962849746855607, "order": 3, "uparea": 710.60169361206272 }, "geometry": { "type": "LineString", "coordinates": [ [ 108.4, 12.648333333333337 ], [ 108.406666666666666, 12.65 ], [ 108.405833333333334, 12.65333333333334 ], [ 108.408333333333331, 12.655833333333337 ], [ 108.408333333333331, 12.659166666666671 ], [ 108.405833333333334, 12.659166666666671 ], [ 108.4075, 12.66833333333334 ], [ 108.41, 12.66833333333334 ], [ 108.413333333333327, 12.663333333333338 ], [ 108.4175, 12.663333333333338 ], [ 108.4175, 12.665833333333339 ], [ 108.415, 12.66833333333334 ], [ 108.415833333333325, 12.67166666666667 ], [ 108.419166666666655, 12.676666666666673 ], [ 108.420833333333334, 12.676666666666673 ], [ 108.42, 12.6825 ], [ 108.4225, 12.685833333333338 ], [ 108.425, 12.685833333333338 ], [ 108.425, 12.690833333333337 ], [ 108.4225, 12.693333333333339 ], [ 108.421666666666667, 12.6925 ], [ 108.424166666666665, 12.69583333333334 ], [ 108.423333333333332, 12.69916666666667 ], [ 108.421666666666667, 12.7 ] ] } },
{ "type": "Feature", "properties": { "COMID": 44041566, "id": "22818", "lengthkm": 1.843891655639611, "order": 3, "uparea": 814.87040673420654 }, "geometry": { "type": "LineString", "coordinates": [ [ 108.404166666666669, 12.6375 ], [ 108.398333333333326, 12.6425 ], [ 108.399166666666659, 12.644166666666671 ], [ 108.3975, 12.645833333333339 ], [ 108.4, 12.648333333333337 ] ] } },
{ "type": "Feature", "properties": { "COMID": 44041565, "id": "22818", "lengthkm": 1.88522362050631, "order": 4, "uparea": 1512.3780932300406 }, "geometry": { "type": "LineString", "coordinates": [ [ 108.4025, 12.625 ], [ 108.405833333333334, 12.629166666666674 ], [ 108.404166666666669, 12.6375 ] ] } },
{ "type": "Feature", "properties": { "COMID": 44041562, "id": "22818", "lengthkm": 1.8049235246153139, "order": 4, "uparea": 1608.9988594359133 }, "geometry": { "type": "LineString", "coordinates": [ [ 108.411666666666662, 12.615 ], [ 108.404166666666669, 12.621666666666673 ], [ 108.405, 12.623333333333338 ], [ 108.4025, 12.625 ] ] } },
{ "type": "Feature", "properties": { "COMID": 44041558, "id": "22818", "lengthkm": 10.799068133804774, "order": 4, "uparea": 1690.6617713243229 }, "geometry": { "type": "LineString", "coordinates": [ [ 108.408333333333331, 12.56 ], [ 108.410833333333329, 12.565 ], [ 108.409166666666664, 12.565833333333337 ], [ 108.409166666666664, 12.569166666666671 ], [ 108.413333333333327, 12.571666666666673 ], [ 108.413333333333327, 12.575833333333339 ], [ 108.41, 12.575833333333339 ], [ 108.4075, 12.57833333333334 ], [ 108.4075, 12.5825 ], [ 108.3925, 12.5925 ], [ 108.395, 12.5975 ], [ 108.393333333333331, 12.603333333333339 ], [ 108.395833333333329, 12.605 ], [ 108.4, 12.604166666666671 ], [ 108.400833333333338, 12.606666666666673 ], [ 108.409166666666664, 12.611666666666672 ], [ 108.411666666666662, 12.615 ] ] } },
{ "type": "Feature", "properties": { "COMID": 44041551, "id": "22818", "lengthkm": 15.703527595129376, "order": 4, "uparea": 2497.3997099675789 }, "geometry": { "type": "LineString", "coordinates": [ [ 108.34, 12.538333333333338 ], [ 108.343333333333334, 12.54 ], [ 108.346666666666664, 12.5375 ], [ 108.350833333333327, 12.53916666666667 ], [ 108.351666666666659, 12.53583333333334 ], [ 108.355, 12.534166666666671 ], [ 108.3575, 12.540833333333339 ], [ 108.3625, 12.538333333333338 ], [ 108.3625, 12.540833333333339 ], [ 108.365833333333327, 12.541666666666671 ], [ 108.365833333333327, 12.536666666666672 ], [ 108.368333333333325, 12.5375 ], [ 108.3725, 12.5425 ], [ 108.374166666666667, 12.5375 ], [ 108.380833333333328, 12.540833333333339 ], [ 108.380833333333328, 12.535 ], [ 108.3875, 12.536666666666672 ], [ 108.388333333333321, 12.53916666666667 ], [ 108.385833333333323, 12.540833333333339 ], [ 108.385833333333323, 12.54333333333334 ], [ 108.39, 12.545833333333338 ], [ 108.390833333333333, 12.550833333333337 ], [ 108.393333333333331, 12.5525 ], [ 108.393333333333331, 12.55 ], [ 108.395, 12.549166666666672 ], [ 108.3975, 12.5525 ], [ 108.396666666666661, 12.554166666666671 ], [ 108.400833333333338, 12.556666666666672 ], [ 108.405833333333334, 12.555 ], [ 108.406666666666666, 12.558333333333337 ], [ 108.405, 12.56 ], [ 108.408333333333331, 12.56 ] ] } },
{ "type": "Feature", "properties": { "COMID": 44041537, "id": "22818", "lengthkm": 11.585810038390093, "order": 4, "uparea": 2681.0001646248884 }, "geometry": { "type": "LineString", "coordinates": [ [ 108.29, 12.536666666666672 ], [ 108.288333333333327, 12.533333333333339 ], [ 108.290833333333325, 12.529166666666672 ], [ 108.296666666666667, 12.535 ], [ 108.301666666666662, 12.529166666666672 ], [ 108.3025, 12.54 ], [ 108.308333333333337, 12.544166666666673 ], [ 108.315, 12.54 ], [ 108.32, 12.540833333333339 ], [ 108.319166666666661, 12.548333333333339 ], [ 108.324166666666656, 12.5525 ], [ 108.329166666666666, 12.5525 ], [ 108.330833333333331, 12.549166666666672 ], [ 108.340833333333336, 12.541666666666671 ], [ 108.34, 12.538333333333338 ] ] } },
{ "type": "Feature", "properties": { "COMID": 44041532, "id": "22818", "lengthkm": 9.3926294947117555, "order": 4, "uparea": 2789.711178267843 }, "geometry": { "type": "LineString", "coordinates": [ [ 108.25333333333333, 12.525833333333338 ], [ 108.255, 12.526666666666671 ], [ 108.256666666666661, 12.524166666666673 ], [ 108.259166666666658, 12.525833333333338 ], [ 108.261666666666656, 12.525 ], [ 108.265, 12.5325 ], [ 108.2675, 12.534166666666671 ], [ 108.271666666666661, 12.53 ], [ 108.27, 12.5225 ], [ 108.273333333333326, 12.523333333333337 ], [ 108.274166666666659, 12.526666666666671 ], [ 108.276666666666671, 12.52833333333334 ], [ 108.279166666666669, 12.5275 ], [ 108.279166666666669, 12.524166666666673 ], [ 108.283333333333331, 12.524166666666673 ], [ 108.285, 12.525833333333338 ], [ 108.281666666666666, 12.529166666666672 ], [ 108.2825, 12.536666666666672 ], [ 108.285, 12.53916666666667 ], [ 108.288333333333327, 12.53916666666667 ], [ 108.29, 12.536666666666672 ] ] } },
{ "type": "Feature", "properties": { "COMID": 44041529, "id": "22818", "lengthkm": 8.5987011845036889, "order": 4, "uparea": 2850.337907827035 }, "geometry": { "type": "LineString", "coordinates": [ [ 108.219166666666666, 12.521666666666672 ], [ 108.221666666666664, 12.5225 ], [ 108.224166666666662, 12.52 ], [ 108.221666666666664, 12.51166666666667 ], [ 108.224166666666662, 12.51 ], [ 108.228333333333325, 12.516666666666673 ], [ 108.235833333333332, 12.5175 ], [ 108.23833333333333, 12.51583333333334 ], [ 108.239166666666662, 12.5175 ], [ 108.244166666666672, 12.519166666666671 ], [ 108.250833333333333, 12.526666666666671 ], [ 108.250833333333333, 12.534166666666671 ], [ 108.2525, 12.5325 ], [ 108.25333333333333, 12.525833333333338 ] ] } },
{ "type": "Feature", "properties": { "COMID": 44041528, "id": "22818", "lengthkm": 3.261149104633887, "order": 4, "uparea": 3135.6503592897948 }, "geometry": { "type": "LineString", "coordinates": [ [ 108.205, 12.52 ], [ 108.2075, 12.518333333333338 ], [ 108.205833333333331, 12.51583333333334 ], [ 108.206666666666663, 12.515 ], [ 108.2125, 12.5125 ], [ 108.215, 12.51583333333334 ], [ 108.2175, 12.515 ], [ 108.22, 12.5175 ], [ 108.219166666666666, 12.521666666666672 ] ] } },
{ "type": "Feature", "properties": { "COMID": 44041527, "id": "22818", "lengthkm": 6.2991420195062684, "order": 4, "uparea": 3195.8242590516347 }, "geometry": { "type": "LineString", "coordinates": [ [ 108.1775, 12.494166666666672 ], [ 108.1775, 12.499166666666671 ], [ 108.17916666666666, 12.50083333333334 ], [ 108.1825, 12.50083333333334 ], [ 108.183333333333337, 12.5025 ], [ 108.1825, 12.505833333333339 ], [ 108.18416666666667, 12.51 ], [ 108.186666666666667, 12.509166666666673 ], [ 108.189166666666665, 12.514166666666672 ], [ 108.195, 12.514166666666672 ], [ 108.195, 12.5175 ], [ 108.196666666666658, 12.519166666666671 ], [ 108.201666666666668, 12.516666666666673 ], [ 108.205, 12.52 ] ] } },
{ "type": "Feature", "properties": { "COMID": 44041526, "id": "22818", "lengthkm": 14.02171498352212, "order": 4, "uparea": 3288.8318239072719 }, "geometry": { "type": "LineString", "coordinates": [ [ 108.138333333333321, 12.42 ], [ 108.1425, 12.425 ], [ 108.140833333333333, 12.428333333333338 ], [ 108.1425, 12.4325 ], [ 108.149166666666659, 12.431666666666672 ], [ 108.1525, 12.428333333333338 ], [ 108.16, 12.430833333333339 ], [ 108.160833333333329, 12.433333333333337 ], [ 108.159166666666664, 12.435 ], [ 108.159166666666664, 12.439166666666672 ], [ 108.161666666666662, 12.439166666666672 ], [ 108.164166666666659, 12.441666666666674 ], [ 108.163333333333327, 12.44583333333334 ], [ 108.170833333333334, 12.455833333333338 ], [ 108.169166666666655, 12.4575 ], [ 108.168333333333322, 12.463333333333338 ], [ 108.1725, 12.4675 ], [ 108.178333333333327, 12.469166666666673 ], [ 108.1775, 12.471666666666671 ], [ 108.175, 12.4725 ], [ 108.17916666666666, 12.4825 ], [ 108.17583333333333, 12.485 ], [ 108.1775, 12.488333333333337 ], [ 108.1775, 12.494166666666672 ] ] } },
{ "type": "Feature", "properties": { "COMID": 44041522, "id": "22818", "lengthkm": 4.6392614255850031, "order": 4, "uparea": 3619.5216126056139 }, "geometry": { "type": "LineString", "coordinates": [ [ 108.108333333333334, 12.411666666666672 ], [ 108.109166666666667, 12.413333333333338 ], [ 108.115833333333327, 12.415 ], [ 108.118333333333325, 12.4175 ], [ 108.120833333333337, 12.416666666666671 ], [ 108.12833333333333, 12.419166666666673 ], [ 108.129166666666663, 12.42166666666667 ], [ 108.133333333333326, 12.42166666666667 ], [ 108.135833333333323, 12.424166666666672 ], [ 108.135833333333323, 12.42166666666667 ], [ 108.138333333333321, 12.42 ] ] } },
{ "type": "Feature", "properties": { "COMID": 44041521, "id": "22818", "lengthkm": 8.9957363347334489, "order": 4, "uparea": 3679.0742070323008 }, "geometry": { "type": "LineString", "coordinates": [ [ 108.061666666666667, 12.411666666666672 ], [ 108.06583333333333, 12.411666666666672 ], [ 108.068333333333328, 12.415833333333339 ], [ 108.0725, 12.415833333333339 ], [ 108.075, 12.419166666666673 ], [ 108.0775, 12.41833333333334 ], [ 108.08, 12.42 ], [ 108.08, 12.4275 ], [ 108.081666666666663, 12.429166666666671 ], [ 108.086666666666659, 12.423333333333339 ], [ 108.089166666666671, 12.425 ], [ 108.090833333333336, 12.4225 ], [ 108.09, 12.419166666666673 ], [ 108.094166666666666, 12.4175 ], [ 108.098333333333329, 12.413333333333338 ], [ 108.1, 12.41416666666667 ], [ 108.100833333333327, 12.4125 ], [ 108.104166666666657, 12.415 ], [ 108.106666666666655, 12.41083333333334 ], [ 108.108333333333334, 12.411666666666672 ] ] } },
{ "type": "Feature", "properties": { "COMID": 44041520, "id": "22818", "lengthkm": 4.3515346752874482, "order": 4, "uparea": 3752.5555593525614 }, "geometry": { "type": "LineString", "coordinates": [ [ 108.0375, 12.42166666666667 ], [ 108.040833333333325, 12.42166666666667 ], [ 108.0425, 12.424166666666672 ], [ 108.045833333333334, 12.423333333333339 ], [ 108.049166666666665, 12.425 ], [ 108.05, 12.423333333333339 ], [ 108.051666666666662, 12.425 ], [ 108.056666666666672, 12.419166666666673 ], [ 108.058333333333337, 12.42 ], [ 108.061666666666667, 12.416666666666671 ], [ 108.061666666666667, 12.411666666666672 ] ] } },
{ "type": "Feature", "properties": { "COMID": 44041519, "id": "22818", "lengthkm": 13.829606755355318, "order": 4, "uparea": 3867.9877738349455 }, "geometry": { "type": "LineString", "coordinates": [ [ 108.019166666666663, 12.488333333333337 ], [ 108.0175, 12.4825 ], [ 108.020833333333329, 12.475 ], [ 108.02, 12.466666666666672 ], [ 108.013333333333321, 12.460833333333337 ], [ 108.019166666666663, 12.458333333333339 ], [ 108.02, 12.454166666666673 ], [ 108.016666666666666, 12.45 ], [ 108.020833333333329, 12.4475 ], [ 108.023333333333326, 12.440833333333337 ], [ 108.019166666666663, 12.4325 ], [ 108.016666666666666, 12.434166666666673 ], [ 108.013333333333321, 12.430833333333339 ], [ 108.0175, 12.426666666666673 ], [ 108.0175, 12.42166666666667 ], [ 108.02, 12.419166666666673 ], [ 108.023333333333326, 12.42 ], [ 108.026666666666671, 12.415833333333339 ], [ 108.035833333333329, 12.424166666666672 ], [ 108.0375, 12.42166666666667 ] ] } },
{ "type": "Feature", "properties": { "COMID": 44041518, "id": "22818", "lengthkm": 5.1016583954414951, "order": 4, "uparea": 3955.7027378705775 }, "geometry": { "type": "LineString", "coordinates": [ [ 107.9875, 12.494166666666672 ], [ 107.990833333333327, 12.495833333333337 ], [ 108.001666666666665, 12.4925 ], [ 108.009166666666658, 12.499166666666671 ], [ 108.011666666666656, 12.499166666666671 ], [ 108.014166666666668, 12.496666666666673 ], [ 108.013333333333321, 12.494166666666672 ], [ 108.015, 12.494166666666672 ], [ 108.019166666666663, 12.488333333333337 ] ] } },
{ "type": "Feature", "properties": { "COMID": 44041424, "id": "22818", "lengthkm": 15.849644593271384, "order": 5, "uparea": 7921.6978852570919 }, "geometry": { "type": "LineString", "coordinates": [ [ 107.89, 12.55 ], [ 107.886666666666656, 12.545 ], [ 107.886666666666656, 12.54333333333334 ], [ 107.889166666666668, 12.541666666666671 ], [ 107.888333333333321, 12.54 ], [ 107.89, 12.538333333333338 ], [ 107.895, 12.538333333333338 ], [ 107.901666666666671, 12.533333333333339 ], [ 107.905833333333334, 12.5275 ], [ 107.908333333333331, 12.5275 ], [ 107.910833333333329, 12.525 ], [ 107.9175, 12.529166666666672 ], [ 107.9275, 12.52833333333334 ], [ 107.931666666666672, 12.525 ], [ 107.9425, 12.5275 ], [ 107.948333333333323, 12.520833333333339 ], [ 107.954166666666666, 12.520833333333339 ], [ 107.9675, 12.510833333333338 ], [ 107.974166666666662, 12.50833333333334 ], [ 107.979166666666657, 12.501666666666672 ], [ 107.979166666666657, 12.496666666666673 ], [ 107.980833333333322, 12.495 ], [ 107.9875, 12.494166666666672 ] ] } },
{ "type": "Feature", "properties": { "COMID": 44041423, "id": "22818", "lengthkm": 11.651348470965607, "order": 5, "uparea": 8632.489355569016 }, "geometry": { "type": "LineString", "coordinates": [ [ 107.92916666666666, 12.611666666666672 ], [ 107.9275, 12.604166666666671 ], [ 107.93, 12.599166666666672 ], [ 107.935, 12.596666666666671 ], [ 107.93416666666667, 12.585 ], [ 107.92916666666666, 12.580833333333338 ], [ 107.918333333333322, 12.58 ], [ 107.913333333333327, 12.5775 ], [ 107.911666666666662, 12.57833333333334 ], [ 107.905, 12.57083333333334 ], [ 107.894166666666663, 12.565833333333337 ], [ 107.8925, 12.564166666666672 ], [ 107.8925, 12.559166666666673 ], [ 107.895833333333329, 12.556666666666672 ], [ 107.895833333333329, 12.553333333333338 ], [ 107.89, 12.55 ] ] } },
{ "type": "Feature", "properties": { "COMID": 44041422, "id": "22818", "lengthkm": 5.9732131374368302, "order": 5, "uparea": 8738.1976273738401 }, "geometry": { "type": "LineString", "coordinates": [ [ 107.913333333333327, 12.646666666666672 ], [ 107.9175, 12.648333333333337 ], [ 107.920833333333334, 12.645 ], [ 107.919166666666655, 12.635 ], [ 107.9225, 12.630833333333339 ], [ 107.9225, 12.62583333333334 ], [ 107.92, 12.62 ], [ 107.921666666666667, 12.618333333333339 ], [ 107.928333333333327, 12.6175 ], [ 107.92916666666666, 12.611666666666672 ] ] } },
{ "type": "Feature", "properties": { "COMID": 44041421, "id": "22818", "lengthkm": 7.3934450655768131, "order": 5, "uparea": 8965.2472257525114 }, "geometry": { "type": "LineString", "coordinates": [ [ 107.911666666666662, 12.69 ], [ 107.9075, 12.684166666666673 ], [ 107.905, 12.675 ], [ 107.9075, 12.669166666666673 ], [ 107.914166666666659, 12.66416666666667 ], [ 107.915, 12.658333333333339 ], [ 107.9125, 12.655833333333337 ], [ 107.906666666666666, 12.654166666666672 ], [ 107.904166666666669, 12.65 ], [ 107.908333333333331, 12.645833333333339 ], [ 107.913333333333327, 12.646666666666672 ] ] } },
{ "type": "Feature", "properties": { "COMID": 44041420, "id": "22818", "lengthkm": 5.7276306732734863, "order": 5, "uparea": 9223.9635486429925 }, "geometry": { "type": "LineString", "coordinates": [ [ 107.905, 12.728333333333339 ], [ 107.898333333333326, 12.72333333333334 ], [ 107.895, 12.7125 ], [ 107.9125, 12.693333333333339 ], [ 107.911666666666662, 12.69 ] ] } },
{ "type": "Feature", "properties": { "COMID": 44041419, "id": "22818", "lengthkm": 1.369415592093173, "order": 5, "uparea": 9289.3687910978861 }, "geometry": { "type": "LineString", "coordinates": [ [ 107.910833333333329, 12.738333333333337 ], [ 107.908333333333331, 12.731666666666673 ], [ 107.905, 12.728333333333339 ] ] } },
{ "type": "Feature", "properties": { "COMID": 44041418, "id": "22818", "lengthkm": 3.5385011455304189, "order": 5, "uparea": 9386.3926887613688 }, "geometry": { "type": "LineString", "coordinates": [ [ 107.886666666666656, 12.748333333333338 ], [ 107.89, 12.746666666666673 ], [ 107.8925, 12.7475 ], [ 107.901666666666671, 12.743333333333339 ], [ 107.9075, 12.745 ], [ 107.91, 12.7425 ], [ 107.910833333333329, 12.738333333333337 ] ] } },
{ "type": "Feature", "properties": { "COMID": 44041417, "id": "22818", "lengthkm": 3.32403039720732, "order": 5, "uparea": 9424.0558805347355 }, "geometry": { "type": "LineString", "coordinates": [ [ 107.860833333333332, 12.756666666666671 ], [ 107.86666666666666, 12.751666666666672 ], [ 107.873333333333335, 12.751666666666672 ], [ 107.885, 12.7475 ], [ 107.886666666666656, 12.748333333333338 ] ] } },
{ "type": "Feature", "properties": { "COMID": 44041416, "id": "22818", "lengthkm": 5.1993612840485017, "order": 5, "uparea": 9491.9195091956244 }, "geometry": { "type": "LineString", "coordinates": [ [ 107.8625, 12.794166666666673 ], [ 107.858333333333334, 12.79 ], [ 107.858333333333334, 12.7875 ], [ 107.8525, 12.77833333333334 ], [ 107.8575, 12.77 ], [ 107.855833333333322, 12.7625 ], [ 107.860833333333332, 12.756666666666671 ] ] } },
{ "type": "Feature", "properties": { "COMID": 44041415, "id": "22818", "lengthkm": 6.0965265141419076, "order": 5, "uparea": 9657.2404526568262 }, "geometry": { "type": "LineString", "coordinates": [ [ 107.825, 12.801666666666673 ], [ 107.835833333333326, 12.803333333333338 ], [ 107.843333333333334, 12.810833333333338 ], [ 107.848333333333329, 12.8125 ], [ 107.855833333333322, 12.806666666666672 ], [ 107.858333333333334, 12.801666666666673 ], [ 107.8625, 12.8 ], [ 107.8625, 12.794166666666673 ] ] } },
{ "type": "Feature", "properties": { "COMID": 44041414, "id": "22818", "lengthkm": 2.1795030471262491, "order": 5, "uparea": 9823.4994427885358 }, "geometry": { "type": "LineString", "coordinates": [ [ 107.81583333333333, 12.816666666666674 ], [ 107.8175, 12.808333333333337 ], [ 107.825, 12.801666666666673 ] ] } },
{ "type": "Feature", "properties": { "COMID": 44039918, "id": "22818", "lengthkm": 5.5680366926572464, "order": 5, "uparea": 10287.966349564442 }, "geometry": { "type": "LineString", "coordinates": [ [ 107.814166666666665, 12.85916666666667 ], [ 107.81583333333333, 12.856666666666673 ], [ 107.81583333333333, 12.8525 ], [ 107.8225, 12.845 ], [ 107.821666666666658, 12.84 ], [ 107.8175, 12.8325 ], [ 107.8175, 12.821666666666673 ], [ 107.81583333333333, 12.816666666666674 ] ] } },
{ "type": "Feature", "properties": { "COMID": 44039916, "id": "22818", "lengthkm": 8.9120192619064884, "order": 5, "uparea": 10597.223917574667 }, "geometry": { "type": "LineString", "coordinates": [ [ 107.77, 12.875 ], [ 107.769166666666663, 12.870833333333337 ], [ 107.766666666666666, 12.869166666666672 ], [ 107.766666666666666, 12.865833333333338 ], [ 107.779166666666669, 12.860833333333339 ], [ 107.783333333333331, 12.860833333333339 ], [ 107.796666666666667, 12.866666666666671 ], [ 107.80416666666666, 12.87583333333334 ], [ 107.8075, 12.864166666666673 ], [ 107.811666666666667, 12.8625 ], [ 107.814166666666665, 12.85916666666667 ] ] } },
{ "type": "Feature", "properties": { "COMID": 44039912, "id": "22818", "lengthkm": 4.1725014046186262, "order": 5, "uparea": 10916.794078581401 }, "geometry": { "type": "LineString", "coordinates": [ [ 107.781666666666666, 12.9025 ], [ 107.7825, 12.894166666666671 ], [ 107.78, 12.888333333333339 ], [ 107.78, 12.881666666666671 ], [ 107.775833333333338, 12.8775 ], [ 107.770833333333329, 12.8775 ], [ 107.77, 12.875 ] ] } },
{ "type": "Feature", "properties": { "COMID": 44039909, "id": "22818", "lengthkm": 5.4555792440890221, "order": 5, "uparea": 11043.862726595384 }, "geometry": { "type": "LineString", "coordinates": [ [ 107.744166666666672, 12.9125 ], [ 107.748333333333335, 12.906666666666673 ], [ 107.7625, 12.908333333333339 ], [ 107.766666666666666, 12.904166666666672 ], [ 107.770833333333329, 12.904166666666672 ], [ 107.776666666666671, 12.908333333333339 ], [ 107.78, 12.908333333333339 ], [ 107.781666666666666, 12.9025 ] ] } },
{ "type": "Feature", "properties": { "COMID": 44039908, "id": "22818", "lengthkm": 8.1834996799587163, "order": 5, "uparea": 11112.720268747813 }, "geometry": { "type": "LineString", "coordinates": [ [ 107.695, 12.93 ], [ 107.706666666666663, 12.93 ], [ 107.71, 12.925833333333337 ], [ 107.71, 12.916666666666671 ], [ 107.713333333333338, 12.913333333333338 ], [ 107.72, 12.919166666666673 ], [ 107.726666666666659, 12.92 ], [ 107.728333333333325, 12.913333333333338 ], [ 107.733333333333334, 12.91 ], [ 107.74166666666666, 12.913333333333338 ], [ 107.744166666666672, 12.9125 ] ] } },
{ "type": "Feature", "properties": { "COMID": 44039906, "id": "22818", "lengthkm": 6.8874290356910572, "order": 5, "uparea": 11531.901424907488 }, "geometry": { "type": "LineString", "coordinates": [ [ 107.656666666666666, 12.97 ], [ 107.663333333333327, 12.956666666666671 ], [ 107.6775, 12.935833333333338 ], [ 107.686666666666667, 12.930833333333339 ], [ 107.695, 12.93 ] ] } },
{ "type": "Feature", "properties": { "COMID": 44039903, "id": "22818", "lengthkm": 2.508828554265484, "order": 5, "uparea": 11599.295078902102 }, "geometry": { "type": "LineString", "coordinates": [ [ 107.643333333333331, 12.985833333333339 ], [ 107.644166666666663, 12.98083333333334 ], [ 107.650833333333338, 12.97666666666667 ], [ 107.656666666666666, 12.97 ] ] } },
{ "type": "Feature", "properties": { "COMID": 44039900, "id": "22818", "lengthkm": 5.9943036235800156, "order": 5, "uparea": 11682.338534655195 }, "geometry": { "type": "LineString", "coordinates": [ [ 107.601666666666659, 12.968333333333337 ], [ 107.609166666666667, 12.966666666666672 ], [ 107.615, 12.97666666666667 ], [ 107.625, 12.98416666666667 ], [ 107.633333333333326, 12.985833333333339 ], [ 107.6375, 12.988333333333337 ], [ 107.643333333333331, 12.985833333333339 ] ] } },
{ "type": "Feature", "properties": { "COMID": 44039897, "id": "22818", "lengthkm": 4.9597124577838354, "order": 5, "uparea": 11752.359743732781 }, "geometry": { "type": "LineString", "coordinates": [ [ 107.561666666666667, 12.965 ], [ 107.5675, 12.96583333333334 ], [ 107.575833333333321, 12.970833333333339 ], [ 107.580833333333331, 12.97 ], [ 107.584166666666661, 12.9675 ], [ 107.59, 12.9675 ], [ 107.593333333333334, 12.97 ], [ 107.599166666666662, 12.97 ], [ 107.601666666666659, 12.968333333333337 ] ] } },
{ "type": "Feature", "properties": { "COMID": 44039894, "id": "22818", "lengthkm": 7.396157908701956, "order": 5, "uparea": 11933.549229157863 }, "geometry": { "type": "LineString", "coordinates": [ [ 107.525833333333338, 13.005833333333339 ], [ 107.5275, 13.005 ], [ 107.530833333333334, 12.996666666666673 ], [ 107.531666666666666, 12.979166666666671 ], [ 107.540833333333325, 12.969166666666673 ], [ 107.548333333333332, 12.968333333333337 ], [ 107.55416666666666, 12.965 ], [ 107.561666666666667, 12.965 ] ] } },
{ "type": "Feature", "properties": { "COMID": 44039892, "id": "22818", "lengthkm": 4.16098549201722, "order": 5, "uparea": 12009.525616912981 }, "geometry": { "type": "LineString", "coordinates": [ [ 107.493333333333325, 13.015 ], [ 107.49666666666667, 13.010833333333338 ], [ 107.515, 13.010833333333338 ], [ 107.525833333333338, 13.005833333333339 ] ] } },
{ "type": "Feature", "properties": { "COMID": 44039891, "id": "22818", "lengthkm": 4.6760982192074163, "order": 5, "uparea": 13917.07780363577 }, "geometry": { "type": "LineString", "coordinates": [ [ 107.465, 13.040833333333339 ], [ 107.493333333333325, 13.015 ] ] } },
{ "type": "Feature", "properties": { "COMID": 44039889, "id": "22818", "lengthkm": 19.043344364546094, "order": 5, "uparea": 14104.248430284775 }, "geometry": { "type": "LineString", "coordinates": [ [ 107.3975, 13.14 ], [ 107.408333333333331, 13.128333333333337 ], [ 107.4075, 13.12583333333334 ], [ 107.409166666666664, 13.125 ], [ 107.409166666666664, 13.120833333333337 ], [ 107.416666666666657, 13.115 ], [ 107.416666666666657, 13.106666666666673 ], [ 107.421666666666667, 13.103333333333339 ], [ 107.423333333333332, 13.09833333333334 ], [ 107.42, 13.0925 ], [ 107.420833333333334, 13.09083333333334 ], [ 107.413333333333327, 13.086666666666673 ], [ 107.409166666666664, 13.081666666666671 ], [ 107.41, 13.075 ], [ 107.4125, 13.071666666666673 ], [ 107.4125, 13.06333333333334 ], [ 107.415833333333325, 13.061666666666671 ], [ 107.414166666666659, 13.06 ], [ 107.42, 13.0575 ], [ 107.42583333333333, 13.0575 ], [ 107.43, 13.053333333333338 ], [ 107.433333333333337, 13.054166666666671 ], [ 107.4375, 13.0525 ], [ 107.445, 13.0525 ], [ 107.454166666666666, 13.049166666666672 ], [ 107.465, 13.040833333333339 ] ] } },
{ "type": "Feature", "properties": { "COMID": 44039884, "id": "22818", "lengthkm": 3.2377236658998552, "order": 5, "uparea": 14159.022794091066 }, "geometry": { "type": "LineString", "coordinates": [ [ 107.37833333333333, 13.1525 ], [ 107.379166666666663, 13.150833333333338 ], [ 107.383333333333326, 13.15 ], [ 107.386666666666656, 13.145 ], [ 107.389166666666668, 13.1475 ], [ 107.393333333333331, 13.141666666666673 ], [ 107.3975, 13.14 ] ] } },
{ "type": "Feature", "properties": { "COMID": 44039883, "id": "22818", "lengthkm": 12.096011525378946, "order": 5, "uparea": 14632.276123536953 }, "geometry": { "type": "LineString", "coordinates": [ [ 107.374166666666667, 13.245 ], [ 107.3775, 13.2375 ], [ 107.375833333333333, 13.23083333333334 ], [ 107.3725, 13.225 ], [ 107.37, 13.224166666666672 ], [ 107.37, 13.216666666666672 ], [ 107.37166666666667, 13.21 ], [ 107.38, 13.200833333333339 ], [ 107.3825, 13.19166666666667 ], [ 107.380833333333328, 13.175 ], [ 107.373333333333335, 13.161666666666672 ], [ 107.37833333333333, 13.1525 ] ] } },
{ "type": "Feature", "properties": { "COMID": 44039880, "id": "22818", "lengthkm": 1.1486333314414039, "order": 5, "uparea": 15197.154784082144 }, "geometry": { "type": "LineString", "coordinates": [ [ 107.365, 13.246666666666673 ], [ 107.374166666666667, 13.245 ] ] } },
{ "type": "Feature", "properties": { "COMID": 44039879, "id": "22818", "lengthkm": 4.2150050870243971, "order": 5, "uparea": 16094.039145212708 }, "geometry": { "type": "LineString", "coordinates": [ [ 107.368333333333325, 13.2775 ], [ 107.370833333333337, 13.270833333333339 ], [ 107.370833333333337, 13.265 ], [ 107.360833333333332, 13.251666666666672 ], [ 107.360833333333332, 13.25 ], [ 107.365, 13.246666666666673 ] ] } },
{ "type": "Feature", "properties": { "COMID": 44039878, "id": "22818", "lengthkm": 5.9223832517722128, "order": 6, "uparea": 21210.420274459317 }, "geometry": { "type": "LineString", "coordinates": [ [ 107.336666666666659, 13.315833333333337 ], [ 107.3425, 13.310833333333338 ], [ 107.345833333333331, 13.304166666666671 ], [ 107.3575, 13.295833333333338 ], [ 107.36, 13.286666666666672 ], [ 107.368333333333325, 13.2775 ] ] } },
{ "type": "Feature", "properties": { "COMID": 44039877, "id": "22818", "lengthkm": 6.6586344709775593, "order": 6, "uparea": 23567.50296654076 }, "geometry": { "type": "LineString", "coordinates": [ [ 107.2875, 13.315833333333337 ], [ 107.2925, 13.309166666666673 ], [ 107.3075, 13.305833333333339 ], [ 107.313333333333333, 13.308333333333337 ], [ 107.313333333333333, 13.311666666666671 ], [ 107.316666666666663, 13.315 ], [ 107.3225, 13.31666666666667 ], [ 107.336666666666659, 13.315833333333337 ] ] } },
{ "type": "Feature", "properties": { "COMID": 44039875, "id": "22818", "lengthkm": 3.4047443581075911, "order": 6, "uparea": 23609.262042551763 }, "geometry": { "type": "LineString", "coordinates": [ [ 107.2775, 13.3425 ], [ 107.2875, 13.315833333333337 ] ] } },
{ "type": "Feature", "properties": { "COMID": 44039873, "id": "22818", "lengthkm": 5.8443909627066599, "order": 6, "uparea": 23686.583701240663 }, "geometry": { "type": "LineString", "coordinates": [ [ 107.24, 13.365833333333338 ], [ 107.2475, 13.3675 ], [ 107.2575, 13.3625 ], [ 107.2675, 13.360833333333339 ], [ 107.270833333333329, 13.3575 ], [ 107.2775, 13.3425 ] ] } },
{ "type": "Feature", "properties": { "COMID": 44039872, "id": "22818", "lengthkm": 4.9211324383401376, "order": 6, "uparea": 23744.89050645904 }, "geometry": { "type": "LineString", "coordinates": [ [ 107.225, 13.333333333333339 ], [ 107.230833333333322, 13.334166666666672 ], [ 107.236666666666665, 13.338333333333338 ], [ 107.2375, 13.346666666666671 ], [ 107.235, 13.353333333333339 ], [ 107.235, 13.35916666666667 ], [ 107.24, 13.365833333333338 ] ] } },
{ "type": "Feature", "properties": { "COMID": 44039869, "id": "22818", "lengthkm": 2.0217305040292808, "order": 6, "uparea": 23788.514892243307 }, "geometry": { "type": "LineString", "coordinates": [ [ 107.2125, 13.3225 ], [ 107.215833333333336, 13.328333333333337 ], [ 107.225, 13.333333333333339 ] ] } },
{ "type": "Feature", "properties": { "COMID": 44039868, "id": "22818", "lengthkm": 5.1787310291766104, "order": 6, "uparea": 23861.486397776913 }, "geometry": { "type": "LineString", "coordinates": [ [ 107.1725, 13.306666666666672 ], [ 107.19083333333333, 13.3075 ], [ 107.2, 13.314166666666672 ], [ 107.209166666666661, 13.3175 ], [ 107.2125, 13.3225 ] ] } },
{ "type": "Feature", "properties": { "COMID": 44039867, "id": "22818", "lengthkm": 14.04567715585048, "order": 6, "uparea": 24587.68227055273 }, "geometry": { "type": "LineString", "coordinates": [ [ 107.079166666666666, 13.32083333333334 ], [ 107.09, 13.310833333333338 ], [ 107.096666666666664, 13.308333333333337 ], [ 107.1075, 13.308333333333337 ], [ 107.1225, 13.314166666666672 ], [ 107.1325, 13.329166666666673 ], [ 107.145, 13.331666666666671 ], [ 107.156666666666666, 13.325 ], [ 107.159166666666664, 13.32 ], [ 107.158333333333331, 13.314166666666672 ], [ 107.160833333333329, 13.31 ], [ 107.165833333333325, 13.3075 ], [ 107.1725, 13.306666666666672 ] ] } },
{ "type": "Feature", "properties": { "COMID": 44039863, "id": "22818", "lengthkm": 6.6991696432329224, "order": 6, "uparea": 26634.412409609198 }, "geometry": { "type": "LineString", "coordinates": [ [ 107.053333333333327, 13.3675 ], [ 107.058333333333337, 13.366666666666671 ], [ 107.06, 13.3625 ], [ 107.064166666666665, 13.36 ], [ 107.066666666666663, 13.3475 ], [ 107.079166666666666, 13.32083333333334 ] ] } },
{ "type": "Feature", "properties": { "COMID": 44039861, "id": "22818", "lengthkm": 7.0746150114430524, "order": 6, "uparea": 27166.471474304049 }, "geometry": { "type": "LineString", "coordinates": [ [ 107.020833333333329, 13.41083333333334 ], [ 107.025, 13.4075 ], [ 107.03, 13.399166666666673 ], [ 107.04, 13.390833333333337 ], [ 107.040833333333325, 13.385 ], [ 107.038333333333327, 13.38 ], [ 107.040833333333325, 13.374166666666671 ], [ 107.053333333333327, 13.3675 ] ] } },
{ "type": "Feature", "properties": { "COMID": 44038099, "id": "22818", "lengthkm": 4.3871310915516153, "order": 6, "uparea": 27279.951095739154 }, "geometry": { "type": "LineString", "coordinates": [ [ 107.016666666666666, 13.446666666666673 ], [ 107.014166666666668, 13.436666666666671 ], [ 107.014166666666668, 13.429166666666671 ], [ 107.015833333333333, 13.426666666666673 ], [ 107.016666666666666, 13.416666666666671 ], [ 107.020833333333329, 13.41083333333334 ] ] } },
{ "type": "Feature", "properties": { "COMID": 44038095, "id": "22818", "lengthkm": 3.7017779750734139, "order": 6, "uparea": 27316.208551666845 }, "geometry": { "type": "LineString", "coordinates": [ [ 107.008333333333326, 13.47666666666667 ], [ 107.013333333333321, 13.4675 ], [ 107.016666666666666, 13.446666666666673 ] ] } },
{ "type": "Feature", "properties": { "COMID": 44038092, "id": "22818", "lengthkm": 8.6048676118809553, "order": 6, "uparea": 27609.684796874801 }, "geometry": { "type": "LineString", "coordinates": [ [ 106.961666666666659, 13.50833333333334 ], [ 106.965833333333336, 13.5075 ], [ 106.969166666666666, 13.503333333333337 ], [ 106.9725, 13.479166666666671 ], [ 106.976666666666659, 13.474166666666672 ], [ 106.983333333333334, 13.471666666666671 ], [ 106.9925, 13.471666666666671 ], [ 107.0, 13.475 ], [ 107.00333333333333, 13.478333333333339 ], [ 107.008333333333326, 13.47666666666667 ] ] } },
{ "type": "Feature", "properties": { "COMID": 44038088, "id": "22818", "lengthkm": 9.5641870680978567, "order": 6, "uparea": 27735.406493896102 }, "geometry": { "type": "LineString", "coordinates": [ [ 106.910833333333329, 13.471666666666671 ], [ 106.909166666666664, 13.489166666666673 ], [ 106.911666666666662, 13.493333333333339 ], [ 106.9175, 13.4925 ], [ 106.92583333333333, 13.485 ], [ 106.93, 13.48416666666667 ], [ 106.935, 13.486666666666672 ], [ 106.950833333333321, 13.5025 ], [ 106.961666666666659, 13.50833333333334 ] ] } },
{ "type": "Feature", "properties": { "COMID": 44038083, "id": "22818", "lengthkm": 4.7639512113247386, "order": 6, "uparea": 27801.768691273632 }, "geometry": { "type": "LineString", "coordinates": [ [ 106.884166666666658, 13.4925 ], [ 106.888333333333321, 13.490833333333338 ], [ 106.891666666666666, 13.486666666666672 ], [ 106.9, 13.470833333333339 ], [ 106.904166666666669, 13.468333333333337 ], [ 106.908333333333331, 13.468333333333337 ], [ 106.910833333333329, 13.471666666666671 ] ] } },
{ "type": "Feature", "properties": { "COMID": 44038079, "id": "22818", "lengthkm": 11.014989762241941, "order": 6, "uparea": 28162.165341035685 }, "geometry": { "type": "LineString", "coordinates": [ [ 106.844166666666666, 13.430833333333339 ], [ 106.851666666666659, 13.439166666666672 ], [ 106.868333333333325, 13.4375 ], [ 106.874166666666667, 13.44166666666667 ], [ 106.87833333333333, 13.45 ], [ 106.87833333333333, 13.455833333333338 ], [ 106.87166666666667, 13.46583333333334 ], [ 106.874166666666667, 13.485 ], [ 106.87833333333333, 13.491666666666671 ], [ 106.884166666666658, 13.4925 ] ] } },
{ "type": "Feature", "properties": { "COMID": 44038072, "id": "22818", "lengthkm": 1.637753352972021, "order": 6, "uparea": 28351.923443235599 }, "geometry": { "type": "LineString", "coordinates": [ [ 106.830833333333331, 13.426666666666673 ], [ 106.8375, 13.426666666666673 ], [ 106.844166666666666, 13.430833333333339 ] ] } },
{ "type": "Feature", "properties": { "COMID": 44038071, "id": "22818", "lengthkm": 5.5689081785390826, "order": 6, "uparea": 28666.076120087069 }, "geometry": { "type": "LineString", "coordinates": [ [ 106.795833333333334, 13.456666666666671 ], [ 106.798333333333332, 13.448333333333338 ], [ 106.803333333333327, 13.443333333333339 ], [ 106.808333333333337, 13.439166666666672 ], [ 106.82, 13.434166666666673 ], [ 106.8275, 13.426666666666673 ], [ 106.830833333333331, 13.426666666666673 ] ] } },
{ "type": "Feature", "properties": { "COMID": 44038068, "id": "22818", "lengthkm": 4.5590063045698166, "order": 6, "uparea": 28857.493117415597 }, "geometry": { "type": "LineString", "coordinates": [ [ 106.770833333333329, 13.470833333333339 ], [ 106.781666666666666, 13.47666666666667 ], [ 106.786666666666662, 13.475833333333338 ], [ 106.795, 13.465 ], [ 106.795833333333334, 13.456666666666671 ] ] } },
{ "type": "Feature", "properties": { "COMID": 44038066, "id": "22818", "lengthkm": 5.3812101647676691, "order": 6, "uparea": 28931.961015196532 }, "geometry": { "type": "LineString", "coordinates": [ [ 106.730833333333322, 13.463333333333338 ], [ 106.740833333333327, 13.47 ], [ 106.74666666666667, 13.47 ], [ 106.755, 13.465 ], [ 106.7625, 13.465 ], [ 106.766666666666666, 13.46583333333334 ], [ 106.770833333333329, 13.470833333333339 ] ] } },
{ "type": "Feature", "properties": { "COMID": 44038063, "id": "22818", "lengthkm": 1.249792713548417, "order": 6, "uparea": 29018.754548888453 }, "geometry": { "type": "LineString", "coordinates": [ [ 106.72, 13.461666666666673 ], [ 106.730833333333322, 13.463333333333338 ] ] } },
{ "type": "Feature", "properties": { "COMID": 44038060, "id": "22818", "lengthkm": 3.298822510347144, "order": 6, "uparea": 29054.930724361402 }, "geometry": { "type": "LineString", "coordinates": [ [ 106.691666666666663, 13.456666666666671 ], [ 106.701666666666668, 13.460833333333337 ], [ 106.72, 13.461666666666673 ] ] } },
{ "type": "Feature", "properties": { "COMID": 44038059, "id": "22818", "lengthkm": 12.751036928360787, "order": 6, "uparea": 29202.941009750961 }, "geometry": { "type": "LineString", "coordinates": [ [ 106.599166666666662, 13.45 ], [ 106.605, 13.4425 ], [ 106.61333333333333, 13.43833333333334 ], [ 106.62166666666667, 13.44 ], [ 106.636666666666656, 13.456666666666671 ], [ 106.651666666666671, 13.46583333333334 ], [ 106.665833333333325, 13.460833333333337 ], [ 106.673333333333332, 13.461666666666673 ], [ 106.68, 13.4575 ], [ 106.691666666666663, 13.456666666666671 ] ] } },
{ "type": "Feature", "properties": { "COMID": 44038054, "id": "22818", "lengthkm": 10.144235957306426, "order": 6, "uparea": 29549.993177907643 }, "geometry": { "type": "LineString", "coordinates": [ [ 106.5675, 13.523333333333337 ], [ 106.571666666666658, 13.518333333333338 ], [ 106.570833333333326, 13.516666666666673 ], [ 106.574166666666656, 13.51166666666667 ], [ 106.5725, 13.51 ], [ 106.575, 13.5075 ], [ 106.573333333333323, 13.505833333333339 ], [ 106.574166666666656, 13.4925 ], [ 106.578333333333333, 13.4875 ], [ 106.585, 13.470833333333339 ], [ 106.590833333333336, 13.465 ], [ 106.594166666666666, 13.456666666666671 ], [ 106.599166666666662, 13.45 ] ] } },
{ "type": "Feature", "properties": { "COMID": 44038050, "id": "22818", "lengthkm": 4.439593443099664, "order": 6, "uparea": 29638.990290127687 }, "geometry": { "type": "LineString", "coordinates": [ [ 106.543333333333322, 13.550833333333337 ], [ 106.55416666666666, 13.543333333333337 ], [ 106.558333333333337, 13.531666666666673 ], [ 106.5675, 13.523333333333337 ] ] } },
{ "type": "Feature", "properties": { "COMID": 44038048, "id": "22818", "lengthkm": 18.367259794422004, "order": 6, "uparea": 29800.591811123937 }, "geometry": { "type": "LineString", "coordinates": [ [ 106.489166666666662, 13.493333333333339 ], [ 106.490833333333327, 13.498333333333338 ], [ 106.49, 13.5025 ], [ 106.479166666666657, 13.509166666666673 ], [ 106.474166666666662, 13.514166666666672 ], [ 106.473333333333329, 13.520833333333339 ], [ 106.4675, 13.5275 ], [ 106.465, 13.535 ], [ 106.461666666666659, 13.538333333333338 ], [ 106.461666666666659, 13.540833333333339 ], [ 106.464166666666671, 13.5425 ], [ 106.460833333333326, 13.545 ], [ 106.461666666666659, 13.551666666666673 ], [ 106.473333333333329, 13.56 ], [ 106.479166666666657, 13.56 ], [ 106.5, 13.559166666666673 ], [ 106.5075, 13.556666666666672 ], [ 106.513333333333335, 13.551666666666673 ], [ 106.5375, 13.553333333333338 ], [ 106.543333333333322, 13.550833333333337 ] ] } },
{ "type": "Feature", "properties": { "COMID": 44038043, "id": "22818", "lengthkm": 3.378895111504534, "order": 6, "uparea": 29833.464897437079 }, "geometry": { "type": "LineString", "coordinates": [ [ 106.4675, 13.475833333333338 ], [ 106.4775, 13.483333333333338 ], [ 106.485833333333332, 13.486666666666672 ], [ 106.489166666666662, 13.493333333333339 ] ] } },
{ "type": "Feature", "properties": { "COMID": 44038041, "id": "22818", "lengthkm": 6.4158355169413808, "order": 6, "uparea": 29874.728991321343 }, "geometry": { "type": "LineString", "coordinates": [ [ 106.455, 13.426666666666673 ], [ 106.459166666666661, 13.431666666666672 ], [ 106.461666666666659, 13.4425 ], [ 106.460833333333326, 13.456666666666671 ], [ 106.458333333333329, 13.4625 ], [ 106.458333333333329, 13.466666666666672 ], [ 106.460833333333326, 13.470833333333339 ], [ 106.4675, 13.475833333333338 ] ] } },
{ "type": "Feature", "properties": { "COMID": 44038039, "id": "22818", "lengthkm": 2.6801840059613409, "order": 6, "uparea": 30082.151915579569 }, "geometry": { "type": "LineString", "coordinates": [ [ 106.431666666666672, 13.426666666666673 ], [ 106.445, 13.426666666666673 ], [ 106.4475, 13.425 ], [ 106.453333333333333, 13.425 ], [ 106.455, 13.426666666666673 ] ] } },
{ "type": "Feature", "properties": { "COMID": 44038037, "id": "22818", "lengthkm": 8.8443246170921412, "order": 6, "uparea": 30220.543965762383 }, "geometry": { "type": "LineString", "coordinates": [ [ 106.401666666666671, 13.464166666666671 ], [ 106.413333333333327, 13.463333333333338 ], [ 106.418333333333322, 13.46583333333334 ], [ 106.426666666666662, 13.466666666666672 ], [ 106.43416666666667, 13.4625 ], [ 106.436666666666667, 13.456666666666671 ], [ 106.436666666666667, 13.4475 ], [ 106.426666666666662, 13.435833333333338 ], [ 106.426666666666662, 13.430833333333339 ], [ 106.431666666666672, 13.426666666666673 ] ] } },
{ "type": "Feature", "properties": { "COMID": 44038036, "id": "22818", "lengthkm": 4.0157872490881141, "order": 6, "uparea": 30279.858542714828 }, "geometry": { "type": "LineString", "coordinates": [ [ 106.384166666666658, 13.485833333333339 ], [ 106.383333333333326, 13.485 ], [ 106.385833333333323, 13.48 ], [ 106.390833333333333, 13.47666666666667 ], [ 106.390833333333333, 13.4725 ], [ 106.394166666666663, 13.469166666666673 ], [ 106.393333333333331, 13.466666666666672 ], [ 106.395, 13.46583333333334 ], [ 106.398333333333326, 13.4675 ], [ 106.401666666666671, 13.464166666666671 ] ] } },
{ "type": "Feature", "properties": { "COMID": 44038034, "id": "22818", "lengthkm": 5.8127002777004328, "order": 6, "uparea": 30337.722916723818 }, "geometry": { "type": "LineString", "coordinates": [ [ 106.341666666666669, 13.505 ], [ 106.344166666666666, 13.503333333333337 ], [ 106.345833333333331, 13.50416666666667 ], [ 106.355, 13.50083333333334 ], [ 106.359166666666667, 13.50083333333334 ], [ 106.36666666666666, 13.496666666666673 ], [ 106.3675, 13.4975 ], [ 106.370833333333337, 13.494166666666672 ], [ 106.379166666666663, 13.4925 ], [ 106.384166666666658, 13.485833333333339 ] ] } },
{ "type": "Feature", "properties": { "COMID": 44038032, "id": "22818", "lengthkm": 6.5434577942034329, "order": 6, "uparea": 30547.874631251914 }, "geometry": { "type": "LineString", "coordinates": [ [ 106.295833333333334, 13.530833333333337 ], [ 106.299166666666665, 13.52833333333334 ], [ 106.301666666666662, 13.520833333333339 ], [ 106.305833333333325, 13.516666666666673 ], [ 106.32, 13.514166666666672 ], [ 106.325833333333335, 13.51166666666667 ], [ 106.334166666666661, 13.51166666666667 ], [ 106.336666666666659, 13.510833333333338 ], [ 106.341666666666669, 13.505 ] ] } },
{ "type": "Feature", "properties": { "COMID": 44038029, "id": "22818", "lengthkm": 2.4697436087579021, "order": 6, "uparea": 30631.926398699386 }, "geometry": { "type": "LineString", "coordinates": [ [ 106.283333333333331, 13.54666666666667 ], [ 106.289166666666659, 13.540833333333339 ], [ 106.289166666666659, 13.535 ], [ 106.295833333333334, 13.530833333333337 ] ] } },
{ "type": "Feature", "properties": { "COMID": 44038028, "id": "22818", "lengthkm": 18.214258555360878, "order": 6, "uparea": 49568.235081109386 }, "geometry": { "type": "LineString", "coordinates": [ [ 106.143333333333331, 13.561666666666671 ], [ 106.1475, 13.564166666666672 ], [ 106.17, 13.57 ], [ 106.18, 13.581666666666671 ], [ 106.18416666666667, 13.581666666666671 ], [ 106.193333333333328, 13.575833333333339 ], [ 106.1975, 13.575 ], [ 106.21, 13.57416666666667 ], [ 106.220833333333331, 13.575833333333339 ], [ 106.228333333333325, 13.573333333333338 ], [ 106.258333333333326, 13.553333333333338 ], [ 106.2675, 13.549166666666672 ], [ 106.283333333333331, 13.54666666666667 ] ] } },
{ "type": "Feature", "properties": { "COMID": 44038024, "id": "22818", "lengthkm": 4.7869945673042666, "order": 6, "uparea": 49668.251265041625 }, "geometry": { "type": "LineString", "coordinates": [ [ 106.105833333333322, 13.561666666666671 ], [ 106.1075, 13.56333333333334 ], [ 106.114166666666662, 13.56333333333334 ], [ 106.1175, 13.560833333333338 ], [ 106.12, 13.561666666666671 ], [ 106.12166666666667, 13.559166666666673 ], [ 106.125, 13.5625 ], [ 106.12833333333333, 13.5625 ], [ 106.13, 13.560833333333338 ], [ 106.143333333333331, 13.561666666666671 ] ] } },
{ "type": "Feature", "properties": { "COMID": 44038023, "id": "22818", "lengthkm": 5.0050706067004214, "order": 6, "uparea": 49740.804857064963 }, "geometry": { "type": "LineString", "coordinates": [ [ 106.0675, 13.543333333333337 ], [ 106.073333333333323, 13.548333333333339 ], [ 106.095, 13.559166666666673 ], [ 106.105833333333322, 13.561666666666671 ] ] } },
{ "type": "Feature", "properties": { "COMID": 44038021, "id": "22818", "lengthkm": 5.5966527499708736, "order": 6, "uparea": 49817.81026198047 }, "geometry": { "type": "LineString", "coordinates": [ [ 106.023333333333326, 13.554166666666671 ], [ 106.039166666666659, 13.545833333333338 ], [ 106.055, 13.540833333333339 ], [ 106.064166666666665, 13.540833333333339 ], [ 106.0675, 13.543333333333337 ] ] } },
{ "type": "Feature", "properties": { "COMID": 44037971, "id": "22818", "lengthkm": 8.5615938112327186, "order": 6, "uparea": 78732.020376826404 }, "geometry": { "type": "LineString", "coordinates": [ [ 105.955, 13.53916666666667 ], [ 105.964166666666671, 13.53583333333334 ], [ 105.980833333333322, 13.534166666666671 ], [ 105.993333333333325, 13.538333333333338 ], [ 105.998333333333335, 13.5425 ], [ 106.023333333333326, 13.554166666666671 ] ] } },
{ "type": "Feature", "properties": { "COMID": 44037953, "id": "22818", "lengthkm": 2.583551005728872, "order": 7, "uparea": 636985.77554160007 }, "geometry": { "type": "LineString", "coordinates": [ [ 105.936666666666667, 13.5275 ], [ 105.9425, 13.534166666666671 ], [ 105.955, 13.53916666666667 ] ] } },
{ "type": "Feature", "properties": { "COMID": 44037952, "id": "22818", "lengthkm": 3.3480699799657119, "order": 7, "uparea": 637551.33338222909 }, "geometry": { "type": "LineString", "coordinates": [ [ 105.92583333333333, 13.501666666666672 ], [ 105.9275, 13.514166666666672 ], [ 105.93416666666667, 13.521666666666672 ], [ 105.936666666666667, 13.5275 ] ] } },
{ "type": "Feature", "properties": { "COMID": 44037951, "id": "22818", "lengthkm": 7.0523683629704763, "order": 7, "uparea": 638082.72870787384 }, "geometry": { "type": "LineString", "coordinates": [ [ 105.9375, 13.444166666666671 ], [ 105.9375, 13.45 ], [ 105.931666666666658, 13.460833333333337 ], [ 105.92583333333333, 13.480833333333337 ], [ 105.92583333333333, 13.501666666666672 ] ] } },
{ "type": "Feature", "properties": { "COMID": 44037950, "id": "22818", "lengthkm": 2.9628881589546898, "order": 7, "uparea": 638140.71273385023 }, "geometry": { "type": "LineString", "coordinates": [ [ 105.933333333333337, 13.419166666666673 ], [ 105.936666666666667, 13.431666666666672 ], [ 105.9375, 13.444166666666671 ] ] } },
{ "type": "Feature", "properties": { "COMID": 44039774, "id": "22818", "lengthkm": 4.7727344026077034, "order": 7, "uparea": 638264.63766759238 }, "geometry": { "type": "LineString", "coordinates": [ [ 105.9325, 13.3825 ], [ 105.925, 13.401666666666671 ], [ 105.9275, 13.411666666666672 ], [ 105.933333333333337, 13.419166666666673 ] ] } },
{ "type": "Feature", "properties": { "COMID": 44039773, "id": "22818", "lengthkm": 6.672210038725404, "order": 7, "uparea": 638331.75427837751 }, "geometry": { "type": "LineString", "coordinates": [ [ 105.92916666666666, 13.339166666666671 ], [ 105.9325, 13.34 ], [ 105.943333333333328, 13.3525 ], [ 105.943333333333328, 13.355 ], [ 105.94083333333333, 13.3575 ], [ 105.93416666666667, 13.358333333333338 ], [ 105.93, 13.365 ], [ 105.93, 13.375 ], [ 105.9325, 13.37916666666667 ], [ 105.9325, 13.3825 ] ] } },
{ "type": "Feature", "properties": { "COMID": 44039772, "id": "22818", "lengthkm": 5.9777412697085142, "order": 7, "uparea": 638494.33212055825 }, "geometry": { "type": "LineString", "coordinates": [ [ 105.928333333333327, 13.291666666666671 ], [ 105.92583333333333, 13.31333333333334 ], [ 105.920833333333334, 13.319166666666671 ], [ 105.920833333333334, 13.328333333333337 ], [ 105.92916666666666, 13.339166666666671 ] ] } },
{ "type": "Feature", "properties": { "COMID": 44039771, "id": "22818", "lengthkm": 6.4296245377850756, "order": 7, "uparea": 639113.16834218067 }, "geometry": { "type": "LineString", "coordinates": [ [ 105.963333333333324, 13.2525 ], [ 105.9575, 13.25833333333334 ], [ 105.9575, 13.26 ], [ 105.936666666666667, 13.28 ], [ 105.92916666666666, 13.281666666666673 ], [ 105.928333333333327, 13.291666666666671 ] ] } },
{ "type": "Feature", "properties": { "COMID": 44039770, "id": "22818", "lengthkm": 8.258818620673896, "order": 7, "uparea": 639240.75469895452 }, "geometry": { "type": "LineString", "coordinates": [ [ 106.015, 13.221666666666671 ], [ 106.0125, 13.224166666666672 ], [ 106.005833333333328, 13.225 ], [ 106.001666666666665, 13.23 ], [ 105.995, 13.23416666666667 ], [ 105.990833333333327, 13.2325 ], [ 105.989166666666662, 13.23416666666667 ], [ 105.98, 13.231666666666673 ], [ 105.973333333333329, 13.231666666666673 ], [ 105.97, 13.235 ], [ 105.969166666666666, 13.240833333333338 ], [ 105.963333333333324, 13.2525 ] ] } },
{ "type": "Feature", "properties": { "COMID": 44039769, "id": "22818", "lengthkm": 6.4591977451643352, "order": 7, "uparea": 639519.52412222314 }, "geometry": { "type": "LineString", "coordinates": [ [ 106.025, 13.179166666666671 ], [ 106.02, 13.185833333333338 ], [ 106.014166666666668, 13.18833333333334 ], [ 106.014166666666668, 13.19583333333334 ], [ 106.0075, 13.201666666666672 ], [ 106.0075, 13.208333333333339 ], [ 106.01, 13.2125 ], [ 106.01, 13.21583333333334 ], [ 106.015, 13.219166666666673 ], [ 106.015, 13.221666666666671 ] ] } },
{ "type": "Feature", "properties": { "COMID": 44039768, "id": "22818", "lengthkm": 3.89551214223484, "order": 7, "uparea": 639686.40565063769 }, "geometry": { "type": "LineString", "coordinates": [ [ 106.015833333333333, 13.151666666666671 ], [ 106.02, 13.15333333333334 ], [ 106.0225, 13.16416666666667 ], [ 106.0275, 13.17166666666667 ], [ 106.025, 13.179166666666671 ] ] } },
{ "type": "Feature", "properties": { "COMID": 44039767, "id": "22818", "lengthkm": 9.6404352267185693, "order": 7, "uparea": 640426.18005107692 }, "geometry": { "type": "LineString", "coordinates": [ [ 106.0075, 13.076666666666672 ], [ 106.008333333333326, 13.0775 ], [ 106.005, 13.080833333333338 ], [ 106.006666666666661, 13.09083333333334 ], [ 106.005833333333328, 13.096666666666671 ], [ 106.0025, 13.099166666666672 ], [ 106.00333333333333, 13.108333333333338 ], [ 106.000833333333333, 13.115 ], [ 106.000833333333333, 13.120833333333337 ], [ 106.0025, 13.1225 ], [ 106.005, 13.134166666666673 ], [ 106.011666666666656, 13.1425 ], [ 106.015833333333333, 13.151666666666671 ] ] } },
{ "type": "Feature", "properties": { "COMID": 44039766, "id": "22818", "lengthkm": 9.4455768148937072, "order": 7, "uparea": 640496.77977728797 }, "geometry": { "type": "LineString", "coordinates": [ [ 105.973333333333329, 13.01 ], [ 105.975833333333327, 13.015 ], [ 105.974166666666662, 13.019166666666671 ], [ 105.9775, 13.025 ], [ 105.98833333333333, 13.034166666666671 ], [ 106.005, 13.056666666666672 ], [ 106.01, 13.06666666666667 ], [ 106.0075, 13.076666666666672 ] ] } },
{ "type": "Feature", "properties": { "COMID": 44039765, "id": "22818", "lengthkm": 6.4675468217871934, "order": 7, "uparea": 640798.77722031262 }, "geometry": { "type": "LineString", "coordinates": [ [ 105.9875, 12.9625 ], [ 105.99, 12.9775 ], [ 105.986666666666665, 12.98083333333334 ], [ 105.984166666666667, 12.98083333333334 ], [ 105.98, 12.99 ], [ 105.980833333333322, 12.993333333333339 ], [ 105.978333333333325, 12.9975 ], [ 105.9775, 13.005833333333339 ], [ 105.974166666666662, 13.0075 ], [ 105.973333333333329, 13.01 ] ] } },
{ "type": "Feature", "properties": { "COMID": 44039764, "id": "22818", "lengthkm": 11.508104759015081, "order": 7, "uparea": 640898.06793841161 }, "geometry": { "type": "LineString", "coordinates": [ [ 105.945833333333326, 12.876666666666672 ], [ 105.955, 12.89 ], [ 105.960833333333326, 12.90333333333334 ], [ 105.971666666666664, 12.91416666666667 ], [ 105.9775, 12.925833333333337 ], [ 105.985833333333332, 12.936666666666671 ], [ 105.9875, 12.9425 ], [ 105.9875, 12.9625 ] ] } },
{ "type": "Feature", "properties": { "COMID": 44039763, "id": "22818", "lengthkm": 3.903894491935366, "order": 7, "uparea": 640950.52136998496 }, "geometry": { "type": "LineString", "coordinates": [ [ 105.93416666666667, 12.846666666666671 ], [ 105.935, 12.856666666666673 ], [ 105.939166666666665, 12.869166666666672 ], [ 105.945833333333326, 12.876666666666672 ] ] } },
{ "type": "Feature", "properties": { "COMID": 44041371, "id": "22818", "lengthkm": 9.9073192351102133, "order": 7, "uparea": 641374.55556545558 }, "geometry": { "type": "LineString", "coordinates": [ [ 105.945833333333326, 12.774166666666673 ], [ 105.9425, 12.78 ], [ 105.936666666666667, 12.781666666666673 ], [ 105.93416666666667, 12.784166666666671 ], [ 105.9325, 12.78916666666667 ], [ 105.933333333333337, 12.805 ], [ 105.938333333333333, 12.809166666666673 ], [ 105.941666666666663, 12.815 ], [ 105.941666666666663, 12.8225 ], [ 105.93416666666667, 12.830833333333338 ], [ 105.93416666666667, 12.846666666666671 ] ] } },
{ "type": "Feature", "properties": { "COMID": 44041370, "id": "22818", "lengthkm": 1.216211418280952, "order": 7, "uparea": 641806.17016289127 }, "geometry": { "type": "LineString", "coordinates": [ [ 105.954166666666666, 12.7675 ], [ 105.945833333333326, 12.774166666666673 ] ] } },
{ "type": "Feature", "properties": { "COMID": 44041369, "id": "22818", "lengthkm": 3.537607767254328, "order": 7, "uparea": 646382.30820591503 }, "geometry": { "type": "LineString", "coordinates": [ [ 105.973333333333329, 12.746666666666673 ], [ 105.969166666666666, 12.749166666666671 ], [ 105.965, 12.749166666666671 ], [ 105.9625, 12.751666666666672 ], [ 105.954166666666666, 12.7675 ] ] } },
{ "type": "Feature", "properties": { "COMID": 44041368, "id": "22818", "lengthkm": 7.4622228208111681, "order": 7, "uparea": 646437.510342428 }, "geometry": { "type": "LineString", "coordinates": [ [ 105.999166666666667, 12.69583333333334 ], [ 105.993333333333325, 12.696666666666673 ], [ 105.99166666666666, 12.698333333333338 ], [ 105.99, 12.705833333333338 ], [ 105.986666666666665, 12.711666666666673 ], [ 105.99, 12.724166666666672 ], [ 105.9875, 12.73 ], [ 105.980833333333322, 12.735833333333339 ], [ 105.973333333333329, 12.746666666666673 ] ] } },
{ "type": "Feature", "properties": { "COMID": 44041367, "id": "22818", "lengthkm": 4.6077178156201866, "order": 7, "uparea": 646627.78126730688 }, "geometry": { "type": "LineString", "coordinates": [ [ 106.009166666666658, 12.66083333333334 ], [ 106.01, 12.6725 ], [ 106.0025, 12.68 ], [ 106.00333333333333, 12.684166666666673 ], [ 105.999166666666667, 12.69 ], [ 105.999166666666667, 12.69583333333334 ] ] } },
{ "type": "Feature", "properties": { "COMID": 44041366, "id": "22818", "lengthkm": 6.3808392470588444, "order": 7, "uparea": 646775.75605947291 }, "geometry": { "type": "LineString", "coordinates": [ [ 106.015, 12.611666666666672 ], [ 106.013333333333335, 12.620833333333337 ], [ 106.015833333333333, 12.621666666666673 ], [ 106.015833333333333, 12.63 ], [ 106.015, 12.635 ], [ 106.010833333333323, 12.638333333333339 ], [ 106.008333333333326, 12.6475 ], [ 106.008333333333326, 12.650833333333338 ], [ 106.01, 12.6525 ], [ 106.009166666666658, 12.66083333333334 ] ] } },
{ "type": "Feature", "properties": { "COMID": 44041365, "id": "22818", "lengthkm": 1.3328214982114741, "order": 7, "uparea": 647908.40840288217 }, "geometry": { "type": "LineString", "coordinates": [ [ 106.013333333333335, 12.60166666666667 ], [ 106.015, 12.603333333333339 ], [ 106.015, 12.606666666666673 ], [ 106.013333333333335, 12.608333333333338 ], [ 106.015, 12.611666666666672 ] ] } },
{ "type": "Feature", "properties": { "COMID": 44041364, "id": "22818", "lengthkm": 11.570842923750705, "order": 7, "uparea": 648096.66400981671 }, "geometry": { "type": "LineString", "coordinates": [ [ 106.006666666666661, 12.514166666666672 ], [ 105.993333333333325, 12.531666666666673 ], [ 105.995833333333337, 12.54333333333334 ], [ 106.006666666666661, 12.559166666666673 ], [ 106.014166666666668, 12.575 ], [ 106.016666666666666, 12.585 ], [ 106.015833333333333, 12.59 ], [ 106.0125, 12.595833333333339 ], [ 106.013333333333335, 12.60166666666667 ] ] } },
{ "type": "Feature", "properties": { "COMID": 44041363, "id": "22818", "lengthkm": 6.0386574047387596, "order": 7, "uparea": 648148.94085788494 }, "geometry": { "type": "LineString", "coordinates": [ [ 106.0175, 12.464166666666671 ], [ 106.015833333333333, 12.4775 ], [ 106.0125, 12.485833333333339 ], [ 106.0125, 12.5075 ], [ 106.006666666666661, 12.514166666666672 ] ] } },
{ "type": "Feature", "properties": { "COMID": 44041362, "id": "22818", "lengthkm": 2.2038544995270102, "order": 7, "uparea": 648853.42888243613 }, "geometry": { "type": "LineString", "coordinates": [ [ 106.023333333333326, 12.446666666666673 ], [ 106.0175, 12.464166666666671 ] ] } },
{ "type": "Feature", "properties": { "COMID": 44041361, "id": "22818", "lengthkm": 6.1694526719263374, "order": 7, "uparea": 653083.63648448454 }, "geometry": { "type": "LineString", "coordinates": [ [ 106.024166666666659, 12.394166666666671 ], [ 106.024166666666659, 12.404166666666672 ], [ 106.0275, 12.41833333333334 ], [ 106.024166666666659, 12.430833333333339 ], [ 106.023333333333326, 12.446666666666673 ] ] } },
{ "type": "Feature", "properties": { "COMID": 44041360, "id": "22818", "lengthkm": 7.352355896994438, "order": 7, "uparea": 653163.37290180451 }, "geometry": { "type": "LineString", "coordinates": [ [ 106.045833333333334, 12.336666666666673 ], [ 106.043333333333322, 12.34083333333334 ], [ 106.040833333333325, 12.35583333333334 ], [ 106.028333333333336, 12.376666666666672 ], [ 106.024166666666659, 12.394166666666671 ] ] } },
{ "type": "Feature", "properties": { "COMID": 44041359, "id": "22818", "lengthkm": 6.6851841476435974, "order": 7, "uparea": 653224.82392602402 }, "geometry": { "type": "LineString", "coordinates": [ [ 106.0225, 12.28583333333334 ], [ 106.0375, 12.311666666666671 ], [ 106.045833333333334, 12.336666666666673 ] ] } },
{ "type": "Feature", "properties": { "COMID": 44041358, "id": "22818", "lengthkm": 9.1935201241211519, "order": 7, "uparea": 653329.96944927471 }, "geometry": { "type": "LineString", "coordinates": [ [ 105.951666666666668, 12.266666666666673 ], [ 105.9675, 12.265 ], [ 105.975, 12.26166666666667 ], [ 105.9925, 12.26166666666667 ], [ 106.008333333333326, 12.270833333333339 ], [ 106.0225, 12.28583333333334 ] ] } },
{ "type": "Feature", "properties": { "COMID": 44041357, "id": "22818", "lengthkm": 33.68761811582732, "order": 7, "uparea": 653783.82358288323 }, "geometry": { "type": "LineString", "coordinates": [ [ 105.668333333333322, 12.2875 ], [ 105.6725, 12.28583333333334 ], [ 105.68416666666667, 12.28583333333334 ], [ 105.7, 12.281666666666673 ], [ 105.710833333333326, 12.280833333333337 ], [ 105.725833333333327, 12.2675 ], [ 105.743333333333325, 12.2625 ], [ 105.75, 12.2575 ], [ 105.761666666666656, 12.253333333333337 ], [ 105.776666666666671, 12.254166666666674 ], [ 105.798333333333332, 12.260833333333338 ], [ 105.825, 12.260833333333338 ], [ 105.831666666666663, 12.259166666666673 ], [ 105.834166666666661, 12.26 ], [ 105.838333333333324, 12.2575 ], [ 105.86, 12.2575 ], [ 105.8925, 12.26 ], [ 105.898333333333326, 12.2625 ], [ 105.943333333333328, 12.263333333333339 ], [ 105.951666666666668, 12.266666666666673 ] ] } },
{ "type": "Feature", "properties": { "COMID": 44042793, "id": "22818", "lengthkm": 20.237458916282328, "order": 7, "uparea": 654225.06609869457 }, "geometry": { "type": "LineString", "coordinates": [ [ 105.5375, 12.23 ], [ 105.544166666666669, 12.255 ], [ 105.549166666666665, 12.264166666666672 ], [ 105.55916666666667, 12.279166666666672 ], [ 105.566666666666663, 12.286666666666672 ], [ 105.5775, 12.294166666666673 ], [ 105.595, 12.301666666666673 ], [ 105.6125, 12.300833333333337 ], [ 105.625, 12.2975 ], [ 105.645, 12.2875 ], [ 105.650833333333324, 12.29 ], [ 105.659166666666664, 12.29 ], [ 105.668333333333322, 12.2875 ] ] } },
{ "type": "Feature", "properties": { "COMID": 44042792, "id": "22818", "lengthkm": 23.135426857617691, "order": 7, "uparea": 654581.86323657469 }, "geometry": { "type": "LineString", "coordinates": [ [ 105.49, 12.04666666666667 ], [ 105.495833333333337, 12.054166666666671 ], [ 105.500833333333333, 12.066666666666674 ], [ 105.5075, 12.076666666666672 ], [ 105.52, 12.09 ], [ 105.529166666666669, 12.105 ], [ 105.530833333333334, 12.125 ], [ 105.5325, 12.128333333333337 ], [ 105.535, 12.16416666666667 ], [ 105.541666666666657, 12.178333333333338 ], [ 105.538333333333327, 12.20333333333334 ], [ 105.535, 12.209166666666672 ], [ 105.5375, 12.219166666666673 ], [ 105.5375, 12.23 ] ] } },
{ "type": "Feature", "properties": { "COMID": 44042791, "id": "22818", "lengthkm": 8.7960497322341791, "order": 7, "uparea": 654949.48601183575 }, "geometry": { "type": "LineString", "coordinates": [ [ 105.469166666666666, 11.9775 ], [ 105.471666666666664, 11.994166666666672 ], [ 105.470833333333331, 12.01 ], [ 105.479166666666657, 12.02833333333334 ], [ 105.48, 12.034166666666671 ], [ 105.486666666666665, 12.039166666666674 ], [ 105.49, 12.04666666666667 ] ] } },
{ "type": "Feature", "properties": { "COMID": 44042790, "id": "22818", "lengthkm": 6.6333288003118724, "order": 7, "uparea": 655008.22297141701 }, "geometry": { "type": "LineString", "coordinates": [ [ 105.4625, 11.9225 ], [ 105.47, 11.93833333333334 ], [ 105.471666666666664, 11.9475 ], [ 105.471666666666664, 11.9625 ], [ 105.469166666666666, 11.9775 ] ] } },
{ "type": "Feature", "properties": { "COMID": 44042789, "id": "22818", "lengthkm": 20.389431346187674, "order": 7, "uparea": 662719.23706070322 }, "geometry": { "type": "LineString", "coordinates": [ [ 105.306666666666658, 11.934166666666673 ], [ 105.330833333333331, 11.9325 ], [ 105.343333333333334, 11.933333333333337 ], [ 105.353333333333325, 11.931666666666672 ], [ 105.375833333333333, 11.9175 ], [ 105.391666666666666, 11.900833333333338 ], [ 105.396666666666661, 11.8975 ], [ 105.408333333333331, 11.895 ], [ 105.415833333333325, 11.895 ], [ 105.43, 11.898333333333337 ], [ 105.445833333333326, 11.905833333333337 ], [ 105.454166666666666, 11.9125 ], [ 105.4625, 11.9225 ] ] } },
{ "type": "Feature", "properties": { "COMID": 44043941, "id": "22818", "lengthkm": 84.383365843787402, "order": 7, "uparea": 663282.95388426865 }, "geometry": { "type": "LineString", "coordinates": [ [ 104.9475, 11.560833333333338 ], [ 104.941666666666663, 11.595833333333339 ], [ 104.939166666666665, 11.600833333333338 ], [ 104.94, 11.603333333333339 ], [ 104.935, 11.61 ], [ 104.92916666666666, 11.63 ], [ 104.92, 11.648333333333337 ], [ 104.918333333333337, 11.66 ], [ 104.921666666666667, 11.670833333333338 ], [ 104.9325, 11.690833333333337 ], [ 104.961666666666659, 11.714166666666671 ], [ 104.9675, 11.71583333333334 ], [ 105.015, 11.7625 ], [ 105.016666666666666, 11.76583333333334 ], [ 105.018333333333331, 11.7775 ], [ 105.015833333333333, 11.78583333333334 ], [ 105.008333333333326, 11.79333333333334 ], [ 104.99666666666667, 11.80083333333334 ], [ 104.986666666666665, 11.80083333333334 ], [ 104.980833333333337, 11.804166666666671 ], [ 104.979166666666657, 11.81333333333334 ], [ 104.985833333333332, 11.83 ], [ 104.994166666666658, 11.8375 ], [ 105.000833333333333, 11.838333333333338 ], [ 105.005833333333328, 11.835833333333337 ], [ 105.011666666666656, 11.8375 ], [ 105.021666666666661, 11.84833333333334 ], [ 105.028333333333336, 11.85 ], [ 105.039166666666659, 11.849166666666672 ], [ 105.048333333333332, 11.8475 ], [ 105.05, 11.845833333333339 ], [ 105.066666666666663, 11.843333333333337 ], [ 105.088333333333338, 11.845 ], [ 105.098333333333329, 11.8425 ], [ 105.104166666666657, 11.844166666666673 ], [ 105.1325, 11.87 ], [ 105.138333333333335, 11.900833333333338 ], [ 105.145, 11.91083333333334 ], [ 105.170833333333334, 11.933333333333337 ], [ 105.18, 11.943333333333339 ], [ 105.195833333333326, 11.95 ], [ 105.215833333333336, 11.948333333333338 ], [ 105.243333333333325, 11.94 ], [ 105.265, 11.94 ], [ 105.273333333333326, 11.9375 ], [ 105.279166666666669, 11.933333333333337 ], [ 105.285, 11.935 ], [ 105.306666666666658, 11.934166666666673 ] ] } },
{ "type": "Feature", "properties": { "COMID": 44043940, "id": "22818", "lengthkm": 2.6721343464230611, "order": 7, "uparea": 751128.29172518873 }, "geometry": { "type": "LineString", "coordinates": [ [ 104.966666666666669, 11.548333333333339 ], [ 104.953333333333333, 11.555 ], [ 104.9475, 11.560833333333338 ] ] } },
{ "type": "Feature", "properties": { "COMID": 44043939, "id": "22818", "lengthkm": 27.602641817251001, "order": 7, "uparea": 751221.3391168192 }, "geometry": { "type": "LineString", "coordinates": [ [ 105.176666666666662, 11.4575 ], [ 105.1675, 11.463333333333338 ], [ 105.158333333333331, 11.4725 ], [ 105.145833333333329, 11.4775 ], [ 105.135, 11.485 ], [ 105.12166666666667, 11.490833333333338 ], [ 105.111666666666665, 11.5 ], [ 105.1, 11.505833333333339 ], [ 105.085833333333326, 11.518333333333338 ], [ 105.083333333333329, 11.523333333333337 ], [ 105.0775, 11.52833333333334 ], [ 105.061666666666667, 11.533333333333339 ], [ 105.056666666666658, 11.533333333333339 ], [ 105.033333333333331, 11.5425 ], [ 105.016666666666666, 11.54666666666667 ], [ 104.984166666666667, 11.5475 ], [ 104.974166666666662, 11.549166666666672 ], [ 104.966666666666669, 11.548333333333339 ] ] } },
{ "type": "Feature", "properties": { "COMID": 44043938, "id": "22818", "lengthkm": 22.169869394716191, "order": 7, "uparea": 752374.90433129028 }, "geometry": { "type": "LineString", "coordinates": [ [ 105.275, 11.306666666666672 ], [ 105.274166666666659, 11.321666666666673 ], [ 105.264166666666668, 11.35 ], [ 105.261666666666656, 11.3525 ], [ 105.260833333333323, 11.366666666666671 ], [ 105.255, 11.391666666666673 ], [ 105.239166666666662, 11.409166666666671 ], [ 105.229166666666657, 11.415 ], [ 105.210833333333326, 11.435 ], [ 105.195, 11.443333333333339 ], [ 105.176666666666662, 11.4575 ] ] } },
{ "type": "Feature", "properties": { "COMID": 44045069, "id": "22818", "lengthkm": 78.538432929652856, "order": 7, "uparea": 754973.09388872841 }, "geometry": { "type": "LineString", "coordinates": [ [ 105.335833333333326, 10.808333333333337 ], [ 105.325833333333335, 10.818333333333339 ], [ 105.313333333333333, 10.8225 ], [ 105.305, 10.8225 ], [ 105.286666666666662, 10.816666666666674 ], [ 105.283333333333331, 10.810833333333338 ], [ 105.276666666666671, 10.805 ], [ 105.264166666666668, 10.80083333333334 ], [ 105.2425, 10.805 ], [ 105.231666666666669, 10.805 ], [ 105.2275, 10.809166666666673 ], [ 105.2275, 10.811666666666671 ], [ 105.215833333333336, 10.835 ], [ 105.213333333333338, 10.8375 ], [ 105.210833333333326, 10.836666666666673 ], [ 105.203333333333333, 10.84083333333334 ], [ 105.193333333333328, 10.853333333333339 ], [ 105.19083333333333, 10.85916666666667 ], [ 105.19, 10.869166666666672 ], [ 105.1875, 10.871666666666673 ], [ 105.185833333333335, 10.88 ], [ 105.185833333333335, 10.894166666666671 ], [ 105.1875, 10.8975 ], [ 105.188333333333333, 10.9075 ], [ 105.186666666666667, 10.913333333333338 ], [ 105.185833333333335, 10.9475 ], [ 105.183333333333337, 10.964166666666671 ], [ 105.1875, 10.978333333333339 ], [ 105.1875, 11.001666666666672 ], [ 105.19083333333333, 11.020833333333339 ], [ 105.194166666666661, 11.025 ], [ 105.1975, 11.03583333333334 ], [ 105.1975, 11.041666666666671 ], [ 105.195, 11.045833333333338 ], [ 105.1925, 11.083333333333339 ], [ 105.195, 11.088333333333338 ], [ 105.203333333333333, 11.096666666666671 ], [ 105.21, 11.1 ], [ 105.213333333333338, 11.10583333333334 ], [ 105.234166666666667, 11.13 ], [ 105.236666666666665, 11.139166666666672 ], [ 105.235833333333332, 11.143333333333338 ], [ 105.24166666666666, 11.154166666666672 ], [ 105.23833333333333, 11.159166666666671 ], [ 105.235, 11.170833333333338 ], [ 105.235, 11.178333333333338 ], [ 105.250833333333333, 11.194166666666671 ], [ 105.255833333333328, 11.19583333333334 ], [ 105.259166666666658, 11.199166666666674 ], [ 105.268333333333331, 11.21583333333334 ], [ 105.271666666666661, 11.228333333333339 ], [ 105.279166666666669, 11.245833333333337 ], [ 105.280833333333334, 11.255 ], [ 105.28, 11.2775 ], [ 105.275, 11.29666666666667 ], [ 105.275, 11.306666666666672 ] ] } },
{ "type": "Feature", "properties": { "COMID": 44045068, "id": "22818", "lengthkm": 3.6899238053673629, "order": 7, "uparea": 755590.39581178268 }, "geometry": { "type": "LineString", "coordinates": [ [ 105.345833333333331, 10.779166666666672 ], [ 105.3375, 10.8 ], [ 105.335833333333326, 10.808333333333337 ] ] } },
{ "type": "Feature", "properties": { "COMID": 44045067, "id": "22818", "lengthkm": 8.1031903767886284, "order": 7, "uparea": 755633.45288342342 }, "geometry": { "type": "LineString", "coordinates": [ [ 105.350833333333327, 10.715 ], [ 105.355, 10.725 ], [ 105.359166666666667, 10.729166666666671 ], [ 105.359166666666667, 10.73416666666667 ], [ 105.355833333333322, 10.745 ], [ 105.355833333333322, 10.755833333333339 ], [ 105.351666666666659, 10.770833333333339 ], [ 105.345833333333331, 10.779166666666672 ] ] } },
{ "type": "Feature", "properties": { "COMID": 44045066, "id": "22818", "lengthkm": 17.48573855067545, "order": 7, "uparea": 755704.6604524802 }, "geometry": { "type": "LineString", "coordinates": [ [ 105.36666666666666, 10.574166666666674 ], [ 105.365833333333327, 10.583333333333339 ], [ 105.349166666666662, 10.6175 ], [ 105.34, 10.645833333333339 ], [ 105.338333333333338, 10.67583333333334 ], [ 105.345833333333331, 10.690833333333337 ], [ 105.350833333333327, 10.715 ] ] } },
{ "type": "Feature", "properties": { "COMID": 44045065, "id": "22818", "lengthkm": 6.0505441600601344, "order": 7, "uparea": 755739.88482001564 }, "geometry": { "type": "LineString", "coordinates": [ [ 105.3275, 10.540833333333339 ], [ 105.334166666666661, 10.548333333333339 ], [ 105.351666666666659, 10.556666666666672 ], [ 105.36666666666666, 10.574166666666674 ] ] } },
{ "type": "Feature", "properties": { "COMID": 44045924, "id": "22818", "lengthkm": 23.262980328980063, "order": 7, "uparea": 768296.12213371927 }, "geometry": { "type": "LineString", "coordinates": [ [ 105.445, 10.386666666666674 ], [ 105.431666666666658, 10.398333333333341 ], [ 105.414166666666659, 10.4175 ], [ 105.4075, 10.439166666666672 ], [ 105.385, 10.451666666666672 ], [ 105.361666666666665, 10.476666666666674 ], [ 105.346666666666664, 10.49 ], [ 105.33, 10.525833333333338 ], [ 105.3275, 10.540833333333339 ] ] } },
{ "type": "Feature", "properties": { "COMID": 44045923, "id": "22818", "lengthkm": 0.84564859880892596, "order": 7, "uparea": 770011.15033644927 }, "geometry": { "type": "LineString", "coordinates": [ [ 105.451666666666668, 10.384166666666673 ], [ 105.445, 10.386666666666674 ] ] } },
{ "type": "Feature", "properties": { "COMID": 44045922, "id": "22818", "lengthkm": 7.2556288478156619, "order": 7, "uparea": 770287.79144258949 }, "geometry": { "type": "LineString", "coordinates": [ [ 105.48833333333333, 10.334166666666672 ], [ 105.474166666666662, 10.3475 ], [ 105.4625, 10.3625 ], [ 105.456666666666663, 10.3725 ], [ 105.455, 10.38 ], [ 105.451666666666668, 10.384166666666673 ] ] } },
{ "type": "Feature", "properties": { "COMID": 44045921, "id": "22818", "lengthkm": 1.0025688598509439, "order": 7, "uparea": 770557.26773444971 }, "geometry": { "type": "LineString", "coordinates": [ [ 105.494166666666658, 10.3275 ], [ 105.48833333333333, 10.334166666666672 ] ] } },
{ "type": "Feature", "properties": { "COMID": 44045920, "id": "22818", "lengthkm": 22.999195181191958, "order": 7, "uparea": 770975.52559636952 }, "geometry": { "type": "LineString", "coordinates": [ [ 105.625, 10.186666666666671 ], [ 105.624166666666667, 10.1925 ], [ 105.615, 10.2175 ], [ 105.600833333333327, 10.23833333333334 ], [ 105.57, 10.268333333333338 ], [ 105.564166666666665, 10.27 ], [ 105.55916666666667, 10.275 ], [ 105.558333333333337, 10.27833333333334 ], [ 105.548333333333332, 10.2875 ], [ 105.525, 10.3025 ], [ 105.5175, 10.305833333333339 ], [ 105.515833333333333, 10.305 ], [ 105.494166666666658, 10.3275 ] ] } },
{ "type": "Feature", "properties": { "COMID": 44045919, "id": "22818", "lengthkm": 5.7164777464332648, "order": 7, "uparea": 771033.49665386393 }, "geometry": { "type": "LineString", "coordinates": [ [ 105.659166666666664, 10.15 ], [ 105.650833333333324, 10.158333333333339 ], [ 105.65, 10.1625 ], [ 105.625, 10.186666666666671 ] ] } },
{ "type": "Feature", "properties": { "COMID": 44045918, "id": "22818", "lengthkm": 15.015373103071788, "order": 7, "uparea": 772579.76282141218 }, "geometry": { "type": "LineString", "coordinates": [ [ 105.765, 10.0775 ], [ 105.7525, 10.09 ], [ 105.740833333333327, 10.095833333333339 ], [ 105.735, 10.095833333333339 ], [ 105.710833333333326, 10.116666666666671 ], [ 105.694166666666661, 10.12583333333334 ], [ 105.659166666666664, 10.15 ] ] } },
{ "type": "Feature", "properties": { "COMID": 44045917, "id": "22818", "lengthkm": 5.2380466363319433, "order": 7, "uparea": 772650.606293933 }, "geometry": { "type": "LineString", "coordinates": [ [ 105.798333333333332, 10.049166666666672 ], [ 105.793333333333322, 10.058333333333341 ], [ 105.784166666666664, 10.0675 ], [ 105.775833333333324, 10.073333333333338 ], [ 105.765, 10.0775 ] ] } },
{ "type": "Feature", "properties": { "COMID": 44045916, "id": "22818", "lengthkm": 0.57545517070872898, "order": 7, "uparea": 772739.76413985551 }, "geometry": { "type": "LineString", "coordinates": [ [ 105.80083333333333, 10.045 ], [ 105.798333333333332, 10.049166666666672 ] ] } },
{ "type": "Feature", "properties": { "COMID": 44045915, "id": "22818", "lengthkm": 17.013743803694048, "order": 7, "uparea": 773817.92850895261 }, "geometry": { "type": "LineString", "coordinates": [ [ 105.898333333333326, 9.936666666666671 ], [ 105.8775, 9.950833333333339 ], [ 105.846666666666664, 9.98 ], [ 105.819166666666661, 10.013333333333339 ], [ 105.8175, 10.016666666666673 ], [ 105.8175, 10.0225 ], [ 105.814166666666665, 10.03 ], [ 105.808333333333337, 10.038333333333338 ], [ 105.80083333333333, 10.045 ] ] } },
{ "type": "Feature", "properties": { "COMID": 44046400, "id": "22818", "lengthkm": 9.2908474740990226, "order": 7, "uparea": 774697.65067198128 }, "geometry": { "type": "LineString", "coordinates": [ [ 105.955, 9.880833333333339 ], [ 105.953333333333333, 9.885 ], [ 105.925, 9.91 ], [ 105.911666666666662, 9.925 ], [ 105.91, 9.93 ], [ 105.898333333333326, 9.936666666666671 ] ] } },
{ "type": "Feature", "properties": { "COMID": 44046399, "id": "22818", "lengthkm": 10.815765808967447, "order": 7, "uparea": 774772.97603668948 }, "geometry": { "type": "LineString", "coordinates": [ [ 106.025833333333338, 9.8175 ], [ 106.0175, 9.819166666666671 ], [ 106.014166666666668, 9.821666666666673 ], [ 105.955, 9.880833333333339 ] ] } },
{ "type": "Feature", "properties": { "COMID": 44046398, "id": "22818", "lengthkm": 2.955705689749085, "order": 7, "uparea": 775050.41322420561 }, "geometry": { "type": "LineString", "coordinates": [ [ 106.0475, 9.808333333333341 ], [ 106.034166666666664, 9.816666666666674 ], [ 106.025833333333338, 9.8175 ] ] } },
{ "type": "Feature", "properties": { "COMID": 44046397, "id": "22818", "lengthkm": 4.957685663430401, "order": 7, "uparea": 775140.78874230909 }, "geometry": { "type": "LineString", "coordinates": [ [ 106.069166666666661, 9.7725 ], [ 106.066666666666663, 9.7825 ], [ 106.0475, 9.808333333333341 ] ] } },
{ "type": "Feature", "properties": { "COMID": 44046396, "id": "22818", "lengthkm": 3.5701866387717152, "order": 7, "uparea": 775611.55126566498 }, "geometry": { "type": "LineString", "coordinates": [ [ 106.0975, 9.7625 ], [ 106.0775, 9.7725 ], [ 106.069166666666661, 9.7725 ] ] } },
{ "type": "Feature", "properties": { "COMID": 44046395, "id": "22818", "lengthkm": 2.355571900216527, "order": 7, "uparea": 775719.66045150871 }, "geometry": { "type": "LineString", "coordinates": [ [ 106.11333333333333, 9.749166666666671 ], [ 106.0975, 9.7625 ] ] } },
{ "type": "Feature", "properties": { "COMID": 44046394, "id": "22818", "lengthkm": 11.851812812818313, "order": 7, "uparea": 775833.02004996059 }, "geometry": { "type": "LineString", "coordinates": [ [ 106.185833333333335, 9.673333333333339 ], [ 106.161666666666662, 9.696666666666673 ], [ 106.15, 9.710833333333341 ], [ 106.12833333333333, 9.73083333333334 ], [ 106.11333333333333, 9.749166666666671 ] ] } },
{ "type": "Feature", "properties": { "COMID": 44046393, "id": "22818", "lengthkm": 4.0862544170249508, "order": 7, "uparea": 775876.22938334767 }, "geometry": { "type": "LineString", "coordinates": [ [ 106.2125, 9.648333333333341 ], [ 106.185833333333335, 9.673333333333339 ] ] } },
{ "type": "Feature", "properties": { "COMID": 44046392, "id": "22818", "lengthkm": 5.622978429100705, "order": 7, "uparea": 775976.91826970724 }, "geometry": { "type": "LineString", "coordinates": [ [ 106.25, 9.615833333333338 ], [ 106.2125, 9.648333333333341 ] ] } },
{ "type": "Feature", "properties": { "COMID": 44046391, "id": "22818", "lengthkm": 3.9342543909143042, "order": 7, "uparea": 776027.11519115441 }, "geometry": { "type": "LineString", "coordinates": [ [ 106.279166666666669, 9.6 ], [ 106.264166666666668, 9.606666666666673 ], [ 106.25, 9.615833333333338 ] ] } },
{ "type": "Feature", "properties": { "COMID": 44046390, "id": "22818", "lengthkm": 3.3861689994837838, "order": 7, "uparea": 776128.1625807212 }, "geometry": { "type": "LineString", "coordinates": [ [ 106.303333333333327, 9.584166666666672 ], [ 106.279166666666669, 9.6 ] ] } }
]
}
