{"type":"FeatureCollection","features":[{"type":"Feature","geometry":{"type":"MultiPolygon","coordinates":[[[[102.44006212022592,14.303731689453315],[102.44247667100697,14.30112575954874],[102.44332221137145,14.300678236219767],[102.44596761067723,14.302078043619986],[102.4487198893232,14.301722276475886],[102.44962185329851,14.300411309136493],[102.45163384331588,14.296148139106066],[102.45296359592024,14.294089152018401],[102.45608452690979,14.290649142795317],[102.4571530490451,14.288629896376094],[102.45789469401038,14.28628696017816],[102.46102267795132,14.283827175564383],[102.46164577907976,14.28292195638042],[102.46216579861104,14.280737847222355],[102.46291449652787,14.279929945204088],[102.46564697265634,14.278484090169371],[102.46752685546878,14.278409559461892],[102.47068060980914,14.27884060329879],[102.47170301649314,14.28206929524751],[102.47268229166653,14.282108154297006],[102.47442382812514,14.281222669813573],[102.47675292968748,14.281315036350136],[102.47914577907974,14.280699734158091],[102.48025716145841,14.280111558702373],[102.48575954861107,14.280124240451528],[102.48750298394103,14.28101196289073],[102.49169270833343,14.282108764648683],[102.49299506293428,14.282057156033076],[102.49400906032977,14.282593722873372],[102.49469048394101,14.28130588107652],[102.49414360894085,14.28061177571631],[102.49122395833328,14.28072747124574],[102.48859022352437,14.279578043619864],[102.48654622395841,14.279187825520964],[102.4852737087675,14.278008558485382],[102.48480794270816,14.27653774685352],[102.48415527343738,14.276511840820461],[102.48344590928835,14.276887139214608],[102.48274766710082,14.276517673068653],[102.48230794270845,14.277906697591348],[102.48138807508681,14.27794318305152],[102.47785970052072,14.275406901041862],[102.4761507161459,14.275430569119038],[102.47481852213551,14.275008816189398],[102.47381673177071,14.273702460395185],[102.4730655924478,14.27211059570321],[102.47245822482634,14.271789279514095],[102.47104302300332,14.27331651475717],[102.46807400173608,14.27458387586816],[102.46494981553806,14.275154418945377],[102.46198187934019,14.27510287814691],[102.45952880859383,14.276832411024444],[102.4591156684028,14.277707655165074],[102.45545328776049,14.282714029948167],[102.45240831163201,14.284855821397784],[102.45145019531256,14.28326483832494],[102.45101996527771,14.279966227213663],[102.45109944661468,14.277964206271832],[102.45076090494777,14.277247043185852],[102.44834120008679,14.27486497667114],[102.44589355468744,14.273755289713705],[102.4452568901909,14.274215630425488],[102.44690728081608,14.278895060221572],[102.44688178168386,14.280640936957738],[102.44775689019113,14.282355821397786],[102.44854275173603,14.290178426106934],[102.44783420138916,14.29167989095069],[102.44634277343746,14.29264289008259],[102.44572157118054,14.295897691514966],[102.4444607204862,14.296339518229374],[102.4416305881077,14.295177069770105],[102.44026367187487,14.295122884114676],[102.43827419704857,14.296340942382969],[102.43621365017364,14.294922892252671],[102.43424099392368,14.297051798502721],[102.43279595269095,14.297109103732794],[102.4313680013021,14.296522488064483],[102.42734212239591,14.29617167154953],[102.42663492838548,14.295144178602541],[102.42591308593742,14.293290473090423],[102.42280978732643,14.29103597005222],[102.42139187282979,14.289187011718937],[102.42317274305569,14.286332058377013],[102.4208124457464,14.28414489746109],[102.42124023437495,14.283503960503623],[102.42267252604174,14.283050537109673],[102.42348876953113,14.28150783962694],[102.4240492078994,14.278572319878677],[102.42545708550338,14.276842651367332],[102.42581407335078,14.275136040581657],[102.42479926215285,14.273661363389834],[102.42552381727418,14.271800265842302],[102.42610080295137,14.270961778429012],[102.42605929904519,14.269913330078296],[102.42636962890637,14.269027777777836],[102.42622368706614,14.268611111111326],[102.4251985677084,14.268806830512375],[102.42351860894095,14.273615451388963],[102.42448133680566,14.275821804470624],[102.42407714843742,14.276678127712813],[102.4227460394965,14.277911376953227],[102.42243164062515,14.279558715820414],[102.41931043836794,14.282450697157387],[102.41973225911445,14.283248087565227],[102.41925482855893,14.285749579535775],[102.41598171657975,14.28928209092895],[102.41399631076385,14.289360826280614],[102.41297092013897,14.288877020941968],[102.41080159505222,14.285144178602565],[102.41028374565954,14.283508097330952],[102.40859212239585,14.282131483290058],[102.40686496310772,14.281801689995774],[102.40536539713551,14.281008232964595],[102.40077663845474,14.282427978515756],[102.39852349175337,14.284261678060048],[102.39548611111096,14.284790513780507],[102.39420708550344,14.283605482313519],[102.39272786458335,14.28097751193593],[102.39192355685762,14.281793551975127],[102.39312581380202,14.285465766059232],[102.394092610677,14.286509399414157],[102.39548556857645,14.286564602322272],[102.39719048394105,14.285966932508813],[102.39886800130225,14.285699734158072],[102.40162245008676,14.284648640950849],[102.40285427517378,14.285496351454157],[102.4064485677084,14.286396213107793],[102.4085587565103,14.287944132487226],[102.41120605468743,14.29256225585965],[102.41762288411442,14.293811848958597],[102.42239746093733,14.298526407877773],[102.42417127821173,14.30118584526923],[102.4282717556425,14.301543172200653],[102.43009033203114,14.304022488064376],[102.43109022352425,14.302921956380374],[102.4314832899307,14.302088623047013],[102.43248263888879,14.303193088107747],[102.43192355685753,14.304249674479294],[102.43875054253473,14.304350653754469],[102.44006212022592,14.303731689453315]]]]},"properties":{"id":"10361"}}]}