{"type":"FeatureCollection","features":[{"type":"Feature","geometry":{"type":"MultiPolygon","coordinates":[[[[104.30384874131644,15.437727864583536],[104.30164849175057,15.43412109375015],[104.30040635850398,15.431538085937717],[104.29889946831324,15.426184895833543],[104.29833333333042,15.425277777778021],[104.29770643445883,15.425466579861421],[104.29640462239277,15.427279730902995],[104.2959825303789,15.429593641493241],[104.2953754340248,15.431035698784768],[104.29312065971928,15.432172851562754],[104.29017740885152,15.433058810764052],[104.28779052734095,15.432537977430783],[104.28709092881641,15.432928602430863],[104.28643473306997,15.43287597656267],[104.28580512152499,15.432145182291876],[104.2843158637123,15.43246636284745],[104.28490397135133,15.433519965277995],[104.28831488714982,15.434351671007178],[104.29094048393821,15.434403211805744],[104.29257731119512,15.433955620659987],[104.29384087456319,15.433250325521072],[104.29796006944147,15.432649197048747],[104.29870090060464,15.43511013454875],[104.29814615885138,15.436621093750233],[104.29821533202826,15.437482096354387],[104.30089192708036,15.4372672526044],[104.3023350694414,15.439770507812668],[104.30467502169861,15.440814344618289],[104.30555419921583,15.440323893229532],[104.30540147569141,15.438420681423878],[104.30384874131644,15.437727864583536]]]]},"properties":{"id":"22242"}}]}