{"type":"FeatureCollection","features":[{"type":"Feature","geometry":{"type":"MultiPolygon","coordinates":[[[[79.13216015624997,25.200937500000165],[79.13200000000003,25.200750000000113],[79.12880859375016,25.20080761718758],[79.12781640624999,25.20169238281251],[79.12682421874993,25.201843750000094],[79.12677734375026,25.202428710937568],[79.12728906250001,25.20265625000009],[79.12744140625009,25.202932617187628],[79.1276523437501,25.203405273437582],[79.12805859375001,25.203692382812704],[79.12906640625008,25.20380761718755],[79.12930859375015,25.203942382812514],[79.12977734375002,25.204150390625088],[79.13019140625008,25.204682617187473],[79.13041406250014,25.205180664062496],[79.13198828125016,25.20530664062501],[79.13243359375016,25.205057617187677],[79.13290625000005,25.20484667968759],[79.13305859375001,25.204182617187584],[79.13319140625023,25.203942382812514],[79.13330859375017,25.20368261718751],[79.13369140625011,25.20319238281263],[79.1339062500002,25.20271191406252],[79.13418359375001,25.20255761718751],[79.13467968750021,25.202335937500095],[79.13471093750022,25.20195800781255],[79.13444140625009,25.201807617187626],[79.13368359375013,25.20169238281251],[79.13344140625,25.201557617187547],[79.13318359375003,25.2014423828127],[79.13269140625025,25.20105761718756],[79.13216015624997,25.200937500000165]]]]},"properties":{"id":"19070"}}]}