{"type":"FeatureCollection","features":[{"type":"Feature","geometry":{"type":"MultiPolygon","coordinates":[[[[103.69930284287895,18.312636176215747],[103.70160264756643,18.31178154839452],[103.7036447482611,18.311823187934436],[103.70640652126437,18.309858669705278],[103.7071221245632,18.30838351779549],[103.7083249240421,18.303935546875465],[103.70763617621228,18.302919379340807],[103.70736382378189,18.301438802083837],[103.7086718749969,18.300697157118393],[103.71019639756659,18.301854112413608],[103.71185302734077,18.30265774197082],[103.71346110025732,18.30262491862011],[103.71488389756658,18.303773464627213],[103.71714518228887,18.30489718967054],[103.71805826822614,18.30584743923643],[103.71760932074349,18.3071590169275],[103.71764214409419,18.308775499132395],[103.71933973523997,18.308740776910142],[103.72096950954577,18.307636176215667],[103.72240722655968,18.307086046007356],[103.7243277994763,18.30807535807331],[103.72530951605617,18.309572753906863],[103.72569173176802,18.31153049045183],[103.72620388454553,18.312358398437908],[103.72692111544839,18.308365885417274],[103.73060926649,18.307466905382412],[103.73141276041369,18.306630316840682],[103.73096462673303,18.304002414279964],[103.72956759982341,18.30403089735276],[103.72781358506651,18.30702663845541],[103.7254947916638,18.307636176215667],[103.72274739583045,18.305683729384086],[103.72072374131656,18.30567518446216],[103.71966091579563,18.30622260199702],[103.71930826822617,18.30513617621577],[103.71764160155973,18.303148193359746],[103.71873833550038,18.30101915147607],[103.71931830511849,18.299232449002176],[103.71930230034454,18.29845282660638],[103.7187003580701,18.29787448459237],[103.71616102430275,18.298307562934454],[103.71398166232333,18.297052408854583],[103.71320258246217,18.296241319444988],[103.71261338975413,18.29625339084238],[103.71262939452836,18.29907050238758],[103.71195909287886,18.300372043186172],[103.71094238280952,18.300691731771295],[103.70813232421565,18.29924411349866],[103.70670274522271,18.300213216146304],[103.70555935329551,18.303290744358037],[103.70455512152492,18.30461398654559],[103.70289713541385,18.30458007812544],[103.70016818576093,18.302169053819895],[103.69929416232347,18.300367567274805],[103.69565294053521,18.29675672743096],[103.69570800780949,18.294054497613274],[103.69549479166389,18.293474934896267],[103.69399142794859,18.294615885417173],[103.69319715711495,18.293725314670596],[103.69430826822625,18.292086046007384],[103.69474826388605,18.290281032986556],[103.69608425563948,18.288232964410142],[103.6958333333304,18.28750000000035],[103.69485839843455,18.287636040581987],[103.69362603081319,18.289481608073274],[103.69208062065664,18.28985839843787],[103.69124131944145,18.290686442057762],[103.69125298393809,18.29125257704038],[103.69069064669847,18.29263861762199],[103.69152506510122,18.29514160156299],[103.69308078341734,18.296088189019585],[103.69376383463239,18.299912516276407],[103.69459689669858,18.301563991970824],[103.69458034938933,18.302363552517846],[103.69491780598676,18.30334906684071],[103.6960028754311,18.30261338975727],[103.6959692382782,18.30096964518269],[103.6962613932262,18.300402696398052],[103.69765842013581,18.30043117947085],[103.69820800780948,18.301563991970824],[103.6981906466983,18.304347195095858],[103.69685736761849,18.305628255208788],[103.69518988714978,18.305057508680974],[103.69400173610833,18.306269395616752],[103.69202718098663,18.30691026475735],[103.69069715711501,18.307919379340618],[103.68914930555266,18.308670383029906],[103.68448052300042,18.30902289496572],[103.68399332682006,18.30752143012198],[103.68403130425051,18.30566324869831],[103.68643256293095,18.299420979818123],[103.68455756293108,18.297619628906574],[103.680414496525,18.297636040581963],[103.67788709852127,18.298005371094092],[103.67675971136865,18.297619493273118],[103.67497395833064,18.29597493489635],[103.6728944227402,18.296818440755644],[103.67169433593469,18.29864868164107],[103.67066460503176,18.299302842882327],[103.66891004774001,18.29839898003509],[103.66614501952839,18.299595404731292],[103.66521348741017,18.29957641601598],[103.66252956813926,18.297261691623646],[103.6609147135388,18.298093532986556],[103.65975558810479,18.300046115451863],[103.66054551866014,18.30312825520879],[103.65957546657697,18.305962456597655],[103.66018608940684,18.307467990451784],[103.6594498697888,18.31042222764799],[103.65760308159426,18.312978379991733],[103.65625271267052,18.31430826822948],[103.65515272352147,18.315029432509064],[103.65262288411148,18.3142974175351],[103.65198052300045,18.314310438368494],[103.65103108723648,18.317156304253928],[103.65218397352132,18.318263888889305],[103.65474121093476,18.319504530165418],[103.65847493489306,18.3184749348962],[103.66085666232343,18.31655246310804],[103.6620860460039,18.316252712673972],[103.6646766493026,18.31482001410636],[103.66714436848648,18.31512912326427],[103.67044650607338,18.31430826822948],[103.6719297960041,18.31580851237014],[103.6737304687471,18.315346950955274],[103.6740643988687,18.31227416992236],[103.67690945095185,18.310585259332044],[103.67879069010112,18.31014160156286],[103.68092339409432,18.310871582031638],[103.68152506510134,18.311557617187972],[103.67997178819135,18.31304985894151],[103.67958604600383,18.315419379340696],[103.67761908636842,18.31989135742222],[103.67490804036171,18.321238471137562],[103.67236979166384,18.322062174479626],[103.67008951822638,18.323792453342477],[103.66843044704567,18.32721191406293],[103.66925672742772,18.33053615993971],[103.66826036241028,18.332470296224443],[103.66708062065695,18.334025065104584],[103.66680826822639,18.335974934896157],[103.66614393445892,18.337264675564654],[103.66656521267063,18.337669270833842],[103.66851942274022,18.337629394531675],[103.66960259331299,18.336502007378883],[103.66956488714973,18.334656575521166],[103.66987494574349,18.333143039280017],[103.67123779296568,18.33183363172786],[103.6721107313339,18.33036322699691],[103.67366861978897,18.328866373698347],[103.67507731119488,18.32696614583378],[103.6770581054657,18.32597262912381],[103.67991400824351,18.325394829644623],[103.68182183159436,18.324101562500488],[103.68603732638601,18.322486572266058],[103.68924886067421,18.319661458333925],[103.69165581596937,18.31898030598998],[103.69452229817423,18.315769449870146],[103.69791937933726,18.31375271267406],[103.69930284287895,18.312636176215747]],[[103.71376030815688,18.301384277344184],[103.71437255859095,18.2997169325091],[103.71527777777467,18.299444444444887],[103.7174131944416,18.300184054904875],[103.71734293619502,18.30106038411496],[103.71458713107339,18.302106119792214],[103.71376030815688,18.301384277344184]]]]},"properties":{"id":"7652"}}]}