{"type":"FeatureCollection","features":[{"type":"Feature","geometry":{"type":"MultiPolygon","coordinates":[[[[82.6125702582464,24.99221528265261],[82.61311442057277,24.990698686176202],[82.6146804470487,24.99021511607731],[82.6160042317708,24.987330650753833],[82.61446261935751,24.98595319747963],[82.61402777777786,24.98430555555602],[82.6133634440105,24.98451066546997],[82.61248779296866,24.987722691430378],[82.61001302083335,24.989364873038753],[82.60888102213548,24.989714409510697],[82.60717610677094,24.991133195029818],[82.60642225477412,24.991088260015175],[82.60500786675348,24.989992187288365],[82.60415879991317,24.989730034934496],[82.60288302951372,24.98830222023905],[82.60211724175329,24.98834787368807],[82.6026079644096,24.989715842141422],[82.6024761284722,24.991929189894236],[82.60325385199636,24.993042534722562],[82.60363037109371,24.99426183382701],[82.60369574652785,24.997114583121757],[82.60633138020839,24.997525299390574],[82.6118465169271,24.996632037692976],[82.6125702582464,24.99221528265261]]]]},"properties":{"id":"6536"}}]}