{"type":"FeatureCollection","features":[{"type":"Feature","geometry":{"type":"MultiPolygon","coordinates":[[[[80.14743750000011,23.90093847656256],[80.14809765625014,23.900438476562584],[80.14931250000026,23.900561523437588],[80.14980078124998,23.900811523437568],[80.15039453125027,23.9006240234376],[80.1505625,23.899936523437475],[80.15078906250008,23.8994921875],[80.15043750000027,23.899311523437717],[80.1494375,23.899188476562628],[80.14918750000024,23.899061523437553],[80.14869531250011,23.898821289062667],[80.14856250000011,23.898563476562515],[80.14843359375018,23.898303710937597],[80.14770312500005,23.898318359374997],[80.14735156250023,23.89814746093755],[80.1471875,23.89781152343751],[80.14702343750011,23.897488281250006],[80.14743750000011,23.896938476562624],[80.14760546875024,23.896259765625132],[80.148578125,23.89544042968754],[80.1493007812501,23.895811523437672],[80.14988281250012,23.895627929687606],[80.15053515625002,23.894820312500173],[80.14918750000024,23.89468847656262],[80.14893750000007,23.894561523437545],[80.14868750000008,23.894438476562726],[80.14836328125014,23.894272460937557],[80.14765234375025,23.894811523437625],[80.14699218750016,23.894637695312568],[80.14668359375005,23.894184570312646],[80.14670312500002,23.893317382812626],[80.14642578125009,23.893184570312513],[80.1462500000001,23.893000000000058],[80.14591015625004,23.893110351562612],[80.1456875000001,23.89356347656262],[80.14531250000007,23.894061523437557],[80.1451875000001,23.89531347656255],[80.14506250000008,23.895561523437507],[80.14493749999994,23.89831347656262],[80.14468750000023,23.89879882812521],[80.14483203125005,23.900132812500075],[80.14556250000007,23.90031152343768],[80.1460625,23.90068847656258],[80.1463125000001,23.900811523437568],[80.14680078125022,23.901061523437477],[80.14743750000011,23.90093847656256]]]]},"properties":{"id":"19482"}}]}