{"type":"FeatureCollection","features":[{"type":"Feature","geometry":{"type":"MultiPolygon","coordinates":[[[[105.49556152343766,14.848062500000111],[105.49543847656244,14.847812499999932],[105.49518847656267,14.847324218750018],[105.49531152343755,14.84668749999993],[105.49543847656244,14.846437500000036],[105.49556152343766,14.845937500000147],[105.49606152343765,14.845277343750027],[105.49593847656254,14.844812500000145],[105.49581152343754,14.844562499999967],[105.49556835937526,14.844062499999993],[105.49531640625011,14.844058593750262],[105.49506347656259,14.844187500000032],[105.4945615234374,14.844312499999987],[105.49431347656244,14.844437499999927],[105.49406152343752,14.844562499999967],[105.49381347656256,14.844687500000106],[105.4923115234374,14.844812500000145],[105.49206347656244,14.844937500000086],[105.49081152343766,14.845062499999955],[105.48991796875006,14.845812500000108],[105.48743652343754,14.845687499999968],[105.48718847656252,14.845562499999929],[105.48693652343755,14.845437500000074],[105.48668847656265,14.845312500000034],[105.48643652343762,14.845187499999994],[105.48618847656266,14.845062499999955],[105.48593652343763,14.844937500000086],[105.48545507812517,14.844691406250092],[105.48441796875002,14.845562499999929],[105.48381445312506,14.845242187500034],[105.48379101562514,14.844085937500196],[105.48693652343755,14.841062500000106],[105.48718847656252,14.840937500000152],[105.48743652343754,14.840812500000027],[105.48768847656257,14.840687499999987],[105.48793652343753,14.840562499999947],[105.4884267578125,14.840324218750098],[105.48893847656265,14.83968750000011],[105.48906152343753,14.839437499999946],[105.48918847656253,14.839187500000037],[105.48942578125005,14.838699218749937],[105.49093652343763,14.837312499999982],[105.49143847656254,14.837187499999942],[105.49193652343754,14.836812499999994],[105.49318847656244,14.836687499999954],[105.4934365234374,14.836562500000099],[105.49381152343764,14.836378906250204],[105.49363574218754,14.835566406250038],[105.49307128906267,14.835554687499979],[105.49240234375,14.83606250000011],[105.4921328125001,14.83591015625015],[105.49150000000017,14.83525000000013],[105.4911582031252,14.835359375000209],[105.49082128906267,14.836054687499953],[105.49056347656258,14.83618750000015],[105.49031152343755,14.836312500000105],[105.49006347656265,14.836437500000144],[105.48881152343765,14.836562500000099],[105.4885634765624,14.836687499999954],[105.48806152343755,14.836812499999994],[105.48756347656243,14.837187499999942],[105.4873115234374,14.837312499999982],[105.48706347656255,14.837437500000107],[105.48681152343752,14.837562500000146],[105.48656347656257,14.8376875000001],[105.48561425781267,14.837843750000062],[105.48539843750004,14.838730468750043],[105.48356347656252,14.840437500000078],[105.48306152343761,14.840562499999947],[105.48281347656265,14.840687499999987],[105.48231152343752,14.840812500000027],[105.48206347656256,14.840937500000152],[105.48181152343753,14.841062500000106],[105.48156347656257,14.841187499999961],[105.48056152343739,14.8413125000001],[105.48031347656254,14.84143750000004],[105.48006152343751,14.84156250000008],[105.47981347656255,14.84168749999995],[105.47956152343752,14.841812499999989],[105.47931347656257,14.841937500000029],[105.47863671875015,14.842105468750049],[105.47768847656263,14.84320312500003],[105.47781152343751,14.843687500000144],[105.4779384765624,14.843937499999953],[105.47806152343767,14.844187500000032],[105.47818847656256,14.844437499999927],[105.47831152343738,14.844937500000086],[105.4784384765625,14.845187499999994],[105.4785615234376,14.845687499999968],[105.47868847656255,14.845937500000147],[105.47881152343766,14.846437500000036],[105.47893847656266,14.84668749999993],[105.47906152343754,14.84693750000011],[105.47918847656254,14.84718750000009],[105.47931152343764,14.847437499999998],[105.47943847656265,14.847687500000077],[105.47956152343752,14.847937499999972],[105.47981347656255,14.848062500000111],[105.48029882812509,14.848312500000091],[105.48193847656253,14.84818750000015],[105.48242382812501,14.847937499999972],[105.48696777343767,14.848066406250183],[105.48747753906261,14.848738281249993],[105.48718847656252,14.849300781250093],[105.48738476562514,14.84992187500012],[105.48900488281274,14.850078125000167],[105.48918847656253,14.850437500000155],[105.48937109375024,14.850812500000004],[105.4896884765624,14.850687499999964],[105.48981152343762,14.850437500000155],[105.49093847656243,14.849187500000113],[105.49110644531245,14.848499999999973],[105.49183886718774,14.847945312500045],[105.4923115234374,14.84818750000015],[105.49256347656254,14.848312500000091],[105.4928115234375,14.84843749999996],[105.49331347656258,14.8485625],[105.49356152343753,14.84868750000004],[105.49381347656256,14.84881250000008],[105.49431152343769,14.849187500000113],[105.49480566406257,14.849429687500205],[105.49493847656257,14.849687500000002],[105.49514257812515,14.850105468750101],[105.495798828125,14.850425781250095],[105.49693847656269,14.851687500000097],[105.49707617187497,14.852812500000098],[105.49781152343772,14.85266406250021],[105.49768847656244,14.85231249999994],[105.49756152343755,14.852062500000045],[105.49743847656268,14.851812500000051],[105.49718847656257,14.851324218750136],[105.4973115234375,14.850437500000155],[105.49780468750012,14.849785156250022],[105.49756152343755,14.849312500000153],[105.49738281250015,14.848582031250032],[105.49574511718774,14.848421875000085],[105.49556152343766,14.848062500000111]]]]},"properties":{"id":"26070"}}]}