{"type":"FeatureCollection","features":[{"type":"Feature","geometry":{"type":"MultiPolygon","coordinates":[[[[83.03125651041651,22.95206841362861],[83.03164605034723,22.951671956380324],[83.03536159939225,22.953379584418585],[83.0367651367188,22.95332397460966],[83.03661078559028,22.951949734158262],[83.0354283311631,22.952575412326652],[83.0323874240452,22.951205240885542],[83.03167209201379,22.949666341146084],[83.03305013020847,22.948258734809343],[83.03180691189246,22.947783067491542],[83.02964111328131,22.95012044270848],[83.02778320312487,22.94877834743943],[83.02904649522557,22.94796251085083],[83.03017089843743,22.946749131944586],[83.03045871310772,22.945838623047067],[83.02809678819457,22.946457519531535],[83.02722764756945,22.945272488064447],[83.02626980251736,22.94496934678827],[83.02769097222236,22.941815321180826],[83.02917778862835,22.94111368815119],[83.02847222222218,22.94013888888918],[83.02777235243062,22.940272488064366],[83.02694986979176,22.941671956380347],[83.02555555555588,22.94223036024333],[83.02479817708323,22.941829562717217],[83.02417209201403,22.942505289713708],[83.02332465277797,22.94277357313382],[83.02418267144085,22.947545301649427],[83.024733344184,22.948055555555754],[83.02416829427099,22.9485789659291],[83.0219390190974,22.94888359917546],[83.01972167968754,22.949701470269247],[83.0194498697916,22.95060492621539],[83.02297498914945,22.950590955946367],[83.02559895833323,22.95000528971387],[83.02839789496537,22.95215155707477],[83.02888346354158,22.953531765408087],[83.02760009765629,22.95393812391511],[83.02722764756945,22.95472751193593],[83.02559950086814,22.955038384331758],[83.0222767469617,22.956965603298826],[83.02189073350681,22.958586561415103],[83.0189591471354,22.95898722330739],[83.01861653645832,22.959778103298746],[83.02016357421863,22.961211751302173],[83.02111653645849,22.961661376953288],[83.02256184895825,22.963499620225903],[83.02325412326385,22.963883599175432],[83.02568386501721,22.96221164279524],[83.02779676649297,22.96138888888899],[83.02832790798627,22.958605821397768],[83.02927381727429,22.956700710720654],[83.03378797743082,22.95516276041691],[83.0341612413196,22.954609239366505],[83.03125651041651,22.95206841362861]]]]},"properties":{"id":"9722"}}]}