{"type":"FeatureCollection","features":[{"type":"Feature","geometry":{"type":"MultiPolygon","coordinates":[[[[104.70806152343451,16.832248535156566],[104.70980197482336,16.830300835503806],[104.71187228732342,16.83261800130242],[104.71261773003184,16.832662489149698],[104.71429470485859,16.831844618055825],[104.71443250867779,16.828148600260718],[104.71300835503192,16.82737494574684],[104.71148491753215,16.82728407118084],[104.7082107204831,16.82771945529538],[104.70555826822616,16.82654459635458],[104.70437554253195,16.8265483940975],[104.70361111110813,16.826111111111416],[104.70095486110833,16.826931423611384],[104.69875759548316,16.82989501953169],[104.69985514322636,16.83060546875035],[104.7010329861084,16.82875325520861],[104.70306911892081,16.82764675564259],[104.707070312497,16.82902126736144],[104.70761664496231,16.830543619791953],[104.70584418402476,16.833081325955206],[104.70719780815696,16.834130316840557],[104.70806152343451,16.832248535156566]]]]},"properties":{"id":"22076"}}]}