{"type":"FeatureCollection","features":[{"type":"Feature","geometry":{"type":"MultiPolygon","coordinates":[[[[76.96055284288249,26.435830620659914],[76.96357557508694,26.435338541666894],[76.96471991644987,26.436114366319586],[76.96916395399333,26.435803493923757],[76.96830742730057,26.43498046875024],[76.96611206054703,26.43416286892382],[76.96481363932324,26.434495713975778],[76.9636649576826,26.43390407986128],[76.96333604600719,26.432219509548972],[76.96295342339445,26.43194715711823],[76.96221394856823,26.433075358073026],[76.9606195746533,26.433042805989686],[76.96121785481787,26.43070827908012],[76.96082682291691,26.428033040364852],[76.96025960286491,26.427488064236357],[76.95956054687534,26.4260470920141],[76.95874823676232,26.426465657552242],[76.95833604600708,26.425429416232745],[76.96139444987008,26.423602701823043],[76.96194702148446,26.423614095052258],[76.96256198459238,26.42329725477441],[76.96363050672758,26.422185058594025],[76.96417426215308,26.41995442708358],[76.96563408745695,26.418551974826585],[76.96541666666704,26.417916666666727],[76.96303629557318,26.419192708333554],[76.96304538302977,26.420917697482764],[76.96155029296912,26.422025824652877],[76.9602804904516,26.423347439236338],[76.96000271267403,26.422775065104332],[76.95956542968767,26.422502712673776],[76.95706190321218,26.42417154947931],[76.95666937934064,26.426866319444528],[76.95778157552095,26.42833197699666],[76.95720947265639,26.43062228732667],[76.95723158094634,26.431709255642645],[76.9586189778648,26.434752061632224],[76.95861490885451,26.43616102430569],[76.96055284288249,26.435830620659914]]]]},"properties":{"id":"18782"}}]}