{"type":"FeatureCollection","features":[{"type":"Feature","geometry":{"type":"MultiPolygon","coordinates":[[[[76.81702582465292,26.200699327257013],[76.8168055555557,26.200138888889043],[76.81612521701439,26.20066406250021],[76.81575995551256,26.202394748263984],[76.81317843967051,26.203230523003626],[76.81153510199661,26.204031304253547],[76.81243720160606,26.20524793836816],[76.8129045952692,26.206926540798733],[76.81502414279547,26.2054036458334],[76.81553765191009,26.20414876302098],[76.81668646918413,26.203828938802218],[76.81702582465292,26.200699327257013]]]]},"properties":{"id":"18829"}}]}