{"type":"FeatureCollection","features":[{"type":"Feature","geometry":{"type":"MultiPolygon","coordinates":[[[[100.04628825717057,20.26263183593791],[100.04623076756363,20.261181640625452],[100.04881883620774,20.26150878906286],[100.04976673549632,20.260485568576826],[100.05013359281313,20.25922905816013],[100.0495086712265,20.257446289062898],[100.05068914836872,20.2557633463546],[100.04674159579375,20.253141276041987],[100.04573207854801,20.2510026041671],[100.04834572685641,20.24798882378505],[100.0487447039242,20.245263671875406],[100.0470780372577,20.244866536458673],[100.0455555555512,20.24361111111162],[100.04452742470195,20.243751627604553],[100.04403307384487,20.244340820312857],[100.04568914836872,20.246089409722657],[100.0433235740617,20.250651584201748],[100.0381877814356,20.251266276042102],[100.03432333733852,20.25111328125034],[100.02865973684104,20.24853081597253],[100.02786075379666,20.246255425347556],[100.02708862834075,20.247088758681002],[100.02613287925297,20.24735568576419],[100.02292349761964,20.246684570312894],[100.01846692707377,20.248466796875306],[100.0168929295032,20.249747721354595],[100.01712999906383,20.25096679687539],[100.02028490781359,20.24911349826428],[100.02207803831723,20.249382052951745],[100.02142716990127,20.251238606771224],[100.02042722410195,20.253128797743415],[100.02130674308754,20.254300130208748],[100.02355716651894,20.251643337674153],[100.02500452147146,20.250709092882488],[100.02833614031047,20.251876627604645],[100.02940082549637,20.255485026042024],[100.03053073352814,20.256018337674035],[100.0315537548021,20.257122395833775],[100.03150104840157,20.258452148437897],[100.03295391294242,20.260171440972627],[100.03289468870801,20.26166558159764],[100.0337308173666,20.262077907986495],[100.03625708049762,20.25984483506977],[100.03750407960231,20.25989420572951],[100.0397312121876,20.262298177083764],[100.04071004231324,20.26078233506989],[100.04170464409302,20.260422092014238],[100.04457803725776,20.262088758680875],[100.04577243380655,20.262652452257313],[100.04628825717057,20.26263183593791]],[[100.03968422783296,20.25696343316008],[100.04111111110663,20.256388888889347],[100.04227015600847,20.2573470052087],[100.0420513576889,20.25882758246567],[100.04012227163926,20.259364691840602],[100.03944908141668,20.25926540798649],[100.03904566022644,20.25802246093791],[100.03968422783296,20.25696343316008]]]]},"properties":{"id":"9985"}}]}