{"type":"FeatureCollection","features":[{"type":"Feature","geometry":{"type":"MultiPolygon","coordinates":[[[[80.04026744418647,23.852510308160007],[80.03986111111092,23.851527777777974],[80.03769189622656,23.85174899631106],[80.0382515547009,23.853272976345764],[80.03569816589331,23.853662109375293],[80.03502115885388,23.854875488281536],[80.03496437072741,23.855582411024542],[80.03787358601849,23.85637858072947],[80.04221188863087,23.8552411566842],[80.04192099677189,23.85432807074686],[80.04068984137623,23.85326741536484],[80.04026744418647,23.852510308160007]]]]},"properties":{"id":"19498"}}]}