{"type":"FeatureCollection","features":[{"type":"Feature","geometry":{"type":"MultiPolygon","coordinates":[[[[104.4040823025147,16.567631293403082],[104.40500108506646,16.564334852430903],[104.40541124131673,16.561081000434257],[104.40372178819152,16.559004991319767],[104.4033333333305,16.557777777778057],[104.40216932508403,16.5589680989586],[104.401533203122,16.56097764756977],[104.40091634114279,16.561800130208567],[104.39947347004917,16.56103678385452],[104.3981998697889,16.559300130208655],[104.39725070529212,16.558755425347442],[104.39640326605607,16.561431477864886],[104.39520426431997,16.562077907986406],[104.39363742404217,16.560876736111382],[104.39275661892063,16.5613427734378],[104.39574544270553,16.56489827473989],[104.3982183159695,16.565709906684376],[104.3995426432264,16.56565755208355],[104.40113498263597,16.566596679687848],[104.4023868815074,16.565977647569667],[104.40321668836529,16.567665473090614],[104.4040823025147,16.567631293403082]]]]},"properties":{"id":"22109"}}]}