{"type":"FeatureCollection","features":[{"type":"Feature","geometry":{"type":"MultiPolygon","coordinates":[[[[78.86466796874996,25.11867382812507],[78.86480859375004,25.11731835937512],[78.86343359375016,25.11719238281252],[78.86319140624997,25.11705761718754],[78.86293359375017,25.11694238281271],[78.86258203125018,25.11674511718762],[78.86244140625016,25.115640625000054],[78.8627421875,25.115100585937697],[78.86344140625002,25.114942382812515],[78.86368359375004,25.114807617187537],[78.86394140625012,25.114692382812706],[78.86405859375017,25.114456054687537],[78.86351562500002,25.11376171875],[78.86369140625013,25.113442382812664],[78.86380859375006,25.112932617187568],[78.86394140625012,25.11269238281251],[78.86405859375017,25.111932617187605],[78.86449609375015,25.111375000000166],[78.86405859375017,25.110817382812627],[78.86400000000023,25.109750000000176],[78.86357421875007,25.109877929687556],[78.86344140625002,25.1113173828127],[78.86326171875007,25.11163964843763],[78.86264062500013,25.111807617187566],[78.86219140624999,25.11155761718767],[78.86138281250018,25.11144238281247],[78.86119140625013,25.111734375000054],[78.86144140625018,25.1121826171876],[78.86155859375006,25.11269238281251],[78.86180078125008,25.113125000000096],[78.86155859375006,25.113557617187496],[78.86144140625018,25.113817382812513],[78.8613085937499,25.11405761718757],[78.86119140625013,25.114317382812587],[78.86105859375007,25.114557617187558],[78.86094140624996,25.114817382812475],[78.86060546875015,25.115289062500054],[78.86010156250009,25.115006835937578],[78.8598945312502,25.114104492187636],[78.85918359375003,25.11394238281264],[78.85894140625012,25.113807617187675],[78.85868359375004,25.113692382812474],[78.85837500000022,25.113520507812638],[78.85806640625017,25.113692382812474],[78.85764062500013,25.113807617187675],[78.85719140625,25.113557617187496],[78.85618359375016,25.113442382812664],[78.85594140624997,25.1133076171876],[78.85569140625014,25.113279296875106],[78.85609375000021,25.11384765625023],[78.85656640625015,25.11405761718757],[78.85680859374989,25.114192382812632],[78.85706640625014,25.114307617187563],[78.85891015625,25.11603710937507],[78.85909375000008,25.11684667968764],[78.85956640625002,25.11705761718754],[78.86105859375007,25.11844238281256],[78.86173437500017,25.11855761718749],[78.86218359375007,25.118307617187682],[78.86285937500017,25.11819238281248],[78.86330859375008,25.11844238281256],[78.86406640625015,25.11855761718749],[78.86432421875,25.118701171875188],[78.86466796874996,25.11867382812507]]]]},"properties":{"id":"19112"}}]}