{"type":"FeatureCollection","features":[{"type":"Feature","geometry":{"type":"MultiPolygon","coordinates":[[[[78.7052864583338,25.19186197916683],[78.70644476996583,25.190838758680542],[78.70850802951438,25.19193033854171],[78.70888346354215,25.191034613715388],[78.70777235243085,25.190005425347266],[78.70727810329893,25.189172092014076],[78.70916124131983,25.189944118923677],[78.7085392252607,25.188768446180617],[78.70944986979194,25.18833875868063],[78.70971679687526,25.18721679687512],[78.71080186631994,25.18611219618066],[78.71194986979211,25.18583875868063],[78.71249457465316,25.185383029513872],[78.71109836154565,25.18472384982651],[78.71166124131972,25.183883463541775],[78.71249457465316,25.183444010416864],[78.7116107855907,25.18306098090288],[78.71042453342042,25.183688693576457],[78.70771945529557,25.183581271701414],[78.70685682508704,25.182650282118033],[78.70738959418432,25.18164333767359],[78.70605278862885,25.18169650607642],[78.7053024631081,25.182506510416744],[78.7033213975698,25.182528211805604],[78.7027832031255,25.180827907986256],[78.70249457465329,25.180560980902797],[78.70222764756991,25.179509548611165],[78.70370985243116,25.17757649739589],[78.70549099392414,25.176573893229275],[78.70620442708358,25.17474121093757],[78.70833875868092,25.1744498697917],[78.70860568576418,25.173414713541646],[78.70636881510464,25.173058268229184],[78.70597222222293,25.17180555555568],[78.70463026258724,25.172535807291737],[78.70502875434065,25.17367296006954],[78.7036056857643,25.17471679687506],[78.70333875868104,25.175156792534708],[78.70418321397605,25.175555555555533],[78.7041587999137,25.176170247395888],[78.70172200520884,25.178234049479258],[78.70100748697965,25.179340820312547],[78.69962809244825,25.180231119791756],[78.69883110894145,25.17937120225706],[78.69890597873322,25.177484266493153],[78.69721001519153,25.17694769965277],[78.6984054904519,25.1754785156251],[78.69888346354199,25.174405381944425],[78.69802001953175,25.17361653645851],[78.69725368923642,25.174443359375047],[78.69594889322966,25.17475423177096],[78.69494167751768,25.174714626736147],[78.6936694335943,25.17361653645851],[78.69333875868088,25.175005425347294],[78.69230034722253,25.1754953342015],[78.68996175130249,25.173894314236094],[78.69000786675386,25.175058051215316],[78.69098280164954,25.17596137152792],[78.6914019097226,25.177285156250022],[78.69249918619815,25.178301866319572],[78.69282769097245,25.179682074652888],[78.69361816406283,25.18083062065982],[78.6930628797746,25.18348470052095],[78.69455566406273,25.18630588107642],[78.69744981553876,25.18914550781257],[78.69921142578156,25.19018120659726],[78.70070692274331,25.192428927951468],[78.70250542534748,25.192772352430623],[78.70279242621578,25.19308268229163],[78.70529676649355,25.193116861979334],[78.7052864583338,25.19186197916683]]]]},"properties":{"id":"9493"}}]}