{"type":"FeatureCollection","features":[{"type":"Feature","geometry":{"type":"MultiPolygon","coordinates":[[[[82.97283989800346,24.421924981011657],[82.9772195095488,24.419997219509852],[82.97971950954852,24.419163886176577],[82.98142361111124,24.41889241536488],[82.9828195529515,24.417439643012514],[82.9833306206597,24.41638610839874],[82.98439127604158,24.415690646701705],[82.98522840711794,24.41396518283446],[82.98803141276036,24.413264838324963],[82.98977403428833,24.41222500271303],[82.99164415147564,24.414171549479377],[82.99389160156241,24.414719441732018],[82.99481011284715,24.41657870822513],[82.99574544270862,24.41703240288662],[82.99640869140617,24.418052775065377],[82.99638373480892,24.416830037435204],[82.99499728732653,24.415002780490695],[82.99465359157998,24.413592664930817],[82.99218614366308,24.413590562608945],[82.99146945529523,24.41284464518263],[82.99111382378467,24.41138610839866],[82.99023111979201,24.409930352105278],[82.99143608940969,24.409140285916095],[82.99305826822902,24.40861389160183],[82.99737494574671,24.406031087239796],[82.99971950954856,24.402497219509797],[83.0002878146702,24.40222140842046],[83.00109890407995,24.398066541884035],[83.00240641276051,24.396137830946415],[83.00336588541686,24.395826483832806],[83.00388617621539,24.39526407877642],[83.00277506510426,24.39472500271289],[83.00166937934014,24.393732164171197],[83.00268988715274,24.39222683376768],[83.00358371310776,24.38947218153247],[83.00499728732623,24.3874374050568],[83.00414225260417,24.384939914279855],[83.00418619791654,24.38279113769555],[83.00388617621539,24.382502780490768],[83.0036138237846,24.381357760959403],[83.00556369357659,24.381397569444715],[83.0066924370661,24.380258449978584],[83.01080403645844,24.380342339409978],[83.01110839843759,24.379757419162544],[83.00888617621516,24.379447224935177],[83.00777506510431,24.37889166937974],[83.0069303385416,24.378047349718358],[83.0063406032987,24.378059353298895],[83.00430582682296,24.379107530382157],[83.00202501085082,24.376733534071505],[83.00166937934014,24.37527499728762],[83.00027506510409,24.373336113824067],[83.0000027126737,24.372203233507307],[83.00059868706612,24.371630723741575],[83.0030544704862,24.37168084038646],[83.00333062065985,24.370860120985483],[83.00055284288183,24.37055833604623],[82.99778428819437,24.36919047037803],[82.99717502170145,24.368556315104485],[82.99624999999995,24.366649644640034],[82.99453857421864,24.3666845703128],[82.99164171006939,24.364419894748465],[82.98853651258688,24.36286980523039],[82.98693983289931,24.36165825737875],[82.98611572265642,24.361675075955063],[82.98497341579875,24.360808308919488],[82.98387505425356,24.356648084852736],[82.98389512803837,24.35344943576412],[82.98620415581613,24.349883355035004],[82.98694715711818,24.349169447157394],[82.9872195095488,24.3477749972876],[82.98786566840292,24.346476847331004],[82.98897298177096,24.345740152995063],[82.99063829210084,24.343200276692897],[82.99028076171894,24.33888624403238],[82.98971950954868,24.338058336046217],[82.98871120876723,24.33425754123293],[82.98805691189241,24.33362881130668],[82.9872195095488,24.33111389160183],[82.98639160156259,24.326852010091372],[82.98698513454858,24.32583611382408],[82.98898220486123,24.32651963975718],[82.98833062065981,24.325558336046413],[82.98791666666673,24.324282904731277],[82.98680013020842,24.325445014106137],[82.98582519531263,24.324430202908218],[82.98591118706608,24.317716335720775],[82.98553114149311,24.316606580946384],[82.98556315104165,24.308384195963725],[82.98697998046893,24.306628757053403],[82.98866482204849,24.305811360677396],[82.99951307508687,24.30358703613311],[83.01113525390636,24.303824191623477],[83.01577962239574,24.30323052300379],[83.02012695312519,24.30102471245695],[83.02299750434022,24.297501898871744],[83.0236669921874,24.294452379015112],[83.02303548177068,24.2910196940106],[83.0224218750001,24.289226752387336],[83.01972195095496,24.28601074218777],[83.01771050347216,24.284671969943858],[83.01665690104156,24.282190212673868],[83.01441813151055,24.279119466146142],[83.01374348958333,24.277040608724207],[83.01446641710064,24.272092827691324],[83.01331190321187,24.260357191297985],[83.01342095269084,24.255012613932507],[83.01143147786453,24.248685506185183],[83.01087103949672,24.24759772406729],[83.01053466796887,24.244500664605326],[83.01053439670133,24.240212131076674],[83.0099972873264,24.23916944715738],[83.00854437934018,24.23197123209657],[83.00763481987869,24.230629136827517],[83.00611382378472,24.227219441732103],[83.00553602430554,24.226367051866745],[83.00442464192727,24.225827907986357],[83.00445285373272,24.224453803168686],[83.00290228949652,24.221062554253848],[83.00194715711817,24.214997219509797],[83.00161024305558,24.21401285807316],[83.00166992187516,24.21109164767826],[83.00249755859366,24.210296359592206],[83.00263888888881,24.209861111111294],[83.00126302083342,24.21005316840315],[83.00051052517372,24.212372572157363],[83.00056016710064,24.214806043837086],[83.00112874348949,24.218139648437884],[83.00166937934014,24.21971944173194],[83.00194173177098,24.222225002712946],[83.00268988715274,24.223328721788448],[83.00361762152781,24.226187540690418],[83.00555826822912,24.228886108398726],[83.00667453342024,24.23113606770862],[83.00668402777771,24.23265530056449],[83.00778049045144,24.23555277506553],[83.00889160156245,24.240274997287585],[83.00916395399318,24.242551676432527],[83.00853651258674,24.245000000000232],[83.01095052083318,24.254498019748524],[83.01045735677079,24.25787292480493],[83.01137261284723,24.260261840820505],[83.01190836588526,24.268471476237323],[83.01007459852443,24.275724826389208],[83.01194173177086,24.2802805582685],[83.0136083984377,24.28361389160186],[83.01750271267375,24.288330552843078],[83.02028049045143,24.29221944173203],[83.0205908203126,24.292858818902175],[83.02055202907994,24.294753485785833],[83.01996392144102,24.295895250108913],[83.0164230685763,24.299297214084504],[83.01492567274315,24.300042521159227],[83.01200927734365,24.30098890516524],[83.00895209418402,24.301415676540984],[83.00222819010403,24.301278483073204],[82.99916856553816,24.301669514974364],[82.99692626953131,24.301669854058417],[82.99583251953132,24.30110643174943],[82.99516031901047,24.30180596245684],[82.99200276692696,24.302830539279782],[82.98619032118066,24.304256320529902],[82.9846657986113,24.30504163954018],[82.98238362630204,24.308536987304905],[82.98165825737837,24.308888888889143],[82.98166368272584,24.31139146592905],[82.98194715711796,24.31194166395423],[82.98234917534731,24.31605082194038],[82.9811067708334,24.31972222222248],[82.98139729817697,24.32028578016528],[82.98166965060759,24.322219916449924],[82.98165744357632,24.327807142469894],[82.98307942708331,24.32917317708359],[82.98390787760425,24.33088073730498],[82.98386935763901,24.332756008572318],[82.98559054904504,24.336199612087995],[82.98555935329873,24.338376871745012],[82.98616238064258,24.3401388888892],[82.98582519531263,24.341124267578422],[82.98547092013897,24.34400838216176],[82.98444173177094,24.34499721950985],[82.98110839843767,24.35110833062096],[82.9794775390624,24.35576565212709],[82.98008734809017,24.3587437608509],[82.97944173177078,24.359997219509907],[82.97917209201384,24.362902086046276],[82.98152235243063,24.364866672092305],[82.98278049045123,24.365274997287557],[82.98648328993059,24.367263861762453],[82.98851833767375,24.367924262153082],[82.98903727213545,24.371108330620913],[82.98948703342003,24.37018168131536],[82.99006266276032,24.369725002713125],[82.9934223090277,24.37087497287365],[82.99680826822927,24.374399142795582],[82.99751274956591,24.3772889539933],[82.99751925998257,24.37941528320343],[82.99666937934043,24.381267835829306],[82.99753336588557,24.3825421820749],[82.996947157118,24.387225002712995],[82.99574028862841,24.388815714518472],[82.99639187282983,24.38944179958804],[82.99636257595498,24.390866699219046],[82.99443874783,24.39180013020861],[82.99444769965291,24.392247653537666],[82.99641465928826,24.39220750596813],[82.99636827256953,24.394480523003708],[82.99555501302095,24.39526211208792],[82.99528049045139,24.396947224935133],[82.99415256076404,24.397783338758913],[82.99414930555568,24.399877794054063],[82.99219482421861,24.401136745877025],[82.98968777126751,24.402229749891788],[82.98861952039923,24.40334167480492],[82.98633138020821,24.404451768663435],[82.98458604600685,24.404467095269382],[82.98415961371526,24.40358791775202],[82.98257134331587,24.402062106662626],[82.98222493489581,24.40279676649338],[82.98303032769084,24.40357048882403],[82.98471950954851,24.4059556070966],[82.98272135416684,24.40753974066874],[82.98077392578116,24.408511284722564],[82.97657850477421,24.408921644423103],[82.97535671657985,24.4095511203345],[82.97491210937486,24.410467597114035],[82.97088080512142,24.41243401421474],[82.96970730251749,24.413914116753674],[82.96748046874993,24.41389214409753],[82.96666937934035,24.414736463758913],[82.96582004123255,24.41471910264788],[82.96528049045136,24.415280558268634],[82.96429877387143,24.415552775065464],[82.9638916015625,24.413052775065566],[82.9632134331599,24.410882500542797],[82.9621074761287,24.411452162001154],[82.96305284288209,24.414315185547224],[82.95941596137149,24.416247287326684],[82.95944797092025,24.4178090413415],[82.96000434027789,24.418888888889143],[82.95948974609391,24.41988749186217],[82.96004069010425,24.4208305528433],[82.96183403862838,24.42021674262189],[82.96283420138886,24.42073194715738],[82.96243598090271,24.42150499131965],[82.96337700737834,24.421961466471643],[82.96445800781257,24.423086683485522],[82.96446831597214,24.42520216200117],[82.96254991319435,24.427487453884908],[82.9611138237847,24.428157619900475],[82.96251247829846,24.428611518012374],[82.96306342230892,24.429747178819625],[82.9630406358506,24.431431681315345],[82.96194173177074,24.433052775065335],[82.9616590711806,24.433923339844085],[82.9599546983508,24.435560980903034],[82.9614610460068,24.437008327908387],[82.96477973090268,24.43861843533017],[82.96681586371525,24.439133809407807],[82.96721950954853,24.43838999430372],[82.96580268012164,24.436635064019526],[82.96585693359393,24.433979085286836],[82.96666937934035,24.432780558268504],[82.96806315104155,24.429132215712087],[82.96906412760407,24.428170369466415],[82.96778049045125,24.424147677951666],[82.96888617621536,24.423052775065358],[82.96999728732632,24.42249721950985],[82.97283989800346,24.421924981011657]]]]},"properties":{"id":"38907"}}]}