{"type":"FeatureCollection","features":[{"type":"Feature","geometry":{"type":"MultiPolygon","coordinates":[[[[104.55736653645553,16.81375542534765],[104.55763346353896,16.813138563368284],[104.55706759982345,16.812068413628708],[104.55707790798337,16.808745659722547],[104.55769422742756,16.806113009982923],[104.55762858072623,16.804468315972514],[104.55679253471922,16.80027750651074],[104.55589626735829,16.797719726562818],[104.55395128037898,16.797366536458625],[104.55206271701107,16.79802842881982],[104.55011501735842,16.79734564887177],[104.54864718966721,16.797403700087074],[104.54721435546597,16.796417914496843],[104.54597710503194,16.797366807725993],[104.54530029296583,16.797339952257204],[104.5430647786429,16.796157226562755],[104.5412315538164,16.792272677951715],[104.53969048393802,16.79077690972244],[104.53861111110834,16.787777777778132],[104.53793375650784,16.78840549045171],[104.53961941188939,16.79214626736136],[104.53956488714974,16.793519965278023],[104.53893174912898,16.794106445312792],[104.5363774956567,16.79400526258712],[104.53458875867781,16.792633463542003],[104.53252034504916,16.791469455295413],[104.53060682508394,16.790863444010625],[104.52983452690697,16.791272243923828],[104.52987440320877,16.792280815972546],[104.5321761067681,16.792647569444767],[104.53379774305265,16.793505588107905],[104.5349281141466,16.795256076389165],[104.5348258463512,16.79783610026078],[104.53543375650767,16.799570583767647],[104.53534912109077,16.80170111762179],[104.53463921440684,16.803466796875256],[104.53572265624709,16.802893608941247],[104.53665201822642,16.79995795355927],[104.538496093747,16.7967789713545],[104.53957655164632,16.796821831597498],[104.54733208550076,16.803142089844044],[104.54850450303516,16.804740939670438],[104.54845730251432,16.80593098958363],[104.5429117838514,16.80652208116358],[104.54238986544843,16.80708523220511],[104.5447460937472,16.80980197482664],[104.54290066188938,16.811511773003815],[104.54234646267062,16.812686360677432],[104.54236816405947,16.813231608073195],[104.54294433593466,16.813765462239857],[104.54425211588264,16.813713650173923],[104.54490885416365,16.81406114366355],[104.54596679687225,16.815699869791942],[104.54978949652482,16.818067491319752],[104.55013346353863,16.821096733941303],[104.5489957682262,16.822955186632242],[104.54681532117777,16.82398410373291],[104.54623453775744,16.8246110026044],[104.54627305772274,16.82558213975723],[104.54809407551787,16.826441514757278],[104.54952663845202,16.827539876302552],[104.55079128688962,16.82794026692747],[104.55158610025754,16.8279087999135],[104.55380479600424,16.82551405164972],[104.55743923610814,16.823398980035066],[104.55707790798337,16.820977647569777],[104.5568109809,16.814805230035006],[104.55736653645553,16.81375542534765]]]]},"properties":{"id":"10241"}}]}