{"type":"FeatureCollection","features":[{"type":"Feature","geometry":{"type":"MultiPolygon","coordinates":[[[[102.43315294053505,18.309514702691473],[102.43562744140323,18.307517225477795],[102.43681640624706,18.307924126519623],[102.43859564886858,18.307315131293734],[102.43932400173318,18.30507066514791],[102.43929172091694,18.303490804036812],[102.43986002603876,18.30238783094663],[102.4401662868892,18.300506591797358],[102.44013536241013,18.298996582031776],[102.43929714626424,18.29736924913233],[102.43973063150727,18.296527777778223],[102.4390150282089,18.295138888889255],[102.43959716796556,18.29400919596391],[102.43958930121218,18.291658393012682],[102.44134982638602,18.291229112413788],[102.44180284287884,18.29059231228338],[102.4395524088512,18.28984686957503],[102.43959038628165,18.28798923068618],[102.440992296004,18.286141764323347],[102.44152506510116,18.283528917101123],[102.4394433593719,18.280751817491918],[102.44014160155959,18.279030490451817],[102.44041639539617,18.276781412760798],[102.4409749348927,18.275697157118458],[102.44124728732325,18.27402506510454],[102.4423749457433,18.27262776692747],[102.4423472764727,18.271268581814653],[102.44275716145538,18.270473225911914],[102.44229139539615,18.26911309136328],[102.4433875868024,18.26766845703183],[102.44458062065686,18.264858398437838],[102.44542073567416,18.264051106771348],[102.44683946397274,18.259021267361476],[102.44903049044845,18.256530490451865],[102.44958062065658,18.255494927300816],[102.44845838758371,18.254015842014297],[102.44847574869473,18.25316392686672],[102.44962646484086,18.2520583767366],[102.45155598958038,18.251432156033403],[102.45402506510098,18.249302842882358],[102.45512695312206,18.248768174913707],[102.45608425563941,18.24777180989628],[102.45831515841704,18.24704779730959],[102.46246527777473,18.24789781358554],[102.46374728732329,18.246476101345863],[102.46318684895559,18.2442895507817],[102.46155056423291,18.24349568684933],[102.45996148003181,18.242212863498764],[102.45958604600392,18.243752712674137],[102.45920030381652,18.24412339952299],[102.45723741319128,18.243721381293796],[102.45481282551785,18.243746202257398],[102.45251003688921,18.242559950087212],[102.45208604600376,18.24123630099865],[102.45374159070886,18.240433078342363],[102.45430284287917,18.239742160373652],[102.45208062065652,18.23930826822958],[102.45139512803499,18.238955213759027],[102.45097493489291,18.236802842882383],[102.4497509765595,18.235189615885957],[102.44861111110797,18.2347222222228],[102.44791395399014,18.234858398437908],[102.44651502820872,18.235987413194962],[102.44542371961492,18.234851616753886],[102.4445749240422,18.235426974826723],[102.44458767360791,18.23604573567755],[102.44701361761852,18.239743109809382],[102.44635932074337,18.241013319227918],[102.44538981119481,18.240681559245232],[102.44229790581304,18.235024142795524],[102.4415112304657,18.235429416233004],[102.44012749565658,18.23876397026953],[102.43742702907687,18.238774142795563],[102.43618462456286,18.240669352213942],[102.43666910807005,18.243034939236466],[102.4387901475665,18.243871527778296],[102.43874104817397,18.246274956597546],[102.43765597872957,18.247317572700155],[102.43735324435457,18.247941623264268],[102.43739067925051,18.25283921983541],[102.43605224609061,18.25319173177131],[102.43500406900742,18.251593017578458],[102.43399956596923,18.251105685764273],[102.43403266058729,18.24948052300391],[102.43566704643806,18.248950195312986],[102.43505805121217,18.247767876519546],[102.43275987412895,18.247363823785165],[102.43135172525749,18.24831841362895],[102.43064832899015,18.250818006727854],[102.42981526692395,18.250388861762517],[102.4303803168373,18.247075602213926],[102.42597113715007,18.24624593099003],[102.42437879773993,18.24745429145007],[102.42186360676786,18.245522867838986],[102.42153049044825,18.246447753906622],[102.42402316622966,18.24810641818624],[102.42616048176765,18.24881808810808],[102.42652506510123,18.250731472439682],[102.4248421223929,18.251525065104587],[102.42419080945868,18.250847167969184],[102.42319715711514,18.25157945421043],[102.42500054253176,18.253311903212293],[102.42541395398993,18.25458604600739],[102.4261762152747,18.255710584852892],[102.4268028428788,18.257641601562895],[102.42802897135098,18.259450547960455],[102.42623806423288,18.26166897243968],[102.42540690103854,18.26124077691007],[102.42458604600384,18.26210232204913],[102.42519124348664,18.26268364800397],[102.42686821831276,18.263191731771286],[102.43069715711496,18.26208604600737],[102.43179796006623,18.261519097222646],[102.43237521701096,18.261530897352856],[102.4323551432262,18.262508273654973],[102.4299235026011,18.263101128472655],[102.42880126952846,18.264269070095892],[102.42954020181972,18.267151963976033],[102.42788411458022,18.269084608290314],[102.42736382378158,18.271290825738248],[102.4279248046843,18.272929823134092],[102.42790825737544,18.27374294704896],[102.42822428385116,18.274302842882292],[102.4290473090247,18.27344631618962],[102.43017957899005,18.270697157118462],[102.4319729275143,18.271311035156643],[102.43235839843456,18.27203965928861],[102.43025173610803,18.274549018012536],[102.43091444227124,18.275835367838923],[102.42833577473644,18.276562771267706],[102.42791937933723,18.27725653754395],[102.43126925997976,18.27877265082509],[102.43124321831297,18.28005262586848],[102.42952663845173,18.27946519639798],[102.42858615451095,18.279949679904988],[102.43014160155943,18.28180284288237],[102.43089843749684,18.283362358941417],[102.43040256076088,18.28432481553868],[102.42904134114272,18.2849850802956],[102.42875271267044,18.28764160156291],[102.4273448350663,18.288098551432853],[102.4262364366289,18.287347276476126],[102.42540825737527,18.287364095052524],[102.42541992187213,18.287936062283435],[102.42625813801786,18.288764241537052],[102.42624674478864,18.289324951172304],[102.42507324218442,18.290452338325096],[102.42516872829569,18.291247287326826],[102.42683539496207,18.290419379340747],[102.42857014973671,18.291247287326826],[102.42804714626422,18.28971937391539],[102.42867268879897,18.289118381076875],[102.42976996527457,18.289683702257406],[102.4311056857608,18.288293728299166],[102.43214653862529,18.290809190538567],[102.4329147677922,18.29041341145883],[102.4334695095454,18.29046291775221],[102.4320868598061,18.29314683702313],[102.43180826822598,18.29514160156299],[102.43124565971928,18.296528591580312],[102.43209174261872,18.297643500434432],[102.43207953558706,18.298236083984847],[102.43084364149004,18.299423692491757],[102.42958333333021,18.298467339410138],[102.42807535806972,18.29958062066008],[102.427086046004,18.297913953993458],[102.42577446831277,18.296530490451772],[102.42482828775755,18.29797363281294],[102.42430826822616,18.299597032335484],[102.42708062065682,18.300974934896416],[102.42937038845176,18.301347791884112],[102.4298583984345,18.30237670898478],[102.42782036675047,18.30371297200564],[102.42670220268784,18.303137071397998],[102.42597493489271,18.303224283854533],[102.42680826822598,18.304025065104653],[102.4276472981741,18.306260850694997],[102.42763563367751,18.306825358073354],[102.42567979600383,18.306785481771186],[102.42624728732326,18.307919379340618],[102.42713406032678,18.308207194010762],[102.42763617621253,18.30877983941022],[102.42597493489271,18.3106342230907],[102.42742377386836,18.310969509549025],[102.43065483940686,18.3098634168841],[102.43315294053505,18.309514702691473]],[[102.43405761718455,18.305662163628853],[102.4348508029482,18.3017952473963],[102.43527777777481,18.301666666667046],[102.43553819444142,18.302375895182863],[102.43503390841701,18.306795247396295],[102.43405761718455,18.305662163628853]],[[102.43993299695873,18.259012451172367],[102.43805555555244,18.25829074435805],[102.43680230034411,18.25877251519141],[102.43600775824373,18.258305392795634],[102.43807725694151,18.256648084852927],[102.43845675997946,18.25555135091193],[102.43639892577832,18.25476101345538],[102.43691162109056,18.25388861762194],[102.43876546223672,18.25348754882866],[102.43972791883382,18.25292182074712],[102.44055555555255,18.252777777778093],[102.44148383246213,18.254029269748685],[102.44179009331302,18.255378553602753],[102.44040120442398,18.255679117838923],[102.44006781683717,18.25609551323832],[102.44031738280952,18.25810099283902],[102.43993299695873,18.259012451172367]]]]},"properties":{"id":"7653"}}]}