{"type":"FeatureCollection","features":[{"type":"Feature","geometry":{"type":"MultiPolygon","coordinates":[[[[79.5408279079862,23.7730502658424],[79.54176215277786,23.772609456380764],[79.54305718315973,23.773063286675793],[79.54603352864589,23.771464436849385],[79.5463834635419,23.76999471028698],[79.54698621961833,23.769119059245256],[79.54625000000024,23.76791666666705],[79.54527235243077,23.768050265842504],[79.54496527777783,23.768381890191378],[79.54245062934066,23.768063015408444],[79.5425290256077,23.770039740668807],[79.54073432074674,23.769968532986567],[79.54019883897573,23.7716604275178],[79.53770290798636,23.770785725911978],[79.5372205946181,23.77026489257854],[79.53658338758706,23.771614854601154],[79.53829671223988,23.773049045139402],[79.53977810329857,23.773605821398007],[79.5408279079862,23.7730502658424]]]]},"properties":{"id":"19540"}}]}