{"type":"FeatureCollection","features":[{"type":"Feature","geometry":{"type":"MultiPolygon","coordinates":[[[[81.2217092556422,25.176563585069886],[81.22069444444438,25.17486111111154],[81.22010009765606,25.175049370660105],[81.21972751193553,25.175838758680925],[81.21778957790784,25.177062174479644],[81.21782497829881,25.179664713542124],[81.21746039496523,25.18195421006986],[81.21674140082465,25.182730034722653],[81.2156087239583,25.183329535590616],[81.21390367296002,25.18365505642393],[81.2138395182291,25.185272352431],[81.21887871636264,25.184973415799107],[81.21971435546854,25.183394097222575],[81.21969740125868,25.182013346354523],[81.22021959092856,25.18090711805597],[81.22068386501715,25.180405815972748],[81.22242106119776,25.179856228298974],[81.22305026584215,25.17866699218787],[81.22162787543422,25.17861816406287],[81.2217092556422,25.176563585069886]]]]},"properties":{"id":"19079"}}]}