{"type":"FeatureCollection","features":[{"type":"Feature","geometry":{"type":"MultiPolygon","coordinates":[[[[79.12315429687547,25.52988335503474],[79.12477810329901,25.528894314236155],[79.12669406467055,25.52971679687512],[79.12666097005271,25.528883734809213],[79.12747341579896,25.528616536458486],[79.12777235243104,25.531116536458484],[79.12897460937532,25.531720106336905],[79.12839138454913,25.533384060329993],[79.1296880425351,25.53399603949653],[79.12999457465318,25.535283203125104],[79.13073459201425,25.535550130208392],[79.13151991102481,25.532424045139095],[79.13025417751791,25.529347601996633],[79.13028971354234,25.528451063368138],[79.1313937717018,25.527761501736165],[79.13210449218784,25.527789713541864],[79.13258734809054,25.52881266276053],[79.1333799913202,25.529161241319613],[79.13503716362888,25.52802110460071],[79.13498372395887,25.526673719618103],[79.13547634548641,25.52611653645849],[79.13582790798645,25.527227647569518],[79.13614664713592,25.52749457465289],[79.13687635633752,25.526707085503617],[79.13721679687566,25.52778320312504],[79.13809488932324,25.52819742838561],[79.13977077908041,25.527758246527796],[79.14041666666722,25.52706136067708],[79.14083821614625,25.52751627604175],[79.14166259765662,25.52748372395841],[79.14193901909769,25.527813313802184],[79.14002577039966,25.52958604600721],[79.13929823133716,25.53164984809031],[79.14114664713574,25.53193901909728],[79.14250542534754,25.53083875868063],[79.14296603732694,25.529172092013994],[79.14542019314266,25.530180121527906],[79.14722764756974,25.532772352430726],[79.14822808159775,25.53582790798623],[79.14955783420177,25.534912923177075],[79.15032850477482,25.536469455295205],[79.15256022135455,25.536381022135558],[79.15243408203153,25.533200954861243],[79.14966389974026,25.530481770833532],[79.14888753255255,25.528836805555585],[79.14738199869842,25.5274416775175],[79.14582790798667,25.526949869791764],[79.14417209201443,25.52383300781267],[79.14483940972283,25.522571614583427],[79.14942979600724,25.521755913628553],[79.15044135199688,25.523322482638974],[79.15221679687554,25.522945149739655],[79.15100423177122,25.52216200086812],[79.15028320312544,25.521383463541696],[79.14937337239613,25.521095648871736],[79.14947129991376,25.518626573350716],[79.14888210720537,25.516945258246594],[79.14928738064268,25.515398491753572],[79.14689154730942,25.511324869791864],[79.14513888888942,25.5104166666668],[79.14332275390657,25.51055067274308],[79.14362169053848,25.511115451388974],[79.1419249131948,25.511385904948085],[79.14362114800403,25.512383083767418],[79.14359917534753,25.512937825521107],[79.14214436848997,25.513624403211992],[79.13979654947971,25.513635796441193],[79.14166124131978,25.515849609375138],[79.13975640191009,25.515859375000076],[79.13866834852459,25.51528374565997],[79.13510687934078,25.514510633680644],[79.1347276475698,25.51520860460073],[79.13694986979223,25.515827907986278],[79.13781873914965,25.516426052517517],[79.13888346354193,25.518104926215443],[79.13704399956632,25.518031955295214],[79.13441216362887,25.518490397135523],[79.13446967230945,25.51994059244798],[79.13688747829909,25.519307183159853],[79.13725396050401,25.520083821614634],[79.13716634114613,25.52166124131972],[79.13529296875035,25.520670030382036],[79.13379828559076,25.5214238823786],[79.13025173611143,25.52142849392378],[79.13029378255263,25.522485080295155],[79.12982014974008,25.523380262586826],[79.12784667968779,25.52388346354178],[79.12678792317743,25.522244194878567],[79.12553927951424,25.521949869791683],[79.12557183159757,25.522773166232838],[79.12495334201421,25.52332790798617],[79.12330674913252,25.522195095486367],[79.12331895616362,25.52088975694467],[79.12027235243087,25.52166124131972],[79.11942355685821,25.52211073133701],[79.11946234809082,25.52308729383695],[79.12172688802124,25.524206542968813],[79.12418267144167,25.52498399522578],[79.1248171657991,25.525669216579928],[79.12432264539981,25.52660373263896],[79.12073784722273,25.527326660156277],[79.11994656033048,25.526908094618037],[79.11874050564288,25.526955837673682],[79.11715955946207,25.525867784288337],[79.11665120442754,25.526416558159923],[79.1166737196186,25.526981608073015],[79.11758436414985,25.52782552083339],[79.11990261501765,25.52855929904527],[79.12027235243087,25.529727647569516],[79.12112494574697,25.529997287326353],[79.12014648437551,25.53090386284731],[79.11914116753499,25.533941243489608],[79.11919731987902,25.53535725911472],[79.1205501302089,25.536949869791655],[79.12166124131991,25.537394748264106],[79.1200054253475,25.538212619357722],[79.1209239366323,25.5386461046008],[79.12214545355963,25.53859754774315],[79.1228767903651,25.536772460937556],[79.12122151692736,25.534813639323048],[79.12176459418438,25.53169569227431],[79.12315429687547,25.52988335503474]]]]},"properties":{"id":"9473"}}]}