{"type":"FeatureCollection","features":[{"type":"Feature","geometry":{"type":"MultiPolygon","coordinates":[[[[83.03910156250018,24.015100585937503],[83.03964062499998,24.014844726562572],[83.03975000000005,24.01450000000007],[83.03905859375013,24.01456054687506],[83.03841015625008,24.01505859375],[83.03789453125003,24.01478710937519],[83.03709375000008,24.014818359375028],[83.03694140625007,24.01596289062516],[83.03719140625023,24.01643554687503],[83.03730859375017,24.016689453125096],[83.03754296875005,24.017060546875044],[83.03833203125018,24.01641699218756],[83.03855859374997,24.015935546875042],[83.03894140625007,24.01543945312497],[83.03910156250018,24.015100585937503]]]]},"properties":{"id":"31124"}}]}