{"type":"FeatureCollection","features":[{"type":"Feature","geometry":{"type":"MultiPolygon","coordinates":[[[[74.87565104166723,24.311651272244703],[74.87609863281332,24.311092258030143],[74.8771213107648,24.3112194824225],[74.8786073133688,24.31003092447986],[74.88154188368125,24.309520263672525],[74.88545247395896,24.308025444879164],[74.8877756076395,24.308314412435706],[74.88879991319519,24.305543958876612],[74.88990505642445,24.304658610026735],[74.89056803385503,24.304741075304534],[74.89116156684096,24.304154052735058],[74.89108452691036,24.303534274631815],[74.88973687066058,24.30296657986186],[74.88958333333395,24.30208333333404],[74.88887369791749,24.302206827800248],[74.88751519097306,24.30307094997913],[74.88596028645904,24.303317938911363],[74.88501519097295,24.302762383355756],[74.88351562500097,24.302515394423438],[74.8828428819451,24.303355984158756],[74.88378906250088,24.304651624892216],[74.88415147569506,24.30569864908925],[74.87915147569518,24.30720682780023],[74.87755805121591,24.308143310547578],[74.8763612196187,24.310395236545887],[74.87465874566035,24.31018351237053],[74.87475314670209,24.310944213867884],[74.87565104166723,24.311651272244703]]]]},"properties":{"id":"19347"}}]}