{"type":"FeatureCollection","features":[{"type":"Feature","geometry":{"type":"MultiPolygon","coordinates":[[[[76.40016574435813,31.427769639757116],[76.4029981825091,31.426104329427204],[76.40870429145,31.42028998480926],[76.41054158528678,31.419103461371805],[76.41058281792587,31.418060980902837],[76.40940619574681,31.41842393663204],[76.40595513237875,31.421259765625095],[76.40292819553005,31.424896104600805],[76.39969957139792,31.426939019097475],[76.39642740885492,31.426651475694698],[76.39555026584239,31.425838758680655],[76.39528306749193,31.420827907986194],[76.39476453993112,31.418849012586918],[76.395323757596,31.417663845486274],[76.39856391059081,31.41466145833361],[76.3986793348528,31.411751302083402],[76.39727511935794,31.410696885850854],[76.39334350585975,31.405405815972358],[76.39167195638052,31.404439019097353],[76.39012274848145,31.404070095486233],[76.38634779188416,31.402288411458443],[76.38643405490498,31.400112033420214],[76.38560451931451,31.39835449218758],[76.38277994791721,31.397527669270957],[76.38091837565153,31.397453884548796],[76.37944146050384,31.398407660590507],[76.37806084526946,31.399727647569506],[76.37443915473139,31.39999457465288],[76.37078436957503,31.401064724392455],[76.36919881184949,31.400316297743274],[76.36825168185825,31.398769531250068],[76.36759697808205,31.39466010199665],[76.36683213975758,31.39247748480922],[76.36756727430608,31.39068793402798],[76.36701850043451,31.38700819227445],[76.3669094509552,31.38425726996539],[76.36817545572964,31.382355957031535],[76.36680555555589,31.380694444444643],[76.36449300130235,31.381136067708468],[76.36437133789119,31.38420708550356],[76.36469373914971,31.38808051215294],[76.3656660970058,31.393492296007054],[76.36482055664098,31.39671929253501],[76.36527248806479,31.398616536458476],[76.36819769965305,31.405106065538376],[76.37238281250032,31.407216796875105],[76.37555026584252,31.406383463541744],[76.37778306749189,31.40611653645847],[76.37816270616375,31.40531195746543],[76.38048231336856,31.40521999783006],[76.3808433702263,31.40555474175366],[76.37976643880265,31.406959092882204],[76.38077514648498,31.40804768880237],[76.38206353081628,31.408098687066115],[76.3830897352436,31.40777398003489],[76.38440199110286,31.40635769314268],[76.38666137695364,31.40694986979183],[76.38957058376766,31.407228461371673],[76.39165920681464,31.408507486979232],[76.39381198459236,31.409345703125155],[76.39469780816026,31.41063286675363],[76.39480889214465,31.41343587239598],[76.3931107584639,31.417204589843877],[76.39229858398474,31.42446533203136],[76.39402669270888,31.42656819661481],[76.39682725694487,31.428050130208504],[76.40016574435813,31.427769639757116]]]]},"properties":{"id":"4667"}}]}