{"type":"FeatureCollection","features":[{"type":"Feature","geometry":{"type":"MultiPolygon","coordinates":[[[[99.51249185503255,19.71137150573996],[99.51222428816007,19.710831965111794],[99.51222428816007,19.71029679821885],[99.51249185503255,19.710024823834246],[99.51329888741625,19.710024857296446],[99.51357095403083,19.709757317454347],[99.51411050878957,19.709217716836562],[99.51437799691578,19.70894574597331],[99.51437799691578,19.707871106292956],[99.51411050878957,19.70759910392583],[99.51357095403083,19.707599043460334],[99.51329888741625,19.70733150812778],[99.51329888741625,19.70705956689993],[99.51357095403083,19.706792030255812],[99.51465006706965,19.706791971389023],[99.5149175569297,19.706520002529246],[99.51518954401641,19.705445370780936],[99.51518954401641,19.70436624501299],[99.51437799691578,19.704098646888],[99.51357095403083,19.703826669251598],[99.51329888741625,19.703559133550627],[99.51329888741625,19.703287104305886],[99.51437799691578,19.70220802202529],[99.5149175569297,19.70194046329155],[99.51599668749472,19.701672964250946],[99.51734332979359,19.700861377696086],[99.51761091317715,19.70005425703512],[99.51761091317715,19.69951470204279],[99.51761091317715,19.69870761796109],[99.51707574726353,19.698707594281544],[99.51680375399641,19.69843565685359],[99.51653625804593,19.698168064235475],[99.51653625804593,19.697896039590006],[99.51680375399641,19.697628572951743],[99.51815040939286,19.697360955180514],[99.51896199341425,19.697088988889774],[99.52003659513176,19.69574235449609],[99.52165531129461,19.694663237531415],[99.52273435982553,19.693584162859494],[99.52300196060057,19.692509443965974],[99.5235414918682,19.691162800750718],[99.52381350723411,19.690890868982237],[99.52462056492331,19.690890791520374],[99.52596726234285,19.689811766741073],[99.52623478869216,19.689272193449966],[99.52677434097157,19.689004626308005],[99.52758592448114,19.68873704804473],[99.52812540069104,19.68873709078663],[99.52839301884856,19.689004652978937],[99.52893250030459,19.690083755768015],[99.52893250030459,19.69116282109738],[99.52893250030459,19.69143043034343],[99.52920003620326,19.693247448120914],[99.53081876136733,19.693584103193444],[99.5316258023029,19.69358416886935],[99.5316258023029,19.69331656010833],[99.53135825858018,19.693049001221908],[99.53054672305862,19.692777069049214],[99.53027918281234,19.692509507629538],[99.53027918281234,19.690623302945085],[99.53027918281234,19.689544151952347],[99.53027918281234,19.689004622202575],[99.53054672305862,19.688737059453373],[99.53081876136733,19.688465122160252],[99.53135825858018,19.688197547589212],[99.53135825858018,19.68685088813247],[99.5310863033566,19.686850899127947],[99.5310863033566,19.6860393628789],[99.5316258023029,19.685499782024053],[99.53243734837955,19.684964679333902],[99.53351203968609,19.684425177449754],[99.534323604187,19.684153088161764],[99.53513067916882,19.684153152085912],[99.53539823504596,19.684425107641772],[99.53567020439098,19.684964699285402],[99.53567020439098,19.68557004075133],[99.53567020439098,19.68577182124001],[99.53593776200191,19.685771768293208],[99.5372843883558,19.683885592867142],[99.53701691126972,19.68361354722805],[99.5362098179713,19.683346070789014],[99.53567020439098,19.68280644725506],[99.53567020439098,19.682266930540024],[99.53593776200191,19.681999368859934],[99.5362098179713,19.681459832426796],[99.5362098179713,19.680113203925913],[99.53567020439098,19.679301665700493],[99.53539823504596,19.679034080304874],[99.53485871159333,19.67876204728725],[99.53378400285968,19.678494512394693],[99.53297244363168,19.678494491257382],[99.53189784416006,19.679034055673014],[99.5316258023029,19.679301669195027],[99.5310863033566,19.67984114671671],[99.52973960776038,19.680380718606187],[99.52920003620326,19.68092028851956],[99.52920003620326,19.68145981145105],[99.52866055301322,19.68199937794182],[99.52785345604977,19.681999370988976],[99.52785345604977,19.681727361120835],[99.52758592448114,19.681459792559394],[99.52677434097157,19.681187828388843],[99.52650681287955,19.68118786287512],[99.52650681287955,19.681727389220143],[99.52650681287955,19.681999399878578],[99.52650681287955,19.68253892704108],[99.52650681287955,19.68280644353618],[99.52650681287955,19.683885589902573],[99.52623478869216,19.684153112479194],[99.52569965200095,19.684153097189736],[99.52542771530958,19.683885578880194],[99.52488808693383,19.683885620004986],[99.52408102663966,19.68415311529091],[99.5224623479991,19.68469265505675],[99.5224623479991,19.684964669586932],[99.52377162335605,19.684964703483374],[99.52434854691634,19.685771770287516],[99.52408102663966,19.687658016348465],[99.5235414918682,19.689004647058965],[99.52327388935075,19.689272206583368],[99.5224623479991,19.689544170754104],[99.52192282374719,19.69035126659466],[99.52165531129461,19.691697904590626],[99.5213877148586,19.691969959536223],[99.52111570745186,19.692237484852782],[99.52030859900808,19.6922374610473],[99.52003659513176,19.69143039130266],[99.51950149840624,19.691430363059652],[99.51734332979359,19.692509465255867],[99.51626426653931,19.693049054617774],[99.51599668749472,19.693316610144663],[99.51599668749472,19.693584138057204],[99.51626426653931,19.693856132653735],[99.51707574726353,19.693856119816985],[99.51734332979359,19.69412370704518],[99.51734332979359,19.694663256989017],[99.51707574726353,19.695202748434482],[99.51653625804593,19.696009849970395],[99.51626426653931,19.69628186873169],[99.51599668749472,19.696549427716974],[99.5149175569297,19.697896113620203],[99.5149175569297,19.698435670148726],[99.51545712045598,19.698975203150113],[99.5157246977669,19.699247198573374],[99.5157246977669,19.69978675549713],[99.51545712045598,19.7000543176175],[99.51518954401641,19.700321789825523],[99.5149175569297,19.700321874788145],[99.51465006706965,19.70032181001062],[99.51329888741625,19.70032184969905],[99.51195231079308,19.700593843989523],[99.51141268524722,19.70059386224328],[99.51006605443771,19.70059381607878],[99.50979849538933,19.7003218076661],[99.50979849538933,19.699514708753156],[99.50952652599054,19.699247159307973],[99.50925896869401,19.699247179008125],[99.50925896869401,19.69951471373885],[99.50898700105594,19.700593828565417],[99.50817984099476,19.7019405263174],[99.50791228804607,19.70248002406005],[99.50817984099476,19.70274754175871],[99.50845189081068,19.703287121445783],[99.50845189081068,19.703826690856175],[99.50817984099476,19.70382668067809],[99.50764032482746,19.704098717908877],[99.50764032482746,19.704366255954554],[99.50817984099476,19.70436625094176],[99.50871944550195,19.704098702107572],[99.50979849538933,19.7040986833059],[99.51006605443771,19.704366196521832],[99.51060558638821,19.70490575102015],[99.51303140277568,19.704905822139793],[99.51329888741625,19.70517333234649],[99.51329888741625,19.70571289796588],[99.51303140277568,19.70598486411299],[99.51249185503255,19.706252424077306],[99.51168474566336,19.706252474239406],[99.51141268524722,19.706520008089683],[99.51141268524722,19.70705957723939],[99.51168474566336,19.707331522015608],[99.51249185503255,19.70759909669455],[99.51276383416021,19.707871133305304],[99.51303140277568,19.708410671166888],[99.51303140277568,19.70867820820635],[99.51276383416021,19.70894577674069],[99.51249185503255,19.709217715264487],[99.51087764416323,19.709485270530777],[99.50979849538933,19.710024797980694],[99.50871944550195,19.710564406350954],[99.50817984099476,19.711103911998848],[99.50791228804607,19.71164351398194],[99.50791228804607,19.711911055567],[99.50817984099476,19.711911030872173],[99.50871944550195,19.711643469551348],[99.50871944550195,19.71137152349074],[99.50952652599054,19.711371479832422],[99.5103381104341,19.711911037708305],[99.51060558638821,19.712183048447756],[99.51087764416323,19.713529651472484],[99.51087764416323,19.715227273541444],[99.51087764416323,19.717034572023337],[99.50952652599054,19.718648700346435],[99.50925896869401,19.718920770518338],[99.50898700105594,19.719727805183837],[99.50898700105594,19.72235646856653],[99.50871944550195,19.72323272232994],[99.50845189081068,19.723767758571924],[99.50764032482746,19.72538647097089],[99.50737277362154,19.72565396120814],[99.50737277362154,19.726193553884897],[99.50764032482746,19.726193521859855],[99.50791228804607,19.72592597581027],[99.50845189081068,19.725386438945932],[99.50925896869401,19.722423378026363],[99.51006605443771,19.71945579879211],[99.5103381104341,19.718920708885065],[99.51060558638821,19.71864873189533],[99.51195231079308,19.717302104849722],[99.51195231079308,19.715415919416188],[99.51195231079308,19.71352965056512],[99.51249185503255,19.711910988525702],[99.51249185503255,19.71137150573996]]]]},"properties":{"id":"39353"}}]}