{"type":"FeatureCollection","features":[{"type":"Feature","geometry":{"type":"MultiPolygon","coordinates":[[[[107.58319140625,12.394812500000072],[107.58180859374991,12.39331249999995],[107.58165234375005,12.39264062500014],[107.58094140624999,12.392062500000094],[107.58043359375014,12.39193750000014],[107.57999999999996,12.391703125000106],[107.57956640625017,12.39193750000014],[107.57905859374992,12.392062500000094],[107.57856640624996,12.392437500000028],[107.57830859375017,12.392562500000068],[107.57784960937502,12.392812500000062],[107.57718359375016,12.392687499999937],[107.57694140625014,12.392562500000068],[107.57493359375016,12.392437500000028],[107.57469140625014,12.392312499999989],[107.57423046875013,12.392101562500088],[107.57324999999994,12.390999999999934],[107.57232226562505,12.391078125000178],[107.57223437500002,12.392554687500095],[107.57244140625014,12.392937500000102],[107.57255859375013,12.39368750000007],[107.57269140625002,12.393937500000064],[107.57280859375001,12.394187500000143],[107.57294140625018,12.394437499999952],[107.57309570312506,12.395429687500112],[107.57377734375015,12.39546875000002],[107.57469140625014,12.394437499999952],[107.57491406250008,12.39395312500011],[107.57540039062516,12.39368750000007],[107.57656640625001,12.393812499999939],[107.57680859374992,12.393937500000064],[107.57756640624999,12.394062500000103],[107.5778085937499,12.394187500000143],[107.57806640625014,12.394312500000098],[107.57830859375017,12.394437499999952],[107.57856640624996,12.394562499999992],[107.57930859375014,12.395187500000105],[107.57978515625015,12.395406249999994],[107.58019140625018,12.395937500000073],[107.58030859375006,12.396187500000067],[107.58119140625004,12.397187499999944],[107.58134765625013,12.397859375000024],[107.5822031249999,12.39856250000011],[107.58294140625017,12.397687499999918],[107.58305859375005,12.395937500000073],[107.58330859375016,12.395476562499994],[107.58319140625,12.394812500000072]]]]},"properties":{"id":"22936"}}]}