{"type":"FeatureCollection","features":[{"type":"Feature","geometry":{"type":"MultiPolygon","coordinates":[[[[104.06071153428545,15.404348958333514],[104.06033013237564,15.4035633680558],[104.06267523871244,15.400937500000353],[104.06998074001436,15.396442057291878],[104.0706952582436,15.396810438368178],[104.07196397569166,15.395569661458438],[104.07380533853885,15.39484320746547],[104.07490831162912,15.393695203993275],[104.07574055989292,15.39197970920155],[104.0756903754311,15.389526909722377],[104.07507703992772,15.387133246527966],[104.07345703124722,15.38512641059053],[104.07282416449354,15.383175998264136],[104.07324978298331,15.381932508680748],[104.07565077039627,15.381530490451638],[104.07816053602139,15.383637152777993],[104.07914442274026,15.38566569010429],[104.08252848306992,15.386589084201745],[104.08377468532686,15.385946723090413],[104.08553765190695,15.381976996527925],[104.08389594183726,15.379506835937633],[104.08124728732358,15.378197157118194],[104.08065890841729,15.377299804687695],[104.08070909287929,15.37484157986124],[104.0836298285561,15.373702256944611],[104.08520670572616,15.371713867187594],[104.08695909287897,15.368761935764113],[104.08553222655976,15.365907118055745],[104.08514160155968,15.364296875000136],[104.08584174261867,15.364311523437621],[104.08626030815688,15.366028103298817],[104.08739691839972,15.367080620659905],[104.09058105468446,15.365788845486236],[104.09096950954583,15.36455349392385],[104.09039171006637,15.36343207465299],[104.08936089409448,15.362441406250298],[104.08725694444169,15.361192491319628],[104.08550618489303,15.359370117187666],[104.08514160155968,15.358027343750166],[104.08607421874697,15.35736382378488],[104.08652506510143,15.358752712673933],[104.08801161024022,15.360523546007144],[104.08941596136853,15.359799804687825],[104.09041666666369,15.360142686632088],[104.09127088758382,15.359850260416849],[104.09240207247959,15.358125000000271],[104.0923505316812,15.355587022569566],[104.08993760850413,15.354005533854291],[104.08958604600414,15.352886827257066],[104.09069200303534,15.351824001736318],[104.09096950954583,15.350969509548904],[104.09225477430257,15.349377170139064],[104.09403049044872,15.349030490451625],[104.09436740451102,15.346962348090429],[104.09571316188945,15.34652560763898],[104.09676188150755,15.345433485243262],[104.09801161024015,15.344827473958475],[104.09846950954565,15.344232313368323],[104.09638888888614,15.342222222222432],[104.09589029947611,15.342383897569775],[104.09352132161175,15.344849717882155],[104.09223578558735,15.345473090278077],[104.08964626735806,15.348168945312665],[104.08847493489284,15.350141601562655],[104.0876266818548,15.350956488715525],[104.08836615668108,15.352392578125219],[104.08749186197619,15.35368218315989],[104.08484103732351,15.350958658854339],[104.08339355468448,15.350987955729309],[104.08171820746233,15.35156141493077],[104.08014160155952,15.352654622395946],[104.0818082682263,15.35374728732657],[104.08235839843448,15.354963107639094],[104.08015136718481,15.355679253472388],[104.07765570746253,15.35769368489602],[104.07730984157698,15.361583658854428],[104.07455268011856,15.363768988715407],[104.0731765407958,15.363741319444543],[104.0726416015597,15.364319118923916],[104.07419813367775,15.365074327257119],[104.07464870876439,15.366462673611267],[104.07804714626454,15.36776746961823],[104.07985839843471,15.36624728732663],[104.0816777886254,15.3656391059031],[104.08291395399007,15.364132486979528],[104.07957655164651,15.360338541666948],[104.07960449218447,15.358959418403003],[104.08241292317413,15.356808268229457],[104.0837638346326,15.35821451822946],[104.0837594943549,15.361015082465613],[104.08437228732342,15.36220431857653],[104.0840117730007,15.364671766493274],[104.08159261067416,15.369433051215594],[104.08255886501442,15.370136176215496],[104.08397976345199,15.367968750000202],[104.08515272352125,15.36876410590294],[104.08512695312217,15.37002712673636],[104.08338758680284,15.372182074653011],[104.0812459309868,15.372703993055723],[104.07983778211522,15.373772786458488],[104.07899848090003,15.375502929687613],[104.07904296874702,15.377693142361323],[104.08013400607356,15.379810655382173],[104.08041341145551,15.382658420139066],[104.0792800564208,15.38263563368092],[104.07561469183733,15.380375976562618],[104.07307237412911,15.38042751736127],[104.07122667100421,15.381828342014074],[104.07032036675062,15.383696289062755],[104.0721709526882,15.386747504340434],[104.07338650173304,15.387141927083533],[104.07432996961504,15.389086371528009],[104.07428439669835,15.391315646701443],[104.07367241753164,15.392503797743359],[104.07041395399008,15.394302842882084],[104.06735649956303,15.396535915798793],[104.06680284287896,15.396525065104314],[104.06470621744492,15.398333333333511],[104.06180284287908,15.400136176215526],[104.05999620225415,15.40165256076402],[104.05958604600423,15.403752712673821],[104.0592594401011,15.404302842882146],[104.05754394530962,15.40341905381959],[104.05640706379918,15.400359157986344],[104.0540912543373,15.39767415364615],[104.05291937933734,15.398491210937664],[104.05447374131646,15.399984809027941],[104.0554345703097,15.401280381944801],[104.05610568576091,15.404033203125138],[104.05655273437205,15.404901258680837],[104.05725097655974,15.405572374132134],[104.05914415147268,15.406186523437682],[104.05958062065676,15.40708604600718],[104.06015787760114,15.40763617621559],[104.06146375867783,15.406277126736327],[104.06229709201111,15.405872395833484],[104.06071153428545,15.404348958333514]],[[104.08153808593474,15.380589192708598],[104.08222222221943,15.380000000000194],[104.08403130425049,15.381597222222496],[104.0840850151881,15.383184136284882],[104.08191297742755,15.381972113715378],[104.08153808593474,15.380589192708598]],[[104.07786024305258,15.364050021701544],[104.07576307508381,15.364834526909888],[104.07544216579575,15.36406467013903],[104.07713812933727,15.362922634548838],[104.07805555555254,15.362777777777993],[104.07830376518822,15.363368598090403],[104.07786024305258,15.364050021701544]]]]},"properties":{"id":"39330"}}]}