{"type":"FeatureCollection","features":[{"type":"Feature","geometry":{"type":"MultiPolygon","coordinates":[[[[104.43022949218758,14.60830963134778],[104.43051893446184,14.607373250325736],[104.42874864366323,14.605306091308705],[104.4289217122396,14.603151923285722],[104.42714870876759,14.600311008029792],[104.42721706814237,14.599458889431617],[104.42791937934035,14.598200208876008],[104.42771050347235,14.595601467556548],[104.42594590928829,14.594722222222316],[104.42532904730908,14.595253736708159],[104.42635226779535,14.597842135959539],[104.42542588975718,14.599148559570523],[104.42385226779547,14.59985076904313],[104.42267930772587,14.600769348144723],[104.42269287109391,14.602952372233332],[104.42130995008685,14.604624023437722],[104.42137993706618,14.60549340142164],[104.42294514973989,14.605367635091483],[104.42395426432316,14.606978861491072],[104.4231941731774,14.608050977918978],[104.42165066189247,14.607628546820962],[104.41897759331604,14.607371453179482],[104.41735731336829,14.608275383843491],[104.41741997612851,14.610667453342145],[104.41791097005208,14.611090460883489],[104.41924940321186,14.61341189914289],[104.42049777560763,14.613968912760527],[104.4216579861114,14.615315483941131],[104.42256564670143,14.615720520019764],[104.42491102430577,14.615532090929037],[104.42768391927123,14.61470153808618],[104.42954182942728,14.613664923774095],[104.4290855577257,14.612847425672967],[104.42788547092019,14.612311943902043],[104.42861572265653,14.611003214518433],[104.4291457790799,14.609243299696374],[104.43022949218758,14.60830963134778]]]]},"properties":{"id":"10333"}}]}