{"type":"FeatureCollection","features":[{"type":"Feature","geometry":{"type":"MultiPolygon","coordinates":[[[[108.07865688747754,12.366221516927368],[108.08035610622713,12.365697157118547],[108.08197394476886,12.366530490451652],[108.08542121039389,12.366802842882294],[108.0892265489355,12.364014214410162],[108.09080641004678,12.364046495225963],[108.09208299424805,12.363719346788457],[108.09364061143563,12.362053493923923],[108.09308505587992,12.360974934896149],[108.09281270344965,12.3593028428824],[108.0922500949425,12.358472493489955],[108.09282274034175,12.357361111111473],[108.09181308322391,12.357086046007268],[108.09142381456078,12.358914930555883],[108.0925295003245,12.362003309462096],[108.09112406412677,12.362924804687822],[108.09055711534197,12.362913140191338],[108.08923522949132,12.361579047309306],[108.08713127983853,12.362118326823236],[108.08603129068908,12.363795844184352],[108.082529771592,12.363752983941254],[108.07825432671333,12.362641601562771],[108.07639451768571,12.36405273437525],[108.07472025553292,12.364018554687902],[108.07299770778988,12.362851019965575],[108.0751016574425,12.357210015191257],[108.07475009494252,12.356527777778112],[108.07531107584524,12.35543918185796],[108.07544887966489,12.353888888889202],[108.07503926594964,12.354282497830198],[108.07335713704336,12.357647026910072],[108.07339592827591,12.359549696180835],[108.0725295003244,12.360691731771198],[108.07219557020304,12.362402343750276],[108.07002027723436,12.362358127170467],[108.0694240315747,12.360520833333652],[108.06820875379671,12.359586046007266],[108.06686923556757,12.360494249132245],[108.06726582844956,12.361263834635736],[108.06837368435217,12.361241319444787],[108.06902770995978,12.36192192925374],[108.06956454806769,12.36412489149339],[108.06714321560221,12.36350450303847],[108.06670159233849,12.364137098524594],[108.06973626030722,12.365122070312822],[108.07117424858856,12.36609673394129],[108.07454908582784,12.36692898220528],[108.07513366699115,12.368134223090607],[108.07421542697367,12.371306694878712],[108.07477749294603,12.37239746093779],[108.07680358886634,12.372356228298983],[108.07975172254689,12.369663357205127],[108.0778951687274,12.368446180555878],[108.07865688747754,12.366221516927368]]]]},"properties":{"id":"10483"}}]}