{"type":"FeatureCollection","features":[{"type":"Feature","geometry":{"type":"MultiPolygon","coordinates":[[[[108.31434427897031,12.679899902344062],[108.31526387532446,12.677276204427358],[108.31535827636631,12.674894748264151],[108.31428215874453,12.674325358073247],[108.3136392550991,12.674299858941467],[108.3103783501509,12.675294325087165],[108.30912970648765,12.674705132378762],[108.30767110188711,12.673333333333645],[108.30115444607114,12.673605414497032],[108.30112189398781,12.674427354601093],[108.30392652723415,12.675966796875286],[108.30534552680027,12.677901475694924],[108.30886305067176,12.67760009765648],[108.30951083713009,12.677942708333646],[108.31058152940452,12.677900390625467],[108.31062493218204,12.678996039496923],[108.30698832193909,12.679431152344009],[108.30690721299808,12.681471082899591],[108.30811516655714,12.682302246094125],[108.30989630805041,12.682674967448264],[108.31163838704313,12.682123480903115],[108.31434427897031,12.679899902344062]]]]},"properties":{"id":"22835"}}]}