{"type":"FeatureCollection","features":[{"type":"Feature","geometry":{"type":"MultiPolygon","coordinates":[[[[75.85008802625893,26.96032063802106],[75.85238545735726,26.959912380642578],[75.85353013780403,26.961103244357858],[75.8547300211591,26.95973008897583],[75.85550462510864,26.95821587456615],[75.85582553439693,26.95283175998283],[75.85490505642392,26.95213677300366],[75.85332994249163,26.952230631510673],[75.84784722222238,26.951396755642662],[75.84569471571191,26.952309570312735],[75.84415886773033,26.9519523111981],[75.84375000000043,26.951250000000186],[75.8431102159291,26.951821560330004],[75.84270657009554,26.952946777343968],[75.84306335449244,26.95360324435788],[75.84332824707033,26.95670654296893],[75.8452625189889,26.95849392361127],[75.84524339463994,26.95960476345512],[75.84624667697503,26.962214355468973],[75.84803826226138,26.96190917968771],[75.85008802625893,26.96032063802106]]]]},"properties":{"id":"9428"}}]}