{"type":"FeatureCollection","features":[{"type":"Feature","geometry":{"type":"MultiPolygon","coordinates":[[[[80.72556250000011,23.223871093750134],[80.72518750000009,23.22368847656263],[80.7249375000001,23.22356152343764],[80.72442968750002,23.223437500000074],[80.72425000000007,23.223250000000093],[80.72306250000005,23.22331152343746],[80.72256250000007,23.22368847656263],[80.72234765625015,23.223811523437618],[80.72167968750014,23.223303710937486],[80.72112109375004,23.22331542968763],[80.72093750000008,23.224063476562478],[80.72081250000005,23.22431152343769],[80.72068750000008,23.22506347656244],[80.72006250000024,23.225811523437542],[80.71993750000021,23.227063476562634],[80.71980859375006,23.22731640625014],[80.71981250000007,23.22756835937517],[80.72031250000012,23.227811523437467],[80.72132421875008,23.228700195312584],[80.72156250000009,23.2291884765625],[80.72215234375008,23.22991894531262],[80.72331250000022,23.23006152343747],[80.72356250000027,23.23018847656246],[80.72456250000025,23.23031152343755],[80.72507812500001,23.230701171874983],[80.72589843750015,23.230684570312633],[80.7260625000001,23.229697265625205],[80.72476953125008,23.228267578125],[80.7249375000001,23.227938476562457],[80.72506250000006,23.227686523437782],[80.72530859375004,23.22720800781262],[80.72467578125011,23.226426757812547],[80.72418750000006,23.22618847656244],[80.72347265625015,23.225611328125225],[80.72369531249993,23.22517871093764],[80.72418750000006,23.22493847656257],[80.72443750000022,23.22481152343758],[80.72468750000027,23.22468847656259],[80.7249375000001,23.2245615234375],[80.72537890625014,23.2243466796876],[80.72556250000011,23.223871093750134]]]]},"properties":{"id":"19839"}}]}