{"type":"FeatureCollection","features":[{"type":"Feature","geometry":{"type":"MultiPolygon","coordinates":[[[[79.0400404188371,25.021648763020977],[79.03994873046938,25.020113389756986],[79.04038140191008,25.018907335069485],[79.03888102213571,25.017229817708284],[79.0386189778649,25.016133897569475],[79.04171006944486,25.015556640625093],[79.04225721571234,25.014944118923736],[79.04345648871563,25.015015733507155],[79.04327989366371,25.017979600694474],[79.0436531575526,25.018666449652713],[79.04561035156283,25.018655598958333],[79.04610324435819,25.019729817708367],[79.04923258463569,25.021659071180636],[79.04971435546915,25.020474717882095],[79.04915879991356,25.019452039930698],[79.04884440104198,25.015434570312564],[79.04719889322965,25.013078884548605],[79.04576307508708,25.010448133680697],[79.04511257595519,25.00986707899314],[79.04221435546927,25.008618706597275],[79.04192708333395,25.008297526041787],[79.03984537760462,25.00765462239592],[79.0395833333337,25.007361111111123],[79.03599392361164,25.007581380208407],[79.03453748914964,25.009009331597355],[79.03346164279574,25.007936740451413],[79.03118408203161,25.00854709201394],[79.02961181640663,25.00943684895843],[79.02771945529562,25.008757595486117],[79.02670708550389,25.009307725694427],[79.02749810112894,25.010763346354267],[79.02777967664983,25.012569986979273],[79.02862630208367,25.014224717881973],[79.02946885850733,25.014977213541712],[79.02907904730935,25.015694444444563],[79.02947374131978,25.016420355902795],[79.03278564453157,25.01693684895841],[79.03332546658041,25.01727376302084],[79.0320537651913,25.018468967013945],[79.03167453342044,25.019803059895793],[79.03253770616348,25.020574544270843],[79.03409966362872,25.02110351562513],[79.03610866970527,25.020268012152755],[79.0376841905389,25.02060438368055],[79.03837754991358,25.022003580729177],[79.0400404188371,25.021648763020977]]]]},"properties":{"id":"9514"}}]}