{"type":"FeatureCollection","features":[{"type":"Feature","geometry":{"type":"MultiPolygon","coordinates":[[[[77.25210734049486,24.39314731174099],[77.25251831054672,24.39007466634162],[77.25342542860224,24.3887759738503],[77.25564643012146,24.38998284233989],[77.25770711263002,24.390269978841758],[77.2580476888019,24.387925618490044],[77.25659844292514,24.387507798937122],[77.25487942165805,24.388708631728022],[77.25412733289912,24.38829989963159],[77.25476128472226,24.38458374023493],[77.2554253472222,24.38336168077305],[77.25389187282966,24.38199150933211],[77.25361897786465,24.38100056966198],[77.25417521158832,24.379450005425937],[77.2540768771702,24.37779839409771],[77.25449910481765,24.376221652561256],[77.25504082573767,24.375224880643017],[77.25638102213551,24.374534166124633],[77.25534654405394,24.373053046332927],[77.25610270182293,24.37094557020457],[77.25513888888875,24.37041666666707],[77.25428995768212,24.370678846571693],[77.25288669162339,24.372050916884177],[77.25245279947913,24.375755683051878],[77.25000935872387,24.37752895779137],[77.24973008897567,24.38145704481387],[77.25085720486098,24.383070814345118],[77.25085734049483,24.38470838758738],[77.2506452094182,24.384992201063923],[77.24935275607626,24.384089287652415],[77.24727484809014,24.38471442328607],[77.24499213324643,24.383063354492748],[77.24473008897561,24.382214423286072],[77.24370713975682,24.38089450412376],[77.24333455403624,24.377713419596844],[77.24276991102428,24.376674465603784],[77.24250786675353,24.37443664550834],[77.24180162217905,24.37313720703169],[77.2402095540364,24.372785576714918],[77.23861897786466,24.373896687826033],[77.23713107638869,24.37450602213589],[77.23658786349827,24.377416246202785],[77.23809231228304,24.379522298177633],[77.23803168402779,24.380540296767066],[77.23920789930546,24.382224324544822],[77.23914306640611,24.38331217447967],[77.23971191406238,24.38435899522611],[77.24002699110233,24.38571268717496],[77.2425980631509,24.387718098958786],[77.24304768880191,24.389174465603944],[77.2436892361109,24.39009284125484],[77.24697265624988,24.39159979926265],[77.24916815863705,24.39227776421491],[77.24944118923591,24.390236206055135],[77.25108384874122,24.390334065755752],[77.25138102213529,24.39214375813863],[77.25084309895831,24.395857611762636],[77.25148573133677,24.39581929524806],[77.25210734049486,24.39314731174099]]]]},"properties":{"id":"9580"}}]}