{"type":"FeatureCollection","features":[{"type":"Feature","geometry":{"type":"MultiPolygon","coordinates":[[[[77.86056098090265,24.767656979031628],[77.86110215928821,24.767328236898464],[77.8634469943577,24.76807061089461],[77.86552978515633,24.773605821398164],[77.86664686414926,24.770916697184717],[77.86670572916663,24.76942967732805],[77.8656613498263,24.76846201578826],[77.86694200303813,24.7672753906256],[77.86723442925356,24.7654405721035],[77.86888346354172,24.764375610352104],[77.86652398003483,24.763436279297466],[77.86285671657996,24.764074842665607],[77.86263888888888,24.761805555556094],[77.85935004340288,24.761991221110492],[77.85777126736124,24.763586510552813],[77.85779486762166,24.764181433784202],[77.85667209201378,24.765221862793553],[77.85826388888873,24.766952701145215],[77.85886067708341,24.766929050022384],[77.85922363281261,24.772665591770235],[77.86083875868067,24.773050265842556],[77.86161078559022,24.773883599175832],[77.86249457465286,24.773186865913104],[77.8621440972224,24.772278442383367],[77.86056098090265,24.771777208116916],[77.86089491102419,24.770590532091475],[77.86294053819458,24.770199991862526],[77.86193874782978,24.768893669976563],[77.86196017795126,24.76834982978022],[77.86056098090265,24.767656979031628]]]]},"properties":{"id":"19233"}}]}