{"type":"FeatureCollection","features":[{"type":"Feature","geometry":{"type":"MultiPolygon","coordinates":[[[[78.2213815646704,24.76570658365931],[78.23013346354153,24.762633327908446],[78.23222493489575,24.762225002713194],[78.2324972873266,24.761941663954516],[78.23531928168407,24.761102396647658],[78.23638617621546,24.760552775065634],[78.2425027126736,24.758891669379835],[78.24778320312518,24.75668923272083],[78.2496953667534,24.754786207411584],[78.25060275607635,24.7529720560715],[78.2519417317707,24.751663886176786],[78.25498752170145,24.74984686957525],[78.25305826822918,24.748812815348913],[78.25364095052075,24.74778055826883],[78.25488199869787,24.749072282579718],[78.25657145182308,24.747927161323233],[78.25694037543403,24.744101562500447],[78.25321044921893,24.74417768690367],[78.25139160156263,24.745280558268746],[78.24964870876747,24.745552775065676],[78.2473006184899,24.743108893501002],[78.24585205078117,24.742034929064147],[78.24539279513877,24.740151045058028],[78.24721950954856,24.738052775065597],[78.24862928602445,24.73693495008733],[78.25079616970478,24.73583611382429],[78.25388617621516,24.73805833604652],[78.25695014105915,24.738486090766614],[78.2586333550349,24.737619018555165],[78.26047607421881,24.7353434583881],[78.26083062065962,24.733874766032457],[78.25923421223948,24.733881768121236],[78.26029324001732,24.732486148410857],[78.2612304687502,24.732505272759994],[78.26166639539926,24.73473841349339],[78.26297960069436,24.73599999321887],[78.26528076171886,24.73695855034792],[78.26665310329875,24.736930541992905],[78.26785942925338,24.73774832831539],[78.26911675347233,24.737100677490872],[78.26834065755216,24.735594448514036],[78.26749159071167,24.733047536214755],[78.2675035264759,24.732469448514024],[78.26860839843746,24.73138610839898],[78.27099338107647,24.730774824355066],[78.2715077039932,24.728665008545363],[78.2741856553819,24.72611389160207],[78.27751898871534,24.728608330621228],[78.27805284288209,24.72805277506562],[78.27919542100685,24.72749844021321],[78.28028049045125,24.726369103326263],[78.28139729817721,24.72639188978468],[78.28139729817721,24.727491980659153],[78.28110677083342,24.728055555556224],[78.28183810763883,24.729474995931596],[78.28308322482641,24.730291375054733],[78.28389729817721,24.730274776883107],[78.28331976996517,24.72802676730737],[78.28334798177079,24.726647220188255],[78.28532389322933,24.725519646539126],[78.29249186197924,24.72556389702747],[78.29325439453149,24.725171118842738],[78.29400851779522,24.723664991591292],[78.2932972547745,24.723319905599425],[78.28878445095475,24.7233170233838],[78.28666910807286,24.72277489556258],[78.28548990885432,24.72279895358669],[78.28444688585088,24.723336215549608],[78.2834670681423,24.723339114719494],[78.28184868706606,24.722242109511214],[78.27885904947934,24.723608330621147],[78.27725124782981,24.722780134413455],[78.27581705729156,24.722500152588438],[78.27520643446175,24.72186443752767],[78.27556504991324,24.720816311307004],[78.27668646918417,24.72027231852276],[78.27666341145843,24.719147237142522],[78.27595540364595,24.718467000326143],[78.27469238281267,24.71971944173228],[78.27315456814242,24.718927205404185],[78.27248616536465,24.716914774577404],[78.27191867404522,24.716369561089977],[78.27016954210089,24.716405266656395],[78.26753228081597,24.719150153266582],[78.2654408094617,24.720329284668523],[78.26163058810775,24.720287034777115],[78.25982367621529,24.72216766357478],[78.25877848307286,24.722774997287885],[78.2577804904515,24.721636759440614],[78.25840576171888,24.720422973633376],[78.2607492404513,24.719965515137318],[78.2619504123264,24.716639302572204],[78.26382676866311,24.714166666667197],[78.26275526258698,24.71275444878536],[78.26083604600692,24.711509941949288],[78.26183620876733,24.71003472222273],[78.26500271267369,24.709725002713398],[78.26654432508693,24.708930901422008],[78.26810004340305,24.70946336534341],[78.27047987196195,24.70941480848576],[78.27226291232628,24.709997219510157],[78.27460015190977,24.707666286892916],[78.27415310329857,24.70636010064078],[78.27417019314234,24.7055250040696],[78.27511827256947,24.70461412217942],[78.27471869574649,24.70305514865501],[78.27504909939236,24.70208980984212],[78.27643066406264,24.701184048123523],[78.27852186414933,24.70048729790635],[78.27930338541668,24.698876274957087],[78.27971950954853,24.69650994194923],[78.27886718750014,24.695252719455922],[78.27749755859404,24.695280659993983],[78.27649712456596,24.694765353733118],[78.27777506510407,24.6913751559793],[78.27527153862835,24.690160692003516],[78.27528266059048,24.689619445801355],[78.27684651692707,24.689112006294053],[78.27851860894108,24.689778713650654],[78.27916395399293,24.689414537218354],[78.2779833984375,24.688280368381555],[78.27920274522566,24.68748090956001],[78.28114176432305,24.687503458659407],[78.28267062717,24.689094848633417],[78.28494411892356,24.689538675944505],[78.28576931423626,24.692002766927587],[78.28687771267371,24.693637966580425],[78.28843614366306,24.693606194390824],[78.28889133029529,24.692203606500115],[78.28956868489595,24.691552666558692],[78.2912491861978,24.691983303494496],[78.29166395399326,24.691070319282176],[78.29053602430568,24.689986640082992],[78.29055935329856,24.688845316569527],[78.2914398871529,24.686272515191533],[78.29501898871516,24.684243265788353],[78.29640082465292,24.685291714138984],[78.2973366970489,24.685272623698467],[78.29666368272561,24.683613620334796],[78.29667344835084,24.68313981798012],[78.29919976128471,24.682319980198187],[78.29916368272572,24.68054711235952],[78.29859157986098,24.68055877685609],[78.29779405381933,24.681389058431577],[78.29537109374988,24.68186204698408],[78.29385904947927,24.681113891601996],[78.29157226562509,24.682263895671028],[78.28983317057285,24.682828233507493],[78.28612982855898,24.682752651639092],[78.28583414713538,24.683060234918017],[78.28422498914924,24.682231275771002],[78.28479329427094,24.680013800727508],[78.28471435546871,24.676137051053075],[78.28191460503481,24.67583611382433],[78.28083604600684,24.676391669379854],[78.2772238498263,24.676658189562133],[78.27588812934025,24.678342963325207],[78.27512776692723,24.678327433268763],[78.27461018880197,24.677260708279633],[78.27509114583344,24.675855339898675],[78.2763916015625,24.67500278049097],[78.27696940104167,24.67384853786959],[78.27794704861108,24.67290937635684],[78.2783810763888,24.67024220784573],[78.27960394965274,24.669648946126955],[78.2799972873265,24.668993496365474],[78.27785237630215,24.668574795193692],[78.27750271267368,24.667497219510068],[78.27466824001746,24.66581458197757],[78.27346110026033,24.665839233398913],[78.27304850260421,24.666689860026537],[78.2691582573785,24.67055823432129],[78.26916069878487,24.671538899740128],[78.26752387152786,24.672333001031333],[78.26714898003459,24.674636264377696],[78.26607177734385,24.675552775065654],[78.26555826822934,24.674381849501415],[78.26624593098964,24.671025221083354],[78.26555284288187,24.670002780491075],[78.26527018229163,24.668843621148525],[78.26480468750012,24.66432902018275],[78.2627897135416,24.663351576063945],[78.26235839843778,24.662902594672943],[78.26295301649319,24.661165432400693],[78.26194064670145,24.65861053466847],[78.26224690755194,24.65801578097941],[78.26221842447913,24.656623094347268],[78.26153320312497,24.654620903863275],[78.25944281684022,24.653250393338297],[78.2583360460068,24.651386108398896],[78.25486111111135,24.647361111111607],[78.25444715711839,24.64863013373531],[78.25600151909717,24.650123596191946],[78.25702202690965,24.651500244141275],[78.2594528537326,24.658896891276584],[78.25943820529508,24.66016167534775],[78.25850206163207,24.66154286702522],[78.26001953124992,24.66335045708614],[78.25999186197927,24.664709065755716],[78.26083062065962,24.66725212944938],[78.2599924045139,24.66920108371376],[78.25916395399318,24.669997219510066],[78.25866970486132,24.67101589626786],[78.26037217881938,24.674092203776496],[78.25914740668398,24.675303548177638],[78.25916341145827,24.676963873969697],[78.25858534071173,24.6775193278],[78.25628228081595,24.677516343858997],[78.25582058376725,24.67893914116803],[78.25470214843742,24.680013766819172],[78.2529041883682,24.679977077908504],[78.25249918619804,24.67831634521545],[78.25139024522562,24.677250840929403],[78.25082492404525,24.674141947429078],[78.24833333333365,24.672908257378964],[78.2472555881076,24.673463473850248],[78.24779676649317,24.67504442003097],[78.24777180989597,24.676269429525263],[78.24630777994784,24.676979641385074],[78.24416395399331,24.676947326660837],[78.2419048394099,24.67553653293251],[78.24072618272581,24.67556057400226],[78.2417475043404,24.678259311252646],[78.24461832682303,24.678726637099118],[78.24509033203148,24.680662570530018],[78.24846381293392,24.681484951443778],[78.24996554904541,24.683048061795247],[78.2516612413194,24.68359829372895],[78.2519417317707,24.683940565321706],[78.25039388020846,24.68542778862897],[78.24833062065986,24.6858305528434],[78.24716579861123,24.686430562337748],[78.24579698350706,24.68778554280655],[78.24417480468762,24.68775241427997],[78.24346110026048,24.688495110406436],[78.24249891493085,24.692804429796553],[78.24180989583343,24.694142049154237],[78.24027506510444,24.694441663954578],[78.23815104166667,24.695333251953656],[78.23748643663211,24.69670284695151],[78.23750868055552,24.697791781955814],[78.23849500868047,24.697771640354276],[78.23971950954873,24.69694166395449],[78.2407533094619,24.696669447157745],[78.24286756727443,24.69983398437543],[78.24274793836801,24.700830552843442],[78.2413690863714,24.699725002713166],[78.24145290798597,24.703832804362662],[78.23896565755197,24.707041320801324],[78.2380528428819,24.706091308594296],[78.23691324869802,24.706114569770477],[78.23579291449644,24.706691657172783],[78.23527506510428,24.70723066541936],[78.23440185546892,24.70721286349871],[78.2325800238714,24.70639166937987],[78.23148600260433,24.708060370551777],[78.23110839843744,24.70805267334029],[78.23071668836818,24.708460456000907],[78.22933268229158,24.707410278320893],[78.2281545681424,24.708017239041325],[78.22778049045175,24.70916944715762],[78.22697401258674,24.710359463162476],[78.22759060329852,24.711556803385974],[78.22916937934033,24.71194166395445],[78.23026312934033,24.712505018446848],[78.23283040364575,24.71217685275657],[78.23333062065987,24.712879842122945],[78.23111870659719,24.713597649468767],[78.23025200737877,24.714463772244486],[78.22707790798628,24.714716457791283],[78.22777506510411,24.71330312093147],[78.22555257161449,24.712224934896355],[78.22555230034712,24.71136945936479],[78.22451361762162,24.71037150065152],[78.22401611328112,24.707823079427612],[78.22318684895848,24.7075027804909],[78.2224943033855,24.710286153158094],[78.22193033854163,24.710274658203588],[78.22195312499994,24.70915866428001],[78.22137478298632,24.70860290527399],[78.22081380208326,24.708614332411543],[78.21953830295129,24.709942050510477],[78.21911892361126,24.707793409559983],[78.21589680989578,24.709719441732304],[78.21545274522569,24.707897576226642],[78.21666937934017,24.7075027804909],[78.21694173177096,24.70720319959898],[78.21610243055565,24.70639689127674],[78.21612847222232,24.70512152777846],[78.21465250651036,24.705863071018257],[78.21295844184024,24.705828518338166],[78.21341796875012,24.704485609266925],[78.20942003038184,24.703880547418038],[78.20837836371524,24.702796257867263],[78.20784586588556,24.69952497694281],[78.20916965060778,24.69778042263505],[78.20916069878476,24.69734734429305],[78.20697455512149,24.698473578559614],[78.20632785373269,24.700722995334772],[78.20673366970473,24.70151092529356],[78.20608127170155,24.70311957465333],[78.2061146375867,24.70475277370923],[78.20694742838535,24.70555287679089],[78.20722601996536,24.706945020888128],[78.20687689887146,24.70762312147403],[78.20525987413183,24.708147854275595],[78.20526909722221,24.709730563694052],[78.20443033854158,24.709725341797366],[78.20444824218762,24.710602552626412],[78.20537977430556,24.71194166395445],[78.20640787760411,24.708891669379952],[78.20724039713534,24.709734293620286],[78.20780219184044,24.7108919609923],[78.2077647569445,24.712724745009126],[78.20945827907983,24.713052775065663],[78.21086317274299,24.710836113824257],[78.21200629340288,24.711425001356858],[78.21311116536455,24.712574801975492],[78.21272243923622,24.714091695150202],[78.21422119140632,24.715869445801417],[78.21671359592008,24.716678229438457],[78.21852403428832,24.717610880534366],[78.21775770399299,24.718347100152613],[78.21568006727423,24.718304680718788],[78.21629421657977,24.720700344510036],[78.21696234809028,24.721686147054612],[78.21821723090275,24.72166052924328],[78.21966715494787,24.720677761502216],[78.21999728732627,24.719997219510034],[78.22110839843745,24.719870707194573],[78.22027506510429,24.720274997287802],[78.21997016059024,24.72090315077098],[78.22000352647584,24.723919999864805],[78.22196424696173,24.72389212714353],[78.22192409939251,24.72585203382758],[78.22337022569442,24.72724131266328],[78.22486246744788,24.727210862901998],[78.22625623914925,24.729091271295076],[78.22551486545134,24.729719441732257],[78.22444715711802,24.728608330621228],[78.22158799913186,24.72738803439725],[78.21931098090269,24.725772738987104],[78.21732177734393,24.72645365397186],[78.21581325954853,24.72553885565911],[78.21583631727438,24.726669311524034],[78.2143250868057,24.728469526503346],[78.21165825737845,24.730280456543667],[78.21167154947929,24.730936109755206],[78.2138972981771,24.731658325195824],[78.21527777777786,24.732369520399885],[78.21695258246521,24.731374884712025],[78.21780843098955,24.731392347548265],[78.21874999999997,24.73237245347819],[78.2198901367187,24.731391669379903],[78.22110839843745,24.732241227892146],[78.21991672092011,24.733386213515004],[78.21916937934029,24.735280558268684],[78.21794840494803,24.736081136068208],[78.21516628689224,24.736698760986783],[78.21458387586799,24.73849360148168],[78.21387478298615,24.739174872504833],[78.21039171006939,24.739103800456235],[78.20964002821191,24.739490949843187],[78.20693603515613,24.739435763889503],[78.20695285373264,24.738616621229852],[78.20604519314256,24.73672956678648],[78.20497016059025,24.736391669379984],[78.20388888888883,24.736948649089],[78.20329291449642,24.736641659207393],[78.20147243923603,24.73441899617572],[78.20073133680566,24.7338916693798],[78.2002775065105,24.735290340848053],[78.19914171006954,24.735841318766802],[78.19720811631939,24.735836452908515],[78.1972276475694,24.736789957682845],[78.19972493489573,24.737774997287843],[78.20077826605902,24.738488888211293],[78.20305284288182,24.743157636854974],[78.20192518446166,24.74389699300177],[78.20111572265645,24.74388047960126],[78.20055826822929,24.744306182861806],[78.2014187282987,24.74583055284343],[78.20340115017356,24.74483645969012],[78.2039149305555,24.74589565701011],[78.20447428385424,24.74638610839895],[78.20549994574671,24.745318756103956],[78.20721950954865,24.747529907227133],[78.20559136284717,24.749094221327525],[78.20640842013896,24.750299580892474],[78.2080281575522,24.751085459392],[78.2093712022569,24.75210449218801],[78.20971950954882,24.753902604845365],[78.20826361762161,24.754608951145386],[78.20664767795134,24.75499721951013],[78.2056906467013,24.75400112576007],[78.20331949869811,24.753336113824417],[78.2026416015627,24.75473361545191],[78.20007948133693,24.754698333740762],[78.1988755967881,24.755006883409777],[78.19827338324663,24.756862843831826],[78.19903320312514,24.757983771430744],[78.2031675889759,24.75843297322642],[78.20449327256952,24.75977857801712],[78.20411349826404,24.761631961399175],[78.20475965711799,24.762252773709278],[78.20583604600702,24.762774997287963],[78.20622694227424,24.763580373128733],[78.20767985026052,24.763886108398992],[78.21058105468765,24.76194722493544],[78.21056722005201,24.764037492540666],[78.21229600694451,24.76445900811146],[78.21418538411453,24.766425357395306],[78.21817382812495,24.766428154839986],[78.2213815646704,24.76570658365931]],[[78.21487196180547,24.763227437337747],[78.21506673177069,24.761909264459163],[78.2164287651909,24.76007214016434],[78.21747992621542,24.75964192708389],[78.21780490451417,24.758102518718047],[78.2184722222224,24.757916666667143],[78.21779568142372,24.760295664469893],[78.21644259982654,24.763109198676744],[78.2156675889756,24.763707360162158],[78.21487196180547,24.763227437337747]],[[78.21195990668414,24.70915130615292],[78.21145860460061,24.70875000000052],[78.21303846571166,24.707484944662085],[78.21374999999998,24.707361111111737],[78.21445990668408,24.708317972819472],[78.21470675998259,24.70960784912168],[78.21346055772565,24.710262417263948],[78.21195990668414,24.70915130615292]],[[78.23890163845496,24.70890174018068],[78.23962592230899,24.707928297255307],[78.24125000000006,24.707638888889406],[78.24288709852422,24.708234015571293],[78.24273980034744,24.70967848036068],[78.23920572916686,24.710074768066974],[78.23813612196173,24.70996571858784],[78.23890163845496,24.70890174018068]],[[78.26722222222239,24.700849439833377],[78.26659315321191,24.700498453776532],[78.2666826714412,24.69938317192984],[78.26902777777767,24.697916666667183],[78.2692431640626,24.69850297715979],[78.26887288411447,24.699166666667224],[78.26921739366324,24.69978444417363],[78.26915120442706,24.70061011420401],[78.26783989800342,24.70050476074269],[78.26722222222239,24.700849439833377]],[[78.27116970486131,24.698316141764806],[78.27402777777766,24.69819444444495],[78.27428955078139,24.698817986383034],[78.27244113498276,24.699524671767023],[78.27172553168398,24.699364217122962],[78.27097601996527,24.69985215928874],[78.2703032769098,24.699434000651507],[78.27116970486131,24.698316141764806]],[[78.25214816623273,24.691174960666714],[78.25291666666689,24.690972222222726],[78.25309000651035,24.69139380561039],[78.2526744249133,24.69204820421058],[78.25224500868049,24.69418958875937],[78.25177815755197,24.694699300130708],[78.25118218315984,24.6924399820969],[78.25214816623273,24.691174960666714]],[[78.26548095703131,24.68782274034342],[78.26584364149292,24.68751034206862],[78.26644612630227,24.68543843587294],[78.26603054470482,24.683920118544364],[78.2661431206599,24.682518513997906],[78.26804524739592,24.678600769043584],[78.2718934461806,24.67229393853134],[78.27539279513886,24.669202270508336],[78.27597222222218,24.669027777778382],[78.27577582465292,24.67001990424309],[78.27403754340267,24.67223975287601],[78.27306586371523,24.675288119846414],[78.27221191406247,24.676656324599193],[78.27179578993051,24.67803802490296],[78.270267469618,24.679989657932367],[78.2682234700521,24.683372090658096],[78.26778808593738,24.68528811984639],[78.26689127604155,24.68728854709255],[78.26635850694444,24.68963439941463],[78.26550048828139,24.68998965793243],[78.26548095703131,24.68782274034342]],[[78.27242540147583,24.681033630371616],[78.27291666666665,24.680694444445166],[78.27312906901065,24.68120005289761],[78.27308946397582,24.682790188260014],[78.27233696831607,24.683945753310056],[78.2711859809028,24.68368774414118],[78.27242540147583,24.681033630371616]],[[78.2642569986979,24.67994459364202],[78.26208333333349,24.683944973416303],[78.26139675564244,24.683718905979276],[78.26289279513881,24.680319552951943],[78.2640277777779,24.679305555556112],[78.2642569986979,24.67994459364202]]]]},"properties":{"id":"1780"}}]}