{"type":"FeatureCollection","features":[{"type":"Feature","geometry":{"type":"MultiPolygon","coordinates":[[[[80.39360076904288,23.656254204644327],[80.39329789903402,23.65476453993078],[80.39167700873455,23.654396294488023],[80.39317657470693,23.652538248698093],[80.39607896592852,23.652205539279763],[80.39616475423148,23.65113810221382],[80.39551991780579,23.650582546658214],[80.39563283284517,23.649176974826673],[80.39498965793163,23.649434136285024],[80.39454664442266,23.649948323567912],[80.39346713595913,23.650344780816184],[80.39248965793158,23.64973253038218],[80.39167700873455,23.648160536024477],[80.39193410237604,23.646656358507087],[80.39243506537528,23.646224772135653],[80.39257734510605,23.644454345703352],[80.39056589762359,23.643848741319644],[80.39110076904265,23.643045247396074],[80.391975402832,23.642654893663448],[80.39360076904288,23.641254611545364],[80.39319051106744,23.64056586371548],[80.38929928249766,23.64115532769125],[80.38836046006932,23.640736490885658],[80.38819444444417,23.638750000000172],[80.38725307888447,23.638921712239807],[80.38726721869548,23.641532389323203],[80.38685468885618,23.64245686848976],[80.38577779134104,23.642781032986335],[80.38587873670761,23.64403740776949],[80.38445478651235,23.644672851562717],[80.38471188015379,23.64501030815987],[80.38584367540122,23.645267469618304],[80.38622934977204,23.64779839409745],[80.38667700873467,23.648600802951577],[80.38708794487835,23.65129760742215],[80.38825480143194,23.655706380208557],[80.3902848307288,23.65526367187519],[80.39089925130187,23.655976833767653],[80.39211717393661,23.656656358507163],[80.39360076904288,23.656254204644327]]]]},"properties":{"id":"9635"}}]}