{"type":"FeatureCollection","features":[{"type":"Feature","geometry":{"type":"MultiPolygon","coordinates":[[[[107.87696634928275,12.474838324653064],[107.87647074381417,12.473791503906526],[107.87483934190445,12.474390462239768],[107.8736536322688,12.473461914062852],[107.87202358669592,12.473164605035052],[107.87087585449135,12.472350802951723],[107.86973219129678,12.472006293403112],[107.86905999077587,12.471388888889194],[107.86782029893558,12.47210367838585],[107.8683924018001,12.473317599826814],[107.87005310058484,12.474618055555794],[107.87237053765088,12.473767089844031],[107.87334465874457,12.475512695312815],[107.87378112792854,12.477906358507227],[107.87470777723419,12.47756890190999],[107.87696634928275,12.474838324653064]]]]},"properties":{"id":"22909"}}]}