{"type":"FeatureCollection","features":[{"type":"Feature","geometry":{"type":"MultiPolygon","coordinates":[[[[77.49581570095486,23.533677164714092],[77.49621771918387,23.532437744141063],[77.49962103949659,23.53317545572969],[77.49910807291653,23.53117350260463],[77.50117648654535,23.530769721137617],[77.50168185763894,23.527664252387552],[77.5038916015624,23.526947157118514],[77.50417480468755,23.526652425130635],[77.5041965060764,23.5247249348962],[77.50572211371528,23.525510932075093],[77.5068714735244,23.527263861762535],[77.50722466362859,23.52835191514798],[77.50805311414913,23.529148084852807],[77.50848822699683,23.53048841688421],[77.50972032335059,23.52985365125909],[77.51138970269093,23.530281439887688],[77.5119466145832,23.529994574653287],[77.51229465060752,23.531776665582058],[77.51305284288176,23.531386176215705],[77.51582817925365,23.530844319661952],[77.5169818793403,23.528858371311287],[77.51916395399329,23.527775065104592],[77.52221408420135,23.52750827365496],[77.52394070095502,23.526669379340674],[77.5264436848959,23.527310926649733],[77.52911648220501,23.52685492621569],[77.52981825086792,23.524692518446585],[77.52914713541671,23.522731797960517],[77.52639160156255,23.520275065104528],[77.52382921006935,23.51884372287374],[77.52282145182281,23.517794731988474],[77.5211083984378,23.51694715711845],[77.51998833550354,23.51543619791714],[77.52000976562508,23.514384765625422],[77.52115288628463,23.512165798611463],[77.5221763780381,23.511182318793786],[77.52386203342004,23.50880615234432],[77.52506971571174,23.50801445855069],[77.53056369357628,23.50804687500039],[77.5311181640624,23.509189860026396],[77.53228624131938,23.510349934896254],[77.53335394965288,23.512551133897986],[77.53444715711797,23.514163953993418],[77.53476101345487,23.516731092665367],[77.53780300564225,23.520008002387513],[77.53948811848957,23.520003662109787],[77.54133219401027,23.52063490125917],[77.54008083767363,23.518571370443183],[77.5397249348957,23.516386176215747],[77.5383300781248,23.513073866102886],[77.53893853081595,23.506533745660164],[77.5422504340278,23.50443223741364],[77.54333062065982,23.50333062066008],[77.54430067274299,23.503015814887604],[77.54693115234372,23.503047281901488],[77.54825303819453,23.503499755859792],[77.55142523871538,23.502477077908495],[77.55138536241319,23.500525037977823],[77.54688259548621,23.498297254774656],[77.54600450303835,23.497383490668767],[77.54545138888889,23.49511461046052],[77.54588595920146,23.493419596354556],[77.54907823350678,23.487917616102806],[77.5506822374131,23.486866048177532],[77.55141330295126,23.484613172743508],[77.55285427517353,23.484145507812997],[77.55360839843732,23.48331353081646],[77.55161946614592,23.483354085286905],[77.55029324001723,23.484734429253947],[77.54880940755189,23.483969997830272],[77.54613796657989,23.484654676649683],[77.54498806423598,23.48585150824698],[77.543865831163,23.48639607747438],[77.5421915690105,23.488092990451804],[77.54166937934016,23.489169379340666],[77.53780083550336,23.492492811415374],[77.53500244140608,23.493891737196535],[77.53103814019099,23.494451497396327],[77.5297195095487,23.49444729275214],[77.52864854600674,23.493721245660268],[77.52806749131926,23.496105278863297],[77.52775770399293,23.496402587891183],[77.52355767144084,23.49633965386333],[77.52184597439222,23.49669013129379],[77.52027560763898,23.49666951497447],[77.51799452039924,23.49628051757857],[77.51665825737857,23.49526665581638],[77.51662570529496,23.492571478950083],[77.51721733940954,23.491422661675784],[77.51761366102417,23.489797770182875],[77.51930365668406,23.48897786458373],[77.52055826822917,23.486391601562914],[77.5209933810763,23.4837186686202],[77.52439778645825,23.48030938042578],[77.52471950954842,23.478314344618553],[77.52415256076372,23.4777695041237],[77.52330837673625,23.477786729601192],[77.52276963975694,23.478347303602987],[77.521653374566,23.478336452908337],[77.52049262152778,23.477167019314635],[77.5186821831596,23.475980224609813],[77.51805826822911,23.47476372612894],[77.52000271267357,23.474447157118462],[77.52104193793392,23.473911810981264],[77.52138617621537,23.472485894097588],[77.51779649522555,23.4725591362851],[77.51608913845493,23.47081759982686],[77.51305121527784,23.470077039931056],[77.51308051215281,23.468640950521262],[77.51249159071168,23.467772216797457],[77.51249701605897,23.466941867404927],[77.51360839843764,23.464981011285133],[77.51288384331585,23.46428480360288],[77.50970323350683,23.465552842882417],[77.50860405815965,23.464454074436134],[77.50916395399295,23.462459174262648],[77.50854844835058,23.460660942925742],[77.50706217447899,23.461169569227792],[77.50666937934014,23.462780490451763],[77.50636990017355,23.463052842882334],[77.50535454644105,23.46199612087723],[77.5049549696179,23.46035685221402],[77.5058306206598,23.458597412109825],[77.5041471354165,23.457763536241742],[77.50416965060745,23.45666395399347],[77.50364827473945,23.456163194444883],[77.50333604600681,23.453608398437865],[77.50221408420131,23.452763536241747],[77.50221923828124,23.45138047960107],[77.50121853298597,23.451400824653206],[77.50000271267353,23.45222493489628],[77.49914116753476,23.45249728732675],[77.49917588975686,23.450797254774685],[77.50027506510403,23.449719509549084],[77.50086941189235,23.44943101671049],[77.50326850043385,23.449431559245212],[77.50500406901043,23.44811455620713],[77.50500298394101,23.447219645182727],[77.50444200303829,23.445248209635835],[77.50360270182298,23.444441731771335],[77.5036295572917,23.44312825520872],[77.5022775607637,23.44278049045181],[77.50010986328115,23.4457047526046],[77.4988916015628,23.445247938368553],[77.4999159071181,23.44325941297781],[77.50140136718764,23.44277737087735],[77.50204996744779,23.441440836588953],[77.50472493489568,23.441113823785088],[77.5063916015624,23.44055826822958],[77.5066639539929,23.440247938368472],[77.50600558810751,23.438970269097652],[77.50502224392366,23.43999403211849],[77.50440375434013,23.44027506510463],[77.50242757161439,23.439598659939676],[77.5013471137153,23.437443576389313],[77.50041612413193,23.436549207899816],[77.4997355143228,23.434451361762484],[77.49943060980908,23.434169379340716],[77.49875027126731,23.435572238498708],[77.49962727864576,23.437275119358134],[77.50001763237842,23.439274088542092],[77.49999430338542,23.440422092014288],[77.49875000000006,23.43978108724005],[77.49678982204873,23.440552842882383],[77.49639160156264,23.439692382812964],[77.49730224609388,23.43792480468794],[77.49666693793384,23.436691894531663],[77.49638997395814,23.434706895616728],[77.49509060329873,23.43341064453169],[77.49556396484363,23.432491726345873],[77.49442816840266,23.431940646701918],[77.4931285264756,23.429958360460446],[77.49199300130195,23.426944444444842],[77.49361816406261,23.424931098090767],[77.4936029730903,23.424182671441315],[77.49284125434016,23.42333604600728],[77.49249918619799,23.424739176432738],[77.49061659071165,23.426386176215686],[77.49028049045134,23.424953748915357],[77.49113579644083,23.423293592665374],[77.49110812717024,23.42193060980938],[77.48837402343756,23.420555419922337],[77.48430555555544,23.420138888889298],[77.4836083984375,23.420275065104576],[77.48333604600694,23.421023898654866],[77.48688530815977,23.421409505208842],[77.4875070529512,23.423960367838944],[77.48748589409726,23.424991726345894],[77.48805989583329,23.42666870117236],[77.48719970703124,23.427086046007403],[77.487225206163,23.428347167969108],[77.48833604600682,23.428886176215684],[77.49000271267366,23.43166395399352],[77.49042643229163,23.432969699436143],[77.49300781249988,23.435449761285085],[77.49206949869793,23.439340684679323],[77.4912388780381,23.440138617621884],[77.4906778971355,23.439554714627306],[77.48993326822907,23.437260335286837],[77.48836642795126,23.436233045790345],[77.4872249348958,23.435990125868486],[77.48829616970502,23.437570258246936],[77.48860839843778,23.439169379340782],[77.48973524305549,23.442274034288673],[77.48973171657983,23.443658311632362],[77.49110839843732,23.445002712674054],[77.49237874348947,23.44583577473996],[77.49417371961786,23.449467637804204],[77.49472493489569,23.449997287326838],[77.49536783854174,23.451627061632493],[77.49408040364594,23.452251654731327],[77.49156955295146,23.452227105035092],[77.49083604600676,23.448886176215723],[77.49054144965285,23.448602837457045],[77.48999728732647,23.448613959418893],[77.48941758897556,23.4465988498269],[77.48773925781259,23.44702894422788],[77.4877859157987,23.444735378689856],[77.48734456380217,23.443445366754005],[77.48693033854167,23.443047281901542],[77.48626953124986,23.44306084526957],[77.48563368055542,23.445830620660132],[77.4849346245658,23.443676350911844],[77.48388617621518,23.443336046007417],[77.48274793836825,23.44166937934078],[77.48152289496548,23.44294460720525],[77.48301974826373,23.444382731120214],[77.48377170138875,23.44552978515668],[77.4832750108508,23.446494004991777],[77.48139105902763,23.446108262804245],[77.47942491319432,23.446148410373695],[77.4787201605902,23.44903984917586],[77.47976291232627,23.449997287326838],[77.48141845703131,23.449430609809482],[77.48220893012146,23.44860799153679],[77.48345675998272,23.44859442816876],[77.4826774088543,23.450515814887552],[77.48111382378463,23.45093546549515],[77.48306396484364,23.452213948568073],[77.48362114800372,23.45393120659763],[77.4864732530381,23.453899061415285],[77.4889360894098,23.454742160373755],[77.4886016167533,23.45670301649355],[77.4861412217883,23.45939914279549],[77.48698513454852,23.46147949218789],[77.48695285373245,23.465276828342482],[77.48567030164932,23.46611775716194],[77.48528049045134,23.467008056641063],[77.48801025390608,23.468179524739938],[77.48833062065958,23.469185655382304],[77.48733072916659,23.47014621310801],[77.4868836805554,23.472893880208787],[77.48380832248247,23.472444390191498],[77.48251871744779,23.471102159288634],[77.4814770507812,23.471123453776485],[77.48221950954863,23.4736138237851],[77.4827916124132,23.474458007813027],[77.48277072482622,23.475478244358058],[77.48087375217003,23.476722005208714],[77.48190375434027,23.47771145290841],[77.48135904947904,23.479163953993506],[77.48027506510417,23.47805826822976],[77.47986653645839,23.476383056641012],[77.47772488064223,23.476362304687967],[77.47607991536447,23.474708658854553],[77.47525797526023,23.47472547743095],[77.47527452256932,23.47640828450571],[77.47469645182312,23.47696370442749],[77.47306070963546,23.476930338542147],[77.4727804904513,23.477324354384052],[77.47615152994783,23.47919162326437],[77.4769501410589,23.48000000000033],[77.47586914062512,23.48103868272611],[77.47667154947905,23.482222493490013],[77.47555284288174,23.48360839843788],[77.47493245442709,23.484845377604543],[77.47360839843745,23.485275065104517],[77.47332546657995,23.486146375868415],[77.4733756510415,23.48860297309068],[77.47221571180566,23.489165717231387],[77.47260036892371,23.489535454644695],[77.47209879557286,23.49050916883718],[77.47110839843762,23.490830620660205],[77.46893174913194,23.492482231988262],[77.47224121093743,23.49277506510468],[77.472775065104,23.492219373915347],[77.47392496744803,23.49224283854204],[77.47453830295129,23.492881266276626],[77.47408040364567,23.49377048068638],[77.47048611111117,23.49456705729203],[77.46856499565965,23.495869276259086],[77.46572482638894,23.495838351780023],[77.46528049045148,23.49725206163241],[77.46611382378458,23.49805284288233],[77.46651774088534,23.49929687500037],[77.46864963107626,23.497507188585473],[77.46971950954847,23.498058268229528],[77.47110839843762,23.49830349392421],[77.47028049045119,23.49630533854217],[77.47225206163174,23.495836046007383],[77.47381076388896,23.49721950954897],[77.47527506510406,23.49610839843794],[77.47639160156248,23.495836046007383],[77.47839870876717,23.49235690646745],[77.47954806857629,23.49160332573834],[77.48060139973947,23.49196384006119],[77.48222493489592,23.49333062066019],[77.48309299045118,23.494474826389293],[77.48473632812502,23.494441324870223],[77.48471923828137,23.493608398437956],[77.48668891059017,23.492896864149756],[77.48814941406246,23.490701633030028],[77.49110866970469,23.48971937391535],[77.49194173177088,23.48974121093795],[77.49123860677074,23.490416666667073],[77.49203559027777,23.491211480035176],[77.49277723524304,23.490829399957107],[77.49506293402769,23.491611735026453],[77.49414659288178,23.49249199761327],[77.49416992187511,23.493630913628905],[77.49538058810745,23.493606228298944],[77.49590684678807,23.49198418511331],[77.49721950954861,23.491707492404927],[77.49639160156264,23.494169379340747],[77.49508409288197,23.495892740885864],[77.49599012586813,23.4969417317713],[77.49721950954861,23.49610839843794],[77.50145290798602,23.495270589193026],[77.50206814236103,23.495283067491783],[77.50503770616322,23.496406928168838],[77.50610839843736,23.498613823785135],[77.5066761610241,23.499159478081992],[77.50603651258686,23.50010335286504],[77.507606065538,23.50394938151082],[77.50916937934008,23.50666395399344],[77.50943250868059,23.509892578125488],[77.50774576822923,23.512423909505728],[77.50651638454869,23.51282294379382],[77.50399278428827,23.512771402995355],[77.50194715711794,23.511941731771273],[77.49974500868049,23.511404758029983],[77.49912543402783,23.51108561197968],[77.49779079861125,23.508334825304175],[77.49712022569466,23.50805826822959],[77.49626302083314,23.509365505642762],[77.49688557942707,23.511184082031704],[77.49622124565954,23.511822238498837],[77.49416992187511,23.51248792860285],[77.49361382378467,23.513336046007424],[77.49259250217003,23.513831651476096],[77.49360839843737,23.51625962999175],[77.49277506510421,23.5166639539935],[77.49250271267366,23.517252061632448],[77.49313123914922,23.518472222222613],[77.49250271267366,23.52028049045198],[77.49190077039933,23.520572509766055],[77.49082682291655,23.52169040256136],[77.48827365451373,23.523100721571552],[77.4855466037325,23.525814615885807],[77.4855639648438,23.526663953993392],[77.48395290798598,23.52830647786506],[77.48276394314232,23.52890028211847],[77.48278103298597,23.529742024739946],[77.48496012369796,23.529697536892755],[77.48611382378479,23.53027506510459],[77.48749728732648,23.53195814344653],[77.48528049045134,23.533085394965767],[77.48639702690983,23.53418090820358],[77.48638183593764,23.534926622179313],[77.48388617621518,23.535275065104585],[77.48359727647576,23.535575493707015],[77.48361735026046,23.536551513672308],[77.48686333550327,23.535612114800912],[77.48805962456598,23.53359673394138],[77.49084716796861,23.532210828993513],[77.49082845052092,23.53128540039104],[77.48971679687506,23.53055664062545],[77.49061631944429,23.529229600694876],[77.49299207899296,23.52861382378515],[77.4933306206598,23.530002712674033],[77.49418023003486,23.531702880859726],[77.49415907118046,23.532726915148118],[77.49277506510421,23.53444173177131],[77.49191975911444,23.536706407335544],[77.49195122612835,23.538249104818277],[77.49305826822919,23.53860839843793],[77.49337700737854,23.53926513671921],[77.49388617621534,23.538462592231454],[77.49304904513897,23.538056504991786],[77.49371771918416,23.53738349066876],[77.49425591362856,23.53517578125046],[77.49581570095486,23.533677164714092]],[[77.49464057074661,23.45986911349874],[77.49389973958338,23.459422336154987],[77.49299723307305,23.459555664062904],[77.4917732747397,23.45907443576428],[77.4920654296873,23.457098524305906],[77.49307345920127,23.455851236979598],[77.49424126519105,23.45336697048654],[77.49486111111125,23.453194444444833],[77.49525987413179,23.45418457031296],[77.49565646701384,23.45449069552987],[77.49609320746518,23.456838921441374],[77.49521837022584,23.457514241536856],[77.49544786241322,23.459067111545536],[77.49464057074661,23.45986911349874]]]]},"properties":{"id":"1804"}}]}