{"type":"FeatureCollection","features":[{"type":"Feature","geometry":{"type":"MultiPolygon","coordinates":[[[[88.56952555338606,26.77673475477451],[88.56960367838602,26.77476372612861],[88.57085964626819,26.77520399305571],[88.57275254991382,26.77512885199664],[88.5736132812506,26.77379584418425],[88.57405219184093,26.77195339626752],[88.57757921007007,26.769702148437588],[88.57694742838632,26.76850830078139],[88.57797010633763,26.76818440755227],[88.5806035698794,26.766372341580066],[88.57955647786517,26.76540201822951],[88.57958984375088,26.76455674913221],[88.58081190321249,26.763980034722465],[88.58354600694517,26.763328993055765],[88.58430013020919,26.763826226128785],[88.58268798828212,26.76532009548616],[88.58135959201454,26.765740831163384],[88.5824736870666,26.76761637369809],[88.5839775933168,26.76599338107664],[88.58542209201474,26.765144314236338],[88.58742811415001,26.76351155598978],[88.58795111762234,26.764076063368222],[88.58941758897632,26.764017740885635],[88.59217502170222,26.757203504774623],[88.59147922092095,26.75619249131971],[88.58792182074731,26.753813476562783],[88.58474907769184,26.75231608072933],[88.58320610894182,26.752377115885537],[88.58093343099048,26.750939127604468],[88.5757362196189,26.748872070312743],[88.5747222222229,26.74777777777784],[88.57264431423678,26.748592936198165],[88.57069281684093,26.747908799913475],[88.56967447916762,26.748609483507195],[88.56875542534792,26.7498966471355],[88.56947645399393,26.750565049913334],[88.57013346354248,26.749855685764132],[88.5711002604173,26.74931098090292],[88.57294243706659,26.750723470052208],[88.5750851779521,26.751401909722347],[88.57541124132032,26.755144314236276],[88.57575737847301,26.755464680989746],[88.57563856336887,26.756522352430764],[88.57454698350782,26.75594482421893],[88.57339599609432,26.754033203125147],[88.57170491536564,26.754625651041835],[88.57014431423679,26.75569986979187],[88.56834228515694,26.756550021701543],[88.56736599392431,26.75651150173637],[88.56678087022655,26.75714301215295],[88.56507812500072,26.75707546657999],[88.56388888888947,26.756446126302322],[88.56319254557374,26.756814507378635],[88.56290744357707,26.756506890191176],[88.56012478298678,26.758640679253602],[88.55730007595557,26.759313422309262],[88.55622178819542,26.759884168837075],[88.55503173828205,26.763642849392497],[88.55354193793485,26.76509684244806],[88.55317816840349,26.766622992621677],[88.55000244140709,26.770284559461984],[88.5484776475702,26.772972547743265],[88.55018744574718,26.774557020399456],[88.54850965711879,26.775787489149465],[88.54806613498343,26.77764946831614],[88.54680013020916,26.77930013020847],[88.54614881727511,26.780592719184142],[88.54388970269187,26.7811309136287],[88.54118462456657,26.783255208333472],[88.5400957573793,26.78494167751751],[88.54023573133739,26.78568901909759],[88.54471842447978,26.7845144314238],[88.54720214843812,26.78200385199669],[88.54823594835167,26.781515842014045],[88.54925428602488,26.780416937934234],[88.55153320312579,26.780144314236296],[88.55323133680614,26.779012586805692],[88.55436631944528,26.77901991102452],[88.55601860894163,26.77814561631962],[88.55689561632025,26.77637288411485],[88.56339165581679,26.77509114583357],[88.56525146484464,26.774439290364768],[88.5669086371536,26.775788031684286],[88.56655192057352,26.778386501736293],[88.56823676215348,26.78045708550367],[88.56899359809094,26.782060546875172],[88.56826144748354,26.78556043836815],[88.56653320312583,26.787807345920257],[88.5679644097228,26.787049967448056],[88.56916883680648,26.78518473307301],[88.56997043185848,26.781819390191316],[88.56955783420219,26.780642089843965],[88.56961507161523,26.779199761284886],[88.57031358507041,26.777879774305703],[88.56952555338606,26.77673475477451]]]]},"properties":{"id":"4878"}}]}