{"type":"FeatureCollection","features":[{"type":"Feature","geometry":{"type":"MultiPolygon","coordinates":[[[[82.31188096788176,25.108983832465697],[82.31201714409733,25.107288411458725],[82.31072672526037,25.108008355035125],[82.3096446397569,25.10809516059058],[82.30998969184012,25.104711914062847],[82.31108262803829,25.10438259548644],[82.31097222222243,25.103194444444895],[82.31026746961814,25.10332302517415],[82.30994601779523,25.104043511285198],[82.3088785807291,25.104711914062847],[82.30853786892365,25.105475802951887],[82.30723931206606,25.106594509548927],[82.30714491102415,25.10776746961845],[82.3077826605901,25.107194010417075],[82.30820176866334,25.108585611979592],[82.31188096788176,25.108983832465697]]]]},"properties":{"id":"19116"}}]}