{"type":"FeatureCollection","features":[{"type":"Feature","geometry":{"type":"MultiPolygon","coordinates":[[[[106.78335910372945,15.077597113714859],[106.78124715168971,15.074030490451023],[106.78124511718445,15.072258572048256],[106.77981079101247,15.071793077256572],[106.77823947482321,15.070157335069183],[106.77759318033551,15.067238498263507],[106.77761976453675,15.063226453992655],[106.7745787217851,15.059861653645598],[106.77487250433731,15.05929144965232],[106.77845364040482,15.059291992187141],[106.77922987195856,15.059691840277338],[106.77958062065656,15.062919379339831],[106.78004408094304,15.064728190103764],[106.78083184135986,15.06589029947881],[106.7825821940074,15.066247287325993],[106.78518337673293,15.064281141492827],[106.78655327690652,15.064308810763436],[106.78651150173297,15.066354709201036],[106.78591349283536,15.068687608506508],[106.7878605143201,15.070945638020447],[106.78905639648141,15.07804036458296],[106.78904961479734,15.081346571180262],[106.78958021375561,15.083485785589957],[106.79016465928535,15.084047309027397],[106.79126383463236,15.08402452256908],[106.79196668836491,15.082575954860715],[106.79250203450218,15.080380316839893],[106.79329318576092,15.078844401041266],[106.7915304904482,15.07096950954832],[106.79096544053513,15.069318576388454],[106.7913212076792,15.067930230034307],[106.79125651041343,15.062734374999636],[106.79242363823485,15.061808268228717],[106.79480699326953,15.064288736978767],[106.79541937933712,15.066525065103846],[106.79571546766195,15.069249131944119],[106.79565836588236,15.072042100693992],[106.79738104925892,15.074319118923171],[106.79822564018778,15.074302300346858],[106.7997140841982,15.073535156249633],[106.80018269856456,15.075935872395505],[106.8011290147538,15.076525065103738],[106.80297390407671,15.075274522569046],[106.80391072590842,15.072387152777438],[106.80346028645513,15.071513129339905],[106.80107286241022,15.070738389756485],[106.8005425347192,15.069104275173274],[106.80011271158534,15.065147569444179],[106.80127983940665,15.064586046006553],[106.80234252929372,15.065692274305206],[106.80349080403349,15.066064453124525],[106.80723320854716,15.065173611110865],[106.80876939561315,15.06400824652745],[106.80873819986678,15.062479926214834],[106.80788682725384,15.06208604600657],[106.80677639431102,15.06265787760384],[106.80565280490126,15.062635091145424],[106.80282579209748,15.05977918836787],[106.79922119140318,15.057107204860799],[106.7960705566376,15.056667209200981],[106.79429172091707,15.051497938367731],[106.79358249240127,15.05081651475659],[106.79235839843435,15.050419379339957],[106.79125271267063,15.049580620659398],[106.78927530924162,15.049308268228842],[106.78789089626437,15.051825086805223],[106.78569715711481,15.051814236110758],[106.78525702582166,15.051355794270435],[106.78652506510102,15.047592773437188],[106.78540961371218,15.045427517360707],[106.78575697156825,15.044308268228846],[106.78797865125571,15.045453016492672],[106.78927680121208,15.046803927951018],[106.7912879774274,15.047947048610752],[106.79349568684577,15.04790201822884],[106.79458062065683,15.046247287326139],[106.79644287109065,15.045974934895398],[106.79562174478858,15.048429904513469],[106.79755343966693,15.050285373263677],[106.7956829155788,15.053045247395488],[106.795700954858,15.05392686631913],[106.79711317273993,15.054580620659294],[106.79874579535286,15.053739691839922],[106.80265367295712,15.054405924478758],[106.80346950954547,15.054105902777323],[106.80235839843434,15.052641601562286],[106.80208604600378,15.051514214409309],[106.80323065863413,15.050958658853887],[106.80404161240997,15.050975477430285],[106.80495659721899,15.052861328124564],[106.80793592664625,15.054041883680185],[106.80906168619478,15.056307508680149],[106.81182454426781,15.057080620659377],[106.8123583984345,15.056525065103784],[106.81316569010099,15.056541341145447],[106.81405748155063,15.0562358940969],[106.81477593315665,15.055488281249637],[106.8131948513425,15.052386067707943],[106.81286309135973,15.050010308159287],[106.81232543944989,15.048967013888586],[106.81236504448466,15.047030707464856],[106.81376993814789,15.045680881076052],[106.81512030707174,15.04570800781211],[106.81696587456284,15.045000542534282],[106.8178458658825,15.044084201388472],[106.81819173176783,15.041220160589816],[106.81736083984057,15.039607204860758],[106.81212972004894,15.039095594617606],[106.80841742621234,15.040146484374688],[106.80601236978842,15.04009711371495],[106.80401611327821,15.041125759548166],[106.80404147677635,15.03988335503442],[106.80607950846039,15.037520616318986],[106.80889756944131,15.038242730034298],[106.80999999999707,15.037865668402333],[106.81097181531808,15.038198242187192],[106.8121015082435,15.037908528645602],[106.81592149522268,15.037986653645405],[106.81655815971911,15.037323676214939],[106.81651272243627,15.035096028645413],[106.81526570637706,15.033256293402331],[106.81295247395533,15.031034071180187],[106.81178995767928,15.029586046006557],[106.81007256401594,15.032174479166272],[106.80919637043965,15.033015950520465],[106.80738457573457,15.03208279079827],[106.80485839843433,15.031808268228872],[106.80375271267056,15.030751410589872],[106.80682047525747,15.030418294270461],[106.80886650932845,15.028365885416207],[106.81069715711524,15.02791937933992],[106.810979953339,15.027048068576022],[106.81096272786161,15.02620279947891],[106.80975599500553,15.025043402777328],[106.80779310438058,15.025445421006523],[106.80609998914625,15.02541069878427],[106.80559638129031,15.024372829860752],[106.80725626627313,15.022777777777364],[106.8058890787731,15.02146430121492],[106.80205552842577,15.021542426214893],[106.8007864040766,15.024102647569023],[106.79957221136854,15.025702582464874],[106.79870727538761,15.025685221353754],[106.7970806206566,15.024863823784315],[106.79653049044842,15.024340820312062],[106.79877970377302,15.021732855902385],[106.7987451171845,15.020035264756686],[106.79744004991025,15.019179687499559],[106.79542412651588,15.019869791666252],[106.79426269530958,15.01984592013848],[106.79251369899859,15.018660481770482],[106.79208604600396,15.017385525173296],[106.79458604600396,15.014586046006585],[106.79556355793946,15.01146647135377],[106.80092135958878,15.010979817707934],[106.80269029405073,15.01240776909681],[106.80400214300917,15.0151117621524],[106.80500271267064,15.016430121527407],[106.80756062825228,15.016802842881631],[106.8090770128006,15.015652126735787],[106.8110183376705,15.015983072916214],[106.81234646267038,15.01666775173571],[106.81346950954568,15.01538682725652],[106.81231852213224,15.014281141492773],[106.81016805012715,15.014324544270409],[106.80898152668968,15.013752712673224],[106.80651163736664,15.014858398437156],[106.80569715711508,15.013164605034277],[106.80627590602998,15.01204155815941],[106.80887301974528,15.012094184027433],[106.81108412000569,15.013435329860755],[106.8124707031221,15.013773328992727],[106.81380276149858,15.01374620225657],[106.81515814886856,15.01233506944402],[106.81513278537031,15.011091579860718],[106.81368014865151,15.010386827256625],[106.81208102755781,15.010419379339865],[106.81065660264451,15.010128038193997],[106.80962863497948,15.009058159721775],[106.80758816188924,15.009885525173303],[106.80619357638582,15.009857313367704],[106.80368123372071,15.009213324652464],[106.80127685546583,15.007139214409264],[106.79958062065649,15.006808268228752],[106.7993082682261,15.0059564887149],[106.80112019856475,15.00476888020799],[106.8050967068111,15.00280653211766],[106.80800686306102,15.002238498263566],[106.81068739148995,15.002925347221804],[106.81175008137703,15.002903645832944],[106.8123583984345,15.00192654079828],[106.80966824001419,15.00059082031207],[106.80926228840863,14.998511284721857],[106.80932562933711,14.995404188367601],[106.80873101128171,14.9948638237843],[106.80818644205422,14.995430772569023],[106.80678154839111,14.995402018228773],[106.80563924153321,14.99659071180524],[106.80456773545708,14.998225368923258],[106.80236572265315,14.998180338541346],[106.80096421983225,14.999886610242697],[106.80099161783531,15.001228298610755],[106.8002380371066,15.002339952256506],[106.79765692816525,15.003177625867608],[106.79667385524854,15.003843858506528],[106.79590861002296,15.00620225694405],[106.79318400064804,15.009302842881553],[106.79246799044822,15.005635308159327],[106.79424804687218,15.003289388020477],[106.79458062065683,15.001247287325967],[106.79490831162892,15.000610894096752],[106.79868476019661,14.996982421874591],[106.79734686957178,14.995697157117661],[106.79737128363419,14.994503038194097],[106.80090820312213,14.990999348958027],[106.80174031575203,14.99059570312464],[106.8020806206566,14.989714626735818],[106.8003285047711,14.989287651909308],[106.79929172091707,14.989308810763433],[106.79845241970187,14.991002604166312],[106.79618801540502,14.99211968315926],[106.7952194552922,14.993127712673342],[106.7945335557695,14.995941297742618],[106.793142768009,14.996802842881593],[106.791797281898,14.995402560763424],[106.79179850260104,14.992156032985875],[106.7901692708302,14.989620225693997],[106.79208604600396,14.989308268228797],[106.79279947916356,14.988220486110734],[106.79208604600396,14.986220160589866],[106.7926471625403,14.985130750867697],[106.79265828450198,14.981826171874587],[106.79124728732316,14.979863823784342],[106.78994832356446,14.976920030381521],[106.78916666666365,14.9758333333329],[106.78812717013588,14.975978190103746],[106.78764160155933,14.976590169270466],[106.78930826822622,14.978191731770423],[106.79069173176791,14.980713433159451],[106.7878929307694,14.984034288194067],[106.78701809352995,14.985837673610703],[106.78573106553497,14.986681315103908],[106.78527967664607,14.98807237413152],[106.78363878037894,14.989025065103931],[106.78152777777458,14.987422960069168],[106.78014160155968,14.988474934895436],[106.77874728732328,14.988747287326007],[106.77846394856451,14.989041883680159],[106.7784771050315,14.989685872395398],[106.7800367567244,14.990192057291267],[106.78041395399,14.990989583332919],[106.77758246527478,14.99323404947883],[106.77649156358203,14.99376356336775],[106.77485215928519,14.993729926214868],[106.77486857096059,14.99564290364546],[106.7776687282956,14.994586046006631],[106.77958916557847,14.995550130207903],[106.77956434461507,14.99676106770795],[106.77994873046558,14.997884114583101],[106.78115546332171,14.997262369791358],[106.78152506510102,14.99553765190933],[106.78041937933725,14.993709309895365],[106.78261881510102,14.991531575520582],[106.78405761718469,14.990974934895434],[106.78488037109051,14.991831597221747],[106.78484171549181,14.993731011284325],[106.78581936306145,14.99501953124954],[106.78652506510102,14.996808268228776],[106.78847493489266,14.999025065103908],[106.7887472873235,14.999863823784295],[106.79073798285273,15.00098904079826],[106.79157077365144,15.001856011284318],[106.79148695203682,15.002913953992604],[106.78866739908554,15.00194878472179],[106.78636773003157,15.00150010850659],[106.7845583767332,15.001537000867657],[106.78365980359936,15.002471788194143],[106.78403971353842,15.003209092881576],[106.7860565863684,15.003863932291296],[106.78791395398989,15.006321072048294],[106.78281955294815,15.006254882812073],[106.78320393879883,15.007377929687124],[106.78708062065672,15.009335394964893],[106.78638047959763,15.01069444444407],[106.78723483615127,15.012352973089875],[106.786469862193,15.014217664930186],[106.785602077905,15.014580620659302],[106.78458604600374,15.013987087673343],[106.78514160155933,15.012363823784355],[106.78541395398989,15.010109049478771],[106.78433878580412,15.00907606336763],[106.78275987412903,15.008474934895474],[106.78142442491,15.009380425346905],[106.77844265407705,15.008469509548192],[106.77541937933702,15.00569173177044],[106.77466606987528,15.005419379339884],[106.77430826822635,15.006557617187056],[106.77485758463249,15.007948133680202],[106.77420138888576,15.009222005207931],[106.77487508137725,15.009869249131455],[106.77485826280085,15.010697157117633],[106.77522732204542,15.011413845485748],[106.7782204861081,15.010419379339865],[106.77874728732328,15.011557617187137],[106.77815307616888,15.012711046006615],[106.77823527017912,15.013747287326126],[106.77986111110786,15.013190646701062],[106.78073092990135,15.013488498263584],[106.78068549261846,15.01571940104121],[106.77965847438932,15.016706271701068],[106.77733439127306,15.01708441840239],[106.77623141818279,15.01765245225657],[106.77405693901594,15.017608506944029],[106.77347493489273,15.018114149305163],[106.77489325629048,15.019044053819087],[106.77568617078694,15.019869249131617],[106.77683051214981,15.020424804687124],[106.77950127495345,15.020370008680104],[106.7801638454832,15.020711263020445],[106.7814043511253,15.022603624131548],[106.78319715711493,15.024025065103771],[106.78431437174171,15.0259071180553],[106.7842593044675,15.026525065103755],[106.78072333441546,15.024863823784315],[106.77618381076078,15.028527560763536],[106.77569715711505,15.030287543402451],[106.78008558484956,15.03305935329837],[106.77942654079564,15.033469509548226],[106.77809963649858,15.032569986978729],[106.7733605957001,15.032666558159292],[106.77127916123825,15.031255967881549],[106.76964192708041,15.030724283853814],[106.76819715711488,15.031568467881655],[106.76911092122097,15.034237738714907],[106.77073513454539,15.035442165798216],[106.77232638888589,15.037097981770472],[106.7744083658823,15.037088216145534],[106.77498358832148,15.038860677082937],[106.77706258137707,15.03968098958299],[106.77596937391215,15.04180284288148],[106.77600938584769,15.043766276041268],[106.77512329101276,15.044580620659318],[106.77386393228849,15.042659505207894],[106.77319715711505,15.040969509548205],[106.77275539821747,15.040544704860778],[106.77100694444127,15.042364908853827],[106.76538058810448,15.041814778645502],[106.76448933918974,15.042742513020514],[106.76488701714104,15.043513997395294],[106.76778591579566,15.043454861110718],[106.7687940809432,15.045494249131579],[106.77042507595203,15.047643771701033],[106.77041327582148,15.048224826388505],[106.76902438693261,15.049559461805174],[106.76903306748832,15.049984266492686],[106.77153049044821,15.050969509548182],[106.77199273003171,15.051450195312185],[106.77151638454555,15.052375217013463],[106.7702368164033,15.052349175346862],[106.76744995116869,15.05444064670101],[106.76679741753154,15.05543619791625],[106.76675930446746,15.057080620659377],[106.76514146592567,15.056247287326116],[106.76447875976262,15.056260850694144],[106.76403049044845,15.057641601562096],[106.7634693739117,15.05846950954826],[106.76347710503174,15.060241427951013],[106.76486382378161,15.060691731770405],[106.76532185872085,15.061168619791303],[106.76634141709778,15.060643446180038],[106.76975206162919,15.061319444444152],[106.77069173176787,15.062390950520552],[106.76993394639439,15.063861762152328],[106.76823350694141,15.064686957464858],[106.76791937933731,15.065974934895436],[106.76697170681118,15.067373046874692],[106.76770968966704,15.06919270833292],[106.76680419921573,15.070950520833009],[106.76651814778339,15.074749891492687],[106.76555419921576,15.076172417534366],[106.7627931043805,15.076851671006594],[106.76319715711489,15.077636176214853],[106.76374715168973,15.082363823784362],[106.76479600694145,15.085905490450969],[106.76535224066546,15.0865250651038],[106.76571818033531,15.083530815971955],[106.76804375542221,15.08286946614541],[106.7701694064638,15.08065700954819],[106.7709837510819,15.078147243923269],[106.77175306531817,15.076654188367726],[106.77362698024857,15.075915256076016],[106.77722968207141,15.077473958332874],[106.77820814344298,15.07849229600653],[106.7782002766896,15.080841471353935],[106.7798638237816,15.08124728732605],[106.78069173176758,15.081867947048252],[106.7795737033388,15.085134548610739],[106.78015733506643,15.09084472656211],[106.78182250976252,15.091250542534311],[106.78263617621204,15.092097439235786],[106.78350273979746,15.092080078124752],[106.78449910481473,15.09104275173587],[106.78489176431972,15.088229709201059],[106.78399183484922,15.086482747395522],[106.784068467879,15.079669596353781],[106.78335910372945,15.077597113714859]],[[106.7888114420542,15.057917751735758],[106.79027777777495,15.057777777777375],[106.79099012586508,15.058732096353808],[106.7912320963512,15.059833984374535],[106.78968885633364,15.060120985242676],[106.78858425563934,15.059454752603756],[106.7888114420542,15.057917751735758]]]]},"properties":{"id":"1923"}}]}