{"type":"FeatureCollection","features":[{"type":"Feature","geometry":{"type":"MultiPolygon","coordinates":[[[[78.9291205512159,25.48715060763891],[78.92776963975743,25.48581922743061],[78.92638888888919,25.48584743923621],[78.92611029730952,25.48470513237848],[78.92528049045168,25.48388047960077],[78.92610948350725,25.483897298177084],[78.92638617621574,25.483532443576507],[78.9243451605906,25.482019314236197],[78.92361382378525,25.48278049045159],[78.92273708767405,25.48305284288206],[78.92103732638938,25.4824709743925],[78.92028049045192,25.481652832031344],[78.92220269097263,25.480720486111238],[78.92110839843795,25.480002712673652],[78.92076388888918,25.479293077257182],[78.92112494574681,25.478592393663277],[78.92112955729195,25.476739095052352],[78.9188102213545,25.47805284288198],[78.91833604600751,25.476108398437503],[78.91763888888923,25.47486111111128],[78.91694173177117,25.474997287326474],[78.91666666666688,25.475283474392427],[78.91621961805615,25.474818250868196],[78.9158360460074,25.475434570312558],[78.91666937934062,25.47666395399311],[78.91700086805585,25.47903727213547],[78.91618706597242,25.481043565538272],[78.91578911675387,25.481426052517506],[78.91621365017394,25.483914930555756],[78.91776882595516,25.486209309895955],[78.91958875868082,25.48680013020855],[78.92033013237901,25.487545030381995],[78.92380343967048,25.488052842882055],[78.92416395399337,25.48694173177084],[78.9244634331603,25.486669379340285],[78.92506727430609,25.48729790581612],[78.9265896267365,25.48677707248268],[78.9269637044275,25.48754801432291],[78.92751898871555,25.488052842882055],[78.92805284288235,25.487497287326534],[78.9291205512159,25.48715060763891]]]]},"properties":{"id":"18986"}}]}