{"type":"FeatureCollection","features":[{"type":"Feature","geometry":{"type":"MultiPolygon","coordinates":[[[[107.65826499900012,14.102775818000055],[107.65668750000006,14.101133926000102],[107.65587500000007,14.101117340000144],[107.65200196800006,14.10119639600012],[107.65059968600022,14.10036395300007],[107.65012750200023,14.099872498000181],[107.6496279140002,14.099392502000072],[107.64958264200007,14.097174194000203],[107.64987249800006,14.09687249800011],[107.65012750200023,14.096627502000274],[107.65208874500004,14.094153778000049],[107.65287249800022,14.093622498000144],[107.6538527980002,14.093146912000236],[107.65487750200023,14.091877502000187],[107.65636749300015,14.089867493000227],[107.65754602100029,14.088735199000155],[107.65887249800019,14.08523011800014],[107.65862750200026,14.08437249800005],[107.6583724980002,14.083627502000226],[107.65798931900011,14.08205567900012],[107.6571795040002,14.080820496000143],[107.65549816900014,14.079718170000064],[107.65408136000028,14.078594879000121],[107.6536275020002,14.078122498000198],[107.65337249800021,14.077877502000177],[107.65262750200023,14.076872498000156],[107.65213749700027,14.076401718000199],[107.65159437600008,14.074814941000184],[107.65191787700022,14.07260116600007],[107.65186230500015,14.069877808000157],[107.65235755900008,14.06986770600021],[107.65369375600008,14.07074374400004],[107.65435398900016,14.072104660000292],[107.65537249800016,14.072877502000281],[107.65587750200021,14.073122498000217],[107.65733338900012,14.0738724980001],[107.6581101990001,14.073225418000021],[107.6581275940002,14.072372787000091],[107.65800000000004,14.072000000000244],[107.65736489900027,14.072238647000177],[107.65598410000032,14.072097900000259],[107.65513656600015,14.070613434000094],[107.65436343400015,14.070136566000158],[107.65313656600026,14.069113434000144],[107.65200100700017,14.068780212000107],[107.65117582700029,14.06687751800007],[107.65210061600024,14.065262817000132],[107.65028102100015,14.065448288000113],[107.64813656600009,14.064135498000212],[107.64946362300012,14.062544159000169],[107.64879667700009,14.060979996000242],[107.6491602020001,14.06034530600013],[107.64906817600033,14.059442474000221],[107.64942775000023,14.058814651000048],[107.65088656600025,14.058386566000067],[107.65136343400027,14.058113434000205],[107.65239427200012,14.057810944000224],[107.65336343400011,14.057113434000158],[107.6552183380002,14.05687609900015],[107.65620976300013,14.056308258000243],[107.65646685800019,14.055317429000056],[107.65636993400025,14.052872009000225],[107.6567106320002,14.050915314000065],[107.65622448700023,14.049379761000111],[107.65600866700012,14.049877579000182],[107.6558700100002,14.053375763000162],[107.65597620700001,14.055315425000074],[107.65557957500025,14.055897353999995],[107.64988262900013,14.056640167000253],[107.64801377900014,14.056566086000174],[107.64746554600006,14.057727737000178],[107.6466297610003,14.058629761000205],[107.64623017900018,14.059000000000296],[107.64700129700029,14.05971447800026],[107.64737023900025,14.060879761000209],[107.64787023900018,14.062306320000204],[107.64676878400022,14.063222031000208],[107.64458082600024,14.06287348900024],[107.64362976100014,14.06237023900026],[107.6421803440002,14.061686188000238],[107.64120634500014,14.060416046000128],[107.64274121100024,14.060094925000115],[107.64387023900039,14.060139679000173],[107.64362976100014,14.059870239000176],[107.64287875400024,14.059174377000247],[107.64258541900026,14.057637985000213],[107.64147900400027,14.05883210800016],[107.64027446000026,14.059254303000017],[107.63911776700022,14.05818257100016],[107.63916020200023,14.0571117100001],[107.63787609900012,14.055921921000248],[107.63709309400011,14.05426280200011],[107.63526036100026,14.05256468200011],[107.63631762700007,14.050927429000097],[107.6373702390002,14.050120239000094],[107.6393530270004,14.04980438200026],[107.63939106800015,14.048844635000165],[107.63745286600019,14.0498702390002],[107.63662023900017,14.049379761000111],[107.63516699200025,14.048379761000149],[107.63511496000021,14.048647339000084],[107.63587023900018,14.05007467700024],[107.6355578770002,14.050795700000123],[107.63487023900021,14.051120239000056],[107.63412500000018,14.051514572000087],[107.63311428800031,14.050979752000075],[107.63316839600029,14.052344757000128],[107.63262976100029,14.052629761000077],[107.63087023900007,14.052870239000256],[107.62884008800026,14.053581787000155],[107.62717199700015,14.053647903000211],[107.62624897800006,14.053324402000086],[107.62488563500008,14.054587601000065],[107.6244117890001,14.055591644000103],[107.62358839400022,14.056158234000264],[107.62217143200021,14.05610206600005],[107.62174119600004,14.058355530000256],[107.62093165600024,14.058387619000158],[107.62057247900034,14.056879761000275],[107.62037023900015,14.057120239000014],[107.62006367500018,14.058407257000098],[107.61867199700012,14.058352097000153],[107.61734307900011,14.05881787100023],[107.61674046300018,14.058259537000126],[107.6161557460002,14.057628464000317],[107.61487976100014,14.057224487000198],[107.61514807100016,14.05515562400008],[107.61702250700009,14.05485702500016],[107.61759877000023,14.05363597100012],[107.61887023900019,14.05270338400004],[107.61830233800018,14.052507004000134],[107.61597840900018,14.05311595200007],[107.61516014100008,14.05314837600018],[107.6138797610001,14.051962051000075],[107.61438932800027,14.051347198000187],[107.61576812700022,14.050696487000167],[107.61662023900018,14.049906952000129],[107.6161202390002,14.04983059700011],[107.61448539700021,14.049895401000143],[107.61337023900032,14.049629761000105],[107.61212976100026,14.049120239000132],[107.60990025300018,14.048815536000234],[107.60857800300019,14.048352097000176],[107.6072339320003,14.048405365000136],[107.60468876600001,14.047204193000056],[107.60337976100007,14.044730408000092],[107.60387023900014,14.04412023900015],[107.60416464200014,14.04384745800023],[107.60248489400024,14.042291092000056],[107.60187976800003,14.040120239000117],[107.60112976800022,14.038702866000264],[107.60138774900017,14.037809601000077],[107.60187976800003,14.036879761000051],[107.60215307600006,14.034595764000173],[107.60277551300024,14.032629761000223],[107.60336541700039,14.033030197000215],[107.6036972200001,14.035112991000062],[107.60431565900032,14.035137512000233],[107.60533853100023,14.034813675000265],[107.60462846400034,14.034155746000181],[107.6043797610001,14.033370239000106],[107.60405928000003,14.032455841000214],[107.6043702390003,14.032120239000065],[107.60494502300017,14.03184896900018],[107.60570513900026,14.031028595000166],[107.6075563200001,14.03037976100022],[107.60812976100007,14.030870239000208],[107.60837023900015,14.031129761000187],[107.60862976100023,14.031370239000182],[107.6090753780002,14.031851166000095],[107.61126959200013,14.032620239000053],[107.61187023900018,14.032219223000183],[107.6116297610001,14.032120239000065],[107.61025230400034,14.031792130000014],[107.60962976100026,14.031120239000103],[107.60916789200022,14.030692291000221],[107.60881552100003,14.030026352000192],[107.60937023900019,14.028443680000066],[107.60858947800014,14.02871937600014],[107.60691986100014,14.029868271000254],[107.60636270100022,14.029890350000045],[107.60537976100008,14.029370239000087],[107.60392091400016,14.028908356000244],[107.60323056000024,14.028268723000068],[107.60387023900014,14.026443680000142],[107.60362976100024,14.025370239000054],[107.60337023900016,14.024629761000256],[107.60312976100008,14.023870239000118],[107.60274569700007,14.022774460000136],[107.60336070300016,14.02211070300028],[107.60399926800025,14.02151902800027],[107.6034069520002,14.020879761000216],[107.6025301510002,14.021615112000134],[107.60210805500034,14.022948334000219],[107.60149047100006,14.024115463000157],[107.60066312400019,14.025868529999983],[107.60001940900011,14.025894043000235],[107.59688146200037,14.024413132000177],[107.59686013800027,14.02387500000006],[107.59693872100004,14.021892395000066],[107.59637500000028,14.02187004100017],[107.59569547300029,14.021896973000182],[107.59364778100016,14.020574677000198],[107.59361013800029,14.019625000000133],[107.5936594310003,14.018381316999992],[107.59300000000027,14.018355179000238],[107.59188092800034,14.018399536000175],[107.59186145000032,14.017908127000098],[107.59249285100017,14.016930359000199],[107.59361910200008,14.016398834000015],[107.59364737700011,14.015685471000225],[107.59176734200034,14.016344421000042],[107.59137976800017,14.015120239000183],[107.59112023200018,14.014879761000174],[107.59047448000021,14.013879761000211],[107.58976217700015,14.014363297000074],[107.59037023200014,14.017269592000204],[107.58977852600017,14.018155853000167],[107.58887500000023,14.018120041000046],[107.58812500000013,14.018149765000203],[107.58666159800012,14.018091766000111],[107.58554168700007,14.018862396000102],[107.58370970200022,14.017785385000067],[107.58237976800004,14.016870239000198],[107.58137023200018,14.016629761000019],[107.58062879900032,14.0163698880001],[107.57941269700021,14.01641809100019],[107.57867002900034,14.015338821000142],[107.57831867200022,14.013863754000226],[107.57762976800021,14.013120239000074],[107.57687023200018,14.01262976100017],[107.5758186190001,14.011906128000163],[107.57519228400017,14.012582108000046],[107.57417532300033,14.013120239000074],[107.57362023200014,14.012879761000164],[107.57253031200017,14.012129761000011],[107.5723070600001,14.013859772000245],[107.57357913200028,14.014262512000172],[107.5738819810002,14.015126556000169],[107.57337023200014,14.015870239000066],[107.57307405900022,14.016497803000206],[107.57161027500015,14.017272369000082],[107.57037023200016,14.016879761000098],[107.56933593000022,14.016168045000185],[107.56750306700016,14.016095398000132],[107.56503372200021,14.016783722000056],[107.56392977900029,14.017367874000072],[107.56293940000032,14.017407135000312],[107.56237023200012,14.016879761000098],[107.56212976800012,14.016620239000218],[107.56174047100004,14.01625953700021],[107.56047507500014,14.014893829000101],[107.55940573900031,14.014851440000058],[107.5584253230002,14.015370239000077],[107.55787976800016,14.01449317900017],[107.55815953800007,14.013768402000153],[107.55863011900018,14.012879105000195],[107.55860173000022,14.012163010000009],[107.56037976800027,14.011879761000287],[107.5617519910002,14.011520203000032],[107.56216836500008,14.011905991000148],[107.56211183200023,14.013332230000032],[107.56259164400032,14.014348907000127],[107.56385201300012,14.014398865000175],[107.5646479870002,14.013851135000252],[107.565605766,14.013889099000096],[107.56638954900004,14.01286700400027],[107.56634359700016,14.0117078090001],[107.56779427300009,14.011248535000107],[107.56736436500015,14.01033760100023],[107.56613279000013,14.009196487000139],[107.5661114650002,14.008658615000044],[107.56922003200012,14.007844086000063],[107.57061907200003,14.00789953600021],[107.57063012700027,14.007620575000132],[107.5701541210004,14.00717952000015],[107.569379768,14.005294342000127],[107.56999786400027,14.004129761000144],[107.57062976800003,14.004370239000139],[107.57245566600014,14.005120239000206],[107.57274222600014,14.004724442000054],[107.57211070300028,14.004139297000222],[107.57136891900021,14.003338715000055],[107.56854578400012,14.00274804700021],[107.56671261600022,14.003328430000181],[107.56637976800019,14.004379761000308],[107.56612023200015,14.004870239000212],[107.5658385620001,14.006638412000143],[107.56488092800029,14.0066004640002],[107.564870049,14.006874999999994],[107.56490943100007,14.007868683000055],[107.56438480400007,14.007889481000177],[107.56407840700032,14.006720139000066],[107.56354120600028,14.003906357000218],[107.56229879000026,14.003857117000138],[107.56275952900009,14.00561546300014],[107.56312023200016,14.007879761000183],[107.56380809800024,14.009554382000005],[107.56252446000028,14.010004303000187],[107.56189537800034,14.009421417000198],[107.56111113000011,14.006849915000231],[107.5611388780001,14.006149887000134],[107.55996554600009,14.004883545000155],[107.55815790600028,14.004811890000184],[107.55721373000031,14.006274033000096],[107.55612023200015,14.006620239000142],[107.55562976800016,14.006879761000121],[107.55512023200012,14.007120239000216],[107.55428339400024,14.007563049000169],[107.55330259700028,14.007906815000283],[107.55101179500016,14.007816010000056],[107.55262023200012,14.009306320000078],[107.55129265600013,14.010745117000027],[107.55084896900021,14.009804977000044],[107.54988563500015,14.008912399000081],[107.54950459300008,14.008104996000256],[107.54777105700018,14.008173706000164],[107.54562023200012,14.007879761000183],[107.54509426100023,14.007601440000059],[107.54363131700015,14.007659424000238],[107.54361090100022,14.007144226000065],[107.54492314100028,14.006137955000213],[107.54587500000034,14.006100235000105],[107.54725878900015,14.006155075000024],[107.54976959200027,14.00562976100018],[107.55087976800033,14.00587023900026],[107.55182686600014,14.00620219400011],[107.55220739700033,14.005483047000197],[107.55152558100022,14.004492218000195],[107.55187023200025,14.00412023900006],[107.55236872100025,14.00365835600013],[107.55237995100006,14.003375000000304],[107.55237004900019,14.003125000000225],[107.55238967100033,14.002629761000023],[107.55183808100034,14.00288511700019],[107.55023040800009,14.004620239000047],[107.54789028200017,14.004317719000056],[107.5490924760002,14.002570648000187],[107.54918135800025,14.000328171000007],[107.54803031200024,14.001120239000173],[107.54762976800001,13.999892960000153],[107.54805155900002,13.999414581000181],[107.54899503300012,13.998805328000046],[107.54937023200026,13.997620239000128],[107.55038012700024,13.996379318000223],[107.55036112200006,13.995899887000249],[107.5511900330001,13.995005264000213],[107.55261473100009,13.995759140000061],[107.55263113400011,13.995345276000108],[107.55162976800014,13.993452866000197],[107.55213983200028,13.992846954000157],[107.5531297680001,13.992379761000137],[107.55440062700009,13.991405212000245],[107.55688452900009,13.991009537000096],[107.55769058200016,13.990583008000073],[107.56012023200029,13.990679306000317],[107.55954222100016,13.989136581000025],[107.55875706500021,13.989105469000123],[107.55737023200012,13.989370238999996],[107.55546734600026,13.990200638000047],[107.55378372200019,13.98979960600009],[107.55274407200025,13.987129761000247],[107.55259227800022,13.987424515000129],[107.55272489900008,13.990770493000042],[107.55160373700019,13.991125458000184],[107.55112976800015,13.992129761000243],[107.55084530600018,13.992393341000025],[107.55015763100019,13.993850449000234],[107.54940357200016,13.994249451000115],[107.54855497000014,13.993848969000027],[107.54768682900013,13.992912003000129],[107.54733132200002,13.994268738000201],[107.54787023200012,13.995806320000057],[107.54737976800013,13.996129761000091],[107.54683760100014,13.996385635000209],[107.54591484800025,13.997381531000187],[107.54497975900026,13.997344467000318],[107.5443858030001,13.999039078000195],[107.54527175900014,14.000326584000234],[107.54478612500029,14.002870239000202],[107.54418867500007,14.002524796000046],[107.5437662810003,14.00162976100006],[107.54262023200025,14.001870239000056],[107.54170797700019,14.002497971000125],[107.54087023200012,14.001129761000257],[107.54062415300021,14.000096664000125],[107.53976178700023,13.999297638000101],[107.54039855200008,13.99809425400018],[107.54037004900002,13.997375000000176],[107.54040527300018,13.996486221000183],[107.53862976800028,13.995648300000127],[107.53912023200027,13.99487023900015],[107.53994937100006,13.994607727000101],[107.54045675700021,13.99316009500005],[107.5386433640002,13.992524506000123],[107.53762345100026,13.992881973000223],[107.53687976500018,13.992370239000152],[107.53338299900011,13.991951797000084],[107.5332946050003,13.98972168000003],[107.53376836400022,13.989210358000179],[107.53507257799996,13.990617966000116],[107.5360087930002,13.990655075000078],[107.53753275300019,13.990336227000256],[107.53877545900016,13.990771790000323],[107.53937976800015,13.98962976100016],[107.5398544310003,13.988623993000246],[107.54099778000031,13.988351654000184],[107.54138380400033,13.987622131000222],[107.54038089800011,13.987148834000237],[107.5403452760003,13.986250000000027],[107.54112976800022,13.985879761000206],[107.54207467700022,13.985379761000047],[107.54312976800028,13.985620239000056],[107.54385585000014,13.98600444000013],[107.54485786400019,13.984548278999995],[107.54212976800025,13.982944443000164],[107.54262023200025,13.98237023900009],[107.54337976800022,13.982129761000081],[107.54387023200027,13.981870239000202],[107.54512976800024,13.981629761000107],[107.54587023200028,13.981120239000049],[107.54641239900022,13.980864365000187],[107.54675000000017,13.980500000000148],[107.5453679660001,13.980382034000158],[107.54448757900028,13.980066132000132],[107.54213729100016,13.980206223000181],[107.54209117100024,13.979432404000107],[107.54272106200025,13.977917984000214],[107.54150000000007,13.977845200000232],[107.54065558600021,13.977895523000214],[107.53855145300011,13.977140549000097],[107.53652298000023,13.978557465000193],[107.53474350700017,13.978080872000277],[107.53411797000021,13.978367966000135],[107.53321995900032,13.978995239000085],[107.53161797000021,13.979367966000197],[107.53047561600002,13.979988739000305],[107.52942784900009,13.978636703000078],[107.52936724900016,13.977619965000244],[107.52985493500015,13.976260803000145],[107.52875000000014,13.975660370000114],[107.52744784900014,13.97636796600004],[107.52735270300016,13.975789169000194],[107.52775533300027,13.973632019000064],[107.53075762900025,13.973965117999995],[107.53125182300019,13.975565520999993],[107.53250000000017,13.975639893000192],[107.53325000000015,13.975595184000227],[107.53457856000003,13.975674377000118],[107.53561797000012,13.974186371000101],[107.53513203000026,13.973617981000146],[107.53427923600012,13.972856018000073],[107.53505003000012,13.97117660500011],[107.53605215100006,13.970632019000178],[107.53667386600003,13.970884979000147],[107.53777552400012,13.972117981000025],[107.53998584000024,13.971793365000167],[107.54088203400002,13.97138201900006],[107.5419383240002,13.970808044000265],[107.54336796600003,13.971806671000024],[107.54313203400002,13.97036798100018],[107.54251126900019,13.969225616000244],[107.54392241700023,13.968132019000095],[107.54636796600008,13.968426483000115],[107.54613203400018,13.969132019000227],[107.54545088200015,13.970107178000177],[107.54695196500026,13.970196655000208],[107.54850703400021,13.96963867200023],[107.55027552000021,13.971617981000222],[107.55063826000017,13.97112353500026],[107.55015078000017,13.970687988000094],[107.54985917700029,13.969599213000166],[107.55092004400015,13.968651337000068],[107.55211796600022,13.966936371000102],[107.55168600500028,13.966353424000104],[107.54999833700006,13.966714020000182],[107.54739415000009,13.966308197000174],[107.54588781700014,13.965214996000057],[107.54570964800021,13.962225708000261],[107.54636796600008,13.96186798100014],[107.54751643400024,13.961513336000195],[107.5481320340003,13.960632019000201],[107.54875367700012,13.959654572000062],[107.54975000000033,13.959595184000207],[107.55086536400015,13.959661682000117],[107.55088245400012,13.959375000000023],[107.5508456650002,13.9587578120002],[107.55163203400016,13.95763201900013],[107.55193267800027,13.956021271000083],[107.55356364400009,13.954882019000237],[107.55466312400014,13.955199005000082],[107.5551320340002,13.955617981000202],[107.55552851900026,13.95606170700033],[107.55623136100021,13.956443634000124],[107.56011796600026,13.956111877000126],[107.55966126300032,13.955639709000138],[107.55800292200033,13.955345032000267],[107.55694509100013,13.955408081000243],[107.55564473000007,13.954581055000205],[107.55554058100026,13.952833649000226],[107.555882034,13.951882019000081],[107.55600000000018,13.95150000000028],[107.5553679660002,13.951617981000084],[107.55447454100008,13.952103455000113],[107.55349890100015,13.95240472400026],[107.55249334000021,13.95234478800009],[107.55213203400004,13.953132019000122],[107.55136029800033,13.954236847000232],[107.5503679660001,13.95486798100005],[107.5501320340002,13.955132019000231],[107.54831314100025,13.956452057000021],[107.54717827600027,13.95604486100008],[107.5468288730003,13.957916840000252],[107.54524880200015,13.958404755000117],[107.54351922600009,13.961223235999995],[107.54193522600022,13.96161798100006],[107.54012717400028,13.960865936000104],[107.53963203400028,13.960974487000115],[107.5416642990003,13.962790283000245],[107.54211796600006,13.966077576000188],[107.54111796600026,13.967367981000294],[107.5406320340002,13.968132019000095],[107.54029068000014,13.96843704200019],[107.53831766500033,13.968319427000239],[107.53656185500026,13.967849182000052],[107.53571082700009,13.965994934000108],[107.53459441800018,13.966395538000029],[107.53387967300026,13.966352936000064],[107.53363203000012,13.966671234000202],[107.5346924290001,13.967618683000254],[107.53461536400013,13.968911682000027],[107.53292527400012,13.96881094400031],[107.53258860800011,13.970614685000257],[107.53130215100018,13.971367981000142],[107.52976778800016,13.969650696000073],[107.52888203000012,13.97013201900019],[107.52811797000024,13.97036798100018],[107.52713102700031,13.971132812000135],[107.5268154030002,13.97111398300008],[107.52713268700009,13.969628967000133],[107.52711755000027,13.96937500000017],[107.52713245000021,13.969125000000275],[107.52711755000027,13.968875000000011],[107.5271370620001,13.968547668000198],[107.52814609500015,13.967646087999938],[107.52861797000023,13.967117981000214],[107.52963203000027,13.966382019000065],[107.53109605000029,13.965180847000155],[107.53007877700023,13.964882019000129],[107.52963203000027,13.965382019000202],[107.52927504300013,13.965700989000212],[107.52763872900019,13.965603455000135],[107.52688203000028,13.96613201900017],[107.52607633200026,13.966644440000024],[107.52554377700025,13.966612701000145],[107.52565751300014,13.964704498000089],[107.52621378700016,13.963154175000156],[107.52488203000021,13.963632019000087],[107.52338420100014,13.963980530000228],[107.52388203000024,13.965367981000014],[107.52411797000022,13.966632019000244],[107.52444365700026,13.967848053000225],[107.52436624900022,13.96914682000012],[107.52387500000029,13.969117554000007],[107.52350430700025,13.969139648000066],[107.52194493900018,13.969699158000168],[107.52012663300027,13.968113251000133],[107.51960397700012,13.968397278000197],[107.51973497400027,13.970595123000138],[107.5193679700001,13.971617981000222],[107.5190424190001,13.972672241000055],[107.51812500000014,13.972617554000053],[107.51737500000016,13.972662262000199],[107.5165586280003,13.972613586000179],[107.51668649700022,13.970468201000116],[107.51631171800031,13.969778503000072],[107.51582194500028,13.969340912000192],[107.51507578300019,13.969385376000233],[107.51420557800029,13.970359314000078],[107.51354393400018,13.971302979000086],[107.51255093800026,13.971080383000142],[107.51265308000026,13.97062475600029],[107.51375000000027,13.970500000000172],[107.51358432800012,13.968716614000229],[107.51425754900023,13.967056884999948],[107.51333577300025,13.966609680000161],[107.51239250200027,13.965627899000296],[107.51137500000013,13.965607147000256],[107.5096371230002,13.96564260900017],[107.50822631100019,13.964915833000077],[107.50641505400009,13.965535797000214],[107.50466723600024,13.964635406000056],[107.50316750000005,13.96414871200011],[107.50234600800022,13.963610138000234],[107.50140191300014,13.962627502000188],[107.4995316640001,13.962927094000108],[107.49906703600007,13.964284546000158],[107.49987249900008,13.965848083000125],[107.49951547100014,13.966619568000098],[107.4986275980003,13.966637695000173],[107.49712902500013,13.965865723000164],[107.49664250000026,13.966372101000132],[107.49487208600013,13.968607208000066],[107.49488800000032,13.969387024000099],[107.49412249900021,13.970122498000023],[107.49387750100018,13.970377502000161],[107.49337790900026,13.970857513000183],[107.49333869900019,13.972778748000067],[107.49362750100002,13.973622498000069],[107.49412249900021,13.975377502000157],[107.49450499900033,13.976494995000252],[107.49493911900018,13.977832794000179],[107.49615541600011,13.978129303000017],[107.49759808700017,13.978872498000143],[107.4978775010002,13.978377502000313],[107.49825000000024,13.97684948700018],[107.49962500000012,13.976877548000104],[107.50037219000032,13.976862305000168],[107.50043703500009,13.980039672999993],[107.49938328200008,13.981594223000272],[107.4993674030002,13.98237229900026],[107.49975000000026,13.9823800960001],[107.50158620500011,13.9823426210002],[107.50187750100022,13.982622498000083],[107.50214205600022,13.984787537000074],[107.50309153000015,13.986188248000246],[107.50354382900011,13.988505127000181],[107.5041224990002,13.987622498000079],[107.50513102500022,13.98729522700009],[107.50511249500019,13.986387253000188],[107.50587249900022,13.985266068000243],[107.50562750100008,13.98362249800023],[107.50503547700023,13.982473282000171],[107.50537249900023,13.982122498000109],[107.50562760000011,13.981877411000255],[107.50562245000023,13.98162500000015],[107.5056275500003,13.981375000000071],[107.50561740300023,13.980877701000225],[107.50636475000019,13.980862457000214],[107.50689751800022,13.981896652000074],[107.5068674470003,13.983370041000029],[107.50737749900011,13.984122498000033],[107.5076974980004,13.9854351500002],[107.50812250100014,13.985877502000108],[107.50837749900009,13.986122498000128],[107.50887250100013,13.98687750200017],[107.50954921300033,13.987875824000255],[107.50892694900008,13.98969381700013],[107.50975735500023,13.991405457000269],[107.51187218900012,13.991362305000251],[107.51190299600032,13.99287187200018],[107.51020718400034,13.992906479000197],[107.5089437940002,13.992474045000122],[107.5081181180004,13.992874634000145],[107.50887749900025,13.993372498000127],[107.50912250100029,13.99362750200018],[107.51066563800006,13.993928757000234],[107.51112749900025,13.99437249800009],[107.51180485200015,13.995077499000061],[107.51287269200023,13.995627594000197],[107.51362218900019,13.99561230500008],[107.51362970000005,13.995980209000237],[107.51239749900017,13.997859619000309],[107.51185825700011,13.99813742100011],[107.5103830150002,13.9981073000002],[107.51036239200019,13.999117783000045],[107.5106274990001,13.999372497999985],[107.5111074980002,13.999872086000025],[107.51161315200031,13.999882416000162],[107.51308828400002,13.999377502000229],[107.5136623000001,13.999638306000307],[107.51484808700016,14.000872498000192],[107.5153774990001,14.000377502000191],[107.51585749800009,13.999877914000237],[107.51758620500024,13.999842621000155],[107.51812250100019,14.000357895000164],[107.51772382700008,14.002017044000041],[107.5173774990001,14.002377502000016],[107.51662749900012,14.003098083000225],[107.5173120920002,14.003878830000076],[107.51887187600019,14.003847000000277],[107.51891948300025,14.006179764000208],[107.51851905800024,14.00782234200004],[107.51675980400015,14.008424500000217],[107.51587749900025,14.008122498000006],[107.51412250100017,14.007627502000176],[107.51212749900029,14.006872498000149],[107.5108725010002,14.006627502000214],[107.51011566200012,14.006368454000011],[107.50912749900024,14.006877502000023],[107.50737749900011,14.007162384000239],[107.50787250100015,14.007377502000281],[107.50998127400001,14.00767189000021],[107.51049499900014,14.009255005000185],[107.51241370000028,14.009629562000185],[107.51353323400016,14.010794800000141],[107.51536974300015,14.01124249300014],[107.51541783900021,14.013599136000181],[107.51482967800032,14.01390213000029],[107.51263702000008,14.013857391000144],[107.51175000000015,14.014780609000141],[107.51064210900014,14.013627502000219],[107.51037250100015,14.01387249800024],[107.50941249800039,14.014871689000046],[107.50790859600019,14.014902374000187],[107.50762250100033,14.014627502000266],[107.50711013000031,14.013846008000172],[107.50637439300019,14.013139114000126],[107.50608842700015,14.011382476999998],[107.50499264700025,14.011946976000075],[107.5036759070002,14.01126864600009],[107.5023793350002,14.01171244800004],[107.50236760900012,14.011137802000093],[107.50262249900035,14.010872497999998],[107.50287750100003,14.010627502000148],[107.50342460400029,14.00979303000021],[107.50437750100005,14.008877502000217],[107.50462249900019,14.008622497999994],[107.50553026200006,14.008327927000039],[107.50587249900022,14.007622498000202],[107.50630152100027,14.006789703000138],[107.50539031800028,14.005914230000172],[107.5051275010002,14.005372498000199],[107.50337872900027,14.00468273900006],[107.50335041400015,14.003295288000203],[107.50362804600022,14.001123215000064],[107.50287249900018,14.000127502000012],[107.50281744800023,13.999733155000158],[107.50303159,13.999007396000152],[107.50331357600012,13.998764450000209],[107.50342409500033,13.997388992000097],[107.50290900800022,13.997347595000221],[107.50280922600015,13.998541412000051],[107.50228570800019,13.999890395000207],[107.50184972400027,14.000575912000258],[107.5019565770003,14.002368683000185],[107.50043011900024,14.003732559000142],[107.50005338500003,14.004553391000016],[107.49891200800019,14.005077240000205],[107.497514456,14.004575775000092],[107.4968820300002,14.003867966000058],[107.49611797000031,14.003632034000262],[107.49538002800008,14.003367249000107],[107.49419991100032,14.003437592000154],[107.49335593000032,14.003896210000178],[107.49262500000023,14.003852646000041],[107.49147680900015,14.00392108200002],[107.49022260200022,14.003471054000173],[107.48963203100018,14.004132034000065],[107.48932194600027,14.004409088000074],[107.48811529400021,14.004337172999982],[107.4881551980001,14.005006653000223],[107.4869161730002,14.005575333000195],[107.48613203100015,14.00626896700004],[107.48781403300015,14.006660309000083],[107.4891179690002,14.006117966000062],[107.49138203000021,14.00588203400018],[107.49274720400021,14.005140182000162],[107.49423554399996,14.005674225000206],[107.49514396100008,14.006690918000047],[107.49759103200026,14.006545074000059],[107.49811797000021,14.007481979000218],[107.49686797000018,14.007867966000092],[107.49660442000024,14.00927996800003],[107.49543289600021,14.009817657000198],[107.49414734500013,14.010813904000116],[107.49537244000018,14.011192200000153],[107.49712500000024,14.011087753000126],[107.49804911800013,14.011142822000153],[107.4968156220003,14.01290870700025],[107.49612500000026,14.012867554000039],[107.4958086260003,14.012886414000008],[107.49588538400016,14.014174225000062],[107.49638203000009,14.014617966000102],[107.49665909000012,14.014928055000084],[107.496611263,14.015730469000218],[107.49535151900031,14.016856033000096],[107.4953889540001,14.01748411600019],[107.49663203000003,14.017867966000239],[107.49686797000018,14.018132034000061],[107.49720356400016,14.018431885000098],[107.49711624900002,14.019896835000154],[107.49662052900013,14.019867279000024],[107.49526044500024,14.020231552000226],[107.49438203000031,14.019617966000084],[107.4936179700002,14.019132034000023],[107.49302812600015,14.018471878000213],[107.4923050140001,14.017825775000219],[107.49067695200014,14.017323044000094],[107.48908972600029,14.016341812000093],[107.48913470600027,14.015587173000085],[107.48747382600007,14.015686157000104],[107.48538203100017,14.015367966000255],[107.48388203100015,14.015273743000094],[107.48493420600025,14.015756653000082],[107.48485034100023,14.017163727000238],[107.4861250000001,14.017087753000084],[107.48692421900026,14.01713539100021],[107.48777769500018,14.018090591000188],[107.48856737100013,14.018453033000242],[107.4889180490002,14.020703400000187],[107.4893820310003,14.021117966000205],[107.48961796900008,14.021382034000027],[107.4899863630001,14.021711182000175],[107.49061797000033,14.021367966000284],[107.49159924100016,14.021132034000217],[107.49261797000017,14.021981979000017],[107.4913679700002,14.022367966000076],[107.49000490700021,14.022934906000259],[107.4893409110002,14.023678055000204],[107.48938552100006,14.024426529000223],[107.4909032060003,14.024336060000195],[107.49250496500022,14.025206482000101],[107.49308314700002,14.027078873000207],[107.4948178080003,14.027402649000265],[107.49511797000034,14.028408997000128],[107.4939032,14.028966537000073],[107.49363203000021,14.030132034000232],[107.49334400600017,14.03066206400021],[107.49499535200025,14.03141998300022],[107.49625000000029,14.031345200000246],[107.49782833500015,14.03143927000022],[107.49685164100006,14.029641922000181],[107.49688552100022,14.029073471000046],[107.49806276100017,14.029143646000165],[107.4983679700002,14.030132034000232],[107.49866183300028,14.030367966000213],[107.49858963200026,14.029156601000167],[107.49897447800029,14.028632034000026],[107.5006079030002,14.0304601750002],[107.50086797000014,14.02961796600006],[107.5012822110003,14.028463486000106],[107.50006342900033,14.027688339000107],[107.50092431800019,14.026577469000117],[107.5008601000001,14.02550000000005],[107.5008902590001,14.024994003000103],[107.50154426000014,14.024632034000177],[107.50281792600018,14.025521698000063],[107.50326331300025,14.024551285000157],[107.50499453200015,14.024654480000251],[107.50600000000011,14.025779800000194],[107.50644452300028,14.025282288000241],[107.50842564000007,14.02540037500006],[107.50836624900015,14.026396835000085],[107.50762158200027,14.026352448000239],[107.5073495290001,14.027521729000085],[107.50661098900022,14.028880814000175],[107.50797447600021,14.029117966000086],[107.50888132100013,14.028103027000043],[107.50951307300025,14.028140686000043],[107.50986797000022,14.031056305000234],[107.5076657870001,14.031399475000214],[107.50688203000007,14.031974472000272],[107.50788203000005,14.032867966000026],[107.508229252,14.033256577000117],[107.50736797000022,14.034367966000147],[107.50713203000024,14.035132034000227],[107.50686797000034,14.03536796600011],[107.50618188300021,14.03613583400032],[107.50582578100008,14.036114609000165],[107.50538132100027,14.035617172000215],[107.50504230900012,14.035637375000107],[107.50408122100018,14.036159637000154],[107.50262637500012,14.036072937000185],[107.50233297700018,14.037644852000028],[107.50187500000013,14.037617554000079],[107.50137500000014,14.037647354000057],[107.5008398440003,14.037615448000082],[107.50037725800021,14.036607574000271],[107.499881321,14.037162628000189],[107.49911809500011,14.03711714200007],[107.49888203000003,14.038671219000136],[107.49980778300025,14.039498367000007],[107.50097680900004,14.039078917999944],[107.50198411400018,14.039138947000112],[107.50237274200012,14.040397491000235],[107.50385603900017,14.040309082000022],[107.50467801300024,14.04122903400011],[107.50650168600012,14.040839401000113],[107.50711797000034,14.040974472000016],[107.50644114300027,14.042860779000208],[107.50669800600022,14.043617966000241],[107.5078679700002,14.04211796600012],[107.50849535000006,14.041830017000194],[107.5094116780003,14.041884644000177],[107.50932473000032,14.043343398999994],[107.50963203000023,14.043617966000241],[107.51011797000021,14.044518967000101],[107.50778843700013,14.04506097400018],[107.50842677700027,14.045631317000215],[107.50832914700007,14.047269287000205],[107.5077359390003,14.048360931000019],[107.50725665700017,14.049405197000084],[107.50618559300008,14.049341354000049],[107.50563203000004,14.049559174000223],[107.50696612500028,14.049971130000102],[107.5068306850001,14.052243484000002],[107.5056114250003,14.052619995000157],[107.50595615600028,14.05325437900025],[107.50575000000012,14.055000000000092],[107.50611131500025,14.054677170000105],[107.50640940100024,14.054027695000201],[107.50762010200012,14.052945938000306],[107.50795866800027,14.051132034000062],[107.50909614900033,14.051765945000199],[107.50917715100027,14.053125000000108],[107.50911755000024,14.05412500000007],[107.50919205500023,14.055375000000112],[107.50899876400015,14.058617966000213],[107.50984231200013,14.057548447000187],[107.50988245000028,14.056875000000232],[107.50986755000011,14.056625000000253],[107.50988245000028,14.056375000000074],[107.50986728300026,14.056120528999983],[107.51013455600005,14.05512260400019],[107.50960629700026,14.054150497000137],[107.50992108500017,14.053273193000024],[107.50985317200005,14.052133759000071],[107.51055880400028,14.052091690000324],[107.51180646900022,14.05253936800024],[107.51221101400009,14.05141191100003],[107.5108820300002,14.050224471999925],[107.51136797000007,14.04936796600012],[107.51188433500008,14.048906601000226],[107.51183991200023,14.048161301000192],[107.51367080700018,14.04787599200013],[107.51288538400021,14.047174225000234],[107.51286721400024,14.046869354000151],[107.51315964100016,14.046331223000124],[107.51305105600008,14.044509354000283],[107.51380928400002,14.04331715400005],[107.51462579700026,14.043887497000256],[107.5179091570001,14.045253143000096],[107.51889688100025,14.044716399999999],[107.5202134780001,14.044244003000259],[107.52063203000009,14.044617966000303],[107.52109100000021,14.045617966000265],[107.52151244700028,14.044914276000213],[107.52054888900014,14.04272508200009],[107.5210787770001,14.042132034000218],[107.52175574900016,14.042726639000122],[107.52237158200015,14.043415878000218],[107.52271209700015,14.042313141000193],[107.52391283000028,14.042384705000075],[107.52382347500028,14.040885529000207],[107.52462500000016,14.040837753000247],[107.52589965800021,14.040913727000046],[107.5258534660002,14.040138733000234],[107.52638203000006,14.039382034000056],[107.52650000000014,14.039000000000073],[107.5254173930002,14.038841797000217],[107.52437749900011,14.039377502000221],[107.52302026400005,14.039817932000062],[107.5225358920002,14.04081633000007],[107.52174317200021,14.041122498000007],[107.52137749900012,14.039622498000057],[107.52103313100022,14.039377502000221],[107.52050500100015,14.04100500500023],[107.51965098200017,14.041825531000171],[107.51808828400002,14.04212249800014],[107.51698550400019,14.040974716000207],[107.51812760200008,14.039877411000106],[107.51812208600026,14.039607208000035],[107.51688221700013,14.039632507000093],[107.51636750400021,14.039367354999996],[107.51638811100023,14.038357498000295],[107.51782323100011,14.03766125500023],[107.51712240200013,14.036627350000046],[107.51712790700006,14.036357498000186],[107.51852550900006,14.035014709000109],[107.51812250100019,14.034627502000134],[107.51774516700007,14.034234772000318],[107.51827349100009,14.033377502000093],[107.52074548000022,14.0343801880001],[107.52121244000014,14.034370667000104],[107.52085314600006,14.033320953000114],[107.52087801700011,14.032102097000163],[107.5221425020001,14.032127914000085],[107.52279194300021,14.032803864000059],[107.52324499900018,14.03186999500015],[107.52375757600007,14.03087500000025],[107.52315283200019,14.029701080000194],[107.52287749900026,14.029033127000076],[107.52464458500017,14.028459702000063],[107.52460969500012,14.026750000000092],[107.52463291200021,14.025612411000196],[107.52569749800014,14.025634140000136],[107.52617609000023,14.027597336000298],[107.52713221000013,14.026602188000112],[107.52875000000014,14.026635208000272],[107.529377331,14.026622406000186],[107.5298725010002,14.026911713000061],[107.52937164300013,14.028375000000068],[107.52964685400016,14.02917904700007],[107.5296126710002,14.030854050000201],[107.52972514700016,14.031122498000201],[107.5308898700001,14.029346008000118],[107.53150500100017,14.028755005000164],[107.53212740300015,14.028107193000025],[107.53338999900026,14.02813296500021],[107.53395416600014,14.029295837000149],[107.53464586300007,14.029631409000018],[107.53512740300013,14.030132599000098],[107.53610825700011,14.030112579000047],[107.53689062500027,14.030515625000263],[107.53687056000021,14.02953250100019],[107.53551314200027,14.029092010000241],[107.53487749900015,14.028122498000144],[107.53462250100037,14.027877502000123],[107.5341988450003,14.027436554000047],[107.53577731700025,14.026266449000133],[107.5351171990001,14.025632217000066],[107.5351302030002,14.02499510200002],[107.53435413700012,14.024618591000035],[107.53364586300032,14.023881409000154],[107.53267982100002,14.023412735000093],[107.53509363900017,14.021830170000158],[107.5343571930002,14.021122589000143],[107.53439841800005,14.019102493000247],[107.53542775700012,14.018603119000048],[107.53664250200026,14.018627914000064],[107.5371225010002,14.019127502000273],[107.53816777000023,14.020131775000053],[107.5386427990002,14.020122086000228],[107.53861654700026,14.0188357090002],[107.53916661800011,14.01837750200012],[107.54066132400018,14.019147507000156],[107.5413154680003,14.01982833900017],[107.54087249800014,14.021122498000054],[107.54037750200038,14.024377502000078],[107.53953364600031,14.026327866000244],[107.54050863600034,14.026872498000102],[107.54087249800014,14.026122498000305],[107.54168959000006,14.024917084000222],[107.54295436100026,14.02460876500011],[107.54389250200009,14.024627914000277],[107.54451000200012,14.025270615000167],[107.54502486400023,14.027908005000072],[107.54461996500024,14.029884872000125],[107.54537384800008,14.030609192000185],[107.54562249800014,14.031516068000087],[107.54485749800008,14.03264462300011],[107.54367915300028,14.033216309000252],[107.5433775020002,14.034048004000141],[107.54437750200023,14.034372498000167],[107.54487249800033,14.034661713000204],[107.54363140900014,14.035854141000101],[107.5433775020002,14.03637750200025],[107.54311220600007,14.036632385000289],[107.54255298600006,14.036620987000134],[107.54143187000003,14.035108597000061],[107.54059809100019,14.034377502000055],[107.53923120900023,14.035081650000322],[107.54050759100014,14.035495834000216],[107.54087249800014,14.036642105000197],[107.54018515000021,14.037302505000042],[107.53887249800013,14.037622498000133],[107.53862750200008,14.037716872999951],[107.53972776800018,14.038438232000217],[107.5417021330002,14.037637390000214],[107.54237249800016,14.038401917000229],[107.54187020900028,14.03937693799999],[107.5432403870004,14.039710968000094],[107.54262249800033,14.040622498000019],[107.54237750200022,14.04176411400016],[107.54315190900027,14.04212249800014],[107.5441322170004,14.041617493000103],[107.544658096,14.041628220000106],[107.54459266700027,14.044834290000168],[107.54514723200023,14.045910797000147],[107.54510886400001,14.047790741000185],[107.5466293330002,14.048787613000144],[107.54662208600021,14.04914279200014],[107.54556290400015,14.049121185000217],[107.54512750200021,14.049695877000246],[107.54637750200024,14.050622498000266],[107.54662249800018,14.051151917000197],[107.54612077300024,14.052125839000126],[107.54637750200024,14.052372498000196],[107.54663739000009,14.052642990000194],[107.54661749300001,14.053617783000291],[107.54700757600008,14.054375000000249],[107.54662249800018,14.055122498000273],[107.54637750200024,14.055766068000239],[107.54712750200011,14.056872498000203],[107.54764219700027,14.05765753200015],[107.54760593400002,14.05943406700014],[107.54711749300012,14.060382217000253],[107.54713741300017,14.061358261000194],[107.54680681600027,14.062000000000083],[107.54730940200008,14.062975601000247],[107.54862068200023,14.063611771000225],[107.54912249800017,14.06440191700014],[107.54838961800002,14.06582457000016],[107.5478775020002,14.067258636000162],[107.54885475200015,14.067732758000133],[107.54912249800017,14.069377502000066],[107.54941922800023,14.069662598000107],[107.55037554900022,14.071633789000046],[107.55062249800014,14.070838287000228],[107.55012249800015,14.069377502000066],[107.54981933600013,14.066277817000099],[107.55012750200021,14.065377502000118],[107.55037249800014,14.063872498000123],[107.5508778840003,14.062891449000034],[107.5508722000001,14.062612975999997],[107.55137750200007,14.062127502000152],[107.55162249800017,14.06168222000018],[107.55011348000008,14.061314362000289],[107.55014275400023,14.059879898000176],[107.54962249800016,14.059627502000069],[107.54912750200006,14.059333389000159],[107.54987750200021,14.057877502000224],[107.55012249800015,14.05693875100009],[107.54910333300009,14.054583190999978],[107.549661713,14.053627502000126],[107.55067462900016,14.054681763000048],[107.55177377300006,14.056358231000203],[107.55250000000021,14.056500000000113],[107.55237750200021,14.05612249800015],[107.55212136100025,14.055374176000043],[107.55262750200009,14.054627502000258],[107.55302026400008,14.053817932000072],[107.55437750200022,14.053377502000217],[107.55462249800016,14.053203079000085],[107.55243624100015,14.052847183000125],[107.55212750200022,14.051783127000192],[107.55363102700008,14.051295227000239],[107.55361989600013,14.050750000000065],[107.55362754800026,14.050375000000301],[107.55362245200016,14.050125000000222],[107.55363019600011,14.049745285000157],[107.55281450700014,14.048541946000157],[107.55312842600009,14.047624786000299],[107.55262240600021,14.046377258000106],[107.55262754800012,14.046125000000288],[107.5526188960001,14.045700836000194],[107.55126619700016,14.045261887000194],[107.55012750200021,14.044197037000103],[107.55137750200007,14.04337750200007],[107.55162249800017,14.043203079000108],[107.54928143300017,14.042821976000113],[107.54862750200024,14.040993164000227],[107.55013775600017,14.040625000000048],[107.55012220000012,14.039862976000236],[107.55063260700004,14.039372589000081],[107.55062208600029,14.038857208000152],[107.54950000000017,14.0388800960001],[107.54910720100023,14.03887208600014],[107.54912790700027,14.037857498000037],[107.54988250000017,14.03713250700001],[107.55052467300018,14.036464111000129],[107.54998393200023,14.03612750200007],[107.54887750200018,14.036877502000223],[107.54846913100019,14.037122498000244],[107.54811373100009,14.035301987000068],[107.54812790700024,14.03460749800007],[107.55064898700007,14.032185287000217],[107.55036759200007,14.03136314400031],[107.55037754800011,14.03087500000025],[107.55036969800025,14.030490005000004],[107.54928583500029,14.029964172000106],[107.54884822100021,14.029062149000168],[107.54887791400009,14.027607208000134],[107.55004916400011,14.027631104000164],[107.5504998550002,14.029019958000234],[107.55090190900015,14.029372498],[107.5518430860001,14.028392914000136],[107.5536184230003,14.029826019000225],[107.55387249800017,14.03112750200009],[107.55419318400024,14.031750000000073],[107.55387249800017,14.032372498000157],[107.55362750200024,14.033195877000168],[107.55538592500014,14.03362455700001],[107.55595806100027,14.034803864000153],[107.55681573500019,14.0339111790001],[107.55790762300009,14.034651306000143],[107.55783770800028,14.038077484000127],[107.55821687300002,14.038622498000095],[107.55874600200028,14.036991913000094],[107.56019441200013,14.037487686000262],[107.55936229700009,14.035872406000195],[107.55937754800013,14.035125000000079],[107.55937209300001,14.03485749800015],[107.55862712100011,14.034141739000177],[107.55837750200013,14.033372498000205],[107.55812249800019,14.033127502000283],[107.55762750200009,14.032372498000157],[107.5573724980002,14.032127502000051],[107.55711261000002,14.031857010000223],[107.55712780800033,14.031112305000164],[107.55835825300008,14.03113742100011],[107.5588726880001,14.030872406000114],[107.55914250200013,14.030877914000214],[107.55962249800021,14.031377502000169],[107.55987750200009,14.031622498000004],[107.56083409100009,14.032618134000145],[107.56187750200021,14.032872498000046],[107.56212249800032,14.033127502000283],[107.56243692000012,14.03342958100022],[107.5634117130003,14.033872498000008],[107.56450237300024,14.032737320000052],[107.56411277000015,14.031599091000118],[107.56412945600019,14.030781845000178],[107.56512750200014,14.030127502000127],[107.56575735500016,14.028829239000089],[107.56836778300001,14.028882507000233],[107.56887249800022,14.028622498000217],[107.57056884000028,14.028208969000104],[107.57139737700007,14.027346603000154],[107.57136875200015,14.025943741000077],[107.57141171300029,14.025127502000231],[107.57301905800003,14.025677658000276],[107.57337500000025,14.0271377560002],[107.57426000200022,14.02711969000012],[107.57495233200021,14.025692641999996],[107.57571687300006,14.025377502000211],[107.57637235300021,14.027397446000194],[107.57762249800018,14.027348083000192],[107.5771224980002,14.026377502000273],[107.5766181030003,14.025337830000126],[107.57663642100019,14.024440353000031],[107.57936274000033,14.02405975300016],[107.5788724060001,14.022627213000206],[107.57888035600004,14.022237732000136],[107.57963735200028,14.021877502000166],[107.58013140900007,14.022895859000144],[107.58064299800034,14.023387390000039],[107.58162500000023,14.023367340000249],[107.58226972200029,14.023380508000187],[107.58262249800018,14.026627502000082],[107.58313357500006,14.027381470000108],[107.58236720300008,14.028117783000013],[107.58238265200012,14.028875000000227],[107.58235752900018,14.030105988000216],[107.58271687300007,14.030622498000042],[107.58324500300031,14.028994995000218],[107.58387780000001,14.028387024000182],[107.58387240600027,14.028122787000072],[107.58413749700017,14.027348282000204],[107.58462750200002,14.026877502000161],[107.58487249800018,14.026122498000305],[107.58520390300012,14.025154282000045],[107.5861322170002,14.025632507000083],[107.58728498100018,14.025608978000179],[107.58936669200014,14.02591317700022],[107.5886665570001,14.027272263000043],[107.58670397200027,14.027655396000043],[107.58762750200017,14.028872498000197],[107.58815209200029,14.02967263800015],[107.58811168700018,14.031652496000277],[107.58762249800012,14.032122498000163],[107.58733249700023,14.03242433200009],[107.58662750200025,14.033877502000067],[107.58590723400025,14.034569519000215],[107.5852660520001,14.035547485000137],[107.5853258010001,14.03629404100009],[107.58475902100028,14.037209389000154],[107.58383398400011,14.037333984000071],[107.58375000000021,14.037750000000202],[107.58441601600023,14.037833984000045],[107.58523125500008,14.038544342000023],[107.58549996200011,14.037994125000239],[107.58524258400021,14.037485350000154],[107.58539210500007,14.037122498000244],[107.58587249800038,14.03662249800017],[107.58612750200027,14.03637750200025],[107.58648338300023,14.034917648000246],[107.58753026600024,14.03457792700003],[107.58810858900014,14.033385864000067],[107.5887600020001,14.032759995000063],[107.58937249800019,14.032122498000163],[107.58987750200018,14.031877502000242],[107.59057408900017,14.031518646000208],[107.59162278000011,14.03187759400025],[107.59198249800002,14.031870255000257],[107.59238973200016,14.029784210000145],[107.59297515100027,14.02937750200006],[107.59462249800006,14.030627502000101],[107.59592804700006,14.031595291000244],[107.59686779000018,14.030617203000233],[107.59754878200013,14.03063110400005],[107.59787249800021,14.03265191700018],[107.59736474600012,14.033637543000197],[107.59636779000024,14.033617203000034],[107.59564586600018,14.034368591000117],[107.59512249800028,14.03462249800016],[107.59431272900028,14.035171402000188],[107.59451606800022,14.035872498000202],[107.59589699600016,14.034936432000023],[107.59750772100014,14.03623664900013],[107.59787249800021,14.037411713000012],[107.59686904100013,14.038375824000113],[107.59737750200028,14.038622498000095],[107.59779342700014,14.039055405000212],[107.59737249800023,14.039872498000136],[107.59712750200018,14.040716873000278],[107.59837750200026,14.041122498000007],[107.59883153500024,14.041595078000029],[107.59937249800012,14.043016068],[107.59862249800037,14.044122498000064],[107.59837750200026,14.044921524000102],[107.599627502,14.046122498000258],[107.59989238700027,14.046398193000073],[107.59987229200001,14.047382599000073],[107.59768156400023,14.047337891000197],[107.59737750200028,14.047516068000192],[107.59909797700007,14.048350754000154],[107.59941173600018,14.05123864700009],[107.60042388900015,14.050717239000207],[107.60195428500023,14.051241058000201],[107.60314984100032,14.052148239000203],[107.60362249800025,14.053651917000096],[107.60310699500016,14.05465258800021],[107.6036617130002,14.055122498000273],[107.60485723900027,14.053878174000076],[107.60553086900015,14.053627502000126],[107.60611611900006,14.0566254270001],[107.60687750200029,14.056872498000203],[107.60712249800028,14.05712750200017],[107.60812750200003,14.057872498000265],[107.60837249800014,14.058127502000133],[107.6086275020003,14.058372498000153],[107.60887251300025,14.059627609000174],[107.60917849700004,14.059621353000281],[107.6091219790001,14.056851974000196],[107.60812249800026,14.055377502000141],[107.6078775020002,14.05376519800015],[107.6086813200001,14.053127502000052],[107.61066037000009,14.054147018000123],[107.61112249800013,14.055691132000163],[107.61057708700022,14.058888702000232],[107.61100668300034,14.063513184000229],[107.61011642500003,14.064368530000223],[107.6106275020002,14.065122498000164],[107.61087249800025,14.065574295000246],[107.60809808300027,14.065872498000047],[107.60672341900013,14.064441727000059],[107.60587750200003,14.064877502000144],[107.6053724980001,14.065122498000164],[107.60512750200027,14.065304626000128],[107.60623071300014,14.06675851400017],[107.60662249800012,14.068397247000135],[107.60561099200018,14.069889481000146],[107.60404882800006,14.070396408000079],[107.60228105200011,14.070360321000194],[107.60262750200016,14.071372498000287],[107.60287249800021,14.072151917000198],[107.6021224980004,14.072872498000223],[107.60186760700017,14.073137802000232],[107.6018832780002,14.073905777000093],[107.60310493500023,14.075708008000092],[107.60111219800021,14.077622589000228],[107.60114217400027,14.079091339000257],[107.60060946700034,14.0804046330002],[107.60012249800022,14.080872498000275],[107.599627502,14.081627502000131],[107.59902558900032,14.082515472000324],[107.59784828200023,14.082112503000289],[107.59713250000007,14.081367493000286],[107.59650680500008,14.080766342000203],[107.59537750200016,14.080901917000048],[107.59685452300025,14.083769073000127],[107.59632614100022,14.08634884600015],[107.59676884500035,14.086622498000054],[107.5974293820004,14.083613358000122],[107.59862740300022,14.083637802000197],[107.5997167590003,14.08250398300008],[107.60065723400012,14.081069519000238],[107.60161013000007,14.080153992000248],[107.60215723400026,14.079319519000208],[107.60287750200027,14.07862750200006],[107.60312249800009,14.078122498000198],[107.60387750200019,14.077127502000124],[107.60440989700001,14.076030090000089],[107.60593898000016,14.074896591000282],[107.6073585510002,14.075627884000028],[107.60800000000026,14.07561479200028],[107.60889047200013,14.075632965000281],[107.60814535500012,14.074186569000233],[107.60762750200016,14.072848083000252],[107.60888749700021,14.071637497000182],[107.60965625000014,14.070837372000241],[107.61163702400009,14.070877792000118],[107.61235414100017,14.070131409000084],[107.61338839700014,14.06962963900014],[107.61391250600033,14.070709946000079],[107.61441081200027,14.072245544000126],[107.61436277800019,14.07459909100018],[107.61462750200022,14.075372498000306],[107.61496134900025,14.07640130600008],[107.6173642270002,14.076352264000192],[107.61801313800024,14.077342010000194],[107.61892053200009,14.077636459000047],[107.6193724980001,14.078151917000056],[107.61836225900018,14.07912252800017],[107.61928564500002,14.079570511000014],[107.61880682400019,14.08050000000027],[107.61940762300017,14.081666275000046],[107.6204117130001,14.082122498000047],[107.62160905500033,14.08087629700006],[107.62337750200018,14.08037750200026],[107.62387249800011,14.080096985000054],[107.6211760860003,14.080152023000167],[107.62087750200001,14.078622498000271],[107.62062249800002,14.077877502000177],[107.62036373900028,14.076551987000286],[107.62038148500008,14.075682495000294],[107.62417706300025,14.075218704000193],[107.62385249300016,14.07458868400002],[107.6232669830002,14.074026123000195],[107.6208208160003,14.07306129500003],[107.61963000500018,14.071244995000214],[107.6183307800002,14.07061468500028],[107.61719580100029,14.069433380000063],[107.61752844200029,14.068377502000189],[107.6198018650002,14.06991854900015],[107.621122498,14.069201996000189],[107.61955624400022,14.068693756000059],[107.61904223600013,14.067109726000268],[107.61987750200032,14.06587750200002],[107.62021974200022,14.065172073000184],[107.62113630700011,14.064874634000176],[107.62173571800011,14.063639130000269],[107.62388734400028,14.063377502000023],[107.62456063800019,14.06476530500018],[107.62499499500032,14.063869995000275],[107.62548469500027,14.062919434000136],[107.62789724700022,14.06262750200014],[107.62988468900008,14.063974686000051],[107.6298657990001,14.063049149000122],[107.62859072900014,14.062103943000253],[107.62712249800026,14.061627502000178],[107.62645561200011,14.061283951000078],[107.62712796000008,14.059626358000159],[107.62709808300028,14.059377502000174],[107.62510797100012,14.060402710000005],[107.62361740100025,14.060372299000235],[107.62362791400014,14.059857498000099],[107.62418176300022,14.059325378000125],[107.6258843690002,14.058209091000037],[107.62586990400027,14.057500000000076],[107.62588082900007,14.056964508000178],[107.62676606800025,14.056627502000282],[107.62787553400008,14.057379547000238],[107.62836105300013,14.056874207000263],[107.62949333600002,14.056705423000153],[107.62948574200018,14.056428687000263],[107.62855137600005,14.056078400000047],[107.62865420500023,14.05561972000011],[107.63000000000002,14.05550000000025],[107.63019111600013,14.055955048000143],[107.63001606800012,14.056627502000282],[107.63113801600034,14.057388016000232],[107.63112245200026,14.056625000000253],[107.63112802100031,14.056352097000229],[107.63277909900032,14.056385803000168],[107.63162249800027,14.05562750200022],[107.63087750200006,14.055026169000115],[107.6321617130001,14.054627502000258],[107.6337685850003,14.055177505000202],[107.63612249800028,14.057627502000145],[107.63637750200022,14.057872498000265],[107.63705082700025,14.058573318000072],[107.63725000000002,14.060000000000258],[107.63662561000004,14.059869370000186],[107.63562976100016,14.060030304000279],[107.63637976100014,14.061120239000218],[107.63662023900017,14.062286133000228],[107.63463798500007,14.062664581000192],[107.63529046600016,14.063269135000027],[107.63743858300026,14.062386780000026],[107.63851727300008,14.062957581000006],[107.63803187600016,14.066212784000129],[107.63837976100032,14.066870239000181],[107.63862023900023,14.068129761000208],[107.63891940300013,14.068370239000203],[107.63880433700021,14.065467224000173],[107.63939856000016,14.064344254000076],[107.6393348390001,14.062736801000213],[107.63743673700017,14.060978119000183],[107.63733545500017,14.060447611000157],[107.63770331699996,14.060088493000109],[107.63819728100023,14.060184921000186],[107.63862249800016,14.060627502000216],[107.63887750200033,14.060872498000052],[107.63912249800015,14.06112750200002],[107.63987750200025,14.06162249800012],[107.64212249800019,14.063627502000188],[107.64337750200033,14.064372498000097],[107.64362376400007,14.065382675000109],[107.6466952820002,14.065319992000155],[107.6481205600002,14.065782501000143],[107.64814260900013,14.066862869000005],[107.64712750200007,14.068833389000162],[107.64757658400012,14.069372498000092],[107.64790205400024,14.06910751300019],[107.64886265600032,14.067127502000147],[107.64986137400004,14.068051361000116],[107.65033483900024,14.071291351000141],[107.64937750200025,14.074088287000194],[107.64962889100016,14.075154617000038],[107.65012750200023,14.076122498000103],[107.65075558500016,14.0774171300001],[107.65234849500015,14.080100494000177],[107.65337249800021,14.080877502000064],[107.6539660340002,14.081165451000174],[107.65636776700015,14.083895630000029],[107.65640199300034,14.085572815000248],[107.6556275020001,14.086877502000192],[107.65487249800017,14.088122498000274],[107.6538530880002,14.089920563000177],[107.64901004000015,14.094573685000242],[107.64837750200005,14.095877502000036],[107.64737750200007,14.09781868000006],[107.64779940800022,14.099211548000198],[107.64891140700004,14.101503601000218],[107.65105062900031,14.102605621000095],[107.65250000000034,14.102635208000237],[107.65501718099998,14.10258383200025],[107.65712204000002,14.103604996000186],[107.65867041000016,14.104025124000216],[107.65826499900012,14.102775818000055]],[[107.61703239400018,14.059984665000044],[107.61683760100024,14.061550674000031],[107.61631195100009,14.062444901000035],[107.61551973000016,14.06234635900023],[107.61564054900012,14.06137500000024],[107.61560945100021,14.06112500000026],[107.61564054900012,14.060875000000081],[107.61545851100018,14.059411530000233],[107.61675000000017,14.059250000000105],[107.61703239400018,14.059984665000044]],[[107.5531320340003,14.020632034000144],[107.55206562000004,14.022158707000074],[107.55095117200014,14.02209228500027],[107.55059308600008,14.019035492000029],[107.55064283800019,14.018200775000153],[107.55229638700015,14.017441864000247],[107.55317836800012,14.016825775000072],[107.55371037300026,14.015666626000183],[107.55425000000034,14.015500000000074],[107.55436796600023,14.015632034000163],[107.55441854100016,14.016480469000015],[107.55561457800005,14.017549118000247],[107.5548679660001,14.018617966000221],[107.55426054400024,14.019573044000097],[107.55344661700028,14.019946609000186],[107.5531320340003,14.020632034000144]],[[107.52367244000013,14.016909607000088],[107.52361261400014,14.01765412900022],[107.52301566700012,14.017606171000253],[107.52188429600014,14.018057922000153],[107.52275975800009,14.019292648000174],[107.52233858900016,14.020439545000116],[107.5232125970002,14.022006042000243],[107.52411570400031,14.021365707000186],[107.52485974900023,14.021134293000046],[107.52561570400033,14.021771469000186],[107.52479141200004,14.023248856000222],[107.52312500000014,14.023114960000058],[107.52280992100023,14.023140274000198],[107.52238429600013,14.023634293000129],[107.5215041160001,14.024185593000183],[107.52059586300018,14.024112610000003],[107.52072568100013,14.022496994000178],[107.52113429600016,14.021384293000125],[107.52139623600024,14.02051429700009],[107.52135972600027,14.02005992100024],[107.52062010600005,14.019422699000273],[107.52030198700024,14.016647705000182],[107.52175000000031,14.016500000000036],[107.5218657040003,14.016634293000308],[107.52367244000013,14.016909607000088]],[[107.55107251700016,14.050764923000145],[107.55015757800018,14.051363434000194],[107.54938656600027,14.050113434000153],[107.54911343400002,14.04988656600004],[107.5488865660001,14.049613433999994],[107.54861343400026,14.049386566000237],[107.54838656600023,14.04911343400019],[107.54767841300023,14.0485252080002],[107.54820503200014,14.04664166300023],[107.54900000000018,14.046500000000137],[107.54945239300028,14.047044617000168],[107.55134176600015,14.048123337000078],[107.55107251700016,14.050764923000145]],[[107.50910693000023,14.05070188900008],[107.50857266600033,14.051120239000056],[107.50812976500012,14.050047134000181],[107.50887976500027,14.048629761000058],[107.50921503100008,14.047919373000255],[107.50975000000014,14.047750000000178],[107.51011419700015,14.048789077999999],[107.50937023500015,14.0498702390002],[107.50910693000023,14.05070188900008]],[[107.53079756900016,14.009463669000226],[107.53092071900025,14.007930984000069],[107.53037457700017,14.006952118000157],[107.5300713080002,14.004634293000237],[107.52961570400018,14.004865707000107],[107.52929917100008,14.006600967000239],[107.52824588400009,14.006685593000228],[107.52736570400018,14.006134293000002],[107.5271342960003,14.00586570700024],[107.52613429600027,14.005419479000096],[107.52667427800017,14.00507873500014],[107.52780331000022,14.005169464000275],[107.52854317900008,14.004532028000114],[107.52785270700022,14.002984650000158],[107.52648563400018,14.001806854000236],[107.52686570400019,14.001365707000232],[107.52861570400032,14.000701614000178],[107.52818079400012,14.000070297000164],[107.52614379900032,14.000233978000125],[107.52610151700028,13.999707764000192],[107.52641588600002,13.999003250000072],[107.5271342960003,13.998384293000115],[107.52823058700025,13.996482819000164],[107.53012500000014,13.996635040000243],[107.53099631500018,13.996565033000039],[107.5320645790002,13.996957336000264],[107.53238429600017,13.996384293000276],[107.532676296,13.99509898400025],[107.53367738300025,13.995179428000057],[107.53450000000018,13.995000000000132],[107.53502799600025,13.995845932000137],[107.53478959700007,13.998812866000137],[107.5358417740002,13.999399918000037],[107.53724584600016,13.998884293000089],[107.53744641900008,13.999581711000062],[107.53613429600014,14.00013429300023],[107.53510491900025,14.000444214000112],[107.53413429600013,14.001280457000107],[107.53444191400015,14.003080154000074],[107.53534313200012,14.003152573000108],[107.53763699000021,14.002134293000054],[107.53795613500026,14.00275553900022],[107.53751449600028,14.003547104000162],[107.53810972600033,14.00405992100005],[107.53818783200015,14.00503198200019],[107.53769007900027,14.005609726000287],[107.53691396000025,14.00567208900003],[107.5355888180001,14.004634293000237],[107.53463189300018,14.004940521000165],[107.53411570400019,14.00586570700024],[107.53388015000021,14.007157028000236],[107.53288429600028,14.008884293000065],[107.53211570400006,14.009365707000114],[107.53105793000023,14.010115707000267],[107.53079756900016,14.009463669000226]],[[107.53981945800032,14.00630345200014],[107.5403625490002,14.005014618000075],[107.54137503100034,14.005140549000103],[107.54250000000033,14.00500000000011],[107.54261117600018,14.005138824000056],[107.54336117600027,14.00573942600019],[107.5430643770002,14.00727369700003],[107.54190251200018,14.007418228000276],[107.53990434300013,14.006985901000206],[107.53981945800032,14.00630345200014]],[[107.53066296400013,13.99435890200003],[107.52975972400012,13.993188705000108],[107.52939109400026,13.991239182000186],[107.53025000000017,13.991000000000113],[107.53035890600009,13.991141098000057],[107.53064109400012,13.991358902000144],[107.53112994000023,13.992553314000205],[107.53135890600007,13.993694443000024],[107.53066296400013,13.99435890200003]],[[107.52080678200005,13.992849030000244],[107.52019207000009,13.993865707000253],[107.51912275300018,13.99310751300031],[107.51888429600027,13.993384293000219],[107.51817661700025,13.993865707000253],[107.51623568000034,13.992782791000181],[107.5158361430002,13.991455765000254],[107.51476997400019,13.99098002600023],[107.51432373400021,13.989979980000086],[107.5147885700002,13.988714203000171],[107.51550000000012,13.98850000000003],[107.51561570400017,13.988634293000217],[107.51681701700002,13.989386734000036],[107.51633458300032,13.990700455000109],[107.51696954300027,13.991115707000176],[107.51822601700022,13.989657303000214],[107.51914260900023,13.98938429300027],[107.52091946000027,13.991446686000117],[107.52080678200005,13.992849030000244]],[[107.51330212400015,13.977690704000238],[107.51288882800023,13.976496216000257],[107.51375000000027,13.97625000000022],[107.51390868400014,13.976448166000097],[107.51528494300024,13.977028091000037],[107.5163611720001,13.977888824000203],[107.51763882800023,13.978361176000107],[107.51811117200023,13.97876057400012],[107.5175388370001,13.979734222000204],[107.51472043600026,13.979337463000249],[107.5141388280002,13.978611176000186],[107.51386117200033,13.978388824000092],[107.51330212400015,13.977690704000238]]]]},"properties":{"id":"7131"}}]}