{"type":"FeatureCollection","features":[{"type":"Feature","geometry":{"type":"MultiPolygon","coordinates":[[[[82.7566875000002,23.307438476562467],[82.75681250000005,23.305686523437586],[82.75693750000008,23.305438476562543],[82.75717578125003,23.304947265625017],[82.75768750000012,23.304561523437584],[82.75793750000005,23.30443847656258],[82.7581875000001,23.30431152343759],[82.75843750000021,23.3041884765626],[82.7586875000001,23.30406152343751],[82.75918750000008,23.303818359375114],[82.75919140625015,23.303566406250084],[82.75906250000006,23.30331347656258],[82.7589375000002,23.30306152343755],[82.75881250000012,23.30281347656269],[82.7586875000001,23.30256152343766],[82.75856249999995,23.302313476562617],[82.75839062500015,23.301610351562616],[82.75768750000012,23.301438476562524],[82.75743749999995,23.301311523437533],[82.75718750000019,23.301188476562714],[82.75693750000008,23.301061523437625],[82.75642968750023,23.30093750000016],[82.75624999999994,23.300750000000008],[82.75506250000021,23.300811523437545],[82.75456250000005,23.301188476562714],[82.75408593750015,23.301421875000173],[82.7539375000002,23.302313476562617],[82.75356250000007,23.30281152343774],[82.75343750000005,23.30331347656258],[82.75243750000007,23.30445019531247],[82.7525625000001,23.30468847656249],[82.75268750000023,23.304936523437703],[82.7528125000002,23.305188476562563],[82.75297265625008,23.30550000000018],[82.75269921875005,23.306025390624967],[82.75310937500015,23.30663085937522],[82.75243750000007,23.30746289062516],[82.7528867187502,23.307733398437577],[82.75383203124991,23.306938476562493],[82.75456250000005,23.307061523437582],[82.7548125000001,23.307188476562573],[82.75530468750023,23.307428710937543],[82.7555625000002,23.30792382812514],[82.75543750000011,23.308313476562574],[82.75506250000021,23.308811523437697],[82.75493750000018,23.309313476562536],[82.75418750000009,23.310207031250116],[82.75482031250002,23.310183593750082],[82.75510156250007,23.30960253906251],[82.75560546875013,23.309357421874992],[82.75581250000008,23.308936523437637],[82.7559375000001,23.308688476562608],[82.75606250000018,23.30843652343748],[82.75643750000009,23.307938476562626],[82.75656250000011,23.307686523437695],[82.7566875000002,23.307438476562467]]]]},"properties":{"id":"19797"}}]}