{"type":"FeatureCollection","features":[{"type":"Feature","geometry":{"type":"MultiPolygon","coordinates":[[[[79.07649983723971,24.752192908393567],[79.0760915798613,24.751106245253382],[79.07723741319458,24.749732276069267],[79.07720106336816,24.749375813802544],[79.07599555121547,24.74949869791716],[79.0752669270835,24.75037577311248],[79.07345160590305,24.75019075181801],[79.0753130425347,24.747984788683368],[79.07573866102442,24.745359293620226],[79.07486843532988,24.744636518690896],[79.07235487196183,24.744693281386063],[79.07162000868053,24.743501807319277],[79.07092963324655,24.742928297255304],[79.06859836154516,24.742512851291806],[79.06832790798606,24.741591627333364],[79.06767659505206,24.741050635444296],[79.06614800347236,24.741206461589087],[79.06584608289918,24.74070507473465],[79.06640407986109,24.739731190999834],[79.06645209418414,24.737852427165294],[79.06747124565985,24.737410447862885],[79.06832058376747,24.735975969103194],[79.06686930338569,24.735550147163096],[79.06652777777796,24.735138888889438],[79.06584608289918,24.73556840684725],[79.06440755208328,24.735887434218355],[79.06446858723953,24.73648646036837],[79.06343885633694,24.73734168158701],[79.06083116319442,24.73692921956443],[79.05921793619794,24.737288377550357],[79.05862386067705,24.73811638726174],[79.06129557291669,24.739581688775544],[79.0617523871529,24.74013147989956],[79.06173122829856,24.74188291761655],[79.06075846354159,24.74132575141111],[79.0599357096356,24.74140958997991],[79.05925130208354,24.742987603082142],[79.06029052734388,24.744431593153735],[79.06056830512156,24.74568354288793],[79.06138346354183,24.747106950548556],[79.06186740451406,24.749822930230522],[79.06374294704872,24.751380903456507],[79.06640163845489,24.752487148709235],[79.0677905273441,24.753320482042596],[79.06830078124997,24.75393468221084],[79.06906955295156,24.75385631985192],[79.06879557291674,24.751166873508694],[79.07152126736113,24.751773698595315],[79.07193169487854,24.753623962402912],[79.0723033311634,24.754153815375957],[79.073876139323,24.752487148709235],[79.07649983723971,24.752192908393567]]]]},"properties":{"id":"9543"}}]}