{"type":"FeatureCollection","features":[{"type":"Feature","geometry":{"type":"MultiPolygon","coordinates":[[[[76.9289375000001,23.665438476562684],[76.92944921875014,23.66505175781269],[76.92943750000009,23.664431640625125],[76.9289375000001,23.664188476562558],[76.92868750000017,23.664061523437567],[76.92835546875014,23.66389941406267],[76.92793750000013,23.663423828125104],[76.9282265625001,23.66286230468758],[76.9289375000001,23.662688476562607],[76.92918750000015,23.662561523437617],[76.92943750000009,23.662438476562627],[76.92968750000014,23.662311523437637],[76.92993749999997,23.66218847656272],[76.93019921875,23.66205468750013],[76.93018359374994,23.661331054687437],[76.9284375,23.661188476562486],[76.92793750000013,23.6608115234376],[76.92743750000014,23.660688476562513],[76.92718749999997,23.660561523437522],[76.92693750000015,23.660438476562604],[76.9265703125001,23.66025000000016],[76.92643750000016,23.657597656250203],[76.92694921875002,23.6569267578126],[76.92743750000014,23.65668847656248],[76.92768749999996,23.65656152343759],[76.9284375,23.65643847656267],[76.92918750000015,23.655811523437606],[76.92968750000014,23.655688476562517],[76.92993749999997,23.655561523437626],[76.93035546875015,23.65535742187504],[76.9305625000001,23.654936523437513],[76.93143750000016,23.6539384765625],[76.93156250000013,23.653798828125062],[76.93131250000013,23.653313476562474],[76.9311875,23.652811523437634],[76.93106249999997,23.65256347656259],[76.93093750000017,23.652173828124987],[76.9311875,23.651688476562498],[76.93131250000013,23.651076171875104],[76.93018750000013,23.650938476562615],[76.92993749999997,23.65081152343744],[76.92968750000014,23.65068847656262],[76.92918750000015,23.650311523437466],[76.9289375000001,23.650188476562548],[76.92862500000015,23.6500283203126],[76.92825000000013,23.650221679687604],[76.92793750000013,23.650061523437557],[76.92768749999996,23.64993847656247],[76.92737500000013,23.649778320312706],[76.92706250000023,23.64993847656247],[76.92534765625001,23.650061523437557],[76.92468750000015,23.64956152343767],[76.9243515625001,23.649397460937635],[76.92418750000016,23.649061523437595],[76.92388281250007,23.648608398437503],[76.92318750000013,23.648438476562617],[76.92282421875026,23.648252929687686],[76.92268749999997,23.646347656250086],[76.92325000000008,23.64560644531248],[76.92416406250007,23.645383789062606],[76.92431250000013,23.64418652343747],[76.92449218750014,23.64383496093747],[76.92568750000012,23.643688476562616],[76.92681250000012,23.642572265625077],[76.92530078125023,23.642438476562674],[76.92481250000023,23.642688476562483],[76.92381249999997,23.642811523437658],[76.92316015625002,23.643304687500134],[76.92268749999997,23.643061523437467],[76.92218750000009,23.642938476562563],[76.92157812499991,23.642476562500093],[76.92143750000028,23.641097656250025],[76.92194921875009,23.64042675781259],[76.92243750000014,23.64018847656267],[76.92268749999997,23.64006152343758],[76.92315234375005,23.63983496093762],[76.9233125000001,23.639186523437573],[76.92343750000012,23.63893847656263],[76.92356250000014,23.6386865234375],[76.92369531250009,23.638428710937617],[76.92418750000016,23.638188476562476],[76.92431250000013,23.637436523437458],[76.9244375000001,23.637188476562514],[76.92456250000012,23.63644531249996],[76.9238710937502,23.635688476562663],[76.92368750000023,23.636063476562512],[76.92280078125006,23.637074218750143],[76.92231250000012,23.637311523437603],[76.92131250000014,23.638188476562476],[76.92092578125025,23.638311523437565],[76.9204296875001,23.63805566406272],[76.92018750000014,23.637561523437498],[76.91988281250005,23.637108398437675],[76.91918750000022,23.636938476562605],[76.91893750000011,23.636811523437444],[76.91743750000015,23.636688476562625],[76.91693750000022,23.636311523437456],[76.91668750000011,23.636188476562552],[76.91643750000023,23.63606152343756],[76.91618750000012,23.635938476562472],[76.91593749999996,23.635811523437567],[76.91568750000013,23.635688476562663],[76.91518750000014,23.635311523437494],[76.91443750000022,23.63518847656259],[76.91393750000012,23.63481152343752],[76.91368750000024,23.6346884765626],[76.91343750000013,23.63456152343744],[76.91318750000008,23.63443847656262],[76.9129296875,23.63430566406251],[76.91268750000009,23.633811523437558],[76.91236328125004,23.633333007812567],[76.91118750000012,23.63318847656258],[76.91093749999996,23.63306152343759],[76.91068750000014,23.63293847656267],[76.9099375000001,23.632311523437608],[76.90968750000022,23.632188476562618],[76.90921484375,23.63187011718766],[76.90947656249992,23.631362304687613],[76.9101875000002,23.631188476562556],[76.9105742187501,23.63092871093764],[76.91081250000022,23.630436523437552],[76.91119921875011,23.629926757812555],[76.91168750000011,23.629688476562436],[76.91193750000022,23.62956152343763],[76.9121875000001,23.629438476562626],[76.91257421875011,23.629178710937524],[76.91281250000011,23.628686523437622],[76.91293750000014,23.628438476562664],[76.91306250000022,23.627858398437482],[76.91262109375018,23.62768847656251],[76.91243750000021,23.62806347656246],[76.91228125000006,23.62837011718753],[76.91167578125007,23.628561523437583],[76.91099999999997,23.62821386718757],[76.91056250000011,23.628438476562664],[76.91031250000023,23.628561523437583],[76.91006250000012,23.628688476562573],[76.90981249999996,23.628811523437562],[76.9093750000001,23.629036132812672],[76.90893750000012,23.628811523437562],[76.90868749999996,23.628688476562573],[76.90843750000013,23.628561523437583],[76.90693750000023,23.628438476562664],[76.90662890625018,23.628280273437582],[76.90643749999995,23.627673828125026],[76.90668750000012,23.627188476562623],[76.9068125000002,23.626798828125203],[76.90646484375017,23.626125000000073],[76.9068046875,23.625463867187676],[76.90631250000021,23.62481347656258],[76.90618750000013,23.624561523437464],[76.9060625000001,23.624313476562506],[76.90593750000008,23.624061523437575],[76.90577343750024,23.62373828125007],[76.90618750000013,23.623188476562504],[76.90631250000021,23.622780273437513],[76.9045937500002,23.622815429687606],[76.90443750000011,23.62395117187519],[76.90468750000022,23.624436523437694],[76.90481250000008,23.624752929687688],[76.90417578125007,23.625311523437617],[76.90361328125019,23.625021484375154],[76.90340234375006,23.624165039062532],[76.9029375000002,23.623938476562657],[76.90246484374998,23.623620117187713],[76.9026875000001,23.623188476562504],[76.90281250000012,23.622871093750035],[76.90243750000022,23.622688476562615],[76.90168750000024,23.62206152343755],[76.90143750000007,23.621938476562462],[76.90108593749997,23.621757812500178],[76.90093750000008,23.620561523437615],[76.90081249999994,23.620313476562572],[76.9006875000002,23.620061523437457],[76.90056250000012,23.6198134765625],[76.9004375000001,23.619173828125085],[76.90074218750007,23.618584960937454],[76.90207421875007,23.61842187499998],[76.90231250000019,23.617936523437407],[76.90269921875026,23.61742675781258],[76.90318750000009,23.617188476562646],[76.9034375000002,23.61706152343757],[76.90368750000007,23.616938476562567],[76.90419531250004,23.61655566406256],[76.90418359375016,23.616138671875106],[76.90355078125023,23.615938476562604],[76.90306249999995,23.6161884765626],[76.90258203125009,23.616311523437503],[76.90167578125002,23.615550781250036],[76.90143750000007,23.61506152343746],[76.90113281250004,23.61460839843764],[76.9004375000001,23.61443847656257],[76.90018750000021,23.614311523437678],[76.89968749999994,23.61418847656249],[76.89943750000012,23.6140615234375],[76.89917578125008,23.61393457031251],[76.8990000000002,23.613750000000053],[76.8981875000002,23.613822265625103],[76.89793750000021,23.614292968750107],[76.89868750000008,23.6151865234375],[76.8988125000001,23.615667968750103],[76.89805859375,23.616564453125108],[76.89806640625014,23.616878906250065],[76.8988125000001,23.61706152343757],[76.89912109375015,23.617219726562652],[76.8993125000001,23.61782617187511],[76.89902343750012,23.618386718750074],[76.89832421875005,23.618561523437506],[76.89708984375014,23.617473632812633],[76.89693750000006,23.617951171874978],[76.89718750000011,23.618436523437566],[76.8973164062501,23.620280273437615],[76.89793750000021,23.619811523437548],[76.8985742187501,23.61968847656246],[76.89917187500012,23.619996093750004],[76.8993125000001,23.621652343750185],[76.89873046874996,23.622417968750113],[76.89756250000008,23.62256152343754],[76.8973125000002,23.622688476562615],[76.89706250000009,23.62281152343762],[76.89681250000021,23.622938476562425],[76.89642578125003,23.623061523437613],[76.89584375000024,23.622762695312602],[76.89568750000021,23.62181152343757],[76.89546484375003,23.621438476562574],[76.89467578125007,23.62207324218771],[76.89443750000018,23.622563476562576],[76.89430468750007,23.622821289062543],[76.89365625000008,23.62313671875016],[76.8934375000002,23.623537109375178],[76.894140625,23.62440624999998],[76.89494921875021,23.624561523437464],[76.8954375000001,23.624311523437555],[76.89592578125004,23.624188476562566],[76.89706250000009,23.62518847656243],[76.89769921875009,23.625311523437617],[76.8981875000002,23.625061523437537],[76.8984375000002,23.62493847656262],[76.89868750000008,23.624811523437543],[76.89893750000019,23.624688476562454],[76.89918750000007,23.624561523437464],[76.89991796874997,23.624438476562545],[76.9008242187501,23.62519921875011],[76.90106250000011,23.625688476562587],[76.90180859375013,23.62658007812513],[76.9015625000001,23.627061523437547],[76.90143750000007,23.627313476562662],[76.90121484375001,23.627749999999978],[76.90143750000007,23.62818652343755],[76.9015625000001,23.628438476562664],[76.90168750000024,23.628686523437622],[76.9018125000002,23.628938476562553],[76.90193749999995,23.62918652343751],[76.90206250000008,23.630576171875077],[76.9018046875,23.63107128906259],[76.90131250000022,23.631311523437475],[76.90118750000019,23.631507812500075],[76.90156640625017,23.6320654296877],[76.90155859375002,23.63237890625001],[76.90081249999994,23.632561523437516],[76.90055468750026,23.632692382812678],[76.90056250000012,23.633068359375088],[76.90106250000011,23.63331152343757],[76.90164453125018,23.63375097656248],[76.9018125000002,23.63443847656262],[76.9020351562501,23.634875000000108],[76.9018046875,23.635321289062603],[76.90131250000022,23.635561523437573],[76.90105468750025,23.63569238281265],[76.90106640625018,23.63612890625022],[76.9018125000002,23.636311523437456],[76.90206250000008,23.636438476562446],[76.90244921875009,23.636561523437635],[76.90300000000022,23.636278320312584],[76.90331250000011,23.636438476562446],[76.90364843750015,23.636602539062565],[76.9038125000001,23.636938476562605],[76.90393750000013,23.637186523437563],[76.90406640625,23.637451171875128],[76.9049375000001,23.637433593750032],[76.90614843749998,23.638515625000053],[76.90631250000021,23.63918847656261],[76.90643749999995,23.639436523437652],[76.90656250000009,23.639688476562597],[76.90668750000012,23.63993652343754],[76.9068125000002,23.64018847656267],[76.90743750000021,23.640936523437503],[76.90756249999995,23.64168847656252],[76.9079375000002,23.642186523437545],[76.90806250000023,23.642438476562674],[76.90880859375002,23.643330078125288],[76.90856250000022,23.64381152343762],[76.90843750000013,23.644063476562565],[76.90831250000011,23.64431152343751],[76.90818750000008,23.644813476562618],[76.90806250000023,23.64506152343766],[76.9079375000002,23.64803710937504],[76.90856640625,23.648814453125212],[76.90855078125006,23.649665039062455],[76.90868749999996,23.649936523437518],[76.9088125000001,23.65068847656262],[76.90893750000012,23.65093652343758],[76.9090625000002,23.651326171875084],[76.90874999999997,23.651929687500115],[76.9060625000001,23.65206152343758],[76.90581250000022,23.652188476562472],[76.90556250000012,23.65231152343756],[76.9051250000002,23.65253613281257],[76.90468750000022,23.65231152343756],[76.90355078125023,23.652188476562472],[76.90306249999995,23.65243847656255],[76.90281250000012,23.65256152343747],[76.90233984375001,23.652804687500037],[76.90168750000024,23.65231152343756],[76.90038671875024,23.652188476562472],[76.8999375000001,23.65270117187508],[76.90022265625001,23.653249999999986],[76.90000390625013,23.653675781250158],[76.89789453124993,23.653823242187656],[76.8976875000001,23.654418945312713],[76.89856249999994,23.654561523437565],[76.89932421875025,23.655199218750127],[76.89966015625001,23.65589062500007],[76.90019921875009,23.656061523437515],[76.9006875000002,23.655811523437606],[76.90141796875022,23.655688476562517],[76.90231250000019,23.65643847656267],[76.90281250000012,23.65656152343759],[76.90313671875023,23.656728515625034],[76.90331250000011,23.657438476562632],[76.9034375000002,23.65768652343759],[76.90356250000022,23.65793847656252],[76.90368750000007,23.65818652343748],[76.9038125000001,23.65843847656251],[76.90465234375003,23.659413085937572],[76.90556250000012,23.65956152343756],[76.90581250000022,23.659688476562636],[76.9060625000001,23.659811523437455],[76.90631250000021,23.659938476562715],[76.90656250000009,23.660061523437633],[76.90682031250017,23.660194335937646],[76.90706250000008,23.660688476562513],[76.90743750000021,23.661186523437635],[76.90757812500001,23.662325195312548],[76.90806250000023,23.662561523437617],[76.90831250000011,23.662688476562607],[76.90931250000008,23.662811523437526],[76.90956250000013,23.662938476562516],[76.91006250000012,23.663061523437605],[76.91031250000023,23.66318847656268],[76.9110625000001,23.6633115234376],[76.91131250000021,23.66343847656249],[76.91356250000021,23.66356152343768],[76.91381250000009,23.66368847656257],[76.91481250000024,23.663811523437488],[76.91506250000012,23.66393847656265],[76.91681250000013,23.664061523437567],[76.91706249999996,23.664188476562558],[76.91756250000023,23.664311523437462],[76.91781250000011,23.664438476562722],[76.91881250000009,23.66456152343764],[76.91907031250022,23.664694335937654],[76.91931249999996,23.66518847656252],[76.91949218750014,23.66554003906252],[76.91993750000009,23.66531152343761],[76.92107421875014,23.66518847656252],[76.92156249999996,23.665438476562684],[76.92281249999999,23.665561523437688],[76.92306250000016,23.665688476562494],[76.92381249999997,23.665811523437682],[76.92406250000013,23.665938476562673],[76.92531250000016,23.666061523437406],[76.9255625000001,23.666188476562652],[76.92581250000015,23.66631152343757],[76.92617968750014,23.666500000000198],[76.92631250000014,23.669438476562718],[76.92643750000016,23.669686523437576],[76.92656249999996,23.6701884765625],[76.9266875000001,23.67043652343763],[76.92685937500002,23.67113964843746],[76.92756250000016,23.671311523437552],[76.9278125000001,23.671438476562642],[76.92814453124996,23.67156152343763],[76.92881249999996,23.670798828125044],[76.92846484375022,23.670125000000013],[76.92868750000017,23.669688476562527],[76.92881249999996,23.669298828125093],[76.92856250000014,23.668813476562605],[76.9284375,23.668311523437495],[76.92831250000009,23.668063476562637],[76.92818750000023,23.667811523437507],[76.92806250000015,23.667563476562563],[76.92793750000013,23.667311523437533],[76.9278125000001,23.667063476562674],[76.92768749999996,23.666173828124997],[76.9279882812501,23.66559375000017],[76.9289375000001,23.665438476562684]]]]},"properties":{"id":"26957"}}]}