{"type":"FeatureCollection","features":[{"type":"Feature","geometry":{"type":"MultiPolygon","coordinates":[[[[77.0077724880646,26.55943901909754],[77.00939792209229,26.557933213975886],[77.00971693250912,26.5570098198787],[77.00843858506991,26.556672092013997],[77.00777357313402,26.558080783420365],[77.00522189670156,26.5591612413197],[77.00332804361997,26.55833875868072],[77.00225355360269,26.557599283854287],[77.00154283311647,26.55577419704869],[77.00228339301256,26.55437472873288],[77.00169270833342,26.552120496962118],[77.00095418294305,26.5516720920141],[77.00020141601587,26.553050130208504],[76.99814466688426,26.5523293728301],[76.99763129340309,26.551775173611233],[76.99813137478324,26.548420952691103],[76.9988941786028,26.548060980902903],[76.99941026475713,26.547503797743204],[77.00176825629356,26.546641438802325],[77.00417711046029,26.54498399522589],[77.00498521592905,26.54501600477451],[77.0055897352432,26.544696180555746],[77.01108954535616,26.544914008246835],[77.0127724880646,26.543883463541803],[77.01748046875028,26.542835557725894],[77.01777248806442,26.542216796875252],[77.01889417860284,26.541949869791793],[77.01916137695324,26.541631130642585],[77.0180376519099,26.540590006510612],[77.01808308919308,26.539444444444612],[77.01673380533882,26.53912299262167],[77.01606499565989,26.53711100260432],[77.01512084960993,26.536394314236375],[77.0142401801219,26.538148600260655],[77.0134077962243,26.53860568576414],[77.0130608452694,26.53744411892383],[77.01509535047754,26.535419650607736],[77.01458333333355,26.53458333333363],[77.0131137424049,26.535124240451566],[77.0115851508248,26.536176215277933],[77.01111640082493,26.5379503038196],[77.01198147243954,26.539207628038298],[77.01316962348099,26.53976833767382],[77.01453206380219,26.54123860677096],[77.01388088650211,26.542469075521055],[77.01166137695341,26.542772352430674],[77.01138400607672,26.543071831597302],[77.01021959092887,26.543025716145934],[77.00921956380219,26.54194661458351],[77.00744411892393,26.54167209201404],[77.00212863498294,26.543934733073087],[77.00063490125896,26.545272352430672],[77.0002830674915,26.544161241319557],[76.99996446397594,26.54389431423627],[76.99941840277816,26.544483506944673],[76.99943779839421,26.54613850911474],[76.99843519422777,26.546098632812658],[76.99776597764773,26.544680718316087],[76.99721313476576,26.54416856553847],[76.99766872829898,26.543307562934245],[76.99733886718766,26.54222764756973],[76.995617540148,26.544574110243133],[76.99480645073814,26.54629313151051],[76.99444973415822,26.548868272569578],[76.99713840060795,26.552583821614718],[76.99798000759571,26.554366861979318],[76.99944973415833,26.55471679687514],[77.00000528971393,26.555272352430734],[77.00027248806438,26.55694986979185],[77.00218519422762,26.558926052517577],[77.0045629882816,26.561293945312656],[77.00538126627643,26.560410698785006],[77.00750528971369,26.560005425347356],[77.0077724880646,26.55943901909754]]]]},"properties":{"id":"4883"}}]}