{"type":"FeatureCollection","features":[{"type":"Feature","geometry":{"type":"MultiPolygon","coordinates":[[[[75.89810323079453,31.747188856337047],[75.89802374945774,31.746549750434184],[75.89594570583799,31.746628689236346],[75.89652147081219,31.745649414062683],[75.89635057237464,31.744275444878653],[75.89554016113325,31.743626573350866],[75.89519259982669,31.740847439236205],[75.8964168972445,31.740331488715498],[75.900082939996,31.741361219618256],[75.89998135036925,31.74054443359394],[75.90193515353783,31.73774793836823],[75.9025385199657,31.738102484809332],[75.90327019585553,31.738011610243234],[75.90210150824689,31.736550292968943],[75.90109571668867,31.736126573350873],[75.90069444444478,31.73541666666678],[75.89968885633718,31.735704210069642],[75.89974107530443,31.73612358940987],[75.89936313205342,31.73642632378487],[75.89882188585116,31.73771077473971],[75.8964165581601,31.738129340277936],[75.89527777777826,31.73879882812514],[75.89444444444476,31.73830891927095],[75.89388888888939,31.738635525173805],[75.89303507487003,31.738133680555762],[75.89191935221382,31.73700737847234],[75.89190416124185,31.73620388454877],[75.89021633572091,31.736413845486297],[75.88973761664548,31.73862657335087],[75.8889826795793,31.73965983072928],[75.89123575846403,31.740052083333467],[75.8919781494146,31.740979003906475],[75.8919259304474,31.74139892578134],[75.89224697536926,31.741944986979462],[75.89137030707522,31.743323025173865],[75.89144544813402,31.743927137587022],[75.89322258843353,31.746905381944643],[75.89666666666707,31.74759901258699],[75.89810323079453,31.747188856337047]]]]},"properties":{"id":"17056"}}]}