{"type":"FeatureCollection","features":[{"type":"Feature","geometry":{"type":"MultiPolygon","coordinates":[[[[102.32326390523524,21.482633402542735],[102.32327281699483,21.48429218412432],[102.32404421111242,21.485143942578755],[102.32405757884537,21.48559875050076],[102.32443659405624,21.486057994469743],[102.3244499618361,21.486512891382805],[102.32522145144617,21.48788178991447],[102.32495837551225,21.48850610721758],[102.32496283145947,21.48973231006208],[102.32546224816063,21.49060627126752],[102.32522145144617,21.490985377783883],[102.32522145144617,21.493085593858215],[102.32538640937169,21.49343340474656],[102.32522145144617,21.493727706915593],[102.32522145144617,21.49592604382273],[102.32495837551225,21.496336240869173],[102.32495837551225,21.498267055593118],[102.32438757887711,21.49854794643381],[102.32404421111242,21.49907414242886],[102.32404866702323,21.500171105563545],[102.32419134363363,21.500483188791364],[102.32469966876263,21.500808725878397],[102.32536412955292,21.502694952324585],[102.3260017709833,21.503016032647654],[102.32678655198464,21.50459006405975],[102.3268757597928,21.505089484475743],[102.3261355380971,21.505860914688505],[102.3257431491921,21.507278857202454],[102.32548007203094,21.507693625723732],[102.32548007203094,21.50926765296166],[102.3256093825476,21.509628847640442],[102.32548007203094,21.510284357896154],[102.32522145144617,21.510694592746024],[102.32523481931985,21.512353312876836],[102.32562720644135,21.512883980081483],[102.3260017709833,21.513075730772737],[102.32614445008556,21.514181617169125],[102.32665724010697,21.514645342839277],[102.32719231265783,21.515880462242908],[102.32782996451056,21.51646912424741],[102.32784333269599,21.517445651384776],[102.3283516744232,21.518038673578168],[102.32849444389716,21.51862282216364],[102.32900715731664,21.519211488676024],[102.32914992762707,21.520188021128416],[102.32978750326242,21.520776581144013],[102.3299302745686,21.52123139109393],[102.33044299456766,21.521561378720786],[102.33097362903776,21.522537948507246],[102.33174507626183,21.52325585692875],[102.33202153683995,21.523973753821004],[102.33448743113559,21.525605762682098],[102.33502254112747,21.52684546345921],[102.33579392887574,21.527184287057477],[102.33606594306343,21.528281282314445],[102.33657432213785,21.528709317916412],[102.33671701471982,21.529061617052495],[102.33709598542984,21.529391534320858],[102.33724313511274,21.529846446143424],[102.33761773853323,21.530176418657128],[102.33762219498453,21.531108329447598],[102.33788084422726,21.531482913528052],[102.33788530068904,21.533065864779434],[102.33814386315755,21.5334404533938],[102.33814386315755,21.534894137053065],[102.33826427535236,21.534996676857084],[102.33814386315755,21.535237500906774],[102.33814386315755,21.536856114360155],[102.33840251360499,21.53722622126357],[102.33854520851628,21.537939676502855],[102.3394459470322,21.53852826111307],[102.33945931660489,21.538983141663696],[102.33970014395214,21.53930413065615],[102.3394459470322,21.53980359637245],[102.3394459470322,21.541899372167478],[102.33996771108224,21.5430988737375],[102.33998999380805,21.54420028065019],[102.3394459470322,21.545154480971984],[102.3394459470322,21.54604629568532],[102.33918729417535,21.546461041471375],[102.33918729417535,21.547232469563596],[102.33840251360499,21.548677180776533],[102.33814386315755,21.549832054285567],[102.33788084422726,21.550246770942998],[102.33788084422726,21.550737267210174],[102.33769349822965,21.550768529205488],[102.33735908989813,21.551290186528593],[102.33735908989813,21.552431728238936],[102.33696666164012,21.552721596942472],[102.33683742538055,21.553354752052478],[102.33644499895057,21.553894342145163],[102.33645836816503,21.554380353449965],[102.33671701471982,21.554906529813582],[102.33726987373385,21.555236484625787],[102.33802799494138,21.555089398470347],[102.3387592949152,21.553782830706034],[102.3387592949152,21.55300692855656],[102.33915164207163,21.55261009097901],[102.33980264428276,21.551303626161967],[102.33980264428276,21.550670384834046],[102.34058752204574,21.54895367094491],[102.34084609075158,21.547665005081974],[102.34163088843995,21.54673305390083],[102.3416086053878,21.545859009087767],[102.34215266266541,21.54490480489806],[102.34214820603385,21.54263505768688],[102.34163088843997,21.541743270049015],[102.34162643182917,21.538974176549374],[102.34136786132245,21.538608545480283],[102.34135449152201,21.537761293276432],[102.34096204926668,21.536980999699495],[102.34032440999412,21.53665101791881],[102.34031995343531,21.534283236553517],[102.34008803785429,21.533926519769317],[102.34032440999412,21.53354743526952],[102.34031995343531,21.53271364714004],[102.33980264428276,21.531817363997007],[102.3397981877447,21.530105001328447],[102.33953962145742,21.529730504815124],[102.33953962145742,21.528927865788564],[102.33862551271348,21.527937863847434],[102.33795214763704,21.526791959811142],[102.33758208692912,21.526466386377606],[102.33718074502168,21.525360537892677],[102.33628002472304,21.524763049301676],[102.3358742311001,21.52379544274817],[102.33506710461576,21.52307307167472],[102.33379626574458,21.52268063431566],[102.33365357688491,21.522230299149324],[102.33301589184626,21.521507877255893],[102.33287320398132,21.521053067887788],[102.33223115452867,21.520464412608984],[102.33182537558189,21.51948792489476],[102.33105838399432,21.51889927926171],[102.33078192579545,21.51792279748914],[102.33040288908425,21.517592763356856],[102.33026020455073,21.517008613019883],[102.329751854152,21.51641559956128],[102.3297384857385,21.515965179557398],[102.32896705234789,21.514596277052732],[102.32882436964535,21.513873933018157],[102.32818671212449,21.51315602785243],[102.32804403041717,21.512701115680862],[102.32740192129964,21.512241847552147],[102.32727260871054,21.511381295873264],[102.32740192129964,21.511225236975488],[102.32740192129964,21.509945395643918],[102.32766500298116,21.509530713302475],[102.32766054692627,21.50856756547416],[102.32754014613786,21.508366886415615],[102.32792362921603,21.507189673436734],[102.32844533956549,21.50653425330381],[102.32835613050563,21.505481901112546],[102.32870842370083,21.50496459993862],[102.32870842370083,21.504170885940255],[102.32818671212449,21.502971438904172],[102.32817334389802,21.50252101782059],[102.32778094784427,21.501736244569003],[102.32727260871054,21.50127691600974],[102.32712992816917,21.500300367205107],[102.32664387206327,21.499729626790923],[102.32714329627095,21.499087508936956],[102.32713884023684,21.49773197624684],[102.32688021581643,21.49736181233128],[102.32688021581643,21.49702300253687],[102.32714329627095,21.496608241921084],[102.32714329627096,21.49372764675898],[102.32697387972665,21.493379903373928],[102.32714329627096,21.493085537119974],[102.32714329627095,21.492452371865163],[102.32740192129964,21.492037678532792],[102.32740192129964,21.48916156106626],[102.32714329627096,21.488746850162546],[102.32713884023684,21.487159396346538],[102.32688021581643,21.48678931534185],[102.32686684774609,21.48554965181628],[102.32635851276655,21.484961053180417],[102.32621583339119,21.48424763941154],[102.32544433692128,21.483654571796578],[102.32544433692128,21.483453951254887],[102.32653684039849,21.483172961252933],[102.3268757597928,21.48279397672024],[102.3273216251541,21.48264682308877],[102.32791917315085,21.48187989604046],[102.32862375789864,21.481607841347905],[102.32896705234788,21.48109955484727],[102.32940855729471,21.4810861703173],[102.33005959022957,21.48069368688918],[102.33158010896025,21.47859795938052],[102.33171388274388,21.478094100228226],[102.33188776268858,21.4780851732943],[102.33339939369019,21.476386246378738],[102.33463903372306,21.475333933595643],[102.33509829906814,21.474557990314302],[102.33619972220765,21.474031863358313],[102.33771586788453,21.472332955107078],[102.33810375491531,21.471285069622624],[102.33810375491531,21.470402122925908],[102.33868344711564,21.47024158767536],[102.33941029484618,21.4690732868038],[102.34032440999412,21.467245106703846],[102.34032440999412,21.466866064871116],[102.3408460907516,21.465938531369996],[102.3408460907516,21.465296451086058],[102.34188954693838,21.463084702608672],[102.34293301284208,21.46189416431124],[102.34345916242798,21.461109315551493],[102.34371773776019,21.46034243745458],[102.34423952170194,21.459936594821514],[102.34489055347277,21.45863005474527],[102.34489055347277,21.457992454921392],[102.34515358885803,21.457582192750568],[102.34515358885803,21.456034926099516],[102.34541671224798,21.455624658895054],[102.34540334196453,21.45500934282683],[102.34510010785927,21.45464368817849],[102.34567529209608,21.453537783233834],[102.34567529209608,21.45249888133149],[102.34619699776202,21.451843344401667],[102.34619699776202,21.451205658753974],[102.34646012360099,21.45079548435141],[102.34646012360099,21.450019619404255],[102.34685249771945,21.44949338704149],[102.34685249771945,21.448989500379252],[102.34711116826796,21.448574829848045],[102.34711116826796,21.44794609012006],[102.34737420886337,21.44753136308599],[102.34763288061545,21.44637204521512],[102.34815459539035,21.44544453882796],[102.34815459539035,21.444802386081772],[102.34859600119347,21.444668618616415],[102.34881010679206,21.444401084164202],[102.34946107771248,21.44322837646073],[102.34946107771248,21.442581754689925],[102.35025039266831,21.4411548527435],[102.3510752816717,21.4408828665376],[102.35168169562571,21.439830554825836],[102.3516772386154,21.43807813449965],[102.35153015737407,21.437774905690556],[102.35089691496889,21.437449401771634],[102.35088354403199,21.434782808568073],[102.34972421121083,21.432357089862773],[102.34971084041372,21.43190670431],[102.34946107771248,21.431576773192944],[102.34944770694673,21.430858796069696],[102.34867631259254,21.42935611853044],[102.34853360478166,21.428642671933517],[102.34789592243474,21.428312639008624],[102.34775330300631,21.427857832083102],[102.34685249771945,21.42700611337158],[102.34683912726476,21.42655134216734],[102.34619699776202,21.42557035347219],[102.34618362738551,21.424856842521926],[102.34567529209608,21.423742109852157],[102.34567083532447,21.423073189608544],[102.34551030427689,21.42276558012807],[102.34567529209608,21.42247122000086],[102.34567529209608,21.421838100617876],[102.34593841671058,21.421423390625538],[102.34593841671058,21.420531533101066],[102.34619699776204,21.420121276267526],[102.34619699776204,21.415804915082344],[102.34593841671058,21.415390210383876],[102.34593841671058,21.41400788778361],[102.34619699776204,21.413593164735715],[102.34619254096967,21.41145723141872],[102.34567529209608,21.410297893341703],[102.34566192178177,21.409713798135847],[102.34541671224798,21.409383773495477],[102.34526955183023,21.40867028771286],[102.34472111007472,21.408340365405866],[102.34427071870859,21.408344794656625],[102.34266543863068,21.40887548975828],[102.34245143215266,21.40914746056737],[102.34259404483574,21.40989214835262],[102.34313810689775,21.41022213530991],[102.34349481590233,21.41023102413598],[102.34350818595814,21.410676943799565],[102.34401651141987,21.411657907738505],[102.34375793539836,21.412848488928887],[102.34413692992615,21.4133211430485],[102.34401651141987,21.413584278367452],[102.34401651141987,21.416594173496552],[102.34427517542453,21.417008876732204],[102.34427517542453,21.418391207108193],[102.34375347870298,21.419060011063248],[102.34376684878964,21.41955056027903],[102.34401651141987,21.41988052023822],[102.34401651141987,21.420478046344815],[102.34349481590233,21.42115132514899],[102.34349927258742,21.42198517057313],[102.34365980075488,21.422297345603674],[102.34323169702402,21.423108908880742],[102.34323615369865,21.423684103839676],[102.34375347870298,21.424839055770455],[102.34376684878964,21.42529383097177],[102.34453820936572,21.42666723710683],[102.3445516669328,21.427122094380074],[102.34518924287137,21.427844512143867],[102.3452026131293,21.428557936306046],[102.34571103366306,21.429146505796698],[102.34585810727255,21.42960134303435],[102.34623273949535,21.42993129027235],[102.34637990117747,21.430644769501022],[102.34675890457005,21.43097474634944],[102.34676781819996,21.431429581650193],[102.3470174875139,21.431759526597553],[102.34703085798988,21.432597890149378],[102.3475391994255,21.433454044551322],[102.34755256996368,21.433908815563196],[102.34768636282242,21.43417637337349],[102.34832404397766,21.43450192588027],[102.3483374146094,21.434952313576833],[102.34858263053088,21.435282226405917],[102.34858263053088,21.435884219727903],[102.34832404397766,21.436294491636293],[102.3483374146094,21.437431569477535],[102.3485826305309,21.437761480878343],[102.34872979529717,21.438474951585153],[102.34939422389975,21.438822736489406],[102.34948781924872,21.43903685017902],[102.3491088066325,21.439406905662807],[102.34866739881093,21.439549611478473],[102.34819470722981,21.440075823379583],[102.34675890457005,21.44360290367917],[102.34675890457005,21.4440978459721],[102.34657608792469,21.444120138342065],[102.34610340515984,21.44464635303431],[102.34545236634501,21.44594839166146],[102.34545236634501,21.44750021358163],[102.34513576185562,21.447651780568762],[102.34479687457431,21.448169016399504],[102.34479687457431,21.448811175796955],[102.34427517542453,21.44973421236375],[102.34401651141987,21.451022865114023],[102.34375347870298,21.4514375927375],[102.34375347870298,21.45232937498249],[102.34349481590233,21.452739663938],[102.34349481590233,21.453109757082384],[102.34271000515974,21.45430926452926],[102.34272337512193,21.45518323985605],[102.34312919355648,21.455709402377188],[102.3429731228132,21.456003652537014],[102.3429731228132,21.45663687291712],[102.34271000515974,21.457051611103033],[102.34271000515974,21.457952341238055],[102.34205898605542,21.458612239444957],[102.34114485675502,21.460681253305058],[102.3398383839768,21.462398044647657],[102.3397046004863,21.4629018920802],[102.33931662052912,21.463178360846566],[102.33918729417535,21.46394536436497],[102.33866562114254,21.465140405229892],[102.33866562114254,21.466032203694215],[102.33743493680085,21.467227206587054],[102.33709598542984,21.467753406843375],[102.33709598542984,21.46826625392455],[102.33657432213785,21.468663051250395],[102.33644499895057,21.46956824587485],[102.3359232513111,21.47049131512585],[102.33592325131109,21.47113340513877],[102.33566015021633,21.471637322402852],[102.33521870798818,21.471793365368594],[102.33462120839378,21.47256037194068],[102.33312738598121,21.473233684583416],[102.33278853502804,21.473755408754197],[102.33277962251039,21.474401925291083],[102.33187885024263,21.475168891778697],[102.33090678625645,21.47558357979783],[102.33044299456766,21.476234640180902],[102.32952887271885,21.478174374118247],[102.32848544434721,21.479217784261454],[102.327393009211,21.479619069072267],[102.3267910080047,21.480390526387083],[102.32634068875626,21.480542121830652],[102.32600622697211,21.4810459913492],[102.32438757887711,21.48131802326958],[102.32326390523524,21.482633402542735]]]]},"properties":{"id":"39303"}}]}