{"type":"FeatureCollection","features":[{"type":"Feature","geometry":{"type":"MultiPolygon","coordinates":[[[[76.54667187500021,23.220937500000076],[76.54650000000018,23.22075000000011],[76.54580859375008,23.220810546875086],[76.54556640625006,23.220939453125112],[76.54455859375005,23.22106054687508],[76.54444140625006,23.222064453125114],[76.54405859375007,23.2225605468752],[76.54394140625001,23.22281445312518],[76.54380859375019,23.223060546875175],[76.54369140625019,23.22456445312511],[76.54319140625003,23.225214843750024],[76.54347265625015,23.22575000000009],[76.54319140625003,23.226287109375107],[76.54335546875015,23.226843750000086],[76.54381640625016,23.22706054687511],[76.5455585937502,23.228689453125085],[76.54581640625017,23.228810546875224],[76.54630859374996,23.229189453124974],[76.5470664062502,23.229310546875112],[76.54730859375022,23.229439453125053],[76.54806640625,23.22956054687502],[76.54895312500005,23.230310546875074],[76.54986718750004,23.230161132812626],[76.55030859375009,23.229515625000175],[76.55019140625004,23.22531054687518],[76.5498085937501,23.224814453125006],[76.54969140625016,23.22431054687513],[76.54955859375022,23.224064453124953],[76.54944140625017,23.223810546874972],[76.54930859375011,23.223564453124965],[76.54919140625,23.223310546875084],[76.54905859375006,23.223064453125076],[76.54894140625007,23.22281054687501],[76.54830859375019,23.222064453125114],[76.54808203125023,23.221579101562526],[76.54769140625004,23.22131054687506],[76.54743359374996,23.221189453125106],[76.54719140625016,23.22106054687508],[76.54667187500021,23.220937500000076]]]]},"properties":{"id":"19838"}}]}