{"type":"FeatureCollection","features":[{"type":"Feature","geometry":{"type":"MultiPolygon","coordinates":[[[[101.82290296766487,14.579193827311414],[101.8217896864148,14.576146986219811],[101.82070366753479,14.574745686849141],[101.81832058376742,14.57301622178828],[101.8164268663194,14.572147047254958],[101.81511773003459,14.571132507324407],[101.81326619466168,14.5673081800674],[101.8065700954862,14.563699747721586],[101.80434380425348,14.56005154079881],[101.80233778211797,14.554665730794511],[101.80163248697923,14.554035576714668],[101.80046088324653,14.55142422146281],[101.80054077148444,14.55008419460738],[101.8019102647568,14.548669060601213],[101.80105889214431,14.547102152506653],[101.80107326931423,14.543973083496184],[101.79944118923598,14.5425147840714],[101.80125949435765,14.540890062120383],[101.79994072808145,14.539282701280484],[101.79930094401024,14.539320814344833],[101.79805189344629,14.540718790690363],[101.79725477430534,14.540285678439773],[101.79778591579881,14.537799886067916],[101.7977343749998,14.536934882270174],[101.79615505642354,14.53552378336596],[101.79446560329868,14.537908867730195],[101.79387044270814,14.536944003635085],[101.7958561197917,14.533698662652014],[101.7985926649304,14.532646687825661],[101.79885470920138,14.531900261773231],[101.79718804253466,14.52986891004808],[101.79692599826396,14.527848476834023],[101.79856825086804,14.525497334798374],[101.80016303168398,14.52500488281261],[101.8006793891058,14.522785780165108],[101.80164903428798,14.521534457736678],[101.80162963867193,14.521209242079166],[101.7991798231337,14.521177842882054],[101.79685384114563,14.522980380588265],[101.79502929687519,14.523882819281809],[101.79295288085942,14.526025627984197],[101.79082085503458,14.52599622938375],[101.7905371093751,14.525784166124353],[101.7915093315971,14.524392259385962],[101.79052598741325,14.523513624403321],[101.79025933159707,14.521519978841255],[101.78996582031252,14.521257798936716],[101.78965508355017,14.519592895507998],[101.78704142252613,14.518071187337497],[101.78617431640632,14.517100762261563],[101.78477837456595,14.516669684516145],[101.78289265950505,14.51455922444687],[101.7812645128038,14.513523729112677],[101.78185397677956,14.511322937011855],[101.78305528428805,14.509603101942474],[101.78306545681434,14.50633673773892],[101.78186943901895,14.505967407226692],[101.7812170410156,14.505237189399068],[101.78165215386267,14.504024590386408],[101.78011257595486,14.502222222222443],[101.7794466145834,14.502427910699097],[101.77700127495658,14.50556298149975],[101.775407172309,14.506294623481054],[101.77389309353296,14.508380974663723],[101.77187920464397,14.511846652561005],[101.771928846571,14.512679646809957],[101.77418009440092,14.512611694336087],[101.7741164822049,14.511543036566962],[101.77476060655377,14.51062089708131],[101.77708346896688,14.51014668782571],[101.77770534939233,14.511501668294429],[101.77865410698783,14.51000979953372],[101.7805689832899,14.508516303168477],[101.78163248697902,14.508975084093109],[101.78052137586789,14.510408867730249],[101.7797489420573,14.513729078505008],[101.7799987792969,14.517921210395087],[101.7807141113282,14.518742201063503],[101.78121134440104,14.51607757568378],[101.7823790147568,14.51542446560346],[101.78756415473092,14.51935713026272],[101.78826863606767,14.520145568847795],[101.78720377604171,14.523104722764998],[101.78838555230053,14.524796651204653],[101.78889390733494,14.526981608073072],[101.7902776421441,14.527616712782248],[101.79022949218754,14.528425259060526],[101.78703030056428,14.52875864664722],[101.78602742513002,14.530943671332594],[101.78419813368058,14.532353312174592],[101.78267049153644,14.530146687825663],[101.78031724717866,14.532780490451529],[101.77872246636272,14.533464423285807],[101.77645168728301,14.532856207953756],[101.7745738389755,14.533794623481086],[101.7730474175348,14.535897861057009],[101.77158623589392,14.536827155219427],[101.77036810980914,14.536754557291843],[101.76870293511271,14.540283576117815],[101.76905069986984,14.541242201063454],[101.77025051540787,14.540404086643008],[101.77082817925353,14.540718010796624],[101.77145439995664,14.540680677626113],[101.77311021592882,14.539868910047886],[101.77397243923596,14.540833943685058],[101.77326782226541,14.541842651367332],[101.77332112630214,14.542737799750569],[101.77502509223078,14.543464423285783],[101.77595282660596,14.542425977919024],[101.77699910481775,14.541813354492362],[101.77774359809015,14.542646687825723],[101.78053710937516,14.542908867730091],[101.78135470920151,14.54348002115917],[101.7823655870225,14.543742201063537],[101.78529242621548,14.542368910047884],[101.78522664388007,14.543472222222476],[101.78640163845498,14.544011535644671],[101.78914822048617,14.544297756619144],[101.79146308051216,14.54609171549491],[101.79132419162332,14.548422478570075],[101.79395087348078,14.54891276041674],[101.79491807725705,14.54943837483745],[101.79584486219599,14.550475599501027],[101.79572618272553,14.552468261718928],[101.79796440972225,14.554092644585623],[101.79988606770834,14.556740451389047],[101.80079915364584,14.563202243381198],[101.8018183051216,14.565077684190683],[101.80385226779501,14.56545732286257],[101.80536946614572,14.566633097330836],[101.80611504448794,14.569837307400292],[101.80790744357623,14.57234870062949],[101.80858439127624,14.57382358127191],[101.80975802951369,14.574872199164687],[101.81091634114571,14.577396002875602],[101.81186821831594,14.57733924018035],[101.81235704210073,14.575238308376882],[101.81273193359365,14.574868910047897],[101.81302137586792,14.577646687825649],[101.81349351671022,14.578962571886024],[101.8150329589844,14.578126017252814],[101.81666585286442,14.578563368055683],[101.82015448676222,14.582200520833567],[101.8223432074652,14.583504638672181],[101.82367553710932,14.585793084038798],[101.82598090277762,14.586851162380725],[101.82765367295994,14.58872328016517],[101.83107191297725,14.589044087728084],[101.83456217447903,14.590450914171157],[101.83711954752616,14.592237277560898],[101.83837131076407,14.593962164984902],[101.84058064778642,14.594297756619113],[101.8411462402344,14.593664686415124],[101.84077134874119,14.592264946831776],[101.8408443196615,14.591041022406856],[101.8399397786458,14.588690117730238],[101.83812717013879,14.587537333170772],[101.83498467339402,14.586329243978],[101.83237833658845,14.58592308892166],[101.8295026312932,14.585071512858221],[101.826910264757,14.582368910047876],[101.82607991536455,14.58106330023898],[101.82420464409725,14.58020260281046],[101.82290296766487,14.579193827311414]]]]},"properties":{"id":"5119"}}]}