{"type":"FeatureCollection","features":[{"type":"Feature","geometry":{"type":"MultiPolygon","coordinates":[[[[71.82406250000011,33.55393627929695],[71.82468750000012,33.55318872070326],[71.82485156250007,33.55285205078137],[71.82518750000011,33.55268872070319],[71.8253125000002,33.551870727539225],[71.82485156250007,33.55164794921873],[71.82468750000012,33.551311279296925],[71.8245625000001,33.5510637207033],[71.82443749999996,33.55081127929694],[71.82431250000022,33.550563720703224],[71.82418750000019,33.55031127929705],[71.82331249999996,33.54931372070318],[71.82318750000022,33.54906127929692],[71.82267578125018,33.54842651367197],[71.82218749999996,33.54818872070318],[71.8214375000002,33.547561279297156],[71.82092968750007,33.547437133789145],[71.82075000000012,33.54725000000006],[71.82056250000008,33.54731127929698],[71.82043750000005,33.547549438476565],[71.8214375000002,33.54868627929716],[71.82156250000006,33.54968872070313],[71.82180859375003,33.55017016601572],[71.82105078125008,33.55107373046884],[71.82056250000008,33.551311279296925],[71.8203125000002,33.551438720703146],[71.81992578125008,33.55156127929709],[71.81943750000008,33.551311279296925],[71.81880078125008,33.55118872070334],[71.81831250000008,33.551438720703146],[71.81767578125007,33.55156127929709],[71.81718750000007,33.551311279296925],[71.81368750000004,33.55118872070334],[71.81336328125016,33.55102172851561],[71.81318749999994,33.55031127929705],[71.8130625000002,33.550063720703335],[71.81293750000017,33.549811279296975],[71.8128125000002,33.54956372070326],[71.81268750000007,33.549311279297],[71.8118320312499,33.548317504882775],[71.80887109375001,33.54818872070318],[71.80868750000005,33.54856372070313],[71.80850781250015,33.54891503906268],[71.80731250000017,33.54906127929692],[71.80681250000018,33.54943872070322],[71.80633593750011,33.54966967773433],[71.80618750000016,33.55046826171869],[71.8063789062501,33.55081127929694],[71.80656250000007,33.55043627929709],[71.8066875000001,33.55018872070319],[71.80681250000018,33.549936279296844],[71.80699218750007,33.54958496093755],[71.80818750000006,33.54943872070322],[71.80868750000005,33.54906127929692],[71.80993750000007,33.54893872070333],[71.81018750000018,33.54881127929684],[71.81107421875006,33.548688720703254],[71.81157031249998,33.54894384765633],[71.81181250000017,33.54943872070322],[71.81218750000008,33.549936279296844],[71.8123125000001,33.550438720703184],[71.81243750000019,33.55068627929698],[71.812640625,33.551099487304796],[71.8134492187501,33.551811279296984],[71.81412500000019,33.55146398925787],[71.81456250000011,33.551688720703225],[71.8150625000001,33.551811279296984],[71.8153125000002,33.551938720703134],[71.81581250000019,33.55206127929698],[71.81606250000007,33.5521887207033],[71.81631250000024,33.55231127929689],[71.81656249999995,33.55243872070311],[71.81781250000009,33.55256127929705],[71.8180625000002,33.55268872070319],[71.81839843750024,33.55285205078137],[71.81856250000018,33.55318872070326],[71.81888281250016,33.55366430664074],[71.81994921875022,33.55381127929709],[71.82043750000005,33.55356127929693],[71.82182421875027,33.55343872070334],[71.82238671875027,33.553728271484474],[71.8225625000002,33.5544387207033],[71.82268750000006,33.55468627929693],[71.82281250000008,33.55543872070318],[71.82303515625014,33.55556127929694],[71.8239101562501,33.55485522460951],[71.82406250000011,33.55393627929695]]]]},"properties":{"id":"29345"}}]}