{"type":"FeatureCollection","features":[{"type":"Feature","geometry":{"type":"MultiPolygon","coordinates":[[[[105.05683224571763,16.563912217881764],[105.05776393890065,16.56219753689213],[105.05849045223349,16.553649902343523],[105.059302707245,16.552155219183703],[105.06160625033593,16.55109781901014],[105.0626310772333,16.549140353732454],[105.06145026736456,16.54859836154496],[105.06052341884728,16.545802951388637],[105.0589939117398,16.5440049913191],[105.05676649305227,16.54401719835039],[105.05580124748766,16.54191406249967],[105.05457552167789,16.54153564453098],[105.05375781164898,16.540891384548374],[105.05465404934014,16.539242078992956],[105.05466281042825,16.536444227430266],[105.05138888888561,16.53194444444422],[105.0507096099823,16.532551269531112],[105.05042447831559,16.533540310329613],[105.05155170440364,16.535154079861044],[105.05150935702542,16.535864529079603],[105.04986892276011,16.536752929687168],[105.05101164923471,16.53822753906222],[105.05092879824835,16.53961751302073],[105.0484644105666,16.5423532443574],[105.04820225609356,16.54295437282964],[105.04953264024189,16.54356499565945],[105.05124218834473,16.546535644531062],[105.05246385785935,16.54811197916642],[105.05375331878335,16.54926405164899],[105.05411602019925,16.551975911458058],[105.0534317270884,16.55295572916644],[105.0515573628712,16.552956271701078],[105.04986892276011,16.5515199110241],[105.04881432850826,16.551035970051743],[105.04679774390016,16.549591200086567],[105.04627106560284,16.549001736110895],[105.04557320488502,16.54904324001707],[105.04513637966252,16.550457899305272],[105.04403480105597,16.55039225260387],[105.04329378551583,16.55122151692686],[105.04378451876855,16.55212456597208],[105.0473367987706,16.553018120659488],[105.05086129506097,16.556797417534582],[105.05304835001297,16.557138129340018],[105.05346441056687,16.557719726562397],[105.05277225494072,16.55899359808994],[105.04801156361586,16.55948974609352],[105.0460527123312,16.558965115017074],[105.0447933705614,16.559039984808763],[105.0443133672047,16.56021972656221],[105.04523257785044,16.561041124131734],[105.0470554818016,16.560932617187234],[105.04818663278903,16.561944986978872],[105.04705957200477,16.56376790364564],[105.04710838741411,16.564587131076067],[105.0483049731753,16.56596435546855],[105.04994964599271,16.56537434895806],[105.04983167436072,16.563394911023963],[105.05116843753072,16.562200520833045],[105.0532323964404,16.563059082031003],[105.05439111921206,16.56242947048578],[105.05576509263457,16.565722927517143],[105.0571215565968,16.5677471245657],[105.05795824262523,16.56849446614561],[105.05929774390015,16.56828423394073],[105.05795970068729,16.566368543836575],[105.05683224571763,16.563912217881764]]]]},"properties":{"id":"10245"}}]}