{"type":"FeatureCollection","features":[{"type":"Feature","geometry":{"type":"MultiPolygon","coordinates":[[[[75.97557766384583,32.101360134548855],[75.97610833062114,32.09971381293427],[75.97526807996988,32.099719238281466],[75.97447699652824,32.093245713975875],[75.97502502441435,32.092181803385586],[75.979197252062,32.088295898437806],[75.97971944173216,32.08721950954876],[75.98251641167573,32.08526123046889],[75.9833361138241,32.082780490451654],[75.98360833062097,32.08110839843765],[75.98592386881538,32.07847601996548],[75.98641167534768,32.075977376302305],[75.98640448676261,32.072706705729345],[75.98723069932791,32.07110270182312],[75.98778049045191,32.07111409505224],[75.98818888346383,32.07027235243076],[75.98976854112445,32.06923665364599],[75.99055935329895,32.070832519531464],[75.99136067708386,32.071663953993365],[75.99166388617672,32.0690017361114],[75.9908305528435,32.066947157118335],[75.99024814181885,32.06436876085091],[75.99022372775644,32.05999159071203],[75.99244235568628,32.058156195746776],[75.9938807508685,32.0588972981773],[75.99444166395429,32.05860839843771],[75.99694722493555,32.05833604600706],[75.99782789442312,32.05803466796888],[76.00169921875053,32.05833875868069],[76.0027608235682,32.05944390190989],[76.00390787760446,32.05971950954883],[76.00462544759145,32.05897271050374],[76.00251620822533,32.05791666666691],[76.00158847385026,32.053336046007246],[76.00309197319908,32.05447699652807],[76.00388610839892,32.05611382378491],[76.00557454427135,32.05638617621547],[76.006746893989,32.05516601562513],[76.0072194417323,32.0541259765627],[76.00658935546946,32.05228488498288],[76.00669657389349,32.05139160156277],[76.00842617458798,32.052282714843884],[76.00898145887655,32.05456054687524],[76.01054409451015,32.05606201171898],[76.01114630805151,32.05730333116337],[76.01109219021302,32.05995551215304],[76.01151780870256,32.06119900173634],[76.01254082573845,32.0616639539933],[76.01488803439716,32.06086046006973],[76.01527499728766,32.06169650607664],[76.01441467285181,32.06340304904536],[76.01445604112442,32.0654305013022],[76.0153417968755,32.06586018880226],[76.01815049913242,32.06878363715296],[76.01907694498729,32.0720681423613],[76.01854444715744,32.07571207682312],[76.01942837185365,32.07742784288213],[76.01974338107678,32.08322129991339],[76.02297648112031,32.08481445312515],[76.02444166395432,32.08808539496546],[76.02381056043887,32.08931043836819],[76.02285651312965,32.09409640842027],[76.0218099636505,32.09510199652799],[76.01944369845953,32.09665337456612],[76.01911119249186,32.09835666232672],[76.01955274793889,32.100512695312744],[76.02065524631124,32.10273084852443],[76.02223164876338,32.100742458767485],[76.02459445529567,32.098472493489794],[76.02553154839453,32.099447699652984],[76.02779479980526,32.09847222222251],[76.02778211805608,32.09687093098975],[76.02975348578613,32.09721869574683],[76.03126247829911,32.09644124348985],[76.03194166395448,32.09471950954875],[76.03307122124599,32.093882107205005],[76.03373270670616,32.092518717448186],[76.03583611382416,32.09222493489594],[76.03612453884583,32.09163058810789],[76.03610717773469,32.09078043619813],[76.03454332139799,32.08927788628493],[76.03557339138482,32.08775824652797],[76.03830946180605,32.08781412760426],[76.03986348470076,32.08585394965293],[76.0415456136071,32.08555826822932],[76.04358581543013,32.08694118923637],[76.044642198351,32.08721950954876],[76.04569030761749,32.08562093098982],[76.04675442165845,32.08490288628505],[76.0472194417321,32.08313368055585],[76.04600280761767,32.08153021918416],[76.04384419759165,32.08066297743082],[76.04388420952748,32.07768798828148],[76.04083055284312,32.076391601562705],[76.04055833604659,32.07596679687536],[76.04171834309946,32.0733360460072],[76.04577067057343,32.07416395399319],[76.04610833062125,32.07275878906265],[76.04518547905852,32.071872016059345],[76.04244812011748,32.071099989149474],[76.04139166937986,32.06859727647584],[76.04301642523913,32.067809244791846],[76.04697007921052,32.06737955729177],[76.04871276855502,32.06632269965313],[76.05171766493092,32.063573947482894],[76.05614908854218,32.06108072916683],[76.05858194987005,32.06113037109402],[76.0603065321184,32.06027615017379],[76.06217007107259,32.05833658854188],[76.06647664388063,32.05781032986124],[76.06751919216615,32.05834743923626],[76.06834472656297,32.06001383463561],[76.06930575900654,32.05999430338558],[76.06999721950982,32.05909206814253],[76.06748026529996,32.056093750000315],[76.06455546061241,32.055121799045395],[76.06544277615055,32.054447157118275],[76.06870897081197,32.05555284288219],[76.06794264051692,32.05331380208348],[76.06566223144566,32.05196017795167],[76.05967054579045,32.05166937934044],[76.05577216254378,32.05249023437523],[76.05221944173226,32.05139160156277],[76.0516694471576,32.05073133680567],[76.05315470377636,32.04975748697939],[76.05166191948817,32.04916856553852],[76.05222710503526,32.04777533637183],[76.0508305528434,32.04750271267389],[76.05055833604652,32.047181532118415],[76.05129001193629,32.04504394531271],[76.05221944173226,32.044573838975836],[76.05083611382415,32.043886176215494],[76.0483305528434,32.04361382378502],[76.04672349717939,32.042785915798945],[76.04424689398903,32.04070692274337],[76.04389166937992,32.04007080078142],[76.04521267361136,32.0370176866321],[76.04778055826873,32.0363916015628],[76.04907769097255,32.03540744357676],[76.0497194417321,32.032774793837035],[76.05238274468368,32.0328293185766],[76.05464626736145,32.03191107855925],[76.05592427571648,32.03104492187519],[76.05668599446668,32.030252007378635],[76.05663703070812,32.027852647569674],[76.05735371907608,32.02505615234388],[76.0598516845707,32.02470730251753],[76.06323425293007,32.022655978732914],[76.06645161946645,32.021290147569715],[76.07581481933622,32.01902560763904],[76.07894666883712,32.01762342664941],[76.08523003472257,32.01934787326415],[76.08698052300397,32.01409396701409],[76.08855773925822,32.012578396267585],[76.08953328450556,32.01126247829886],[76.09004516601615,32.00864040798626],[76.09222500271292,32.00833604600709],[76.09258192274362,32.00796468098977],[76.09305277506562,32.005552842882054],[76.09371317545597,32.00528049045157],[76.09444166395448,32.0063916015627],[76.0952362738719,32.00666395399334],[76.09555277506561,32.00471950954895],[76.09694722493523,32.003891601562785],[76.09721944173205,32.00339680989603],[76.09583055284318,32.00305826822934],[76.09555833604625,32.00107042100721],[76.09890313042584,31.998047417534963],[76.09991082085529,31.99806803385428],[76.10292812771317,31.99921169704882],[76.10876532660629,31.99913791232659],[76.1141694471576,31.999719509548882],[76.11468404134158,32.00025499131981],[76.11864929199263,32.00057834201411],[76.11942782931911,32.0013886176217],[76.1206650119361,32.00166395399336],[76.12139668782604,31.999409179687603],[76.12138312445799,31.998744574652946],[76.12308044433624,31.997921006944694],[76.12559176974892,31.999180230034938],[76.12750244140673,31.99916965060774],[76.12972500271317,31.99861382378495],[76.13168918185838,31.997763943142473],[76.13552083333369,31.997842339409985],[76.13664347330766,31.996673719618386],[76.13783969455355,31.99607503255224],[76.1391595458987,31.994745279948035],[76.14044731987897,31.992090928819636],[76.13938408745688,31.991069335937695],[76.1383305528432,31.990558268229364],[76.13786329481385,31.99007188585081],[76.13949795193187,31.98942708333348],[76.13943847656307,31.986513943142455],[76.13703552246133,31.98775200737856],[76.13500000000059,31.988432074652962],[76.13240627712705,31.98769070095497],[76.12666388617654,31.988330620659937],[76.12207845052123,31.98918348524316],[76.12110270182339,31.98916368272593],[76.12111402723573,31.988608398437606],[76.11221632215737,31.987966851128732],[76.11006788465764,31.98651041666689],[76.1108234998919,31.985043674045315],[76.11278055826872,31.984724934896022],[76.11357869466198,31.98431369357671],[76.11497551812121,31.982429470486267],[76.11299173990918,31.97950303819475],[76.11238179524773,31.97700113932312],[76.11285088433195,31.975630425347376],[76.11461113823819,31.974325629340484],[76.11741075303846,31.973542751736233],[76.11833218044731,31.971643608941207],[76.1235544162329,31.970836046007165],[76.12538540310382,31.972314181857868],[76.12690131293428,31.971533203125247],[76.12722459581218,31.97053683810782],[76.12833190918022,31.96947292751753],[76.12860833062106,31.967775065104377],[76.12921671549529,31.96627495659746],[76.13058078342047,31.96526394314263],[76.13053053114177,31.962801920573085],[76.1311194525828,31.961658528645984],[76.13111429850304,31.960262044271005],[76.13744832356812,31.955670572916958],[76.13791110568607,31.95471679687516],[76.14251363118538,31.95193060980921],[76.14335279676678,31.95194769965289],[76.14619377983999,31.95413981119806],[76.14821112738767,31.95772271050366],[76.14946302625916,31.958347167968952],[76.15028028700138,31.95833034939247],[76.15189622667143,31.958986002604362],[76.1524972195098,31.957874620225965],[76.15017835829022,31.955112304687702],[76.1516764322923,31.953327907986292],[76.15110276964006,31.95221408420153],[76.15111952039987,31.951394314236282],[76.15028055826858,31.949981011284905],[76.15139166937959,31.94889160156265],[76.1516638861768,31.948330620659846],[76.15444722493535,31.945558268229377],[76.15527221679721,31.944300130208504],[76.1561138916019,31.943891601562655],[76.15719692654105,31.942818467882162],[76.1582183159725,31.941440429687674],[76.1599923366974,31.940579969618256],[76.16045647515242,31.93962320963564],[76.16139166937975,31.939169379340427],[76.16333624945796,31.937224934896037],[76.16333041720955,31.936941731771],[76.16444173177118,31.935552842882117],[76.16732991536506,31.933411729600877],[76.17338406033045,31.93108669704887],[76.17498779296929,31.92947265625017],[76.17615614149352,31.92750434027809],[76.17832275390694,31.9248201497399],[76.17860839843789,31.92277506510439],[76.179180365669,31.92136474609393],[76.17916259765659,31.920496148003593],[76.18118476020024,31.918892957899544],[76.18305284288246,31.916108398437686],[76.19006890191,31.909299045139036],[76.19112603081655,31.908605957031426],[76.19166395399347,31.907497287326578],[76.19611382378505,31.90583604600714],[76.19719170464455,31.90510552300381],[76.19831773546039,31.901680772569634],[76.19946207682332,31.90017252604187],[76.19942504882843,31.898357747395934],[76.2007050238719,31.896072319878655],[76.19967610677142,31.894375813802327],[76.20004733615482,31.89256293402802],[76.19916937934082,31.890946180555687],[76.20122612847243,31.88994845920162],[76.20279310438414,31.887834472656422],[76.20275919596398,31.88617024739615],[76.20318901909761,31.884493001302317],[76.20597493489609,31.884152560764065],[76.20878024631125,31.880527072482835],[76.20956746419316,31.878904622395936],[76.21316731770881,31.87846489800374],[76.2161596679691,31.877250976562692],[76.2183360460073,31.876947157118238],[76.22381605360275,31.87548177083349],[76.22999728732671,31.871386176215637],[76.23220079210111,31.870317111545248],[76.23559122721386,31.86775770399322],[76.23652750651095,31.866783040364837],[76.2362500000003,31.865972222222425],[76.2215039062506,31.874814453125197],[76.21722466362903,31.87611409505233],[76.21448893229197,31.87613009982664],[76.21348863389792,31.87578776041684],[76.20791598849874,31.876122504340444],[76.20135457356807,31.876177029080097],[76.20000230577298,31.875830349392658],[76.19835544162376,31.87586398654527],[76.19659261067758,31.87728705512167],[76.1944417317712,31.878330620659924],[76.19216010199685,31.880036078559186],[76.18927829318633,31.881172688802266],[76.1880841742624,31.88055772569463],[76.18661499023463,31.880280490451682],[76.1844841851134,31.882498372396014],[76.18219238281304,31.882775065104312],[76.18139160156275,31.88194173177095],[76.1804460991759,31.88166937934048],[76.17861382378507,31.88278049045151],[76.17605156792584,31.883058810764084],[76.17642795138934,31.884896647135605],[76.17610283745708,31.885846625434297],[76.17611992730073,31.886683213975857],[76.1772249348962,31.887219509548785],[76.17777506510461,31.887926161024424],[76.1753316243493,31.88915147569469],[76.17500094943634,31.890845269097383],[76.17320081922779,31.891718478732912],[76.17366238064281,31.89351969401055],[76.17333062066021,31.894163953993342],[76.17303548177134,31.89687961154533],[76.17333685980933,31.898055826823125],[76.17301120334255,31.89900743272591],[76.17360839843784,31.90169650607649],[76.17236151801242,31.904604763455055],[76.17111382378519,31.90611382378499],[76.17010728624174,31.906773817274455],[76.16867797851606,31.908530544705087],[76.16720526801262,31.9088897026911],[76.16641208224874,31.909715169270996],[76.16578586154563,31.910018988715436],[76.16470798068602,31.909996744791755],[76.16473619249163,31.911380750868176],[76.16438964843783,31.91171386718767],[76.16220818413663,31.912772352430864],[76.16223076714445,31.911663682725845],[76.16178609212292,31.91167263454878],[76.16097764756992,31.91333902994822],[76.16002882215744,31.91331976996554],[76.15802178276945,31.913893771701552],[76.15688347710548,31.914479980468954],[76.15300136990064,31.91445963541682],[76.15084011501787,31.915539822048785],[76.14967169867649,31.91711615668423],[76.14614766438862,31.919353569878766],[76.14416388617653,31.919997287326552],[76.13884724934948,31.923260362413487],[76.13450642903675,31.925071614583516],[76.13034308539554,31.92624593098985],[76.12663248697962,31.926849772135554],[76.11888610839875,31.929163953993253],[76.11638610839893,31.930275065104283],[76.11349772135472,31.93200737847242],[76.11000800238784,31.931936035156454],[76.10916408962723,31.932219238281405],[76.10696248372446,31.933038736979285],[76.10501207139791,31.934148491753675],[76.10361389160212,31.9355582682294],[76.10202087402374,31.936331108941104],[76.10047987196211,31.93580376519118],[76.09869723849883,31.93584011501754],[76.0983361138241,31.938058268229398],[76.09795199924085,31.93880398220503],[76.09586073133713,31.93921223958351],[76.09462015787798,31.938058268229398],[76.09384758843348,31.939236653646105],[76.08722798665409,31.93915256076403],[76.07966681586416,31.942181532118212],[76.07890699598599,31.941390787760753],[76.0779908582904,31.941113823784903],[76.07666944715751,31.942780490451625],[76.07416944715746,31.94333604600706],[76.07041375054294,31.943642306857868],[76.0686632622616,31.943283691406407],[76.06827351888055,31.94168484158],[76.06711893717485,31.942279730902868],[76.06221679687539,31.9422365993926],[76.06166944715736,31.94110839843762],[76.06108913845523,31.94083604600715],[76.06002346462728,31.9430327690976],[76.05885918511316,31.944475097656508],[76.0557416449657,31.944411349826552],[76.05398654513922,31.942584635416864],[76.0472194417321,31.94194715711818],[76.04683356391112,31.941545681423804],[76.04797417534772,31.939863009982858],[76.04663811577726,31.938872612847362],[76.04575622558642,31.937054850260594],[76.04276211208807,31.937777235243274],[76.04145222981802,31.939140353732824],[76.04024115668435,31.94437147352447],[76.03914733886748,31.944719509548833],[76.03819878472271,31.941796061198133],[76.03776930067326,31.941391601562756],[76.03779147677992,31.942475857204997],[76.03721944173222,31.943886176215372],[76.03694722493518,31.9461138237849],[76.03539883083826,31.947497287326755],[76.03356845431912,31.946256510417],[76.03230224609425,31.941669379340425],[76.03122775607696,31.94330837673627],[76.03083611382428,31.9461138237849],[76.03040554470553,31.946527506510662],[76.02974080403695,31.945835774739777],[76.02854661729654,31.945448133680785],[76.02780958387618,31.94392903645847],[76.02555277506562,31.9436138237849],[76.02383660210549,31.942573242187663],[76.0230568440758,31.941383734809193],[76.0225027804909,31.941691351996823],[76.02411688910641,31.944367404514182],[76.02681111653695,31.945966796875226],[76.02833611382428,31.94721950954873],[76.0286083306211,31.948613823785067],[76.02973598904126,31.949464518229377],[76.02971320258294,31.950582139757145],[76.02858635796471,31.951108398437697],[76.02627760145427,31.94954318576417],[76.02532843695778,31.9505311414934],[76.02333055284353,31.95166395399329],[76.02301527235309,31.952635633680757],[76.02113810221388,31.95215440538213],[76.01973788791284,31.95361165364615],[76.01688700358139,31.954285210503627],[76.01541368272595,31.951686469184253],[76.01723639594238,31.951389702691188],[76.0172189670142,31.950533311632228],[76.01530653211844,31.94960557725713],[76.01583624945803,31.94805799696192],[76.0157958306211,31.94608045789947],[76.01465413411509,31.94552652994804],[76.01389166937989,31.944643554687758],[76.01528069390216,31.9436138237849],[76.01527431911924,31.943302680121718],[76.01367506239191,31.941766221788356],[76.0150419786244,31.941085340712036],[76.01498541937983,31.93831380208347],[76.0138666449657,31.9383365885418],[76.01122212727913,31.943616265191096],[76.01056355794324,31.943602701823067],[76.00981092664969,31.9439906141495],[76.01037821451874,31.944535590277994],[76.00864617241805,31.947897677951673],[76.00815049913226,31.94993109809043],[76.0086602783206,31.950920681423753],[76.00701232910185,31.950498318142692],[76.0066694471574,31.949441731771145],[76.006108330621,31.94916937934049],[76.00555833604645,31.948184950086997],[76.00662211100305,31.947668728298837],[76.00706549750467,31.9461138237849],[76.00483662923207,31.94762478298638],[76.00359246148051,31.946329752604342],[76.00361524793871,31.94521267361131],[76.00619717068187,31.944708658854267],[76.00666388617665,31.942747938368285],[76.00583611382407,31.941081271701563],[76.00661573622014,31.939567871093985],[76.00494676378085,31.935453287760552],[76.0035002305776,31.9344471571182],[76.00278055826854,31.935601671007134],[76.00385884602898,31.93769504123283],[76.00581495497019,31.940025227864837],[76.00415866428008,31.939991319444673],[76.00360290527388,31.94056966145851],[76.00361423068605,31.941124945746665],[76.00546854654985,31.94204698350711],[76.0049486626522,31.94407552083358],[76.0006386311853,31.94358588324684],[76.00028055826866,31.941386176215474],[75.99970852322079,31.941113823784903],[75.99903320312555,31.942505696614788],[75.99860256618976,31.94249701605922],[75.99861687554281,31.94403320312513],[75.9994989691846,31.94357883029528],[75.99943949381563,31.946491699219038],[75.99793477376343,31.946979980468868],[75.99610385470945,31.946604817708632],[75.9961143663198,31.946091579861303],[75.99694756401951,31.94529106987865],[75.99693684895877,31.944765353732834],[75.99415134006111,31.943111707899504],[75.99417500813846,31.94195285373283],[75.99389404296917,31.941391601562756],[75.99250278049098,31.943435329861444],[75.99403116862013,31.943931477864837],[75.99305087619413,31.945834147135685],[75.99334757487017,31.946119249132096],[75.9938914659293,31.946108127170334],[75.99643595377634,31.947651367187632],[75.99609219021298,31.94865559895861],[75.99611409505243,31.949730631510562],[75.99694410536083,31.949713812934164],[75.99721944173203,31.950214301215567],[75.9955371093753,31.950624186198056],[75.99554687500043,31.952230360243192],[75.99621459960989,31.952871636284883],[75.99694166395446,31.952497287326565],[76.00029758029572,31.951669921875222],[76.0002705213765,31.95299370659741],[75.99753200954919,31.9561067708335],[75.99610392252649,31.956454806857934],[75.99611945258292,31.95721408420161],[75.99573642306885,31.95795762803833],[75.99404771592933,31.958330620659922],[75.99292426215302,31.956437988281365],[75.99164767795187,31.955836046007292],[75.99084153917127,31.956675075955033],[75.98896138509181,31.955836046007292],[75.98861389160206,31.957092827691255],[75.99000834147162,31.95776936848975],[75.99110833062113,31.95890787760439],[75.99030368381128,31.959680989583532],[75.98814114040837,31.959997287326544],[75.9877805582685,31.95888617621543],[75.98719231499618,31.95805826822935],[75.98584710015214,31.959458550347435],[75.98497823079461,31.95886935763903],[75.9825815836592,31.9589184570315],[75.98136711968365,31.95974175347247],[75.97947360568608,31.959702962239675],[75.97830769856827,31.960587836371772],[75.97750278049094,31.95874050564258],[75.97852315266951,31.95824544270856],[75.97888610839871,31.95749728732656],[75.97954861111143,31.956860622829964],[75.97886928982243,31.955541992187776],[75.97889180501338,31.95444200303841],[75.97832465277807,31.952785101996625],[75.97832119411927,31.949543457031453],[75.97677096896732,31.948613823785067],[75.97738864474857,31.951629503038404],[75.97560472276527,31.952064344618222],[75.97722513834688,31.955553114149524],[75.9772149658207,31.95604871961828],[75.97545355902801,31.956478135850816],[75.97500278049094,31.957648383246777],[75.97610833062114,31.95824788411474],[75.97499721950985,31.958608398437676],[75.97458333333375,31.959039171007106],[75.9737131754562,31.958133409288422],[75.97271274142818,31.95864881727448],[75.97309916178418,31.96015652126752],[75.97483886718803,31.96058051215303],[75.97574055989631,31.96195583767387],[75.97366278754365,31.96349609375015],[75.97321614583402,31.964416775173788],[75.97164767795167,31.964719509548786],[75.96929511176253,31.96274386935778],[75.96610833062132,31.96222493489607],[75.965555555556,31.961940104166843],[75.96500000000029,31.962226562500163],[75.96375813802135,31.961586642795382],[75.96218777126765,31.962229817708447],[75.96058709038655,31.963842230903055],[75.9585921223962,31.96416395399318],[75.95769402398057,31.963229166666878],[75.95347737630263,31.965561252170346],[75.94887478298662,31.965837944878643],[75.94889736599444,31.966944444444565],[75.94810784233974,31.967327473958548],[75.94756788465762,31.96899142795162],[75.94807393391957,31.971462131076564],[75.94805270724854,31.973890787760766],[75.94835673014384,31.976567654080128],[75.95004082573823,31.977775065104353],[75.95186618381118,31.977150336371693],[75.95416388617653,31.97724121093779],[75.95304334852497,31.978317871093935],[75.9534337700741,31.979075520833504],[75.95276075575114,31.979722222222392],[75.95360833062094,31.980603569878753],[75.95055833604633,31.980585394965445],[75.95111470540402,31.98166558159741],[75.95082980685797,31.98305636935774],[75.9510310872399,31.98360839843771],[75.95210767957943,31.98196614583358],[75.9550185818147,31.981327311198072],[75.9550063747835,31.979826117621784],[75.95725863986601,31.97938639322942],[75.9586083306211,31.978186848958572],[75.95613817003087,31.977366536458504],[75.9581071641716,31.976197645399537],[75.96124003092498,31.97726996527794],[75.9616638861767,31.979458279080106],[75.96054199218779,31.980002441406427],[75.95999287923232,31.981134168836945],[75.95912448459259,31.981994086371728],[75.95947835286509,31.984068467882196],[75.96037021213138,31.984719509548825],[75.9611083306211,31.983848198784926],[75.96050916883709,31.982097710503666],[75.96243930392839,31.981161295573273],[75.9628108045795,31.97925808376752],[75.96278449164546,31.976752929687777],[75.96757290310373,31.977507052951523],[75.96888760036947,31.977480197482834],[75.96916388617657,31.97864095052097],[75.96805914984847,31.979702419705077],[75.9677805582688,31.980444335937705],[75.96964402940583,31.98083062065986],[75.97133524576853,31.979547254774474],[75.97242601182771,31.980109320746905],[75.97138610839889,31.981108398437627],[75.9705164930559,31.983507758246674],[75.97082485622886,31.98499728732658],[75.97112514919738,31.985285915798997],[75.97109856499614,31.986585828993228],[75.96998101128523,31.986941731771054],[75.9691746690543,31.986102430555775],[75.96779954698403,31.986130642361374],[75.96685255262625,31.98548855251751],[75.96351555718368,31.98751220703133],[75.96245992024771,31.987490776909837],[75.96085191514814,31.989164225260566],[75.9599972195098,31.989441731770967],[75.95886386447515,31.990301649305835],[75.95889736599443,31.991944444444783],[75.95693684895858,31.993064507378648],[75.95629787868981,31.992399631076538],[75.95443773057772,31.993144259982813],[75.95444769965323,31.993633355034916],[75.95640557183211,31.994583062066155],[75.9572304280604,31.99415825737873],[75.9582225206166,31.995190700954964],[75.95865865071656,31.993401963975884],[75.95975212944907,31.993058268229362],[75.96082533094656,31.994175347222395],[75.96139729817739,31.99416368272601],[75.96139261881538,31.99301188151054],[75.962071329753,31.991029188368245],[75.96319986979219,31.99138319227444],[75.96270202636774,31.99041666666689],[75.96305847168023,31.989724663628635],[75.96308546278246,31.988613823784974],[75.96440558539544,31.989293891059205],[75.9654413519971,31.992689073350874],[75.96439934624598,31.99422634548624],[75.96355075412382,31.99504177517383],[75.96231018066456,31.995643446180708],[75.96193732367672,31.996411946614757],[75.96062737358974,31.997670627170365],[75.9601881239154,31.999920789930655],[75.95971781412791,32.00083360460091],[75.96040669759165,32.001850043402925],[75.96194722493536,32.00028049045159],[75.9622236463762,31.99858262803835],[75.96326646592914,31.997580566406356],[75.96542310926682,31.99686523437515],[75.96610833062132,31.99725206163214],[75.96473937988313,31.998567437066043],[75.96543450249598,31.99944173177103],[75.96684271918437,31.998487141927328],[75.9672612847227,31.99677001953141],[75.966569892036,31.99474989149323],[75.96806952582509,31.994155273437627],[75.96805263943176,31.99333062065992],[75.9695324028867,31.99119900173642],[75.97030273437534,31.990825466580006],[75.97099168565572,31.990839301215587],[75.97223056369396,31.993341471354313],[75.9722014024525,31.99476942274326],[75.97123189290394,31.995700954861462],[75.97169657389375,31.99610839843767],[75.97309909396725,31.995559353298816],[75.9750177001957,31.99621609158008],[75.97502739800379,31.99925889756956],[75.97360833062098,31.999719509548882],[75.97328104654994,32.00072808159733],[75.97220553927983,32.00124972873277],[75.97085164388048,32.00055230034734],[75.96889668782583,32.000592176649505],[75.9677805582688,32.00160970052097],[75.97083624945796,32.001941731771026],[75.97083645290846,32.00362521701406],[75.9724670410159,32.0035918511288],[75.97499721950985,32.002497287326634],[75.97628682454459,32.00222493489606],[75.97666388617674,32.00320393880227],[75.97553649902378,32.003751085069595],[75.97331366645014,32.0069639756946],[75.97083611382405,32.00697428385435],[75.97194166395425,32.00808539496538],[75.97083333333373,32.010286187066214],[75.96731831868513,32.01021457248288],[75.96639166938004,32.01104654947942],[75.96917215983106,32.011386447482934],[75.96849324544294,32.01270426432322],[75.9663861083989,32.013886176215394],[75.96500278049078,32.015002712673976],[75.96332227918876,32.01527506510436],[75.96249152289542,32.01249159071213],[75.96111246744843,32.012519802517474],[75.96053276909751,32.01049994574666],[75.95883734809061,32.01084716796892],[75.95750278049096,32.00916395399325],[75.95587517632427,32.00889160156268],[75.95779066297771,32.01117350260432],[75.95778089735299,32.01279188368085],[75.95916666666696,32.01276367187516],[75.9596982828779,32.01494439019122],[75.96139166937976,32.01527506510436],[75.96167487250463,32.015569661458514],[75.96166992187531,32.016408691406525],[75.96628702799532,32.015799967448075],[75.96831041124167,32.015841471354264],[75.97009243435357,32.015476345486405],[75.9741733805345,32.01185818142383],[75.97414740668441,32.01058485243074],[75.97498786078617,32.00888834635431],[75.97613627115922,32.00861382378484],[75.97721944173227,32.00976833767395],[75.97611592610704,32.01191053602449],[75.97554897732235,32.01389729817723],[75.97461941189292,32.013893771701504],[75.9733361138241,32.01750271267379],[75.97237508138082,32.018769259982776],[75.97159966362895,32.02073513454884],[75.97066040039093,32.0211908637156],[75.97028055826897,32.02187988281267],[75.97362955729196,32.02228922526069],[75.97360785590311,32.0233531358509],[75.97221421983559,32.02332465277793],[75.97070977105082,32.024824490017664],[75.97139166937964,32.02583062065993],[75.97166388617651,32.02669650607673],[75.9692295328779,32.02903537326412],[75.97002258300816,32.030574815538486],[75.97127278645891,32.030549316406436],[75.97250549316433,32.02971381293425],[75.97515523274782,32.029767795138994],[75.97689670138945,32.02917182074667],[75.97721944173227,32.030895996093975],[75.97632581922792,32.033506673177286],[75.9733256022138,32.033925509982794],[75.97334269205763,32.03476481119816],[75.97416388617674,32.03694715711822],[75.97445814344658,32.037497287326545],[75.97538119845947,32.0355946180557],[75.97685146755677,32.03523627387169],[75.97839986165425,32.03586425781262],[75.97888610839871,32.036418728298855],[75.97777465820346,32.03748670789943],[75.97778679741825,32.03808051215303],[75.9794661458337,32.038895399305716],[75.97752305772613,32.040762261285025],[75.98097778320337,32.041244574652936],[75.98305833604635,32.04194173177102],[75.98363118489632,32.04336398654533],[75.98528618706646,32.04333034939262],[75.9852673339847,32.04240668402798],[75.98677008734856,32.041421440972485],[75.98445631239198,32.039507378472436],[75.98361389160195,32.03666395399327],[75.9828149414067,32.035485297309194],[75.98250278049076,32.03388617621552],[75.98082533094649,32.03164171006969],[75.98027384440152,32.02861056857651],[75.98070285373316,32.02777777777797],[75.98027486165412,32.02694688585089],[75.97999179416283,32.02554226345498],[75.98003126356375,32.02360758463551],[75.97970798068619,32.02361436631962],[75.97969095865929,32.02082980685786],[75.98038126627657,32.02082845052095],[75.98124586317314,32.019509819878664],[75.98296291775213,32.018676757812756],[75.98333055284328,32.016293674045286],[75.9826874457469,32.011261935764054],[75.98351182725722,32.00966172960092],[75.98249152289546,32.0091666666668],[75.98247138129389,32.00540364583347],[75.98137566460551,32.003596733941094],[75.982236463759,32.00276963975719],[75.98293660481832,32.002783745659954],[75.98218614366343,32.00132703993066],[75.98111090766102,32.000294053819616],[75.98083611382427,31.99886990017376],[75.9814088948572,31.99831949869825],[75.9822333441845,31.998336317274465],[75.98277642144146,32.000563964843906],[75.98363057454472,32.00055881076416],[75.98497721354207,32.00196044921897],[75.98578335232261,32.00154513888903],[75.98500278049076,31.999719509548882],[75.98443576388942,31.999174804687655],[75.98444742838572,31.998602701823117],[75.98580417209226,31.99863037109398],[75.98639723036072,31.99832492404535],[75.98638576931447,31.99776367187519],[75.98386420355953,31.997491590712087],[75.98304755316875,31.99580837673642],[75.98306145562108,31.995127766927197],[75.98435295952723,31.994501139323162],[75.98284491645003,31.99401177300379],[75.9833471001522,31.99303683810777],[75.98333034939279,31.992213812934253],[75.98235568576442,31.9922165256078],[75.98295416937961,31.99105468750021],[75.98388705783444,31.991535101996746],[75.98681918674075,31.990799696180858],[75.98891391330326,31.990842285156404],[75.98966729058199,31.99162651909748],[75.98720262315581,31.992232801649564],[75.98722520616374,31.993341742621766],[75.98808125813841,31.99332438151073],[75.9880628119578,31.995492892795312],[75.99000108506996,31.994996202257283],[75.99055277506542,31.99531846788213],[75.98916354709266,31.99665337456625],[75.98916978624166,31.99695855034743],[75.99000271267394,31.996941460503763],[75.99027499728786,31.99741102430582],[75.98784023708814,32.002736273871676],[75.98663811577748,32.003627387152974],[75.98513047960094,32.0066666666669],[75.98555833604635,32.00749728732653],[75.98605319552976,32.009527180989735],[75.98470859103784,32.01113878038224],[75.98473727756121,32.01254177517379],[75.98624525282148,32.01399061414952],[75.98669047037802,32.01536241319472],[75.98664306640657,32.017683648003796],[75.98836412217909,32.018353407118184],[75.98833041720954,32.02000271267379],[75.98972934299096,32.022245279948066],[75.99042521158881,32.02291395399344],[75.9908305528435,32.0241824001738],[75.98910502115925,32.0253135850696],[75.98830152723556,32.026149902343874],[75.98836324056023,32.02666395399321],[75.98984110514377,32.02590250651072],[75.99055277506542,32.02668565538217],[75.98980387369843,32.027405327691014],[75.9904739040804,32.02870578342025],[75.98961134168891,32.029565429687665],[75.99051086425831,32.03089246961824],[75.98985555013073,32.03152235243081],[75.98887518988747,32.03419080946206],[75.9889190673833,32.03633843315987],[75.98833611382409,32.037656792534875],[75.98916958279128,32.03888617621543],[75.98915289984845,32.03970350477465],[75.98956258138068,32.04049886067722],[75.98833055284334,32.044719509548955],[75.9877666558165,32.04810167100713],[75.98677944607252,32.049997287326605],[75.98472500271325,32.049163953993244],[75.98252414279565,32.04889160156277],[75.98166944715749,32.05043457031269],[75.98273756239186,32.0520103624135],[75.98184095594652,32.052871636284834],[75.97955376519153,32.051693522135665],[75.9788154432512,32.05321560329881],[75.97736111111143,32.05211181640644],[75.97583570692322,32.05250298394115],[75.97523505316875,32.05249050564258],[75.97383456760016,32.05176920572937],[75.97226250542568,32.05230712890648],[75.97083570692305,32.05194146050363],[75.96977166069914,32.05196316189259],[75.96944369845951,32.055316569010614],[75.96805243598115,32.05665337456611],[75.96806138780406,32.057091742621665],[75.96981038411488,32.057518174913454],[75.97317843967065,32.057449273003584],[75.97433064778696,32.05685574001754],[75.97802232530412,32.05732774522588],[75.97698906792598,32.05933322482666],[75.97555277506544,32.060275065104335],[75.9752695719404,32.06056966145859],[75.97528625488306,32.061387532552374],[75.97395473904132,32.06237440321196],[75.97446946885876,32.06337375217048],[75.9751004367408,32.06398003472255],[75.97437513563406,32.06542914496555],[75.97504625108544,32.06677056206624],[75.9749700927737,32.06805284288217],[75.97361002604194,32.06735215928845],[75.97164028591627,32.06884684244808],[75.97167738172774,32.070662706163475],[75.97278055826851,32.07138617621561],[75.97305277506544,32.071823459201696],[75.97221381293448,32.07306098090308],[75.97221774631132,32.07480143229186],[75.97027499728787,32.07527506510448],[75.97000278049077,32.07560167100716],[75.97139180501355,32.07833089192735],[75.97061448839005,32.080138888889095],[75.97139729817732,32.08165852864606],[75.97109130859408,32.08225233289947],[75.96862772623749,32.08344753689259],[75.9683361138245,32.0858631727434],[75.96930263943179,32.088208007812895],[75.96887485080325,32.08861924913211],[75.968884752062,32.09006537543438],[75.96776930067304,32.092230360243406],[75.96861423068614,32.09304226345509],[75.96860188802125,32.09364718967025],[75.96666944715761,32.09571234809053],[75.96861402723553,32.09888617621546],[75.96859734429304,32.10025906033012],[75.96972642686663,32.10305555555573],[75.96916944715761,32.10472493489618],[75.96750278049078,32.10695827907999],[75.96866970486158,32.107524414062624],[75.9710323757599,32.10747612847243],[75.97152737087717,32.105950792101],[75.97222513834683,32.10528049045152],[75.97294996473553,32.10391954210097],[75.97557766384583,32.101360134548855]],[[76.00905300564264,31.99775743272599],[76.00798977322094,31.996523437500258],[76.0066496446403,31.995560980902994],[76.00734856499602,31.993901638455014],[76.00615308973553,31.99287163628489],[76.00498060438397,31.991108669705056],[76.00554524739633,31.990515136718997],[76.00332302517401,31.990010308159953],[76.00165635850746,31.98751030815997],[76.0013991970491,31.986178114149396],[76.0040034993493,31.985295410156468],[76.00625000000068,31.984861111111385],[76.00795952691001,31.986845431857773],[76.00922892252632,31.98722764756957],[76.00995978461404,31.988075900607953],[76.01098843044755,31.990381130642717],[76.00941670735702,31.99257107204889],[76.00948289659343,31.993395182291792],[76.0114581977002,31.994276801215605],[76.01137193467926,31.995350206163465],[76.01052456326002,31.99608018663207],[76.009996744792,31.99783338758698],[76.00905300564264,31.99775743272599]],[[76.00200758192304,31.984541558159904],[76.00189195421049,31.985126953125217],[76.00088053385448,31.98492702908007],[76.00057847764796,31.98414388020845],[75.9994279649525,31.98370008680571],[75.99736111111164,31.98410834418428],[75.99566406250031,31.983773057725955],[75.99586317274336,31.982765842014047],[75.99847222222277,31.982638888889056],[76.00041097005251,31.983166232639064],[76.00200758192304,31.984541558159904]]]]},"properties":{"id":"315"}}]}