{"type":"FeatureCollection","features":[{"type":"Feature","geometry":{"type":"MultiPolygon","coordinates":[[[[79.77462348090276,23.70216118706645],[79.77557671440994,23.70164306640666],[79.77665310329863,23.701707221137696],[79.7769368489584,23.701270073785153],[79.77352159288196,23.700174560547254],[79.77163682725714,23.698571234809563],[79.76995117187519,23.698050808377133],[79.76853461371527,23.696335449219205],[79.76670301649304,23.696444634331982],[79.7622298177084,23.69415879991371],[79.76110351562525,23.693896755642797],[79.76010525173618,23.69319973415844],[79.75635579427089,23.692078857422487],[79.75643554687522,23.690742051866806],[79.75472222222223,23.68921129014801],[79.75252983940979,23.689798448351127],[79.7510704210072,23.689711507161945],[79.7511295572917,23.68871880425408],[79.75223958333336,23.6882092285162],[79.75215223524319,23.68673800998316],[79.75361870659745,23.686396755642903],[79.75415907118062,23.68603312174524],[79.7522146267361,23.685285644531703],[79.75166666666698,23.68467258029561],[79.75039171006969,23.685965033637743],[79.74860351562526,23.686381022135876],[79.74744845920159,23.687769911024745],[79.74689127604174,23.68714586046046],[79.7469558376736,23.686056450738292],[79.74750759548621,23.685563422309457],[79.74777018229176,23.684641248915455],[79.7461338975697,23.683031141493487],[79.74524197048615,23.683515760634037],[79.74415147569451,23.682753906250454],[79.74209581163214,23.68274536132853],[79.74180555555554,23.68180555555604],[79.7413899739586,23.68309217664971],[79.7411187065974,23.68221435546924],[79.73894042968763,23.681807725694867],[79.7380555555558,23.68307210286511],[79.7375580512153,23.682515190972694],[79.7367296006947,23.682135009766256],[79.73620334201397,23.682724473741757],[79.73584092881984,23.683896755642905],[79.7352690972223,23.684715576172252],[79.73529622395844,23.685170084635914],[79.736674262153,23.686103244358122],[79.73693684895855,23.68834120008738],[79.73762803819474,23.689330783420615],[79.73926812065994,23.688742133246947],[79.73971462673634,23.68776909722257],[79.74030110677089,23.68780395507855],[79.7402501085069,23.693935818142876],[79.7390332031251,23.6944943576394],[79.73752115885426,23.69440429687539],[79.7371175130211,23.69485582139815],[79.73661241319448,23.697562391493562],[79.73672037760431,23.699375813802504],[79.7383528645835,23.700124918620233],[79.74222981770836,23.698618977865024],[79.74258572048635,23.698220621745207],[79.74316840277802,23.6969514973963],[79.74264648437511,23.69549709743974],[79.74306315104187,23.694730088976158],[79.74359429253471,23.69188693576436],[79.74388020833331,23.688881835937963],[79.7442182074657,23.688618977865048],[79.74542860243062,23.689812689887617],[79.7480631510418,23.69082546658035],[79.74943684895865,23.691674533420652],[79.75500759548626,23.693603244358187],[79.75535753038227,23.694735243055987],[79.75618977864607,23.69592719184064],[79.75861870659756,23.69500786675391],[79.75935709635442,23.694181857639293],[79.76208496093753,23.69516072591196],[79.76306803385424,23.696706678602794],[79.76630371093782,23.698323025174048],[79.76828396267385,23.698783908420552],[79.76893825954866,23.699516059028156],[79.77148003472226,23.6993645562072],[79.77304796006953,23.701118977865022],[79.77393771701409,23.701393636068232],[79.77462348090276,23.70216118706645]]]]},"properties":{"id":"4996"}}]}