{"type":"FeatureCollection","features":[{"type":"Feature","geometry":{"type":"MultiPolygon","coordinates":[[[[103.21059950086507,18.234652370877114],[103.2134483506915,18.23299669053877],[103.2155555555527,18.232827419705245],[103.21858425563934,18.233070746528114],[103.22042697482325,18.232371419271217],[103.22094129774021,18.23177463107679],[103.22358723958021,18.230426974826727],[103.22429199218439,18.231263156467463],[103.22560356987557,18.234202202691364],[103.22766981336505,18.237607964410145],[103.22840304904221,18.239250895182636],[103.2298347981741,18.24004964192747],[103.229927842879,18.238892957899807],[103.22925211588242,18.237053358290353],[103.22934054904206,18.235952419705356],[103.2271175130177,18.229035101996857],[103.22690104166381,18.22634412977473],[103.22758192274014,18.22408338758723],[103.22820475260116,18.2232047526046],[103.22857883029238,18.221962754991665],[103.2326416015596,18.21962687174519],[103.234017469615,18.21556016710113],[103.2334657118025,18.214038085937887],[103.23290635850404,18.214850802951844],[103.2325306532089,18.216098904080255],[103.23057725694153,18.21762858072951],[103.22905815971936,18.217323947483052],[103.22897596570866,18.216298285590753],[103.23008409287903,18.21473524305597],[103.23065511067412,18.212649197049018],[103.22929524739268,18.212906358507368],[103.22879475911171,18.214568549262538],[103.2283433702228,18.214604899088968],[103.22713812933719,18.212905002170544],[103.22707302517071,18.21209364149341],[103.22649983723656,18.212078314887563],[103.22348849826105,18.214240587022942],[103.22327094183723,18.2169510904952],[103.22413167317401,18.22009629991362],[103.22401611327822,18.221534423828416],[103.22453043619518,18.22293484158031],[103.22357530381649,18.225075276693104],[103.21971218532687,18.226890733507403],[103.21809760199349,18.227376844618504],[103.2161737738684,18.228740776910143],[103.21346191405954,18.229017469618455],[103.21221516926786,18.232334798177504],[103.21123969183722,18.232628580729468],[103.20946506076083,18.234096408420598],[103.20721652560454,18.233915744358043],[103.20354220919839,18.23672471788241],[103.2001285807261,18.23707302517394],[103.19782389322623,18.237643636068043],[103.19600070529228,18.23878553602485],[103.19487141926797,18.240809461806137],[103.19587890624697,18.24496324327292],[103.19697265624697,18.24670952691025],[103.19944417317404,18.248461914062887],[103.2003686523407,18.248124728733004],[103.20096191405966,18.24679524739625],[103.20383138020551,18.24298828125046],[103.20749999999728,18.242983669705183],[103.20820692274029,18.241399332682803],[103.20931586371225,18.240704752604557],[103.21080078124695,18.2371553548182],[103.21059950086507,18.234652370877114]]]]},"properties":{"id":"10145"}}]}