{"type":"FeatureCollection","features":[{"type":"Feature","geometry":{"type":"MultiPolygon","coordinates":[[[[78.96387641059036,23.404810112847656],[78.96347222222224,23.404305555556064],[78.9626250542535,23.40454779730939],[78.96052761501753,23.406022135417075],[78.95965983072935,23.407842610677662],[78.96136311848969,23.40903984917587],[78.96212320963556,23.41109578450566],[78.96277669270833,23.409657253689687],[78.96688910590288,23.407588840061223],[78.96747531467017,23.40606350368961],[78.96591986762147,23.40481933593786],[78.96387641059036,23.404810112847656]]]]},"properties":{"id":"19732"}}]}