{"type":"FeatureCollection","features":[{"type":"Feature","geometry":{"type":"MultiPolygon","coordinates":[[[[81.33057006835915,25.178056640625343],[81.33041666666654,25.17763888888929],[81.3296595594617,25.177777235243482],[81.32763264973951,25.18063585069477],[81.32601440429679,25.183386501736635],[81.32647026909703,25.18462727864639],[81.32505140516471,25.185054796007364],[81.32488850911463,25.187082248264204],[81.3285510253904,25.187578667535234],[81.32915635850694,25.18649414062544],[81.32884263780355,25.185336371528223],[81.32723253038179,25.184618055556015],[81.32748969184004,25.18332302517406],[81.32928398980013,25.180874023437894],[81.33057006835915,25.178056640625343]]]]},"properties":{"id":"19077"}}]}