{"type":"FeatureCollection","features":[{"type":"Feature","geometry":{"type":"MultiPolygon","coordinates":[[[[69.22888346354196,34.13956895616329],[69.2271907552088,34.139165717230995],[69.2268055555559,34.13875000000023],[69.22540527343781,34.13925428602445],[69.22173041449688,34.13910861545152],[69.22051920572963,34.139749484592116],[69.21997531467068,34.14090237087686],[69.22001030816031,34.14178717719193],[69.22756917317739,34.14070990668411],[69.22888346354196,34.13956895616329]]]]},"properties":{"id":"16697"}}]}