{"type":"FeatureCollection","features":[{"type":"Feature","geometry":{"type":"MultiPolygon","coordinates":[[[[79.46335259331599,24.970927541521505],[79.46424750434048,24.9705633672084],[79.46533420138891,24.971153793335503],[79.4677270507814,24.970789794922396],[79.47090250651078,24.97112708833542],[79.47138102213543,24.970494978163572],[79.46917209201396,24.969481137594116],[79.46874023437502,24.968540250990742],[79.46946804470511,24.967201033698743],[79.46942301432293,24.96644749959367],[79.46681911892361,24.966118922763926],[79.46479953342035,24.967216356066032],[79.46445231119819,24.96834114498617],[79.46300428602436,24.968603299459318],[79.46244737413193,24.967980024550215],[79.46278808593755,24.966384824117668],[79.46223171657985,24.96556336720832],[79.45973008897593,24.967785589430733],[79.45908582899304,24.968047743903796],[79.45793592664958,24.96742296006998],[79.45806613498283,24.965237024095885],[79.46017523871532,24.965362722609257],[79.46113416883682,24.964692827861043],[79.46109890407988,24.964102452596634],[79.45803955078125,24.962224998474696],[79.45910481770838,24.960850249397012],[79.4587500000001,24.959861111111593],[79.45811333550367,24.960057724847374],[79.45778564453147,24.961118922763944],[79.45721435546889,24.961381077237178],[79.45695231119802,24.96230316586015],[79.45751356336805,24.963336037530297],[79.45672498914936,24.964040650262277],[79.45599229600694,24.962785589430567],[79.45556342230904,24.96417447831945],[79.45488959418427,24.96471441057045],[79.45281249999996,24.963969196743975],[79.45111897786458,24.964247610304625],[79.45172010633709,24.965353876750186],[79.45157280815968,24.967823727926117],[79.45249213324658,24.971118922764006],[79.45325303819462,24.972208076053874],[79.45861680772592,24.972491389381076],[79.45952365451396,24.972816840278412],[79.46021972656266,24.973595905304506],[79.46122205946202,24.974055845473032],[79.46173149956607,24.975166187286987],[79.46350314670147,24.976197571225242],[79.46415879991329,24.975752387577174],[79.46316134982638,24.97486111111165],[79.46420871310764,24.97392527050495],[79.46324788411474,24.97268528196608],[79.46335259331599,24.970927541521505]]]]},"properties":{"id":"9517"}}]}