{"type":"FeatureCollection","features":[{"type":"Feature","geometry":{"type":"MultiPolygon","coordinates":[[[[104.46048041449356,16.980101453993313],[104.46208062065679,16.976156412760687],[104.46168809678525,16.97348388671898],[104.46015299478896,16.973486056858064],[104.45915961371256,16.972020941840583],[104.45805555555282,16.969722222222643],[104.45641764322644,16.97026123046912],[104.45545925563934,16.97174289279546],[104.45167453341722,16.975830078125284],[104.45338189018813,16.97690646701416],[104.4561463758653,16.97744601779536],[104.45667507595189,16.978472222222578],[104.455850965709,16.980072157118528],[104.45652506510137,16.980419379340603],[104.45836859808739,16.980779351128717],[104.4592862955702,16.98262478298645],[104.46084716796597,16.983428819444754],[104.46131103515339,16.982528483073253],[104.46048041449356,16.980101453993313]],[[104.45822102864324,16.974587131076717],[104.45944444444169,16.9744444444447],[104.46033501518818,16.976312391493295],[104.45944498697614,16.976782769097625],[104.45793945312201,16.976012098524663],[104.45822102864324,16.974587131076717]]]]},"properties":{"id":"22042"}}]}