{"type":"FeatureCollection","features":[{"type":"Feature","geometry":{"type":"MultiPolygon","coordinates":[[[[105.16919609917429,12.59791937934061],[105.16817314995544,12.59550971137189],[105.16641267564447,12.593468424479568],[105.16643425835403,12.5924112955732],[105.16731448703209,12.588498263889377],[105.16724950154506,12.585313856337152],[105.16532146877594,12.584688313802403],[105.16503499348838,12.582636176215601],[105.1638446383993,12.580673285590635],[105.16309054904409,12.578709309896283],[105.16372833251839,12.576845974392796],[105.16309124416645,12.57399658203154],[105.16365759955383,12.57289713541708],[105.16528588188893,12.572930230035055],[105.16892562866079,12.571807996962178],[105.16878221299774,12.571388888889231],[105.16641832139632,12.57152506510451],[105.1652713860395,12.571818847656573],[105.16120307074519,12.571829969618406],[105.15907199435631,12.572694227430844],[105.15751966688234,12.572162814670463],[105.15753858778092,12.573090549045475],[105.15967976887899,12.573508572048894],[105.16019122653435,12.575084635416971],[105.1624159918878,12.577222222222574],[105.16167931450624,12.577929958767854],[105.16173000759417,12.580413953993542],[105.1607096523696,12.581394314236391],[105.16225165472977,12.583073459201785],[105.16140170627054,12.584327256944832],[105.1614149644627,12.585856119791998],[105.16057749430226,12.587091742621823],[105.16002376980114,12.587080349392622],[105.1600508456747,12.585753580729516],[105.15964981078977,12.584188639323358],[105.15870257907315,12.583278537326663],[105.15680296156032,12.584720052083739],[105.15559578789495,12.583463541667044],[105.1550009663886,12.583475748698248],[105.15334654066189,12.584302842882323],[105.15229644775278,12.583209906684331],[105.15166897243816,12.582919379340737],[105.15086832682167,12.583752712673999],[105.14999777899712,12.584035373264228],[105.14897759331475,12.585097113715605],[105.14975884331486,12.58624972873291],[105.14940090603184,12.586944444444711],[105.14985602484697,12.587827962239984],[105.15125981648626,12.586421169705162],[105.15312155829403,12.585967339409962],[105.155244717067,12.584873589409966],[105.15728434244679,12.586247287326799],[105.15867577446696,12.584798990885716],[105.15862111409368,12.58747694227462],[105.15991117689205,12.588191731771289],[105.16116512722326,12.58734157986143],[105.1620722961413,12.58547173394129],[105.16309629652105,12.588227539062899],[105.16420166015527,12.589858398437826],[105.16447387695186,12.590851236979432],[105.16364054361841,12.592080620660155],[105.16336832682165,12.592962782118349],[105.16447387695186,12.59515272352479],[105.16328196207573,12.595730794271262],[105.16225721571081,12.597444932726077],[105.16338455200062,12.59846950954902],[105.16519600762135,12.596583930121838],[105.16634290906993,12.595974934896134],[105.16783333672302,12.597105848524563],[105.16836276584061,12.598197157118449],[105.16999276055097,12.600345323350993],[105.17058498806315,12.599968532986395],[105.16919609917429,12.59791937934061]]]]},"properties":{"id":"10468"}}]}