{"type":"FeatureCollection","features":[{"type":"Feature","geometry":{"type":"MultiPolygon","coordinates":[[[[104.80764431423339,15.42431098090303],[104.80820909287903,15.424012044270953],[104.8096733940944,15.424070095486258],[104.81081271701115,15.425299479166796],[104.81386067708038,15.424091796875203],[104.8151047091985,15.425434570312717],[104.81572157117776,15.425410156250209],[104.81567274305266,15.424172092014103],[104.81658528645548,15.422845594618181],[104.81645399305253,15.419524197048844],[104.81769476996229,15.418722330729366],[104.82067220051792,15.41580729166678],[104.82152235242788,15.413625759548907],[104.82083333333051,15.412500000000207],[104.81885525173314,15.413744574652966],[104.81752549912895,15.412829861111263],[104.8144021267332,15.416200629340423],[104.81372938367761,15.418232421875175],[104.81263454860826,15.41818901909744],[104.81092013888619,15.41902886284737],[104.80964843749726,15.42013346354183],[104.80752495659422,15.418703884548776],[104.80575846353887,15.416797417534923],[104.80491319444158,15.416831054687634],[104.80347384982369,15.416326497396042],[104.80227973089976,15.417147894965552],[104.8009776475665,15.41893825954881],[104.80194824218452,15.421300998264073],[104.80035319010122,15.423260633680854],[104.80188476562213,15.424249674479356],[104.80292209201102,15.424577907986304],[104.80471950954572,15.426097005208447],[104.806449652775,15.424689127604353],[104.80764431423339,15.42431098090303]]]]},"properties":{"id":"10293"}}]}