{"type":"FeatureCollection","features":[{"type":"Feature","geometry":{"type":"MultiPolygon","coordinates":[[[[103.98402483790264,17.618840229948265],[103.98402483790264,17.621181271121497],[103.98447077627033,17.622171167028718],[103.98528676927681,17.62289353011184],[103.98730228817617,17.623874527784274],[103.98725323034058,17.624949169440963],[103.98743609041166,17.62576073016988],[103.98842601844376,17.626929052968972],[103.98905474463398,17.62720098372091],[103.98932226406538,17.62764694344388],[103.98968347367675,17.627829774821294],[103.99130206559424,17.628008091680144],[103.99197986432259,17.627918911669152],[103.9925238590882,17.627557802028463],[103.9927022983375,17.627192082176897],[103.9927022983375,17.626206615251515],[103.99235002494356,17.62575184093454],[103.99239014049606,17.625087419327063],[103.99279590154921,17.62477969553593],[103.993362215611,17.624779759632258],[103.99372343574925,17.625136506036505],[103.99478912476816,17.625582342940557],[103.99448590645075,17.62592569183769],[103.99398644781725,17.626113026095595],[103.99380809547158,17.62647423462302],[103.99380809547158,17.62696467087046],[103.99354056738318,17.62728126467763],[103.99372343574925,17.627651368803043],[103.99426743735552,17.627829781255432],[103.9958414497897,17.627740572506326],[103.9965593874645,17.627339220973234],[103.99845002463233,17.62593912267612],[103.99934633504247,17.624864475950947],[103.9996138743275,17.624052870653777],[103.9996138743275,17.623245772657146],[103.99943551474684,17.62261262678459],[103.99883800296597,17.622608112455744],[103.99852583131575,17.62323690736241],[103.9975849812058,17.623326038510957],[103.99728175677679,17.623874559305214],[103.99728175677679,17.622969370988137],[103.9970142219883,17.62256802382585],[103.9970142219883,17.62194817559496],[103.99727732885486,17.621377473335155],[103.99739767982284,17.621809975345585],[103.99785251709491,17.622086433567556],[103.99852583131575,17.62208647080908],[103.99893612685244,17.622353945865957],[103.99925715539543,17.622260313571424],[103.99934633504247,17.621988339578913],[103.99916797580568,17.62144877624396],[103.99907879627324,17.619384232928116],[103.99867301684036,17.618617279156755],[103.99763847063062,17.617622922790382],[103.99516814859717,17.617087745908112],[103.99399981982461,17.616414440609304],[103.99327746760503,17.616231619759024],[103.99237676864394,17.616231649548183],[103.99197100881744,17.617217111202837],[103.99117277590746,17.616459087764348],[103.99040580716971,17.616320865902328],[103.9870793142548,17.616414496396516],[103.98564354081694,17.61694954738975],[103.98518865505062,17.61758275302636],[103.98518865505062,17.61811785926351],[103.98506831468217,17.617939513519435],[103.98456888998795,17.61785029103067],[103.98402483790264,17.618840229948265]],[[103.99650138200063,17.619865788221823],[103.99602874907154,17.61939311228704],[103.99628733762096,17.619348561987863],[103.99650138200063,17.61926386713496],[103.99650138200063,17.619865788221823]]]]},"properties":{"id":"39315"}}]}