{"type":"FeatureCollection","features":[{"type":"Feature","geometry":{"type":"MultiPolygon","coordinates":[[[[77.82774549696174,23.249983452691467],[77.82694173177086,23.249169379340785],[77.82680555555552,23.24791666666701],[77.82119683159735,23.248106011285216],[77.82037489149289,23.250189751519542],[77.81972493489585,23.250814344618462],[77.82049072265633,23.25165690104221],[77.8219417317708,23.251686469184364],[77.82452256944467,23.249447157118453],[77.82558756510414,23.24972710503512],[77.82638617621527,23.250558268229568],[77.82732123480892,23.251012098524697],[77.82804172091997,23.252497287326776],[77.82888617621538,23.252095404731307],[77.82861382378476,23.250552842882286],[77.82774549696174,23.249983452691467]]]]},"properties":{"id":"19829"}}]}