{"type":"FeatureCollection","features":[{"type":"Feature","geometry":{"type":"MultiPolygon","coordinates":[[[[77.27777506510401,24.728336113824298],[77.27694715711792,24.726835005018955],[77.27916937934035,24.72611389160207],[77.2794417317709,24.725792541504333],[77.27805826822922,24.72441453721845],[77.27918646918394,24.723330654568784],[77.2791593424478,24.721996799045684],[77.28130832248277,24.721577233209118],[77.28280761718744,24.723052775065725],[77.28391411675344,24.72248282538574],[77.2838856336804,24.721097005208904],[77.28221978081595,24.721113993327464],[77.28146294487854,24.720724148221038],[77.28250271267362,24.719725002713204],[77.28280978732627,24.71783860948412],[77.2852785915799,24.71619530571887],[77.28678792317695,24.71671190049969],[77.28805284288174,24.716636759440718],[77.28666937934017,24.715253058540014],[77.28800292968734,24.713285963270934],[77.2883306206596,24.71194166395445],[77.28918212890628,24.71081946479002],[77.29081163194436,24.710852728950158],[77.2916639539931,24.71027489556262],[77.29455050998266,24.710828348796085],[77.29499728732648,24.709425421821223],[77.2940351019964,24.70850094265458],[77.29221950954846,24.708058336046506],[77.29096950954877,24.707211100260892],[77.29139187282973,24.706391465929286],[77.29137478298597,24.7055584377719],[77.291958550347,24.70442521837073],[77.29344319661462,24.703704935710107],[77.29452880859387,24.70151109483554],[77.29569444444436,24.700694444444935],[77.29471950954846,24.700830552843442],[77.2925615776908,24.702741970486628],[77.2904123263888,24.704151034885484],[77.2883306206596,24.70444166395447],[77.2875027126735,24.704936421712873],[77.28889160156265,24.70527499728783],[77.28947455512142,24.706717020671107],[77.28944146050335,24.708347235786192],[77.28819037543386,24.708954162598374],[77.28626302083322,24.71244211832733],[77.28381700303825,24.71438127305825],[77.28268012152782,24.71475026448624],[77.27890652126743,24.71854502360074],[77.27860866970471,24.719463060167683],[77.27750162760415,24.720526835124247],[77.27694715711792,24.721669447157595],[77.27617458767341,24.721941663954524],[77.2755525716145,24.72000257704046],[77.27557807074672,24.718751424154277],[77.27721869574637,24.716589321560875],[77.276638454861,24.71318708631783],[77.27668375651027,24.710972222222765],[77.27526936848946,24.710269266764826],[77.27527452256956,24.70941901312986],[77.27227647569433,24.70948018391981],[77.26941392686652,24.709996541341695],[77.2685171169704,24.709063178168904],[77.26917466905374,24.707752787272668],[77.26916002061634,24.707033793132084],[77.26805813259543,24.707780659994043],[77.26680013020845,24.707783542209754],[77.2672191026476,24.70890224880698],[77.26804836697048,24.709699028863398],[77.268421359592,24.710467597114217],[77.27030436197916,24.711691623264528],[77.27181070963528,24.711660902235863],[77.27318712022557,24.712593892415825],[77.27360839843757,24.713891669379947],[77.2747696940103,24.715661858453217],[77.27441243489577,24.717056037055656],[77.27285319010437,24.717562018500928],[77.27166937934018,24.71666388617686],[77.27070122612852,24.71639166937993],[77.27028049045137,24.71795094807996],[77.27259494357637,24.718402777778238],[77.27333604600707,24.72110833062125],[77.27388617621514,24.723479207357343],[77.27305799696168,24.72305267334052],[77.2721956380208,24.723058929443894],[77.27139160156261,24.72391879611598],[77.2722363281251,24.72473024156406],[77.2722257486977,24.726975691054136],[77.27280463324635,24.728099636502307],[77.27445855034713,24.728886108398896],[77.27444146050331,24.728052910699347],[77.27487901475709,24.727502780490937],[77.27626464843743,24.72844197591202],[77.27927815755194,24.731490665012487],[77.27971950954841,24.731232147217312],[77.27777506510401,24.728336113824298]]]]},"properties":{"id":"9545"}}]}