{"type":"FeatureCollection","features":[{"type":"Feature","geometry":{"type":"MultiPolygon","coordinates":[[[[104.5959231228301,14.728355746799224],[104.59496283637182,14.725117933485407],[104.59142550998288,14.722766215006615],[104.59089708116343,14.71952284071196],[104.5930455186635,14.716773342556593],[104.59359890407993,14.716241794162485],[104.59471978081606,14.716264648437672],[104.59714328342042,14.713838704427374],[104.59774875217042,14.712900085449462],[104.59523193359402,14.710946451823204],[104.59525472005234,14.709830559624734],[104.59695393880222,14.707861938476782],[104.59688286675353,14.704376322428544],[104.59747748480905,14.702638312446027],[104.59704237196186,14.701793924967603],[104.59852728949667,14.70182423909526],[104.60083089192742,14.69891886393249],[104.60472574869831,14.697449917263654],[104.60580430772583,14.696220092773586],[104.60443115234389,14.69490068223773],[104.604001464844,14.693888888889077],[104.60302652994815,14.6940249972874],[104.60157362196188,14.695127292209321],[104.59903944227452,14.694276428222764],[104.59735432942713,14.694310811360879],[104.59680474175363,14.69712541368294],[104.59608208550353,14.698191663954205],[104.59551839192724,14.699882066514888],[104.5933563910593,14.701299438476738],[104.59206407335071,14.703270840115295],[104.59039740668427,14.704099968804371],[104.58908935546887,14.707755330403828],[104.5847252061632,14.710410868327074],[104.5830531141498,14.711107109917762],[104.5835815429688,14.713488091363018],[104.58110921223968,14.715109049479551],[104.58258707682339,14.716940070258275],[104.58146565755234,14.718418036566902],[104.58088514539932,14.718747219509766],[104.57876383463545,14.717137451172022],[104.57635986328151,14.7131972249351],[104.57582221137167,14.711540256076702],[104.57453640408008,14.709947509765783],[104.57252305772593,14.707928127712819],[104.57105116102449,14.707214050293146],[104.57110595703162,14.704510192871268],[104.57047390407993,14.703475002712963],[104.56667616102456,14.708292371961903],[104.56580973307317,14.708153652615223],[104.56654106987853,14.706016743978154],[104.56534261067733,14.703635016547508],[104.56622043185789,14.702792019314415],[104.56804172092055,14.704321051703744],[104.5689097764758,14.703417392307003],[104.56970947265634,14.701769375271368],[104.56968994140632,14.700824991862206],[104.5679956054689,14.700411885579598],[104.5669170464412,14.69985629611557],[104.5651331922746,14.702106424967795],[104.5632809787327,14.702068650987584],[104.56332655164951,14.70428382025844],[104.56219862196181,14.706557685004526],[104.56358208550361,14.708108893500679],[104.56219862196181,14.708628946940365],[104.56316813151054,14.710058865017558],[104.56469319661485,14.709024997287457],[104.56581570095491,14.708752780490713],[104.56581407335094,14.710061577691192],[104.56809651692711,14.711558024088745],[104.56917616102461,14.712681986491006],[104.56913655598979,14.714625006781887],[104.56799289279544,14.715723809136506],[104.5680428059899,14.71816355387385],[104.5699465603303,14.720431382921248],[104.57277208116344,14.720419921875276],[104.5733043077258,14.722113240560105],[104.57263210720495,14.723418341742786],[104.57350938585094,14.723844028049157],[104.57497477213545,14.723468424479407],[104.57593722873273,14.724120585123913],[104.57523193359398,14.7251606920032],[104.57330973307299,14.726398484972123],[104.57481906467038,14.727150980631691],[104.57533610026073,14.728744574652964],[104.57624972873273,14.729302775065264],[104.578655327691,14.72832706027576],[104.57971761067719,14.729047207302656],[104.58045979817715,14.730576375325711],[104.57996554904523,14.731535780165103],[104.5799785698787,14.732182447645556],[104.59290608723992,14.732219712999381],[104.59373887803847,14.729652235243208],[104.5959231228301,14.728355746799224]]]]},"properties":{"id":"10326"}}]}