{"type":"FeatureCollection","features":[{"type":"Feature","geometry":{"type":"MultiPolygon","coordinates":[[[[104.61508816189277,11.977162000868077],[104.61769015842017,11.976026746961807],[104.61928141276044,11.976584472656242],[104.6204755316842,11.976021050347171],[104.62302381727457,11.97317952473955],[104.62196261935773,11.972657063802018],[104.62055419921879,11.972601453992993],[104.61858751085103,11.973478732638895],[104.61607123480908,11.973211534288083],[104.61447889539934,11.972368977864605],[104.61363254123265,11.972375759548441],[104.61251383463551,11.971847873263883],[104.61108588324677,11.970685763888852],[104.61003445095494,11.971242133246548],[104.60696587456604,11.971264648437497],[104.60540445963537,11.970527886284785],[104.604001464844,11.96916666666661],[104.6030346679689,11.97006266276047],[104.60502794053829,11.972951931423623],[104.611126030816,11.974584960937463],[104.61508816189277,11.977162000868077]]]]},"properties":{"id":"22991"}}]}