{"type":"FeatureCollection","features":[{"type":"Feature","geometry":{"type":"MultiPolygon","coordinates":[[[[75.44703932020414,25.301342773437497],[75.44653516981359,25.30024414062504],[75.44457546658012,25.30036078559037],[75.44240207248279,25.299417860243054],[75.44180555555565,25.298750000000126],[75.44113410102003,25.299350043402825],[75.44282423231371,25.300859917534865],[75.44348500569666,25.302299804687564],[75.44500779893687,25.302770182291724],[75.44715847439247,25.304436848958446],[75.4488810899525,25.304054904513933],[75.44856170654319,25.30181260850702],[75.44703932020414,25.301342773437497]]]]},"properties":{"id":"19028"}}]}