{"type":"FeatureCollection","features":[{"type":"Feature","geometry":{"type":"MultiPolygon","coordinates":[[[[82.41543359375024,27.631306640625013],[82.41589843750003,27.631104980468976],[82.41630859375007,27.630535644531378],[82.41619140625008,27.630056640625142],[82.4159414062502,27.629620117187486],[82.41627343750017,27.629072753906385],[82.41676171874988,27.629023437499953],[82.41705859375011,27.629193359375193],[82.41740625000014,27.629344726562607],[82.41766015625004,27.62992822265626],[82.41794140625004,27.62995703125],[82.41806250000016,27.6273232421876],[82.41843359375022,27.62705664062517],[82.41869140625002,27.62694335937519],[82.41893359375021,27.626806640625006],[82.42019140625004,27.626693359375025],[82.42062890625019,27.626443359375216],[82.4212578125001,27.62660546874993],[82.42144140625018,27.62693164062513],[82.4216093750002,27.627672851562735],[82.42250781250024,27.627764648437633],[82.42273046875002,27.62737500000013],[82.42255859374998,27.627068359375144],[82.42244140625004,27.626806640625006],[82.42180859375023,27.626068359374997],[82.42169140625023,27.624056640625014],[82.42155859375012,27.623818359374994],[82.42144140625018,27.62330664062513],[82.42130859374996,27.62306835937521],[82.42119140625007,27.622556640625163],[82.42105859375013,27.622318359375143],[82.42091015625019,27.62164990234382],[82.42021875000003,27.621350585937577],[82.42005859375027,27.621068359375016],[82.41994140625005,27.620806640625048],[82.4197500000001,27.62049999999998],[82.41780859375021,27.62055664062497],[82.41756640625002,27.620693359375167],[82.41705859375011,27.620806640625048],[82.41681640625004,27.620943359375147],[82.41655859375024,27.621056640625127],[82.41631640625005,27.621193359375056],[82.41580859374997,27.62130664062512],[82.41531640625001,27.62169335937503],[82.41505859375022,27.62180664062501],[82.41406640625004,27.622693359374992],[82.41363281250008,27.622882324218764],[82.41344140625003,27.62331835937502],[82.4133085937502,27.623556640625125],[82.4131914062502,27.623818359374994],[82.41301953125017,27.624125000000063],[82.4131914062502,27.624431640625133],[82.4133085937502,27.6246933593751],[82.41355859374997,27.625129882812672],[82.41344140625003,27.626068359374997],[82.4133085937502,27.626306640625018],[82.4131914062502,27.62681835937515],[82.41305859375004,27.62705664062517],[82.41294140625004,27.62731835937504],[82.41276953125,27.627625000000208],[82.41294140625004,27.627931640625008],[82.41305859375004,27.631556640625178],[82.41344140625003,27.631443359375197],[82.41387500000016,27.631195800781214],[82.41450390625019,27.631556640625178],[82.41519140625005,27.631443359375197],[82.41543359375024,27.631306640625013]]]]},"properties":{"id":"18555"}}]}