{"type":"FeatureCollection","features":[{"type":"Feature","geometry":{"type":"MultiPolygon","coordinates":[[[[75.82365127226242,32.682686872242144],[75.82365127226242,32.68241483619734],[75.82365127226242,32.68187979613754],[75.82337922823146,32.6813402022032],[75.82311170593337,32.681068183163376],[75.82203256712191,32.678914444143615],[75.82203256712191,32.676756220778614],[75.82149308333001,32.67648868338878],[75.82095350881733,32.676488708227225],[75.82068598195568,32.67675630005485],[75.82068598195568,32.67756779948198],[75.82041393225646,32.678374904880755],[75.82014640438896,32.678914447233765],[75.81987435364758,32.67918201549874],[75.81933929537891,32.679182040418],[75.81906733178303,32.67999361034482],[75.81906733178303,32.68080069020439],[75.81906733178303,32.6810682519654],[75.81906733178303,32.68187979828444],[75.81879971270033,32.682414829136505],[75.8185277480716,32.68268686595411],[75.81798816232097,32.682686865612695],[75.81744866320392,32.682414841587075],[75.8171811297577,32.68214728881824],[75.8171811297577,32.68093522908718],[75.81691350714473,32.679993548926845],[75.8166415389135,32.67972159777288],[75.81637400394922,32.67972160186916],[75.81637400394922,32.68080071259928],[75.8166415389135,32.68295442417573],[75.81691350714473,32.68295442464283],[75.81691350714473,32.68376595108238],[75.81744866320392,32.68403350885494],[75.8185277480716,32.68430553411993],[75.81960682476469,32.68457307455506],[75.82230018012282,32.68457309324012],[75.82337922823146,32.6843054862217],[75.82365127226242,32.68403353301953],[75.82365127226242,32.683765975291735],[75.82365127226242,32.683226382947595],[75.82365127226242,32.682686872242144]]]]},"properties":{"id":"37016"}}]}