{"type":"FeatureCollection","features":[{"type":"Feature","geometry":{"type":"MultiPolygon","coordinates":[[[[77.71165879991347,25.442492133246716],[77.71259521484396,25.441396755642458],[77.71309787326416,25.44355685763911],[77.71428548177099,25.443881022135415],[77.71479682074667,25.44222493489599],[77.71476698133708,25.439944661458455],[77.71610324435787,25.439919162326575],[77.71551703559047,25.438840332031347],[77.71556939019118,25.43796359592008],[77.71669976128518,25.435137803819586],[77.71665690104206,25.434420301649467],[77.71531385633719,25.434500325520816],[77.71293701171899,25.433290201822942],[77.71100314670176,25.431939561632063],[77.70862358941,25.42952962239606],[77.70610324435805,25.425007595486164],[77.70490614149341,25.42175672743062],[77.70221435546918,25.42139648437505],[77.700416666667,25.420694444444592],[77.6982858615456,25.421149631076446],[77.69646402994809,25.42113172743059],[77.69699544270875,25.42261230468766],[77.69917453342035,25.42388129340283],[77.70106038411498,25.42619140625007],[77.70191487630231,25.428717990451474],[77.70338894314253,25.430034993489656],[77.70889675564254,25.43304768880226],[77.709750434028,25.434389919704955],[77.7097471788197,25.43555799696182],[77.70888102213578,25.435825466579928],[77.70828721788237,25.436759440104225],[77.70548556857679,25.43807617187504],[77.70314046223993,25.43810845269101],[77.70139675564283,25.439563259548663],[77.70307562934053,25.440081651475822],[77.70303358289951,25.440786675347283],[77.70513454861131,25.4411786566841],[77.70756049262181,25.444436577691107],[77.70839925130255,25.442609592013966],[77.70905924479192,25.442230088975904],[77.70943657769138,25.443999294705108],[77.70773898654554,25.445516221788253],[77.7081236436637,25.446103244357744],[77.71105875651077,25.444053005642417],[77.71165879991347,25.442492133246716]]]]},"properties":{"id":"9477"}}]}