{"type":"FeatureCollection","features":[{"type":"Feature","geometry":{"type":"MultiPolygon","coordinates":[[[[77.42248725043416,23.201123996311225],[77.42236111111097,23.200972222222646],[77.42127088758664,23.201111789279935],[77.42038709852417,23.202175564236583],[77.41892930772562,23.203074679904987],[77.41880642361124,23.20428005642404],[77.4192035590278,23.20607055664111],[77.4202905273439,23.207209337023002],[77.42054280598964,23.20917955186681],[77.42119873046877,23.210522054036872],[77.42220947265614,23.21062500000035],[77.42195719401033,23.209987114800853],[77.42140163845474,23.209525689019614],[77.42165391710054,23.20832044813403],[77.42270589192688,23.20767157660633],[77.42375705295134,23.2065688747835],[77.42508707682273,23.20344997829895],[77.42445719401022,23.20220933702302],[77.42248725043416,23.201123996311225]]]]},"properties":{"id":"19857"}}]}