{"type":"FeatureCollection","features":[{"type":"Feature","geometry":{"type":"MultiPolygon","coordinates":[[[[77.59026394314279,26.603147515191225],[77.59029839409746,26.602569986979475],[77.58945231119819,26.600914171007048],[77.5916745334205,26.59723008897579],[77.59195339626754,26.593371582031438],[77.59306342230937,26.593881022135577],[77.59380805121575,26.594714355468938],[77.59470675998287,26.59407145182307],[77.59390272352474,26.592591959635556],[77.59378417968796,26.590603841146063],[77.59542154947937,26.590016276041936],[77.59904595269123,26.589800347222408],[77.60024007161476,26.592214355468855],[77.60205240885435,26.591803656684192],[77.60533067491352,26.588756239149433],[77.60665879991362,26.586854654948127],[77.60622395833363,26.586069064670227],[77.60495930989603,26.585264756944653],[77.60507378472252,26.58334608289941],[77.60291151258721,26.583383246527845],[77.60174289279561,26.582846950955016],[77.59971435546899,26.580563422309197],[77.59945231119835,26.57943657769131],[77.59889675564281,26.57841417100711],[77.60165310329879,26.578423665364767],[77.60172281901058,26.577252875434155],[77.60079942491367,26.57692165798629],[77.59945231119835,26.577001953125176],[77.59979166666702,26.575838487413407],[77.60163574218777,26.573990342882126],[77.6017211914066,26.57255886501744],[77.60105658637175,26.571607801649563],[77.60123480902823,26.568618977864645],[77.60026991102464,26.568881022135557],[77.59953097873287,26.571059027777963],[77.60009738498277,26.572101779514128],[77.59905029296905,26.57360080295159],[77.59810519748302,26.578466254340483],[77.59771999783013,26.577627224392472],[77.59665879991346,26.576952311198085],[77.59610324435815,26.574174533420234],[77.59584120008705,26.570825466580033],[77.59419894748291,26.56818169487873],[77.59415879991374,26.5675078667537],[77.5922300889761,26.567514648437637],[77.594714355469,26.571011555989784],[77.59445231119818,26.57278564453145],[77.5939860026044,26.57408474392369],[77.59488796658033,26.578160536024583],[77.59582546658001,26.579452311198168],[77.60028564453151,26.582769911024485],[77.60054768880232,26.58445231119815],[77.60110324435786,26.585474717882178],[77.6007212999136,26.586413574218938],[77.59956108940995,26.58704399956615],[77.59786322699696,26.586121419271066],[77.59665879991346,26.58584120008703],[77.59424750434047,26.584730088975817],[77.59306369357674,26.58506646050361],[77.59167371961868,26.586397569444728],[77.58732964409771,26.58633734809051],[77.58638970269138,26.587177191840425],[77.5859879557294,26.5889046223961],[77.58551703559047,26.58977077908007],[77.58561279296916,26.591377224392573],[77.58499755859415,26.591413845486287],[77.58470486111136,26.590466037326507],[77.58362304687537,26.58949951171897],[77.58256917317729,26.58697347005237],[77.58092692057315,26.586875542534898],[77.58020996093771,26.587950575087035],[77.57971435546895,26.587507866753654],[77.5794208441844,26.585935058593776],[77.57815538194487,26.585481228298733],[77.57744249131977,26.586118164062697],[77.57746446397593,26.58934841579874],[77.57784993489625,26.590787760416816],[77.57485595703153,26.59078342013899],[77.5736216905386,26.591349826389063],[77.5735074869796,26.593264973958483],[77.57415879991359,26.59361897786468],[77.57640489366347,26.594038085937726],[77.57629991319484,26.59579833984391],[77.57732204861125,26.596711425781436],[77.57782524956613,26.599066297743406],[77.57775716145872,26.60020507812513],[77.58074896918444,26.602956542968826],[77.58418782552101,26.602751736111315],[77.5867873806425,26.604982367621744],[77.58876057942749,26.605099826389264],[77.58962076822937,26.60433132595503],[77.59026394314279,26.603147515191225]]]]},"properties":{"id":"9438"}}]}