{"type":"FeatureCollection","features":[{"type":"Feature","geometry":{"type":"MultiPolygon","coordinates":[[[[78.78723008897575,24.36056335449271],[78.78797119140629,24.360160658095054],[78.79165608723977,24.36059583875918],[78.79220594618059,24.358467407227096],[78.79227973090272,24.35722927517412],[78.7912125651043,24.356275838216646],[78.79080973307313,24.355534396701884],[78.79042833116333,24.352181464301722],[78.78779134114578,24.350646294488314],[78.78776123046893,24.350138888889347],[78.78776909722231,24.349437391493538],[78.78860324435757,24.348603312174944],[78.78946180555553,24.34820922851617],[78.78943576388892,24.347770589193175],[78.79110324435763,24.34656039767853],[78.79020670572933,24.346262613932865],[78.7869365776912,24.348047756619607],[78.78591661241344,24.350269978841666],[78.78554768880232,24.350007798937128],[78.78511094835088,24.349055853950205],[78.78379204644116,24.34845052083385],[78.78304768880227,24.347785576714983],[78.78201307508718,24.344446953667983],[78.78297119140629,24.343075358073364],[78.78154676649322,24.343071017795722],[78.77922146267352,24.342003716363322],[78.7773611111111,24.339027777778256],[78.77530029296875,24.33920369466189],[78.77522542317715,24.340463799371094],[78.77654947916679,24.340872667101166],[78.778755967882,24.342275933160337],[78.77828694661477,24.34379401312981],[78.77695502387147,24.344405381944938],[78.77690375434028,24.345267062717454],[78.77967664930546,24.345206027561318],[78.7796891276042,24.34874877929738],[78.78014892578133,24.35023790147619],[78.78276177300367,24.35237074110306],[78.78280002170155,24.353569539388587],[78.78243245442727,24.353981187608994],[78.77937364366338,24.354552069770534],[78.77834120008706,24.355474582248846],[78.78050645616318,24.35548400878973],[78.78099392361142,24.35602959526946],[78.78508029513901,24.35603183322533],[78.7863810221356,24.356628892687112],[78.78608425564235,24.357309299045568],[78.78334120008677,24.359548543294792],[78.78584120008676,24.35999220106389],[78.7865858289932,24.36082553439725],[78.78723008897575,24.36056335449271]]]]},"properties":{"id":"4975"}}]}