{"type":"FeatureCollection","features":[{"type":"Feature","geometry":{"type":"MultiPolygon","coordinates":[[[[83.4927723524307,24.977444087134856],[83.49180094401052,24.97560804790949],[83.49107557508702,24.975283073849468],[83.49056043836802,24.97583903418679],[83.49016248914924,24.97582326253294],[83.49029893663223,24.97238355636628],[83.49138346354184,24.970242267185114],[83.49047119140621,24.96939678616029],[83.48867730034723,24.96882890913257],[83.48833875868056,24.96782349480557],[83.49008843315985,24.967489437527476],[83.49055013020828,24.966868129306775],[83.48943901909738,24.96583862728572],[83.48905653211821,24.96502789815301],[83.49031439887173,24.96462966071273],[83.4927723524307,24.962375522190058],[83.4920833333334,24.96125000000029],[83.49101047092009,24.961420402527224],[83.48969455295153,24.96279319763211],[83.48787000868063,24.96272087944911],[83.4872064887152,24.96307204776363],[83.48724663628482,24.964089300367817],[83.48807156032998,24.965288187663134],[83.48803846571198,24.966126946343593],[83.48579508463544,24.966118134392957],[83.4858398437502,24.967249484592443],[83.48744628906243,24.96718581305639],[83.48777235243054,24.968894182841325],[83.4884535047743,24.969883918762534],[83.48835177951403,24.97476987838779],[83.48956353081618,24.97597284952826],[83.49051323784724,24.979959816403223],[83.49076795789946,24.980272481706734],[83.49241590711804,24.97900882297131],[83.4927723524307,24.977444087134856]]]]},"properties":{"id":"19164"}}]}