{"type":"FeatureCollection","features":[{"type":"Feature","geometry":{"type":"MultiPolygon","coordinates":[[[[104.71472005208037,16.1739689127608],[104.71522949218453,16.171043565538383],[104.71320095485814,16.169887695312624],[104.713187934025,16.169558648003758],[104.7143001302056,16.16852810329881],[104.71379937065674,16.167892252604403],[104.71241048176788,16.168378906250226],[104.7106119791637,16.167809516059236],[104.7093109808998,16.166604003906556],[104.71179904513613,16.16489149305582],[104.71183268228876,16.16403428819477],[104.71111653645531,16.16400607638917],[104.70947808159443,16.165133463541878],[104.70654188367766,16.164806857639107],[104.7065131293376,16.16407660590305],[104.70707790798329,16.163466796875326],[104.70874294704592,16.162681206597526],[104.70878743489291,16.161555718316194],[104.70729817708056,16.160959201389133],[104.70633083767066,16.159915364583526],[104.70454047308758,16.162355685764126],[104.70339192708039,16.161569281684223],[104.70248209635142,16.160160319010842],[104.70045572916385,16.160080023871856],[104.69961968315678,16.161778157552376],[104.69887749565677,16.1621709526912],[104.69736653645535,16.160770670573115],[104.6977126736081,16.159584689670297],[104.69980034721934,16.15848008897592],[104.7011414930528,16.158426920573078],[104.7022873263862,16.158828667534905],[104.70374457464985,16.157038031684294],[104.69946234808734,16.155571017795353],[104.69760470919843,16.15655381944474],[104.6947054036431,16.156439073350967],[104.69212673610818,16.1570532226565],[104.69127875433739,16.15783881293423],[104.69085123697633,16.158744574653014],[104.68847764756643,16.15810763888905],[104.68957790798342,16.157077907986462],[104.69125542534445,16.15681098090309],[104.6929112413167,16.15541124131974],[104.69373372395549,16.15502332899321],[104.69407552083075,16.15252332899331],[104.69658257378174,16.150024956597406],[104.69985568576098,16.151172146267697],[104.69925726996266,16.149507378472435],[104.70068901909443,16.148582628038426],[104.70001898871229,16.147756890191175],[104.69759765624721,16.148605414496828],[104.69653862846948,16.14804497612876],[104.69389594183727,16.147623969184252],[104.69333333333057,16.146666666666917],[104.69011610242782,16.149055989583587],[104.68802408853875,16.149718424479417],[104.68708875867756,16.151533203125254],[104.6851551649278,16.15376274956624],[104.68573893228873,16.157205132378905],[104.68594618055263,16.161766493055993],[104.68880859374721,16.164855685764294],[104.68935112846921,16.164567328559244],[104.69084038628202,16.162960069444736],[104.69175238714982,16.164683702257307],[104.69038628471927,16.16594943576429],[104.69264431423332,16.168466796875222],[104.69394856770558,16.170685763889097],[104.69457031249712,16.170710449219143],[104.69508517794864,16.169241807725925],[104.6940332031223,16.16713921440993],[104.69500759548359,16.166533203125226],[104.69665527343469,16.167421875000244],[104.69786892360841,16.168731553819768],[104.69874457465002,16.16876627604185],[104.69840657551808,16.167331814236334],[104.69653320312219,16.165030110677293],[104.69740017360814,16.164310980902982],[104.69791124131652,16.165144314236343],[104.69972005208044,16.165749511719056],[104.70208062065714,16.16565592447941],[104.70260253905954,16.167846950955123],[104.70318901909448,16.168755425347555],[104.70429687499708,16.16978162977449],[104.70427897135121,16.17206108941012],[104.7052039930526,16.172550726996775],[104.70572319878178,16.171449924045405],[104.70801269530958,16.169147135416992],[104.70902669270552,16.17008680555577],[104.70983452690692,16.171799045139124],[104.71089192708055,16.171840820312667],[104.71256239149025,16.17125542534754],[104.71319986978878,16.172077907986434],[104.71352918836519,16.174144422743254],[104.71537000867781,16.17541124131961],[104.71596679687198,16.174927571614873],[104.71552463107352,16.174348687066313],[104.71472005208037,16.1739689127608]]]]},"properties":{"id":"10260"}}]}