{"type":"FeatureCollection","features":[{"type":"Feature","geometry":{"type":"MultiPolygon","coordinates":[[[[78.74908203125003,23.730011718750063],[78.74965234375,23.729688476562558],[78.7503125000002,23.73018847656263],[78.75081250000008,23.73031152343755],[78.75132812500013,23.730701171875054],[78.75212500000006,23.730684570312718],[78.75293359375016,23.730701171875054],[78.75306250000008,23.73043652343759],[78.75318750000005,23.73018847656263],[78.75331250000008,23.72893652343764],[78.75343750000005,23.728688476562596],[78.75356250000007,23.728207031250093],[78.75269140625025,23.727169921875188],[78.75294531250015,23.726678710937662],[78.75343750000005,23.726438476562592],[78.75368750000021,23.7263115234377],[78.7539375000002,23.726188476562513],[78.75406250000023,23.725936523437483],[78.75443750000008,23.72543847656246],[78.75456250000005,23.724686523437626],[78.75468750000007,23.724438476562582],[78.75481250000021,23.723436523437584],[78.75493750000007,23.723188476562456],[78.75506250000021,23.722436523437793],[78.75518750000023,23.72218847656258],[78.7553125000002,23.721436523437475],[78.75543750000006,23.72118847656253],[78.75556250000008,23.720186523437704],[78.75580078125009,23.719724609375064],[78.75538281250002,23.7191083984375],[78.75468750000007,23.718938476562528],[78.7541875000002,23.718561523437543],[78.75338281250006,23.71842968750009],[78.75293750000023,23.717923828125166],[78.75318750000005,23.717438476562577],[78.75331250000008,23.716936523437468],[78.75343750000005,23.716688476562524],[78.75356250000007,23.71604882812501],[78.75331250000008,23.715563476562522],[78.75307421875007,23.715072265624997],[78.75149218749996,23.714938476562594],[78.75082031250017,23.71539355468755],[78.75068750000023,23.717563476562447],[78.75055468750011,23.7178212890625],[78.75006250000004,23.71806152343747],[78.74973437500003,23.71822949218749],[78.74893750000004,23.71756152343758],[78.74868750000005,23.717438476562577],[78.74821484375005,23.71712011718772],[78.74847656250014,23.716612304687587],[78.7491875000002,23.716438476562445],[78.7494375000002,23.716311523437625],[78.74968750000008,23.716188476562635],[78.74994921875012,23.716054687500048],[78.74993359375017,23.71537109375018],[78.7491875000002,23.715188476562574],[78.74868750000005,23.714811523437604],[78.74843750000005,23.714688476562515],[78.74818750000006,23.714561523437695],[78.74768750000007,23.71443847656252],[78.74717578124992,23.714052734374988],[78.74692968750023,23.713545898437502],[78.7469414062501,23.71308105468752],[78.74890234375013,23.712921875000134],[78.74906250000024,23.711936523437487],[78.74969531250017,23.711179687500092],[78.74968359375018,23.710603515625266],[78.74872265625024,23.710438476562587],[78.7480625000002,23.710938476562475],[78.74717578124992,23.711061523437564],[78.7466875000002,23.710811523437485],[78.74643750000004,23.710688476562567],[78.74583984375002,23.710235351562645],[78.74566406250003,23.70917187500001],[78.74518750000007,23.708938476562636],[78.74487890625008,23.708780273437554],[78.7446875000002,23.708173828125],[78.74493750000002,23.70768847656251],[78.74506250000005,23.70693652343759],[78.74518750000007,23.706688476562633],[78.74531250000004,23.706436523437517],[78.74547656250016,23.706112304687537],[78.74641796875008,23.705882812500235],[78.74656250000007,23.7045488281251],[78.74631250000007,23.704063476562695],[78.74618750000005,23.703423828125096],[78.74643750000004,23.702938476562693],[78.74660156250016,23.702602539062553],[78.74716015624998,23.70233203125005],[78.74731250000005,23.70159082031263],[78.7466875000002,23.701438476562473],[78.74642968750007,23.701305664062545],[78.74618750000005,23.70081152343751],[78.74606250000002,23.70056347656255],[78.74593750000005,23.70031152343752],[78.7455625000002,23.699813476562582],[78.74533593750024,23.69934667968765],[78.7446875000002,23.69918847656247],[78.74432421875011,23.699001953125062],[78.74417968750024,23.69692773437515],[78.74368750000016,23.69668847656257],[78.74336328125005,23.69652148437511],[78.74318750000018,23.695811523437513],[78.74306250000004,23.69556347656257],[78.74293750000007,23.694673828124976],[78.74318750000018,23.694188476562573],[78.7433125000002,23.693936523437728],[78.74347656249998,23.693612304687647],[78.74418750000004,23.69343847656269],[78.7444375000002,23.693311523437615],[78.74519531250016,23.69318750000005],[78.74518359375,23.692621093749963],[78.7444375000002,23.692438476562458],[78.74418750000004,23.692311523437738],[78.74393750000004,23.692188476562563],[78.74359375000009,23.692012695312556],[78.74343750000023,23.69106152343761],[78.74319531250003,23.690588867187472],[78.7436992187501,23.689926757812586],[78.74435546875006,23.689607421875067],[78.74456250000023,23.68918652343764],[78.7446875000002,23.688938476562683],[78.74481250000005,23.68866894531257],[78.74455078125007,23.68843847656261],[78.74387500000003,23.688786132812623],[78.74343750000023,23.688561523437528],[78.74305078125016,23.68843847656261],[78.74237500000018,23.688786132812623],[78.74193750000003,23.688561523437528],[78.74168750000004,23.68843847656261],[78.74117578125006,23.68805273437509],[78.74093750000017,23.687561523437566],[78.7406796875002,23.687177734374984],[78.74018750000019,23.686938476562588],[78.73968750000003,23.68656152343769],[78.73918750000004,23.686438476562515],[78.73885156250017,23.686265624999848],[78.73868750000017,23.685423828125153],[78.73893750000022,23.684938476562564],[78.73906250000019,23.684436523437725],[78.73918750000004,23.68418847656251],[78.73931250000001,23.68393652343765],[78.73943750000004,23.683688476562523],[78.73956250000006,23.683186523437683],[78.73969531249989,23.68292871093753],[78.74018750000019,23.68268847656256],[78.74031250000004,23.682371093750092],[78.73985156250004,23.682147460937557],[78.73968750000003,23.681811523437517],[78.73956250000006,23.68156347656256],[78.73943750000004,23.68131152343753],[78.73931250000001,23.68106347656267],[78.73925000000006,23.680750000000003],[78.73906250000019,23.68081152343764],[78.73893750000022,23.683313476562674],[78.73875781250004,23.68366210937498],[78.73767578125003,23.683811523437612],[78.73718750000003,23.683561523437533],[78.73628125000008,23.68343847656263],[78.73631250000003,23.68506835937508],[78.73681250000007,23.685311523437647],[78.73707031250004,23.685444335937675],[78.73731250000006,23.685938476562526],[78.73743750000003,23.686186523437655],[78.73756250000017,23.68668847656268],[78.73793750000019,23.687186523437617],[78.73814453125001,23.687607421874972],[78.73856250000003,23.68781152343773],[78.7388125000002,23.68793847656272],[78.73906250000019,23.68806152343764],[78.73957421874994,23.688447265625157],[78.73981250000017,23.688938476562683],[78.74018750000019,23.68943652343762],[78.74031250000004,23.689688476562566],[78.74055078125005,23.690150390625035],[78.74014062500012,23.69075292968759],[78.73959765625014,23.69106152343761],[78.73893750000022,23.690561523437623],[78.73862109375003,23.690438476562534],[78.73843750000006,23.690813476562568],[78.73831250000003,23.69106152343761],[78.73818750000001,23.691313476562726],[78.73806250000004,23.691561523437684],[78.73793750000019,23.69231347656269],[78.73781250000022,23.692561523437647],[78.73768750000019,23.692813476562577],[78.73730078125007,23.69332324218749],[78.73681250000007,23.69356152343751],[78.73668750000022,23.69381347656264],[78.73631250000003,23.694311523437577],[78.73618750000006,23.694542968750184],[78.73693750000004,23.69543652343758],[78.73706250000001,23.696438476562577],[78.73718750000003,23.69668652343762],[78.73731250000006,23.69732617187495],[78.73706250000001,23.697811523437622],[78.73693750000004,23.698313476562546],[78.73680468750021,23.698571289062613],[78.73608984375014,23.698918945312627],[78.7359375,23.69970117187499],[78.73618750000006,23.70018652343758],[78.73631250000003,23.70043847656251],[78.73643750000016,23.70068652343774],[78.73656250000019,23.700938476562584],[78.73718750000003,23.7016865234377],[78.73731250000006,23.703188476562588],[78.73743750000003,23.70343652343763],[78.73756250000017,23.704188476562464],[78.73768750000019,23.704436523437593],[78.73781250000022,23.70491796875001],[78.73706250000001,23.70581152343759],[78.73657421875018,23.70606152343757],[78.73543750000019,23.705061523437706],[78.73518750000002,23.704938476562518],[78.73437109375013,23.70425488281265],[78.73418750000016,23.70367382812499],[78.73443750000021,23.703188476562588],[78.73456250000007,23.702936523437472],[78.73493750000003,23.70243847656262],[78.73506250000017,23.701831054687503],[78.73418750000016,23.701688476562552],[78.73393750000017,23.70156152343766],[78.73305078124989,23.701438476562473],[78.73237500000002,23.701786132812572],[78.73186328125021,23.701521484375107],[78.73163281250012,23.700574218749964],[78.72968750000015,23.70043847656251],[78.72943750000016,23.70031152343752],[78.7286875,23.700188476562616],[78.72733593750004,23.698968750000105],[78.72718750000016,23.698061523437516],[78.72687109375013,23.697590820312513],[78.72593750000019,23.697438476562624],[78.72518750000003,23.696811523437574],[78.72443750000005,23.69668847656257],[78.72411718750007,23.696524414062452],[78.72393750000018,23.695847656249995],[78.72443750000005,23.69518847656262],[78.72456250000002,23.693621093750195],[78.72410546875003,23.69339941406261],[78.72368750000018,23.69292382812513],[78.72393750000018,23.692438476562458],[78.72406250000003,23.692048828125124],[78.72381250000015,23.691563476562536],[78.72368750000018,23.69081152343753],[78.72356250000016,23.690563476562573],[78.72343750000002,23.689561523437575],[78.72218750000005,23.68943847656257],[78.72137109375015,23.688754882812432],[78.72118750000001,23.688173828125045],[78.72143750000018,23.687688476562556],[78.72156250000015,23.687326171875057],[78.72043750000014,23.687188476562568],[78.71968749999999,23.68656152343769],[78.71943750000005,23.686438476562515],[78.71893750000018,23.686061523437616],[78.71868750000002,23.685938476562526],[78.71843750000002,23.685811523437636],[78.71818750000014,23.685688476562717],[78.71793750000015,23.685561523437727],[78.71718750000005,23.685438476562553],[78.71693750000017,23.685311523437647],[78.71643750000001,23.685188476562473],[78.71618750000002,23.685061523437653],[78.71580078125001,23.684938476562564],[78.71531250000018,23.685188476562473],[78.71431250000015,23.685311523437647],[78.71418750000018,23.686313476562475],[78.7140156250002,23.68665039062499],[78.7131757812501,23.6868115234375],[78.71268750000004,23.68656152343769],[78.71218750000017,23.686438476562515],[78.71168750000018,23.686082031250223],[78.71253515625008,23.685073242187542],[78.71143750000002,23.684938476562564],[78.71118750000014,23.684811523437574],[78.71018749999999,23.684688476562584],[78.70986328125011,23.68452148437521],[78.70968750000017,23.683811523437612],[78.70956250000015,23.683563476562583],[78.70941406250009,23.683257812500074],[78.70905078125,23.68293847656274],[78.70856250000017,23.68318847656255],[78.70831250000018,23.683311523437723],[78.70806250000001,23.68343847656263],[78.7072968750002,23.683563476562583],[78.70731640625021,23.684375000000088],[78.70730859375013,23.684641601562603],[78.70642578125009,23.684811523437574],[78.70593750000003,23.684561523437495],[78.70418750000013,23.684438476562676],[78.70393750000014,23.684311523437685],[78.70368750000003,23.68418847656251],[78.70318750000027,23.683811523437612],[78.70268750000017,23.683688476562523],[78.7024375,23.683561523437533],[78.70218750000018,23.68343847656263],[78.70143750000014,23.68281152343765],[78.70093750000015,23.68268847656256],[78.70068750000016,23.68256152343757],[78.70043750000016,23.68243847656258],[78.69968750000001,23.681811523437517],[78.69918750000014,23.681688476562698],[78.69893749999997,23.68156152343761],[78.69793750000011,23.68143847656252],[78.69768750000017,23.68131152343753],[78.69718750000013,23.681188476562625],[78.69674218750018,23.68095996093753],[78.69643750000014,23.681128906250024],[78.6968125000001,23.68131152343753],[78.69706250000016,23.68143847656252],[78.69731249999998,23.68156152343761],[78.69756250000015,23.681688476562698],[78.69881250000017,23.681811523437517],[78.69931250000016,23.682188476562672],[78.69956250000016,23.682311523437406],[78.69981250000015,23.68243847656258],[78.70017187500005,23.682613281250013],[78.70031250000014,23.68318847656255],[78.70081250000001,23.683311523437723],[78.70107031250026,23.68344433593748],[78.7013125,23.683938476562602],[78.70161718750003,23.684391601562623],[78.70231249999998,23.684561523437495],[78.70256250000014,23.684688476562584],[78.70281250000014,23.684811523437574],[78.70331250000018,23.685188476562473],[78.7043125000001,23.685311523437647],[78.70506250000014,23.685938476562526],[78.70606250000017,23.686061523437616],[78.70631250000017,23.686188476562606],[78.70731250000014,23.686311523437524],[78.70756250000014,23.686438476562515],[78.70906249999999,23.68656152343769],[78.70981250000014,23.687188476562568],[78.71006249999996,23.68731152343757],[78.71131249999999,23.68843847656261],[78.71156250000004,23.688561523437528],[78.71181250000015,23.68868847656252],[78.71206250000014,23.688811523437693],[78.71231250000014,23.688938476562683],[78.71256250000002,23.689061523437502],[78.71281250000001,23.68918847656259],[78.71306250000018,23.68931152343768],[78.71339062500013,23.6894794921877],[78.71418750000018,23.688811523437693],[78.71607421875004,23.68868847656252],[78.71656250000015,23.688938476562683],[78.71681250000015,23.689061523437502],[78.71713671875003,23.689228515625047],[78.71731250000002,23.68993847656256],[78.71782421875005,23.690573242187597],[78.71831250000005,23.69081152343753],[78.71889453125013,23.691250976562714],[78.71906250000015,23.69193847656257],[78.71968749999999,23.692686523437686],[78.71981250000002,23.692938476562617],[78.72018750000015,23.69343652343774],[78.72031250000018,23.69393847656258],[78.72068750000003,23.694436523437616],[78.7208125,23.695076171874945],[78.72050781250013,23.695662109375064],[78.71942578125012,23.695811523437513],[78.71893750000018,23.69556152343762],[78.71818750000014,23.695438476562614],[78.71743749999999,23.69481152343765],[78.71680078125016,23.69468847656246],[78.71621093750022,23.694992187500105],[78.71643750000001,23.69543652343758],[78.71656250000015,23.695688476562694],[78.71668750000018,23.695936523437652],[78.71681250000015,23.696188476562583],[78.71693750000017,23.69643652343754],[78.71706250000003,23.696938476562465],[78.71743749999999,23.697436523437588],[78.71756250000001,23.697688476562618],[78.71793750000015,23.698186523437656],[78.71806250000017,23.698438476562686],[78.71818750000014,23.698686523437544],[78.71831250000005,23.698938476562574],[78.71843750000002,23.69918652343752],[78.71856249999999,23.699688476562628],[78.71918750000017,23.70043652343766],[78.71934765625011,23.70108496093752],[78.71981250000002,23.70131152343758],[78.7208125,23.702188476562625],[78.72106250000004,23.70231152343763],[78.72157421875002,23.702697265625062],[78.72181250000003,23.703188476562588],[78.72263671875018,23.70414648437496],[78.72331250000005,23.704311523437553],[78.72375390625021,23.70460937499999],[78.72406250000003,23.70515234375013],[78.72355078125,23.70582324218755],[78.7230625,23.70606152343757],[78.72293750000003,23.7063134765627],[78.72281250000017,23.706561523437557],[78.72268750000015,23.707331054687472],[78.72294921875007,23.70756152343752],[78.72343750000002,23.70731152343761],[78.72368750000018,23.70718847656252],[78.72393750000018,23.70706152343753],[78.7241875,23.706938476562627],[78.72443750000005,23.706811523437636],[78.72515234375001,23.706688476562633],[78.72581250000016,23.70718847656252],[78.72606250000015,23.70731152343761],[78.72681250000002,23.70793847656259],[78.7275625,23.708061523437593],[78.72781250000006,23.708188476562583],[78.72806250000016,23.708311523437573],[78.72887890625006,23.708995117187627],[78.72906250000003,23.7095761718751],[78.72880468750012,23.710071289062526],[78.72810156250003,23.710414062500078],[78.72793750000002,23.711027343750217],[78.72843750000001,23.711686523437578],[78.72857812500015,23.71282519531259],[78.72906250000003,23.713061523437574],[78.72942578125006,23.713248046875066],[78.72956250000001,23.715188476562574],[78.73037109375016,23.716129882812695],[78.73094921875017,23.716311523437625],[78.73162890625005,23.71596289062515],[78.73218750000004,23.71625781250016],[78.73180468750022,23.71682226562511],[78.73131250000003,23.717061523437508],[78.7310351562501,23.717204101562643],[78.73068750000002,23.717757812500096],[78.73112500000005,23.718403320312547],[78.73194921875009,23.718561523437543],[78.73243750000003,23.71831152343765],[78.73340234375027,23.71818847656256],[78.73406250000002,23.718688476562534],[78.73631250000003,23.718811523437623],[78.73656250000019,23.718938476562528],[78.73706250000001,23.719061523437702],[78.73753515625023,23.71937988281266],[78.73725000000005,23.71992871093765],[78.73467968750006,23.720068359375176],[78.73443750000021,23.720563476562603],[78.73401171874994,23.72112695312508],[78.73342578125013,23.721311523437706],[78.73270312500009,23.720940429687673],[78.73181250000002,23.721688476562605],[78.73109765625011,23.721811523437694],[78.73043750000019,23.721311523437706],[78.73008984375,23.72118847656253],[78.72993750000003,23.721813476562644],[78.72948828125001,23.722405273437616],[78.72867578125002,23.722561523437477],[78.72818750000019,23.722311523437583],[78.72755078125002,23.72218847656258],[78.72706250000019,23.722438476562573],[78.72681250000002,23.722561523437477],[78.72656250000003,23.722688476562467],[78.72556250000005,23.722811523437557],[78.72356250000016,23.724688476562577],[78.7230625,23.72481152343748],[78.72267578125005,23.725071289062498],[78.72243750000015,23.725563476562584],[78.72231250000002,23.725811523437628],[78.72218750000005,23.72631347656265],[78.72131250000015,23.727311523437564],[78.72118750000001,23.727563476562594],[78.72080078125,23.728073242187506],[78.72031250000018,23.728311523437526],[78.71981250000002,23.728688476562596],[78.71906250000015,23.7288115234376],[78.7184101562502,23.72930468749999],[78.71793750000015,23.729061523437593],[78.7175546875001,23.72893847656259],[78.7175664062502,23.72937890625016],[78.71831250000005,23.729561523437567],[78.71856249999999,23.729688476562558],[78.71981250000002,23.729811523437476],[78.7200703125001,23.72994433593759],[78.72031250000018,23.73043847656244],[78.7206601562502,23.73081152343771],[78.7208125,23.730186523437595],[78.72125000000014,23.7296064453125],[78.7219375,23.72943847656248],[78.72218750000005,23.729311523437588],[78.72268750000015,23.72918847656267],[78.72293750000003,23.729061523437593],[78.7241875,23.72893847656259],[78.72482421875017,23.728426757812457],[78.72506250000018,23.72793652343759],[78.72592187500024,23.72694042968753],[78.72681250000002,23.727688476562463],[78.72712890625021,23.727811523437637],[78.72735156249999,23.727352539062593],[78.72768750000003,23.727188476562475],[78.72793750000002,23.727061523437484],[78.72843750000001,23.72693847656258],[78.72923437500012,23.726270507812572],[78.72956250000001,23.726438476562592],[78.72981250000001,23.726561523437596],[78.73006250000006,23.726688476562586],[78.7303125,23.72681152343759],[78.73106250000004,23.72743847656247],[78.73231250000006,23.727561523437643],[78.73267187500008,23.727745117187723],[78.73557031250013,23.727686523437598],[78.73581250000004,23.727186523437524],[78.73594531250004,23.72692871093747],[78.73643750000016,23.726688476562586],[78.73668750000022,23.726561523437596],[78.73693750000004,23.726438476562592],[78.73718750000003,23.7263115234377],[78.7389179687502,23.726188476562513],[78.73981250000017,23.72693847656258],[78.7402929687502,23.727061523437484],[78.74118750000022,23.7263115234377],[78.74168750000004,23.726188476562513],[78.74193750000003,23.726061523437522],[78.7421875000002,23.725938476562433],[78.74267187500013,23.72569042968749],[78.7435625000002,23.726438476562592],[78.74379687500013,23.726561523437596],[78.74489453125003,23.725613281249977],[78.74510546875021,23.724748046875078],[78.74565234375015,23.724438476562582],[78.74639453125016,23.725000976562498],[78.74656250000007,23.725688476562624],[78.7466875000002,23.725936523437483],[78.74681250000023,23.72640234375021],[78.74631250000007,23.727061523437484],[78.74618750000005,23.72745117187509],[78.74643750000004,23.72793652343759],[78.74657812499996,23.72965039062514],[78.74756250000004,23.729811523437476],[78.74782031250007,23.72994433593759],[78.7480625000002,23.73043847656244],[78.74818750000006,23.73068652343757],[78.7483125000002,23.731188476562593],[78.74892187500015,23.731311523437597],[78.74908203125003,23.730011718750063]],[[78.73637109375002,23.708245117187474],[78.73675000000017,23.708124999999995],[78.73722265625011,23.70872753906255],[78.73718359374996,23.70970117187497],[78.73641406250002,23.71031054687502],[78.73584375000016,23.710007812500038],[78.73569140625008,23.709083007812623],[78.73637109375002,23.708245117187474]]]]},"properties":{"id":"26964"}}]}