{"type":"FeatureCollection","features":[{"type":"Feature","geometry":{"type":"MultiPolygon","coordinates":[[[[77.68617268880197,23.118272569444883],[77.6889284939235,23.117790662977797],[77.69257025824666,23.118161756727915],[77.6937977430554,23.119045274523017],[77.69515679253473,23.11853447808197],[77.69609836154498,23.11720933702304],[77.69799289279516,23.11678927951435],[77.70026502821187,23.11582044813416],[77.70332058376746,23.11542724609417],[77.7019363064235,23.114277479384057],[77.69925808376726,23.113491482205248],[77.69758002387161,23.11396063910631],[77.69488444010418,23.113206922743487],[77.69362386067698,23.11220933702296],[77.69090142144105,23.111937662760766],[77.68930555555565,23.11069444444483],[77.68877577039919,23.11113457573819],[77.69052490234381,23.11258775499165],[77.69082058376725,23.113792453342427],[77.6868633355036,23.11582044813416],[77.68640163845484,23.115264892578566],[77.68442247178828,23.115011664496947],[77.68493950737863,23.113635660807645],[77.68335801866326,23.113346218533493],[77.68300645616333,23.115705702040387],[77.68067518446205,23.116716851128842],[77.67976236979169,23.11819675021745],[77.67945719401033,23.120510253906687],[77.68375298394088,23.119830864800747],[77.68617268880197,23.118272569444883]]]]},"properties":{"id":"9700"}}]}