{"type":"FeatureCollection","features":[{"type":"Feature","geometry":{"type":"MultiPolygon","coordinates":[[[[76.39806125217004,22.938338080512537],[76.39801920572896,22.93727579752651],[76.39860582139752,22.936166992187864],[76.39719401041671,22.935843641493463],[76.39641479492192,22.937494710286785],[76.39583862304673,22.93699639214448],[76.39612128363697,22.93576063368093],[76.3983280436195,22.934901258680966],[76.39806084526904,22.933605821398004],[76.39608249240442,22.93333550347255],[76.39569444444427,22.932916666667126],[76.39410644531225,22.93313368055594],[76.3933586968316,22.934718017578675],[76.39167385525158,22.935513237847502],[76.39164184570333,22.9363198513459],[76.3929793294271,22.93915364583377],[76.39713406032993,22.93954711914104],[76.39806125217004,22.938338080512537]]]]},"properties":{"id":"19988"}}]}