{"type":"FeatureCollection","features":[{"type":"Feature","geometry":{"type":"MultiPolygon","coordinates":[[[[72.23276991102429,32.810563422309244],[72.23263888888894,32.810138888889085],[72.23195231119806,32.810350884331626],[72.2333614095053,32.8131250000001],[72.23415513780398,32.813834228515745],[72.2341916232638,32.814447021484554],[72.23316636827249,32.814763590494934],[72.2343634711373,32.816103244357805],[72.23520968967009,32.81575900607655],[72.23669135199648,32.81303236219627],[72.23399197048619,32.81240437825551],[72.23276991102429,32.810563422309244]]]]},"properties":{"id":"16752"}}]}