{"type":"FeatureCollection","features":[{"type":"Feature","geometry":{"type":"MultiPolygon","coordinates":[[[[102.30364831156905,19.769585071790345],[102.30230165743026,19.76715931613799],[102.30202963806713,19.76688729891289],[102.30095501956006,19.766887324802227],[102.30095501956006,19.76715929397679],[102.3004154430262,19.7671593281396],[102.30014342825339,19.766887306063538],[102.30014342825339,19.765472254844667],[102.29933638514379,19.76257537106825],[102.2990688279281,19.7623077681732],[102.29879681644323,19.762035830646752],[102.29798969572815,19.761768243562088],[102.29529191093908,19.760689168988918],[102.29273464640491,19.76014961618631],[102.29233110507604,19.760149625656865],[102.29205911003922,19.759882045399266],[102.291791570296,19.75961451271668],[102.291791570296,19.759074943207708],[102.291791570296,19.75745632721579],[102.291791570296,19.75691675986269],[102.29205911003922,19.756377220267467],[102.29205911003922,19.755837654396643],[102.291791570296,19.755570120671948],[102.29097995838166,19.75557012216312],[102.2907124212256,19.755302585644756],[102.2907124212256,19.75428925792302],[102.29017289427858,19.752604821597572],[102.28990535906271,19.751797717195956],[102.28963336995488,19.751797723511075],[102.2885542417973,19.750718625016077],[102.28828671047106,19.750451081140312],[102.28774710793985,19.750179079860146],[102.28694006727372,19.75017900056588],[102.286667998063,19.75017900634215],[102.28586096522142,19.75045107214821],[102.28532137444924,19.750451033044655],[102.28397476712146,19.74937193221392],[102.28343518549414,19.7491043755641],[102.28316766646597,19.74883235391924],[102.28289560648099,19.747485788534007],[102.28262808875533,19.74559951822775],[102.28128142668427,19.742901762615688],[102.28074185811855,19.74101557093897],[102.28020237950088,19.74074807506028],[102.2793952188828,19.74020846606119],[102.2791232554487,19.739940936738236],[102.27858369735716,19.738861807880227],[102.27750904306131,19.73643608283335],[102.2766974479637,19.735357010856518],[102.27615790164006,19.73481743658637],[102.27589040011097,19.734549857424952],[102.27454373229088,19.732663729447694],[102.27427169339839,19.732124130527737],[102.27346466316172,19.73131704549374],[102.2721180247253,19.730237959898375],[102.27077131527741,19.72943083550038],[102.26995976938034,19.72861930333856],[102.26995976938034,19.72807973192505],[102.27023179771791,19.7278121753923],[102.27049937294467,19.72781216693018],[102.27049937294467,19.728079764462052],[102.27157841329208,19.72807974654083],[102.27265755144768,19.72781220824372],[102.27265755144768,19.7275446124723],[102.2713064689921,19.727544597308793],[102.27023179771791,19.727544667080977],[102.26915268312493,19.727272617094087],[102.26834560272627,19.726733093983015],[102.26807357901524,19.726465538986275],[102.26780600961845,19.72619356823982],[102.26753407455325,19.725386433322427],[102.26672691858832,19.72403982114413],[102.26618742067487,19.723232681330913],[102.26564783805034,19.721613999546392],[102.26538027450178,19.719995371966334],[102.26510825804914,19.719188327203938],[102.2648406958028,19.718648750050136],[102.2640336467463,19.718381159273676],[102.26322206275191,19.717034556662114],[102.2629545050514,19.716494973893788],[102.2629545050514,19.716223001404813],[102.26322206275191,19.71595541750915],[102.26255495650699,19.71541591021405],[102.26187546117384,19.715143875627803],[102.26079634045422,19.714069208270217],[102.26079634045422,19.71137145057449],[102.26052878860153,19.710831950657663],[102.25998923348337,19.709757273840964],[102.25998923348337,19.708945735517048],[102.26026123739555,19.708945719958294],[102.26052878860153,19.708678147938286],[102.26052878860153,19.708410642007635],[102.26026123739555,19.70759908261799],[102.25864258380935,19.706252404512156],[102.25729595047565,19.705445349437042],[102.25702395383072,19.705173296377936],[102.25702395383072,19.70382665646848],[102.25675641107787,19.70301955091729],[102.25621687429444,19.702747550023304],[102.25513772130748,19.702208010850327],[102.25325152085409,19.701133362672053],[102.25217239671215,19.7000543141679],[102.25190486566439,19.699786761354048],[102.25163733525446,19.698975173937043],[102.2513653524887,19.697896117608835],[102.2513653524887,19.69708895306492],[102.25109782338123,19.696549426136016],[102.25082575462883,19.69654942178829],[102.25028624670816,19.69520280669029],[102.25001872020587,19.693584143473927],[102.25001872020587,19.691969912087146],[102.2497511070433,19.69089082419211],[102.2497511070433,19.690083756064496],[102.25055822682393,19.68900466645367],[102.25190486566439,19.687657969528146],[102.25459819240237,19.685499756134547],[102.25594924617477,19.68442516758644],[102.25675641107787,19.68307403871445],[102.25675641107787,19.681727365225996],[102.2564844157537,19.680920314983993],[102.255409713317,19.678762065316377],[102.25459819240237,19.676340775710415],[102.25433065549757,19.67606875919479],[102.25406311923072,19.67580120612051],[102.25379104320174,19.67580128059072],[102.25352350824627,19.675529261910256],[102.25352350824627,19.673915012880514],[102.25379104320174,19.673643027689266],[102.25513772130748,19.672563903268767],[102.25621687429444,19.6725639661328],[102.25702395383072,19.672835964214983],[102.25756349453073,19.673103437833348],[102.25864258380935,19.673375441215484],[102.26187546117384,19.67337549213218],[102.2640336467463,19.672563965144704],[102.2648406958028,19.671756788940783],[102.26699893901147,19.671489309285732],[102.26753407455325,19.671489298514885],[102.27049937294467,19.671756819501482],[102.27406998636954,19.67202882527326],[102.2748113179023,19.67202881487971],[102.27535085770413,19.67202883160624],[102.27615790164006,19.672028875794453],[102.27804414187082,19.672296400050968],[102.27885565946175,19.67256395283775],[102.2804698913965,19.67283592758153],[102.28100945864182,19.67310348460856],[102.28208851365852,19.673643060711285],[102.28289560648099,19.674182561373655],[102.28316766646597,19.674450091873283],[102.28316766646597,19.675261702646438],[102.28424228809004,19.67606876698332],[102.28586096522142,19.6760687874648],[102.28747957855401,19.675801238289097],[102.28801917978265,19.675529182553205],[102.28828671047106,19.675261719660654],[102.2885542417973,19.6747221468099],[102.28882622827322,19.67445009159492],[102.28909376090198,19.674182539975746],[102.29044488470717,19.674182610385557],[102.29097995838166,19.674450168885713],[102.291791570296,19.674989657052564],[102.29205911003922,19.675261674313816],[102.29205911003922,19.675801247451986],[102.29233110507604,19.676068760227835],[102.2931381848098,19.676340817949253],[102.29394527039167,19.676608317304357],[102.29475681655819,19.67660830725204],[102.29529191093908,19.67687584485745],[102.29583146267046,19.677147892832267],[102.29610346691513,19.67741539565482],[102.29691057397557,19.67876210151863],[102.29852926052112,19.68011322583594],[102.30202963806713,19.68145981639171],[102.30256922240736,19.681727366995787],[102.30310872200951,19.682266934474754],[102.30364831156905,19.68253894322885],[102.3041878163904,19.682806491802538],[102.3047274111781,19.683074031725653],[102.30688109911088,19.68307403312693],[102.3071531303049,19.68334605914677],[102.30768819681103,19.6841531010526],[102.3084997556438,19.68523221076761],[102.31011398030196,19.686850843171726],[102.31119305506391,19.68792551914403],[102.31200018394432,19.6884650826793],[102.31281177412816,19.68873705338082],[102.313890874968,19.688737055132563],[102.31469793598112,19.688465044518892],[102.31496553068345,19.68819753812106],[102.31604456495799,19.687925525558],[102.31739121016747,19.687658004562422],[102.31887386772215,19.687658005492167],[102.3210829978423,19.68738599506564],[102.32224272713145,19.687118472782643],[102.3238614315533,19.686039356922862],[102.32574760517409,19.68469264569633],[102.32601513895278,19.684425138885217],[102.32628712937222,19.684153127768568],[102.32655466444433,19.68388562109193],[102.32682674354535,19.68361360405558],[102.32755114319295,19.683613599266877],[102.33005959023237,19.683613582684487],[102.33005959023237,19.68334605248134],[102.32709427990224,19.68334600824828],[102.32655466444433,19.683346002642807],[102.32574760517409,19.68361358376265],[102.32466847720534,19.68442517541955],[102.32412896082226,19.684964690724343],[102.3235893596657,19.685771748539224],[102.32332183168134,19.68603934386148],[102.32304984847516,19.686311354340333],[102.32170322245386,19.686850911237272],[102.32062413352574,19.687118403315893],[102.31990167928333,19.68711841446121],[102.31631216288528,19.687118469836108],[102.31415838035994,19.68765799458214],[102.3117326837179,19.687658020354775],[102.31119305506391,19.687385962462912],[102.31092555676875,19.687118453989854],[102.31011398030196,19.685499808686103],[102.30903937128139,19.684425168152302],[102.3084997556438,19.683613538487307],[102.30742070691528,19.682266909950627],[102.30634158126387,19.681999390338575],[102.30445538589518,19.68199935264525],[102.30337628891809,19.68172734534643],[102.30284115573906,19.681459847204138],[102.30176207438356,19.680920275539094],[102.30014342825339,19.68011322262882],[102.29933638514379,19.679841209041697],[102.29879681644323,19.67957364172024],[102.29825725035656,19.679301608998827],[102.2977176868753,19.678762110744216],[102.2974501335494,19.678494572285544],[102.29717812601692,19.677954968038478],[102.29637101701596,19.67687590624834],[102.29610346691513,19.676608363944823],[102.29583146267046,19.676340771650104],[102.29529191093908,19.67606881214168],[102.2936777261119,19.675261716157323],[102.29340572778713,19.67498965365688],[102.2931381848098,19.674722103430113],[102.2928661878058,19.67445012868623],[102.29233110507604,19.674182578270802],[102.29125195077748,19.673643002527427],[102.29017289427858,19.673375518290896],[102.28882622827322,19.67337549188943],[102.28828671047106,19.673642986456642],[102.28720759536603,19.674450089456897],[102.28694006727372,19.674722103259498],[102.286667998063,19.67498969913855],[102.28640047126444,19.674989690559727],[102.28478187363399,19.674722105083006],[102.28451426402896,19.67445016458285],[102.28235611742471,19.672563901274458],[102.28128142668427,19.672296405988718],[102.2793952188828,19.672028829207804],[102.27858369735716,19.67175681493802],[102.27804414187082,19.6714892461072],[102.27777654847992,19.6712172878114],[102.27723699691037,19.670677687678747],[102.27723699691037,19.670949714947184],[102.27723699691037,19.671217278504898],[102.27589040011097,19.671217313404355],[102.27366638391905,19.671217288429048],[102.27292504518854,19.67121728010389],[102.27292504518854,19.67094971331214],[102.26753407455325,19.670949692731796],[102.26618742067487,19.670949741609235],[102.26322206275191,19.67175680993448],[102.26187546117384,19.672563925151707],[102.25944968098841,19.672563897645176],[102.25891013111661,19.672296342352055],[102.2583750371488,19.67202883487616],[102.2583750371488,19.671756792659934],[102.25487018310034,19.67175681492897],[102.25487018310034,19.672028859813366],[102.25459819240237,19.67229641864587],[102.25379104320174,19.67229636741503],[102.25298398720136,19.6717568558294],[102.25271200112977,19.671489247769074],[102.25271200112977,19.671217290811853],[102.25217239671215,19.66987063337615],[102.2513653524887,19.66879156907096],[102.25109782338123,19.668524006833607],[102.25082575462883,19.668251935026746],[102.25028624670816,19.667444888611627],[102.25028624670816,19.66636581246648],[102.25001872020587,19.665826201491114],[102.24867201697427,19.6634049125948],[102.2484000414847,19.662865424940335],[102.24813251953688,19.662593389730603],[102.24786045806079,19.66232586236616],[102.24759293741559,19.662325870998984],[102.24759293741559,19.66286540864475],[102.24786045806079,19.66367251908305],[102.2484000414847,19.66394003532652],[102.24867201697427,19.66421203108196],[102.24893954022448,19.664751556708353],[102.24921160435085,19.666905368060554],[102.24921160435085,19.668251942321177],[102.25001872020587,19.66906352499514],[102.25055822682393,19.669331121871352],[102.25082575462883,19.669603060161634],[102.25109782338123,19.670410207682195],[102.25109782338123,19.670949748463215],[102.25109782338123,19.67121724232068],[102.25190486566439,19.67229639771533],[102.25217239671215,19.672563957032878],[102.25217239671215,19.67364304037342],[102.25190486566439,19.67498964668593],[102.25163733525446,19.67606876193473],[102.25163733525446,19.676340811535354],[102.25190486566439,19.676608370583423],[102.25244446877028,19.677147905920634],[102.25352350824627,19.677955019772384],[102.25406311923072,19.67822696158403],[102.25487018310034,19.679034042234164],[102.255409713317,19.680113200431464],[102.25567725282681,19.68092029329867],[102.25567725282681,19.682614337787797],[102.25567725282681,19.683346061635092],[102.255409713317,19.683885558201084],[102.25513772130748,19.684153132727275],[102.25459819240237,19.684425119823047],[102.25325152085409,19.685232257192695],[102.25055822682393,19.687385987292302],[102.24947912890374,19.688197547050365],[102.24893954022448,19.68927222488206],[102.24867201697427,19.689811730260388],[102.24867201697427,19.69244034010822],[102.24867201697427,19.69331654339068],[102.24813251953688,19.693856127910777],[102.24786045806079,19.69412371349513],[102.24651386836697,19.694123686635365],[102.24624626366645,19.69385612417385],[102.24624626366645,19.693584150642423],[102.24361764880629,19.693584135180302],[102.24274144385262,19.69358413002611],[102.24220188798901,19.693049017759876],[102.24193429369976,19.69277706898633],[102.24166233475731,19.69196994998724],[102.24166233475731,19.690959952005713],[102.24166233475731,19.690623286011785],[102.24193429369976,19.690083742409996],[102.24220188798901,19.68981174235161],[102.24247384826097,19.689811773352673],[102.24274144385262,19.6895441482513],[102.24274144385262,19.686112644645235],[102.24274144385262,19.683613612185155],[102.24220188798901,19.6827406966716],[102.24139474177085,19.681187824274346],[102.24112723673832,19.68065273354094],[102.24085519247379,19.680113222161722],[102.24058768874406,19.679841171734736],[102.2400481433817,19.679301666787538],[102.23708287342166,19.678494515287312],[102.23445418352273,19.677954994529912],[102.23277091116265,19.67714788825974],[102.23223131659941,19.67660834838607],[102.2319637464212,19.67634074584133],[102.23088465511253,19.674989672629266],[102.22926599424082,19.673643071491114],[102.22791936886622,19.67256393143984],[102.22711223954533,19.671489326209965],[102.22657275989471,19.670677683142188],[102.22630520340678,19.67041015427762],[102.22576564040159,19.66987066774591],[102.22549363390223,19.669603085242457],[102.22468652228699,19.6696030633327],[102.22414696718701,19.66960305894004],[102.22414696718701,19.66987066155646],[102.22549363390223,19.670677689124958],[102.22737979798259,19.672296341444692],[102.2276518091173,19.672563918486205],[102.22791936886622,19.673103509411206],[102.22819138133033,19.67364306160968],[102.22845894238188,19.673915049468945],[102.23007759144056,19.674989685600934],[102.23088465511253,19.67552924865126],[102.23169181197576,19.676608286150696],[102.23277091116265,19.677687463670765],[102.23411750831215,19.67822696878858],[102.23573615287953,19.678762039480873],[102.23761908715451,19.679034107136303],[102.23849858076429,19.679301619250893],[102.2400481433817,19.67984114417429],[102.24058768874406,19.68038073815366],[102.24112723673832,19.681459806573073],[102.24139474177085,19.681999361924767],[102.24220188798901,19.68361359799198],[102.24247384826097,19.684153111886346],[102.24247384826097,19.68549975615248],[102.24220188798901,19.686039291705427],[102.24193429369976,19.6898117675494],[102.24166233475731,19.689811735587412],[102.24139474177085,19.690351246032264],[102.24112723673832,19.69089084065814],[102.24085519247379,19.692509458698368],[102.24085519247379,19.693049037783325],[102.24220188798901,19.69385610748303],[102.24247384826097,19.694123647468828],[102.24489848010987,19.69412364754983],[102.245706690726,19.694395711092014],[102.24597429413282,19.69466327478473],[102.24651386836697,19.694935232730046],[102.24705335792632,19.695202818943145],[102.2484000414847,19.695474803649375],[102.24867201697427,19.695742327438623],[102.24921160435085,19.69628187004335],[102.2497511070433,19.696821415666207],[102.25001872020587,19.697628538554994],[102.25055822682393,19.699514729243703],[102.25109782338123,19.700593831826183],[102.2513653524887,19.70086138647271],[102.25163733525446,19.701133365780052],[102.25271200112977,19.70220799332425],[102.25406311923072,19.70355909605493],[102.25433065549757,19.703826642517782],[102.25487018310034,19.704366247779674],[102.255409713317,19.705445330572488],[102.25567725282681,19.705712873199374],[102.25783549249613,19.70733158120568],[102.258103037854,19.707599117256947],[102.2583750371488,19.708410646040946],[102.2583750371488,19.710564371370666],[102.25891013111661,19.710564421837944],[102.25918213237858,19.71083191502163],[102.25944968098841,19.711911078976982],[102.25944968098841,19.713797213314237],[102.26052878860153,19.715415931318844],[102.26160790671597,19.716223001692313],[102.26187546117384,19.716762499515795],[102.26241502546353,19.718381204422883],[102.26322206275191,19.719455797175186],[102.26376163359058,19.72107449530884],[102.26457322151973,19.723500242247624],[102.26538027450178,19.72457936949776],[102.26591985582368,19.72673307984357],[102.26618742067487,19.72754463126519],[102.26726650645898,19.728619325715684],[102.26834560272627,19.72943087262776],[102.27023179771791,19.730505480777154],[102.2713064689921,19.73158454630422],[102.27292504518854,19.732391704973097],[102.2740041964149,19.73374276337195],[102.27589040011097,19.73562899593098],[102.27615790164006,19.735896574823002],[102.27642994514096,19.736436079132403],[102.27696949279411,19.737515220998233],[102.27804414187082,19.739940955180813],[102.27885565946175,19.740748047814435],[102.2791232554487,19.7410156119022],[102.2793952188828,19.741555113669193],[102.27966281617236,19.74209464898864],[102.28020237950088,19.74344137026722],[102.2804698913965,19.744252882737953],[102.28074185811855,19.745327577619662],[102.28128142668427,19.746946178906185],[102.28154902851023,19.747213735304285],[102.28154902851023,19.74802528281819],[102.28128142668427,19.74829283626994],[102.2804698913965,19.748292853912716],[102.27993032676542,19.748025281003635],[102.2791232554487,19.747485762536755],[102.27885565946175,19.747213735609733],[102.27858369735716,19.74640662993251],[102.27831610266392,19.74559957871118],[102.27804414187082,19.744520407353576],[102.27804414187082,19.74317383649769],[102.27777654847992,19.742634206289438],[102.27750904306131,19.742366722466258],[102.27723699691037,19.742094730483714],[102.2766974479637,19.74182713729043],[102.27642994514096,19.741555096789995],[102.27642994514096,19.740208527272586],[102.27535085770413,19.73912937789659],[102.27508327079008,19.738861803819745],[102.27454373229088,19.738589822859595],[102.2740041964149,19.73832230375929],[102.27265755144768,19.738054700298477],[102.27077131527741,19.7369756006984],[102.26915268312493,19.736436125979466],[102.26538027450178,19.7361685167335],[102.26349407458727,19.736168570416865],[102.26214746970325,19.736436080102564],[102.26187546117384,19.736975622761022],[102.26160790671597,19.73778273556171],[102.261335899498,19.73858980081482],[102.26106834635178,19.7388618757209],[102.26052878860153,19.73940142229587],[102.25891013111661,19.739668964572473],[102.25783549249613,19.73966889931907],[102.25594924617477,19.73966897855044],[102.25567725282681,19.739401395301726],[102.25513772130748,19.73886181149129],[102.25513772130748,19.737782782346144],[102.25459819240237,19.73778270955549],[102.25433065549757,19.738322302106397],[102.25433065549757,19.738861818165773],[102.25459819240237,19.739401435114942],[102.25513772130748,19.739668943406016],[102.255409713317,19.739940901686182],[102.255409713317,19.740480507037958],[102.25513772130748,19.740748063939037],[102.25459819240237,19.741015611533783],[102.25433065549757,19.741015601688417],[102.25406311923072,19.740748064361284],[102.25379104320174,19.740208490926634],[102.25352350824627,19.73966896042228],[102.25190486566439,19.73912939156024],[102.25109782338123,19.739129381543904],[102.25109782338123,19.73940137473916],[102.2513653524887,19.739668919881368],[102.25217468970001,19.739668902229624],[102.25298398720136,19.739940965057897],[102.25352350824627,19.740480470943723],[102.25352350824627,19.741015614938348],[102.25325152085409,19.741287635280784],[102.25298398720136,19.741555151344656],[102.25298398720136,19.742094672686136],[102.25298398720136,19.74290181263399],[102.25325152085409,19.74344134573441],[102.25352350824627,19.74398092777497],[102.25379104320174,19.74425293042053],[102.25406311923072,19.744252893122365],[102.25406311923072,19.74479241554181],[102.25379104320174,19.745059982486325],[102.25271200112977,19.745327556060204],[102.25190486566439,19.745327570388298],[102.25190486566439,19.745059950317483],[102.25055822682393,19.745059972757574],[102.24947912890374,19.745327531661943],[102.2484000414847,19.74559954944411],[102.24705335792632,19.74532754926875],[102.244899606276,19.74532751230329],[102.244899606276,19.745599513340807],[102.24382056346715,19.745867127213117],[102.24220188798901,19.745867104207335],[102.24166233475731,19.745867092672924],[102.24139474177085,19.74559953065132],[102.2400481433817,19.745867096562606],[102.2392365603483,19.746139095237567],[102.23870147405242,19.74613912360634],[102.23842952305088,19.745867122389242],[102.23842952305088,19.74532757531999],[102.23788990090063,19.745060014250512],[102.23762240433908,19.745059977814947],[102.23735036868058,19.745327527754128],[102.23708287342166,19.745867128964875],[102.23681529151125,19.746139105173086],[102.23573615287953,19.746139137817735],[102.23465711206515,19.74586705832138],[102.2338500208688,19.745599528073114],[102.23357799448976,19.745327520316167],[102.23277091116265,19.744792437595464],[102.23169181197576,19.744792437254134],[102.2314242430999,19.74479248495456],[102.22953801001975,19.7450600171792],[102.22953801001975,19.74586712514703],[102.22926599424082,19.74613913265253],[102.2276518091173,19.746406655947695],[102.22630520340678,19.74640666369119],[102.22468652228699,19.746139100250275],[102.22387941657385,19.745867050577885],[102.22360741471888,19.745599571803112],[102.22360741471888,19.74452043407851],[102.22333986540863,19.74425291551742],[102.22306786488295,19.744252897434293],[102.22306786488295,19.74566752678075],[102.22306786488295,19.74613906989633],[102.2228003168839,19.74640665637881],[102.22252831708911,19.746678656934407],[102.22199322494194,19.746678633476364],[102.22172122774035,19.74667861480934],[102.2209141436766,19.746678657066028],[102.22064214912464,19.74694619140169],[102.22037460700082,19.74721377638413],[102.22037460700082,19.747753263239318],[102.22037460700082,19.748564861103787],[102.22037460700082,19.748832417178605],[102.22064214912464,19.748832386051944],[102.2209141436766,19.74856484936278],[102.22145368299331,19.74775332957107],[102.22172122774035,19.747485742809786],[102.22226077099171,19.74721370868727],[102.2228003168839,19.747213781540538],[102.22387941657385,19.747485760802945],[102.22414696718701,19.74775327719918],[102.22441451844671,19.748292810811634],[102.22468652228699,19.748564841286935],[102.22576564040159,19.74856487433597],[102.22737979798259,19.748564820428058],[102.22926599424082,19.74802527909911],[102.22980557433218,19.748025325676878],[102.23115222268572,19.74829282837358],[102.23169181197576,19.748564880381622],[102.2325033396726,19.749104391724856],[102.23277091116265,19.749371975288085],[102.23303839599194,19.74963947482287],[102.23303839599194,19.74991148705338],[102.23331042105045,19.75117748865037],[102.23357799448976,19.751259277356567],[102.23492905380485,19.75071859072723],[102.23492905380485,19.750179033516062],[102.23519663116068,19.74991151921317],[102.23735036868058,19.74963946748349],[102.23950860064215,19.749371903440846],[102.24166233475731,19.7485648118043],[102.24220188798901,19.748292814674315],[102.24247384826097,19.74802526191438],[102.24328100233939,19.74775328243632],[102.2446276400481,19.74775330877499],[102.2446276400481,19.748025311240966],[102.24759293741559,19.748025303335638],[102.24813251953688,19.74775329059318],[102.24867201697427,19.747213748644185],[102.25082575462883,19.747213726437778],[102.2513653524887,19.74694617104589],[102.25406311923072,19.746678605179355],[102.25433065549757,19.746678611261075],[102.25487018310034,19.746946200941892],[102.255409713317,19.746946169644517],[102.25567725282681,19.746678644372892],[102.25675641107787,19.74559952889068],[102.25756349453073,19.74532750262837],[102.25756349453073,19.745059976081322],[102.25702395383072,19.744252878183374],[102.25675641107787,19.743980883721576],[102.25621687429444,19.743441307717703],[102.255409713317,19.743441336535625],[102.25513772130748,19.743173752900375],[102.25513772130748,19.742901760872897],[102.255409713317,19.742634201258966],[102.25594924617477,19.742366737423268],[102.25756349453073,19.74236668058687],[102.25891013111661,19.742094712346585],[102.25998923348337,19.741827110457933],[102.26052878860153,19.741015571927065],[102.26079634045422,19.74074804880253],[102.26106834635178,19.740480485936445],[102.26187546117384,19.73994093327994],[102.26214746970325,19.739940980010104],[102.26241502546353,19.740208497160936],[102.26268694799748,19.74048053366404],[102.2629545050514,19.739940935130363],[102.26322206275191,19.73912935350748],[102.26349407458727,19.73858980664491],[102.26376163359058,19.73832228351141],[102.2640336467463,19.73805472057346],[102.26564783805034,19.738054787399122],[102.26672691858832,19.73832228416724],[102.26699893901147,19.738589839505295],[102.26807357901524,19.73886182878377],[102.27023179771791,19.73886183194587],[102.27049937294467,19.73912941826697],[102.27049937294467,19.739401396684883],[102.27103889180691,19.73966892985277],[102.27238551717258,19.740208521082963],[102.27346466316172,19.740748025311717],[102.27373215884248,19.74101560904556],[102.27373215884248,19.741827164985423],[102.27427169339839,19.742094681714022],[102.27508327079008,19.742366681889294],[102.27535085770413,19.74263425508596],[102.27561835792167,19.744252877410844],[102.27696949279411,19.745867059174742],[102.27723699691037,19.747753280882193],[102.27750904306131,19.748564851482868],[102.27777654847992,19.74910440081581],[102.27804414187082,19.750451037994466],[102.27885565946175,19.75152572544701],[102.2791232554487,19.751797662030484],[102.27993032676542,19.75260477774181],[102.28020237950088,19.752604782269387],[102.2804698913965,19.752337230596396],[102.28154902851023,19.75206527006391],[102.28370715946531,19.751797693049397],[102.28586096522142,19.75125815030097],[102.286667998063,19.750990635962026],[102.28774710793985,19.750990617735354],[102.28801917978265,19.751258116048362],[102.28828671047106,19.751525660390953],[102.28990535906271,19.75395142712857],[102.28990535906271,19.755837638011258],[102.29017289427858,19.756109640836584],[102.29044488470717,19.756377226924002],[102.2907124212256,19.756649228249202],[102.29097995838166,19.75772384063859],[102.29097995838166,19.758263410021897],[102.2907124212256,19.75853535496863],[102.29017289427858,19.759074910823387],[102.29017289427858,19.75961448277583],[102.29097995838166,19.76042160365263],[102.291791570296,19.760689099612065],[102.29205911003922,19.760689123597146],[102.29259864612206,19.760421621250643],[102.2936777261119,19.76042162736806],[102.29394527039167,19.76068915508307],[102.2955639138631,19.762307754204556],[102.29664302258104,19.762847388050872],[102.2977176868753,19.763114904276406],[102.29825725035656,19.76338685523301],[102.29852926052112,19.763654418709706],[102.2990688279281,19.76419395964342],[102.29933638514379,19.764461562053427],[102.299603855654,19.764733544864015],[102.299603855654,19.765676643397597],[102.299603855654,19.76661974193091],[102.29933638514379,19.76688732491006],[102.29879681644323,19.767426830243622],[102.29879681644323,19.767698890614824],[102.2990688279281,19.767966362257],[102.30014342825339,19.767966435837963],[102.30095501956006,19.76769885763774],[102.30095501956006,19.76742679891028],[102.30149005633191,19.767426809806807],[102.30176207438356,19.76769882828087],[102.30176207438356,19.767966422165514],[102.30122258130334,19.768773523836344],[102.30095501956006,19.76904549230099],[102.30068300347577,19.76904553171906],[102.30068300347577,19.769313037784528],[102.30256922240736,19.76931301103278],[102.30256922240736,19.769045506386604],[102.30310872200951,19.76904546771408],[102.30337628891809,19.769313058661524],[102.30337628891809,19.770124589601394],[102.30337628891809,19.77065968816845],[102.30337628891809,19.77139010206386],[102.30337628891809,19.772010785383628],[102.30310872200951,19.772010789992024],[102.30310872200951,19.77281786117382],[102.30337628891809,19.773357421555886],[102.30391587977991,19.77389702200314],[102.3041878163904,19.774502349722653],[102.3041878163904,19.774704139924168],[102.30445538589518,19.774971637383914],[102.30553449330145,19.774971609868587],[102.30553449330145,19.77470410466553],[102.30445538589518,19.77382788502682],[102.30391587977991,19.773357456689027],[102.30364831156905,19.772817898076568],[102.30364831156905,19.772278333427337],[102.30364831156905,19.77147126426668],[102.30364831156905,19.77119920570985],[102.30364831156905,19.770468793090217],[102.30364831156905,19.76985257589766],[102.30364831156905,19.769585071790345]]]]},"properties":{"id":"39354"}}]}