{"type":"FeatureCollection","features":[{"type":"Feature","geometry":{"type":"MultiPolygon","coordinates":[[[[75.1420102013482,25.15096788194454],[75.14513888888891,25.148472222222367],[75.14148123847141,25.14948187934037],[75.14106469048394,25.150415039062565],[75.14046629163997,25.15082302517378],[75.13883864508759,25.149669053819565],[75.13769661797417,25.150994466145946],[75.13820390489374,25.151903754340296],[75.13800567626956,25.154370659722304],[75.1392937299942,25.15471191406273],[75.13975879245342,25.153167317708366],[75.1420102013482,25.15096788194454]]]]},"properties":{"id":"19092"}}]}