{"type":"FeatureCollection","features":[{"type":"Feature","geometry":{"type":"MultiPolygon","coordinates":[[[[108.19143466525512,12.432336968316335],[108.19137390136623,12.429360351562721],[108.19169616699136,12.429025065104483],[108.19518385145287,12.428740505642622],[108.19597351074114,12.427113172743347],[108.19808125813702,12.426701660156581],[108.19810133192172,12.425725640191288],[108.19742424858859,12.425020616319827],[108.19537997775492,12.42554470486155],[108.19418151855379,12.422273763021138],[108.19171596950852,12.419904785156604],[108.19103997124475,12.418511284722712],[108.18866529676544,12.417932400173882],[108.1872571478938,12.416579589844076],[108.18800259060228,12.414909125434264],[108.18916768391821,12.414309082031735],[108.18973517523764,12.414297417535082],[108.19133266872714,12.415619574653093],[108.19416904025522,12.41708062066003],[108.19474494086305,12.416575520833703],[108.19477939181749,12.414885796441297],[108.19336825900527,12.413137749566317],[108.19421678331051,12.412363823784986],[108.1964859347863,12.41401502821222],[108.19832105848425,12.414052463107936],[108.20002950032463,12.4129324001739],[108.19961608886612,12.412060546875367],[108.19789109971683,12.41209581163234],[108.195436943901,12.41161675347253],[108.1923596869564,12.408868543837116],[108.18991936577598,12.409858398437805],[108.18867614746003,12.409390462239926],[108.18794887966496,12.40694444444486],[108.186868693033,12.407095269097539],[108.18590867784187,12.408559299045393],[108.18445793999476,12.409030219184359],[108.18365824381428,12.409862467448264],[108.17982984754664,12.410278591580123],[108.1792015923385,12.411497938368285],[108.18040737575862,12.412354600694783],[108.18110805935217,12.412368977864915],[108.18360263400515,12.411530490451725],[108.18447394476905,12.411926540798987],[108.18399108886629,12.41418023003503],[108.18286749945653,12.416073133680854],[108.18091383192169,12.417079535590574],[108.17932257758159,12.417112087674084],[108.1756791856545,12.41650499131974],[108.172955661349,12.41465874566002],[108.17068298339748,12.414271104600942],[108.16892517089761,12.416952311198301],[108.16614061143557,12.416252712673867],[108.16493103027247,12.415335015191417],[108.16136494954313,12.41691026475722],[108.15968905978619,12.418181966146122],[108.15732116699112,12.41696207682324],[108.15687574598408,12.417826877170484],[108.15864061143574,12.419308268229457],[108.16385654025518,12.420394151475975],[108.16778367784204,12.423581814236314],[108.16712666829338,12.425501573351013],[108.16959764268555,12.429366590712192],[108.17042690700842,12.431922200521115],[108.17343634711281,12.43374728732671],[108.1746312798384,12.433079969618333],[108.17395690917854,12.431109483507257],[108.17540818956056,12.42866482204883],[108.17609395344945,12.427951117621902],[108.17841952853624,12.426540798611427],[108.18051805284196,12.426497938368428],[108.18166144476888,12.427052680121761],[108.18249613443905,12.427854817708607],[108.18308505588007,12.42899793836834],[108.18225714789381,12.429586046007287],[108.17984069824129,12.429979383680916],[108.17892489962995,12.431757269965601],[108.17889071994264,12.433434787326789],[108.17944708930034,12.43401394314263],[108.18109965006423,12.434579535590615],[108.18333245171348,12.434625108507262],[108.18521233452603,12.431582302517683],[108.18639126247749,12.43097493489607],[108.18798007541133,12.432896864149683],[108.18842929416141,12.437489149305833],[108.190285305446,12.438747287326791],[108.19141621907451,12.437738715278073],[108.19144551594937,12.436300726997004],[108.19063632541136,12.434305555555866],[108.19143466525512,12.432336968316335]]]]},"properties":{"id":"10478"}}]}