{"type":"FeatureCollection","features":[{"type":"Feature","geometry":{"type":"MultiPolygon","coordinates":[[[[79.04555013020897,25.372721896701464],[79.044994303386,25.371671006944553],[79.04497233072951,25.370549045139043],[79.04665744357683,25.37061577690973],[79.0454975043406,25.369103190104326],[79.04554850260459,25.366074218750143],[79.04375434027807,25.36370605468761],[79.03894395616365,25.36158474392367],[79.03875000000036,25.3609722222224],[79.03795518663244,25.361124131944536],[79.0375054253478,25.361763237847313],[79.03891574435815,25.363070203993118],[79.03887288411508,25.364156358507174],[79.04000135633723,25.36616319444451],[79.0410142686637,25.367216796875056],[79.0386718750004,25.36660319010433],[79.03817599826445,25.36503689236119],[79.03732747395887,25.364727647569637],[79.03655273437553,25.36636881510431],[79.0339984809033,25.36523166232641],[79.0347279188372,25.36417154947921],[79.03471571180611,25.363861762152837],[79.03385172526092,25.36389594184037],[79.03307156033017,25.364737955729296],[79.03083875868091,25.366005859375193],[79.03224826388927,25.3683675130209],[79.03218505859402,25.369965820312572],[79.03460150824705,25.37027235243066],[79.03501193576435,25.369402669270954],[79.03573757595521,25.368730468750016],[79.03875000000036,25.371849500868194],[79.0394444444448,25.37110026041674],[79.04169243706636,25.37332790798625],[79.04222113715329,25.372208116319484],[79.04277235243089,25.37295030381948],[79.04138346354202,25.374716796875134],[79.04118733723979,25.37527235243074],[79.04419433593782,25.37444552951402],[79.04416097005256,25.373606228298655],[79.04555013020897,25.372721896701464]]]]},"properties":{"id":"9481"}}]}