{"type":"FeatureCollection","features":[{"type":"Feature","geometry":{"type":"MultiPolygon","coordinates":[[[[81.42505859375021,25.215318359375047],[81.42499999999998,25.215000000000188],[81.42457421875,25.215124999999958],[81.4245,25.21587109375021],[81.42494140625016,25.21643164062509],[81.42505859375021,25.216693359374958],[81.42530859375009,25.217129882812614],[81.42515234375006,25.217732421875084],[81.42456640625002,25.21819335937508],[81.42430859375011,25.21830664062506],[81.42419140625,25.218568359375112],[81.42294140625015,25.21993066406266],[81.42305859375008,25.220943359375056],[81.42344140625002,25.221431640624985],[81.42357812500009,25.222642578124947],[81.42431640625003,25.222806640625066],[81.42475390625017,25.22305664062496],[81.42584765625017,25.222924804687594],[81.42619140625001,25.222443359375006],[81.42634765625016,25.221748046875163],[81.4266835937502,25.221556640625025],[81.4270585937501,25.221394531250127],[81.42694140625,25.221056640625036],[81.42625000000012,25.220902343750026],[81.42594140625019,25.22037011718757],[81.42605859375018,25.219931640625035],[81.42619140625001,25.219693359375114],[81.42630859374995,25.21943164062506],[81.42655859375012,25.218995117187575],[81.42644140625018,25.21830664062506],[81.42630859374995,25.21806835937504],[81.42619140625001,25.21780664062507],[81.42594531250026,25.21737499999996],[81.42630468749988,25.21675000000012],[81.42605859375018,25.21631835937511],[81.42586718750002,25.215882812500098],[81.42521875000008,25.215600585937523],[81.42505859375021,25.215318359375047]]]]},"properties":{"id":"19061"}}]}