{"type":"FeatureCollection","features":[{"type":"Feature","geometry":{"type":"MultiPolygon","coordinates":[[[[76.39040676540847,31.543149956597347],[76.39201836480092,31.54278049045149],[76.39166259765679,31.544169108073092],[76.39272243923662,31.54444173177093],[76.39417480468799,31.5424823676217],[76.3941578504778,31.54165283203143],[76.39190009223123,31.540920138889092],[76.39194783528674,31.538580457899442],[76.39280368381137,31.537758246527915],[76.39637736002638,31.536263834635548],[76.39666395399334,31.53325981987861],[76.39611775716205,31.529257269965413],[76.39486490885471,31.52760606553835],[76.39533067491348,31.52624538845508],[76.39682345920167,31.525836046007058],[76.39849121093803,31.526966688368205],[76.39897691514787,31.527967664930742],[76.40002278645883,31.528474934895968],[76.39999064127656,31.526901855468893],[76.39908664279571,31.52514702690989],[76.39971950954904,31.52388617621547],[76.4002804904517,31.523613823784814],[76.40139716254376,31.522485894097386],[76.40137207031287,31.521261121961942],[76.40223605685807,31.519986436632124],[76.40221828884617,31.5191137695314],[76.4001365831169,31.5171137152779],[76.3978051757816,31.51858534071195],[76.39583604600736,31.520280490451555],[76.39481106228348,31.52055284288211],[76.39361382378527,31.519670410156465],[76.39500271267408,31.518336046007065],[76.39554348415831,31.517221679687665],[76.3967753092451,31.516921386718963],[76.39739135742249,31.51502305772584],[76.4015462239586,31.51361518012166],[76.40225219726588,31.515070258246766],[76.4067905002174,31.51501112196192],[76.40779676649336,31.516706271701608],[76.40774332682318,31.51932400173621],[76.40836778428857,31.521759982639068],[76.40931518554717,31.5224972873265],[76.41008422851613,31.520955946180763],[76.40888563368108,31.518629286024577],[76.40894544813406,31.5156990559897],[76.40949896918445,31.514624565972298],[76.41169691297799,31.513319769965406],[76.41376749674512,31.513011881510508],[76.41444769965315,31.510835232204997],[76.41416992187541,31.506924641927256],[76.41581475151943,31.506958279080052],[76.41666937934056,31.50666965060792],[76.41694173177123,31.5052750651043],[76.4173352050785,31.504510904947992],[76.41860839843778,31.505836046007275],[76.420307210287,31.50616780598979],[76.42083563910646,31.507796495225975],[76.4216053602436,31.508535970052236],[76.4224972873267,31.508014865451514],[76.42194118923666,31.50581380208351],[76.42086914062534,31.50478379991337],[76.42016235351608,31.50370578342023],[76.42087076822943,31.503024902343824],[76.42222778320374,31.502366536458553],[76.42376112196226,31.500393880208463],[76.42471950954885,31.496842447916748],[76.4233306206601,31.496391601562635],[76.42291693793439,31.495116916232902],[76.42364474826437,31.49441758897582],[76.4246965874569,31.49224962022579],[76.42557101779565,31.49109727647594],[76.42660413954039,31.491118435329994],[76.42697631835992,31.492645128038333],[76.43081461588585,31.49639784071192],[76.4314027235246,31.496385904948085],[76.43226928710979,31.494638943142547],[76.43131144205759,31.493225911458538],[76.43035427517398,31.493719075521014],[76.42894992404555,31.492257486979355],[76.42972493489626,31.4911138237848],[76.42999728732687,31.490247938368185],[76.42916937934089,31.488581271701563],[76.42973605685816,31.48748128255228],[76.42972547743105,31.48581380208347],[76.43055284288224,31.484997287326593],[76.43218438042587,31.483999294705157],[76.43099975585986,31.482045898437747],[76.43141465928866,31.481647406684203],[76.43413723415827,31.481703016493228],[76.43474134657154,31.48107421875028],[76.43476847330768,31.478613823784926],[76.43638617621568,31.479447157118187],[76.43750528971415,31.47972005208348],[76.43694715711874,31.481047634548773],[76.43833604600744,31.481386176215395],[76.43887315538254,31.481944986979272],[76.44196994357677,31.482218967014106],[76.44194132487033,31.48081759982658],[76.44024129231829,31.479702962239728],[76.44029147677995,31.477246365017635],[76.43971937391521,31.475835774739807],[76.43971516927118,31.47507269965287],[76.43845119900206,31.473406846788322],[76.43973049587706,31.472786187066134],[76.44027506510454,31.471663953993172],[76.44099012586835,31.471113823784933],[76.44257771809939,31.472190212673894],[76.44431315104234,31.472497287326533],[76.44474365234421,31.4707310655385],[76.44722493489613,31.468891601562703],[76.44997762044298,31.46583957248292],[76.45058661566887,31.46555826822943],[76.4505491807731,31.467396104600795],[76.44951158311667,31.46995415581617],[76.44989271375906,31.470552842882057],[76.45220893012188,31.468982747395984],[76.4527750651047,31.469331597222336],[76.45165554470529,31.472091742621785],[76.45167399088578,31.47300103081612],[76.45425781250057,31.47105604383691],[76.45528578016544,31.469985894097334],[76.45726277669317,31.469708387587033],[76.45943712022611,31.467534179687703],[76.45971950954899,31.46665473090289],[76.45777316623301,31.466023220486306],[76.45653143988753,31.465181477864746],[76.4580703396272,31.463041449653048],[76.46078314887191,31.462380371093943],[76.46110839843786,31.45971950954872],[76.46173380533898,31.45817762586833],[76.46132785373297,31.457389594184164],[76.46199612087716,31.455051540798777],[76.46336710612016,31.454717339409896],[76.46488281250058,31.453936631944643],[76.4639573838979,31.45530192057302],[76.46659654405423,31.45530192057302],[76.46694173177119,31.45388617621545],[76.46752495659777,31.45360324435795],[76.4686082628044,31.453625217014093],[76.47098605685804,31.45241699218768],[76.46999552408889,31.45111165364598],[76.47068183051258,31.449779459635593],[76.46971082899339,31.44930826822943],[76.46972913954042,31.448410644531393],[76.47132364908893,31.447365180121764],[76.47166395399361,31.446663953993138],[76.47297593858539,31.445370551215376],[76.47502983941004,31.444724934896115],[76.47717475043456,31.44555284288211],[76.47647094726628,31.442116156684094],[76.4777884928391,31.440850151909913],[76.4771827528215,31.439356825087003],[76.47492906358562,31.43880723741333],[76.47528645833367,31.437763400607807],[76.47386949327299,31.43779242621541],[76.47326497395866,31.439038357204993],[76.47262925889808,31.439441731770998],[76.472203369141,31.438563639323178],[76.47223063151094,31.437226291232776],[76.47053710937556,31.435208875868156],[76.47056410047807,31.433887261284866],[76.4683155653216,31.433323567708513],[76.46749199761317,31.43418077256956],[76.46633517795195,31.434157172309156],[76.46639322916704,31.43131700303836],[76.46765679253505,31.4308360460071],[76.46914130316875,31.43184244791682],[76.46947387695346,31.4297989908855],[76.47166951497425,31.428874782986213],[76.47253106011331,31.428892415364714],[76.47249647352479,31.4305867513023],[76.47181667751792,31.431906738281498],[76.4727903917105,31.43222249348979],[76.47359347873325,31.433878038194578],[76.47390448676245,31.434163953993348],[76.47500461154542,31.432485894097425],[76.47634060329895,31.432513292100836],[76.47666395399344,31.434169379340446],[76.479890272353,31.434519856770905],[76.47935682508736,31.43607828776058],[76.48060723198839,31.437775065104276],[76.48329305013058,31.43708658854176],[76.4836083984379,31.438058268229227],[76.48446912977468,31.43833062065997],[76.48668904622426,31.436825629340404],[76.48777913411507,31.438488226996668],[76.48969590928849,31.43750081380226],[76.48999728732693,31.434643554687796],[76.48856377495716,31.433581000434145],[76.4858520507818,31.433636338975987],[76.48536621093788,31.4331304253473],[76.4858250596794,31.430010850694572],[76.48650987413234,31.428322482639075],[76.48578504774358,31.428337131076646],[76.48333604600751,31.42937310112879],[76.48561401367223,31.42620578342033],[76.48643513997447,31.425836046007106],[76.48805406358545,31.426670193142556],[76.4902552625874,31.42634847005226],[76.49132459852459,31.427421875000206],[76.4940182834205,31.427775065104214],[76.49499728732692,31.427398003472433],[76.49378485785641,31.426602918837062],[76.4942769368495,31.42420003255218],[76.49388454861142,31.42305392795153],[76.49530259874174,31.421912977430708],[76.49527425130267,31.420524359809207],[76.4930582682297,31.420471191406364],[76.49659315321233,31.416981336805776],[76.49764648437557,31.41639160156265],[76.49810574001808,31.41827555338554],[76.49933987087726,31.418608398437684],[76.49972208658889,31.41665039062518],[76.50046061197966,31.415941026475807],[76.50224039713575,31.416397026909834],[76.5036257595489,31.41636881510442],[76.50333048502645,31.41694200303833],[76.50335449218787,31.41812120225704],[76.50425889757,31.420295681423823],[76.50528035481804,31.420274793836953],[76.50587375217052,31.420580512152867],[76.50690090603356,31.42164957682317],[76.50752495659756,31.42195231119807],[76.5082336425784,31.421937934027852],[76.50860839843816,31.420956217448094],[76.50555826822952,31.41742377387169],[76.50670749240518,31.415836046007044],[76.50861111111155,31.41648763020848],[76.50977159288223,31.416090494791746],[76.51027506510448,31.415536566840416],[76.50916937934082,31.414441731770978],[76.50727851020022,31.41413384331615],[76.50694715711839,31.412775065104256],[76.50541151258736,31.410751139323054],[76.50444159613775,31.410280490451626],[76.50444783528687,31.409969346788344],[76.50559814453177,31.408864203559148],[76.5072303602436,31.40889756944459],[76.50816826714438,31.406964246961948],[76.5105502658424,31.40663167317726],[76.50999606662359,31.4055560980904],[76.51049940321238,31.404085557725807],[76.50861382378528,31.40212022569456],[76.50991644965316,31.40126627604178],[76.51110839843793,31.399163953993167],[76.51168565538231,31.398891601562596],[76.51272433810814,31.39997260199665],[76.5141693793407,31.40083062065989],[76.51505411783907,31.40258056640633],[76.51471815321221,31.40389105902794],[76.51537990993975,31.404163953993148],[76.5180642361116,31.399875488281367],[76.51860839843809,31.39846272786471],[76.51658637152852,31.397446017795247],[76.51694118923663,31.395813802083495],[76.51583604600742,31.394700249566185],[76.51824015299522,31.39353407118068],[76.51888102213601,31.392212727864774],[76.52114339192761,31.393636067708528],[76.52393052842919,31.39362603081615],[76.52471950954899,31.394447157118208],[76.5261409505213,31.39471950954878],[76.5271187337245,31.393701714409858],[76.525461697049,31.3912573242188],[76.52415256076452,31.390832519531372],[76.52414699978354,31.388060980902907],[76.52476576063427,31.38776068793419],[76.52636488172786,31.38609646267375],[76.52748684353335,31.38611924913215],[76.52868028428875,31.385710720486216],[76.53150349934933,31.383227267795263],[76.53414360894149,31.382364637587017],[76.53444213867223,31.383894314236358],[76.53531684027828,31.383443739149428],[76.5363861762157,31.38218153211818],[76.53582505967935,31.380542263455055],[76.53584011501775,31.37980658637163],[76.53694715711842,31.379447157118165],[76.53800225151943,31.378411729600927],[76.5391693793409,31.376947157118167],[76.53950073242223,31.375588378906443],[76.54169691297798,31.375230848524524],[76.54166381835981,31.37360839843771],[76.54222493489615,31.372780490451447],[76.54337958441883,31.36916937934042],[76.54499728732716,31.37000271267388],[76.54660007052993,31.370393608941058],[76.54564059787359,31.373709038628547],[76.54632771809943,31.374369303385464],[76.54834608289983,31.370208875868215],[76.5483299424919,31.369418945312574],[76.5471667480472,31.3677029079863],[76.54751939561666,31.36632676866327],[76.54817898220548,31.365046386718888],[76.54968736436686,31.364557020399417],[76.55150607638919,31.365493977864816],[76.55250800238744,31.367524956597293],[76.55246934678874,31.36942138671904],[76.55357584635485,31.3699972873265],[76.55388617621557,31.36777506510427],[76.55471950954902,31.364703233507086],[76.55362806532165,31.363654785156456],[76.5530681694884,31.362500271267436],[76.55217163085976,31.362209472656374],[76.55166937934078,31.361636827257186],[76.5533650716151,31.358848741319605],[76.55472262912369,31.35605088975717],[76.55716715494847,31.3537022569445],[76.55810614691902,31.352269965277898],[76.56152425130264,31.353800184461974],[76.56108764648476,31.355931803385474],[76.561115993924,31.357319607204985],[76.56154568142423,31.35805284288213],[76.56311618381139,31.35545600043413],[76.56395901150225,31.35320529513919],[76.56584906684063,31.35368977864593],[76.56582085503501,31.3523074001737],[76.56360839843788,31.351947157118218],[76.56297200520893,31.351619466146005],[76.56179741753502,31.350396864149474],[76.5625584581168,31.348173285590406],[76.56418077256987,31.34777777777795],[76.56416992187556,31.345813802083526],[76.56661729600731,31.343344997830044],[76.56754082573829,31.34305826822927],[76.56921115451448,31.343630099826456],[76.57042209201418,31.343605414496594],[76.5694247775613,31.341669379340402],[76.57321316189282,31.337772623698058],[76.57482231987885,31.33747097439253],[76.57669826931462,31.337509223090507],[76.57721950954905,31.336914333767552],[76.57499728732691,31.335836046007145],[76.57406792534763,31.334921332465427],[76.57611382378533,31.332224934896033],[76.5764023166237,31.331630588107714],[76.57638129340316,31.330598687066114],[76.57847276475738,31.33025824652796],[76.57888617621578,31.328696560330002],[76.57743557400224,31.328225911458475],[76.57694390191031,31.32721245659738],[76.5765178765196,31.328525390625188],[76.57583604600731,31.32774793836822],[76.57681030273469,31.325379503038306],[76.57779201931461,31.324436306423806],[76.57894165039099,31.324459635416858],[76.58038628472261,31.325963270399512],[76.58319281684058,31.326386176215394],[76.58388617621566,31.325938042534915],[76.5822195095491,31.325280490451476],[76.5807047526047,31.32425374348979],[76.58111558702294,31.323053385416856],[76.58027506510464,31.32278049045148],[76.57989501953179,31.322384982639022],[76.58092488606817,31.32038601345498],[76.58299031575584,31.31903184678835],[76.58475938585113,31.316893446180828],[76.58527506510453,31.315830620659995],[76.587508273655,31.31528618706605],[76.58988864474864,31.313154296875183],[76.5927445475264,31.315090332031545],[76.59339504665834,31.3183406575522],[76.59400933159773,31.31832790798626],[76.59528049045181,31.316391601562614],[76.59555284288237,31.314703233507032],[76.59499728732678,31.31416937934037],[76.59466756184938,31.313153483072995],[76.59502495659783,31.31245958116338],[76.59567559136318,31.311834581163268],[76.59750271267396,31.31111382378478],[76.5989940049918,31.308413085937644],[76.60098890516545,31.30741563585103],[76.60180135091204,31.306176486545283],[76.60305311414973,31.305569118923657],[76.60417805989621,31.303319498698087],[76.60525960286512,31.303341471354315],[76.60678792317756,31.302949761284964],[76.60535753038224,31.300801866319517],[76.60643636067775,31.297650010850717],[76.60861382378525,31.297224934895937],[76.6088861762158,31.29675347222232],[76.60666395399338,31.29639160156266],[76.60555284288242,31.29583604600724],[76.60525295681455,31.295524088541768],[76.60528835720518,31.293787163628537],[76.6100381130648,31.29301378038221],[76.61440660264813,31.293103027343847],[76.61471950954913,31.292758789062688],[76.61404975043459,31.292115342881985],[76.61906792534754,31.289680718316035],[76.62083062066009,31.283052842882128],[76.6214082845058,31.282200520833456],[76.62327785915832,31.281293402777948],[76.62371473524334,31.279947102864796],[76.62166395399336,31.279447157118213],[76.61978976779548,31.278481716579947],[76.6180217827696,31.27805067274305],[76.61644666883737,31.2772393120661],[76.61515638563404,31.275065917968874],[76.61564561631988,31.273636610243187],[76.6144471571184,31.273036566840403],[76.615002712674,31.27250271267374],[76.6152743869363,31.270809190538245],[76.6178466796878,31.267956271701422],[76.61872178819479,31.266152072482782],[76.6199064127608,31.265836046007124],[76.6238773600264,31.26744683159737],[76.62722493489625,31.269163953993115],[76.6284574381514,31.270099012586954],[76.63010796441009,31.27287950303834],[76.6312300618495,31.27333062065982],[76.63225219726601,31.271608615451527],[76.6322079806861,31.269439019097405],[76.63333604600743,31.26889160156263],[76.63583604600731,31.2666693793404],[76.63671725803007,31.26532552083343],[76.63992919921932,31.265002712673763],[76.642219509549,31.266391601562646],[76.64346408420201,31.266663953993117],[76.64388617621589,31.265896809895978],[76.64245768229196,31.26554877387163],[76.6425164116757,31.262666829427204],[76.64445271809936,31.2613972981773],[76.64618611653694,31.259627278645908],[76.64769802517415,31.256568467882204],[76.65155029296912,31.254176161024446],[76.65583116319479,31.253608127170267],[76.66217787000906,31.253325737847405],[76.66693128797797,31.253602973090437],[76.66977023654547,31.254179958767537],[76.67373657226622,31.254155544704943],[76.67721950954919,31.254991590712038],[76.67749728732676,31.255280761718822],[76.6800600857209,31.25530463324668],[76.68293429904574,31.257016330295315],[76.68425903320369,31.259036729600865],[76.68563991970544,31.261822102864727],[76.68694173177133,31.262780490451433],[76.68785807291718,31.26307779947932],[76.68929606119829,31.264891764322996],[76.69013468424546,31.26701795789957],[76.69092719184064,31.26818712022572],[76.69222493489613,31.268608398437593],[76.69288953993114,31.269299858941025],[76.69233846028683,31.2714499240452],[76.6934379069015,31.276505805121673],[76.69551486545188,31.278863661024374],[76.69674682617242,31.279776746961986],[76.69568454318616,31.282969835069594],[76.69049601237012,31.288085394965464],[76.68806898329055,31.288036024305725],[76.68614542643266,31.28902696397587],[76.6855582682297,31.290836046007072],[76.68415052625917,31.29111083984391],[76.68064860026075,31.29460557725706],[76.67867865668458,31.29524495442719],[76.67333062066021,31.295552842882103],[76.67153401692744,31.29592068142378],[76.66914767795194,31.294691297743313],[76.66747450086845,31.29472547743066],[76.66753770616359,31.297820366753612],[76.6657840983078,31.300712076822975],[76.66614095052134,31.301663953993213],[76.66722425672796,31.301105957031425],[76.66777506510456,31.303058268229364],[76.66874579535644,31.305073513455],[76.66955308702305,31.306264648437647],[76.6725264485681,31.30912136501756],[76.67249688042577,31.310569390191105],[76.6693999565978,31.312123209635587],[76.66664686414984,31.311391601562804],[76.66666314019133,31.313364529079976],[76.66359714084237,31.313342013889027],[76.66361816406285,31.3143717447918],[76.66499728732677,31.316407877604277],[76.66426161024336,31.31711452907993],[76.66134806315156,31.316391601562614],[76.65958984375058,31.316993543836944],[76.65880411783914,31.31819173177088],[76.65790445963583,31.321381564670304],[76.65861829969666,31.322800835503614],[76.65918063693638,31.32334147135427],[76.65917249891535,31.324588758680676],[76.65808648003522,31.325115559896034],[76.6559810384122,31.328662651909838],[76.6541368272573,31.32999728732659],[76.65197970920175,31.32888590494811],[76.65158081054747,31.326028645833475],[76.64841240776965,31.324683702257147],[76.64235026041698,31.324659559462006],[76.63751695421061,31.32676567925354],[76.63663085937552,31.328117133246707],[76.63500271267398,31.3297420247398],[76.63708685980956,31.32969943576407],[76.63925808376777,31.32838270399317],[76.64383924696219,31.326675075954995],[76.64569240993964,31.328171115451454],[76.64722493489646,31.33166395399323],[76.64749728732673,31.3336138237849],[76.64810723198829,31.333886176215557],[76.65183946397602,31.333025173611233],[76.65353244357695,31.33345893012185],[76.65471978081641,31.333052571614743],[76.65639241536488,31.33308675130226],[76.6611618381082,31.34172444661479],[76.66289428710999,31.342219509548812],[76.66248684353351,31.34022976345497],[76.66252821180612,31.338199869791765],[76.66039998372455,31.33713785807302],[76.65960937500037,31.335932074652888],[76.65916937934063,31.33422336154534],[76.6611562771271,31.331761881510616],[76.65987996419327,31.32881184895851],[76.66230645073821,31.32426215277799],[76.66529527452295,31.325393337673788],[76.66527492947083,31.32639160156276],[76.66558539496563,31.326941731770916],[76.66640258789099,31.326091037326506],[76.66636895073842,31.324441731771003],[76.67039333767414,31.322419433593822],[76.67217678493958,31.320563151041796],[76.67336710612014,31.32027289496537],[76.67501342773491,31.31942491319471],[76.67621392144147,31.319449327257118],[76.67666395399348,31.320836046007088],[76.67715698242242,31.32130995008697],[76.67863009982702,31.321663953993166],[76.67935384114631,31.320910644531423],[76.67862616645019,31.319498426649588],[76.67692830403703,31.319166937934355],[76.67639160156298,31.31860839843766],[76.67524142795187,31.31832790798626],[76.6747249348962,31.317170410156407],[76.67638170030418,31.315578613281474],[76.67831882053028,31.31292480468771],[76.67860839843789,31.310509440104255],[76.67611382378507,31.305525716146022],[76.67704671224018,31.304629448784894],[76.67951144748318,31.304169379340394],[76.68084391276093,31.306414116753686],[76.68223063151103,31.306385904948073],[76.68221530490499,31.305632866753697],[76.68081922743099,31.304717610677173],[76.68085978190143,31.302731662326607],[76.68368733724012,31.303213975694604],[76.68593180338596,31.30275417751747],[76.68777086046046,31.302769368489777],[76.6900547960075,31.30408474392368],[76.68935275607677,31.30544759114595],[76.68607516818614,31.308654242621685],[76.68611450195371,31.310586208767504],[76.6880859375004,31.312537434896086],[76.68804538303013,31.314525010850844],[76.68745293511321,31.31683675130226],[76.68646796332499,31.317314453125164],[76.68732638888937,31.318139377170226],[76.68694173177133,31.31888617621533],[76.68666937934083,31.320307617187623],[76.68729709201452,31.321525878906428],[76.68948635525228,31.321941731771105],[76.68999728732709,31.321359049479355],[76.6888802083337,31.320285915798763],[76.68888454861153,31.319370930989777],[76.69055216471386,31.318134765625132],[76.6909832085507,31.31284640842027],[76.68954861111146,31.310729709201524],[76.68916937934065,31.30913682725705],[76.69083604600738,31.307502712673838],[76.69305284288234,31.30471950954872],[76.69395168728337,31.30428331163209],[76.69631334092915,31.3037076822919],[76.69774888780412,31.307497287326555],[76.70052232530426,31.30505750868069],[76.70222493489612,31.304724934895916],[76.70597927517397,31.30315185546884],[76.7123242187503,31.302737901475894],[76.71444715711843,31.301669379340495],[76.71557495117239,31.30082519531257],[76.71669162326427,31.30082438151065],[76.72000271267419,31.29778049045163],[76.72034301757876,31.296732042100814],[76.72142333984434,31.294950629340406],[76.72277587890662,31.293650987413344],[76.72333062066028,31.29194173177099],[76.72510918511333,31.288106553819603],[76.72683512369835,31.287546386718887],[76.72916937934085,31.288330620659792],[76.73385186089459,31.292756347656322],[76.7380877007383,31.29612765842029],[76.74075276692744,31.298822157118238],[76.7412761773007,31.300968967014043],[76.74341240776968,31.30403049045148],[76.74416395399359,31.305981716579964],[76.74333062066043,31.306386176215526],[76.74258327908032,31.3102140299481],[76.74166951497463,31.311092122396005],[76.74139160156304,31.31189887152786],[76.74360256618988,31.3157375759549],[76.74405938042585,31.318330620659808],[76.74657145182331,31.316627875434193],[76.74813300238756,31.313781467014024],[76.74889716254395,31.31417507595502],[76.74887790256136,31.31512207031271],[76.74718546549522,31.31758436414944],[76.74556274414121,31.319143608941133],[76.74458075629391,31.320757378472464],[76.74687974717924,31.322060818142532],[76.74780504014794,31.320502115885574],[76.74899970160627,31.319354383680746],[76.74975138346409,31.319741482205004],[76.75085313585109,31.31971896701414],[76.75082505967956,31.318341471354287],[76.75121771918455,31.317578938802342],[76.75225884331635,31.317073838975844],[76.7513141547312,31.31159613715286],[76.7516707356775,31.310554741753535],[76.75106594509614,31.309662543402865],[76.74777506510455,31.306391601562638],[76.74498711480092,31.300620388455044],[76.74335150824689,31.298067491319586],[76.74203748914985,31.29678331163211],[76.74083062066026,31.29639160156266],[76.74026991102463,31.29553656684034],[76.73860839843783,31.294447157118185],[76.73702826605947,31.292825249566178],[76.73451483832517,31.29126464843759],[76.73396525065155,31.290131835937615],[76.73249728732688,31.28916937934035],[76.73150716145878,31.287659505208495],[76.72995279947955,31.28664035373292],[76.72774861653724,31.28581407335085],[76.72549167209255,31.285860188802218],[76.72305826822961,31.288336046007075],[76.72220323350732,31.2888861762154],[76.72083604600729,31.287219509548763],[76.71999145507854,31.286665581597347],[76.72000637478342,31.28593722873275],[76.72194715711859,31.285558268229323],[76.72388617621581,31.284719509548765],[76.72542955186682,31.284343261718988],[76.72750271267401,31.28194715711821],[76.7287896050353,31.279677463107788],[76.72831434461861,31.278288845486273],[76.7283382161464,31.277118598090397],[76.7294765896273,31.276372341579943],[76.73121351454031,31.27464029947926],[76.7316639539936,31.27274793836817],[76.73073879665853,31.270907931857806],[76.73142049153685,31.27025282118072],[76.732805447049,31.270281304253686],[76.73615993923667,31.272315538194547],[76.73807752821236,31.272775065104398],[76.73982096354209,31.26926079644103],[76.73942586263061,31.267718641493204],[76.73945461697102,31.26630832248283],[76.74174723307331,31.264105631510546],[76.74501736111145,31.26494384765637],[76.7472195095493,31.26360839843761],[76.74927015516536,31.263321940104376],[76.75195109049517,31.26055474175365],[76.7513453504782,31.26026068793422],[76.75001546224016,31.25887668185763],[76.7473149956601,31.25977077907993],[76.74526719835106,31.261012641059224],[76.74526869032181,31.262808702257047],[76.74175726996563,31.262737087673713],[76.73840372721415,31.26407633463566],[76.73763061523479,31.264881184896055],[76.73719143337709,31.268923339843965],[76.7360921223964,31.26944173177104],[76.7346015082471,31.267944878472306],[76.73206542968799,31.266947157118153],[76.72941636827287,31.268623318142446],[76.72832505967946,31.269713812934157],[76.727764350044,31.270869411892548],[76.72777492947083,31.27194715711815],[76.7284080674917,31.27288113064253],[76.72720282660637,31.276156955295306],[76.72583496093799,31.277471245659854],[76.72361382378514,31.28194715711821],[76.72086357964443,31.283031955295357],[76.71636962890679,31.285860460069756],[76.71640055338574,31.287374945746635],[76.72029635959265,31.288891330295314],[76.72086371527828,31.289481879340443],[76.72082953559075,31.29115939670146],[76.71997504340314,31.29281819661489],[76.71944173177141,31.293330620660043],[76.71578938802142,31.298943413628578],[76.7122195095491,31.29944173177107],[76.70788953993113,31.300964898003585],[76.70381564670177,31.301462673611255],[76.70158311632,31.30050835503482],[76.70055826822968,31.29944173177107],[76.69940321180584,31.2988812934029],[76.6980688476568,31.298908420139057],[76.69778049045195,31.298608398437707],[76.69664971245712,31.2983325195315],[76.69609239366363,31.297752549913298],[76.69362304687539,31.297803005642493],[76.69289021809928,31.296685384114724],[76.6936583116325,31.295194227430642],[76.69555284288234,31.293303493923716],[76.69468424479217,31.2924690755209],[76.69361382378511,31.290253092447955],[76.69483086480082,31.288457573784953],[76.69614854600738,31.287191569010517],[76.69722493489641,31.286669379340353],[76.69754069010472,31.28505262586819],[76.7000737847226,31.281451551649454],[76.70111382378528,31.28111382378485],[76.70223809136317,31.280351833767625],[76.70367309570369,31.281440700954974],[76.70471950954894,31.28133707682312],[76.70309611002656,31.279777560764074],[76.69971950954894,31.279447157118213],[76.69805826822952,31.277497287326455],[76.69608059353348,31.276073676215418],[76.69524712456641,31.274698079427196],[76.69527492947086,31.272497558593827],[76.69555840386343,31.271946885850866],[76.69555840386343,31.27083089192719],[76.69527492947086,31.270280219184144],[76.69527357313413,31.26826931423625],[76.69033365885454,31.263374565972484],[76.68860839843794,31.261947157118172],[76.68783338758706,31.260765245225812],[76.68713650173672,31.25829454210097],[76.68555284288252,31.257780490451538],[76.68110839843806,31.253869086371623],[76.6794630262593,31.25390272352442],[76.6776681857643,31.253310004340378],[76.67611762152828,31.25334174262163],[76.6747249348962,31.252497287326506],[76.6734456380212,31.25208197699665],[76.67067816840327,31.252648925781372],[76.66069444444477,31.25069444444469],[76.66013956705766,31.250884331597348],[76.65749755859409,31.25083034939243],[76.65472778320341,31.251810980902903],[76.65150743272633,31.25233534071191],[76.64825859917588,31.25365315755218],[76.64608778211837,31.255300292968954],[76.64502644856807,31.257488064236384],[76.6427750651047,31.258886176215555],[76.64194715711861,31.260002712673682],[76.63970187717067,31.261397026909847],[76.63513332790833,31.262077907986253],[76.63256890191028,31.262955457899437],[76.63137071397605,31.26417860243069],[76.63080837673655,31.265337727864647],[76.63024888780413,31.2676323784723],[76.62729709201417,31.26631266276057],[76.62694715711862,31.264163953993204],[76.62221950954896,31.263891601562648],[76.62082071940134,31.263324381510657],[76.62028049045173,31.261108398437614],[76.61991156684078,31.26055826822929],[76.61747016059067,31.26360839843761],[76.61586561414961,31.262781846788442],[76.61472493489643,31.262518988715442],[76.61606960720522,31.263862575954946],[76.61550957573834,31.266597222222245],[76.61388617621569,31.268608398437593],[76.61249728732682,31.270830620659922],[76.6119365776913,31.27225206163213],[76.61194729275203,31.272780219184142],[76.61059828016542,31.2760134548612],[76.61112494574715,31.280650499132165],[76.61204087999161,31.28332628038207],[76.61411322699709,31.285893554687647],[76.61444173177122,31.287148166232797],[76.61144911024357,31.287992350260637],[76.60911010742225,31.287191569010517],[76.60812174479233,31.286162923177216],[76.6086249457471,31.28469265407999],[76.6097102864587,31.283649902343825],[76.61027506510479,31.282272677951525],[76.60860839843784,31.28194715711821],[76.60818332248309,31.281504991319565],[76.60772908528688,31.279177788628573],[76.60666937934073,31.28028049045149],[76.60534667968804,31.280603027343787],[76.60252821180617,31.280242784288404],[76.60221421983564,31.280569661458443],[76.6006972927523,31.28053873697938],[76.59936306423671,31.28233859592021],[76.59754421658042,31.284086100260552],[76.59419650607677,31.284553493923696],[76.59263604058188,31.28401936848968],[76.59203504774345,31.28464491102443],[76.59273939344664,31.286012098524537],[76.59404907226607,31.286437174479317],[76.59328884548668,31.287558593750106],[76.59033989800403,31.288989257812702],[76.59000271267408,31.28989529079884],[76.59195868598133,31.290277235243266],[76.59193522135453,31.29142306857655],[76.5908194986985,31.293069118923697],[76.59084960937528,31.294548882378578],[76.59145222981826,31.296899956597343],[76.59055243598121,31.297764485677234],[76.59000271267408,31.299724934896105],[76.58947333441878,31.30027506510433],[76.58776095920197,31.29624104817735],[76.58778062608556,31.295275065104263],[76.58758002387205,31.295002712673778],[76.58657524956632,31.296535101996767],[76.58511610243104,31.29542805989594],[76.58444715711838,31.29613009982657],[76.58556925455778,31.297242296007056],[76.58554972330765,31.298205566406324],[76.58400227864647,31.298956163194603],[76.58500271267397,31.29944173177107],[76.58527506510453,31.29991455078141],[76.58403889973991,31.300315483941148],[76.58510362413236,31.302382541232788],[76.5823714192712,31.30567382812515],[76.58049302842946,31.3061083984376],[76.57689588758714,31.305371636284974],[76.57579033745694,31.308174641927238],[76.57261895073842,31.310383843316174],[76.56986450195362,31.311720106336935],[76.56857503255245,31.317627224392538],[76.56722574869829,31.3202465820315],[76.5666669379344,31.32279188368068],[76.56546210395018,31.322767469618356],[76.5647056749136,31.323921169705102],[76.5637282986115,31.324860297309144],[76.56177951388938,31.325275065104364],[76.55968478732692,31.32442545572934],[76.55829671224004,31.32445366753494],[76.55840345594655,31.329685058593867],[76.560190022787,31.33003363715285],[76.56128472222261,31.329659016927167],[76.56194173177144,31.330029839409846],[76.56110270182322,31.33083604600715],[76.56111395941898,31.331391601562572],[76.55947252061677,31.33355468750014],[76.5577647569448,31.333888075087017],[76.55856635199709,31.33544433593761],[76.5572195095489,31.33721950954873],[76.55665622287373,31.338908420139134],[76.55549587673656,31.33888481987863],[76.55389160156287,31.337627224392662],[76.5559482150613,31.33610270182305],[76.55572387695346,31.335558268229292],[76.55386555989625,31.336685384114716],[76.55200615776968,31.33728868272587],[76.54860853407158,31.337219238281364],[76.5477235243059,31.337819281684162],[76.54458414713596,31.337754991319656],[76.54305826822971,31.33583034939258],[76.54230441623295,31.33584581163207],[76.54427124023485,31.338580729166907],[76.54630438910633,31.338977593316102],[76.5447033691411,31.34252848307318],[76.54197252061661,31.34455295138909],[76.54057752821237,31.34407552083347],[76.53915635850737,31.341936035156323],[76.53833889431453,31.34195285373272],[76.53591159396737,31.340558268229287],[76.53373521592923,31.342209743923704],[76.53336317274355,31.343052842882088],[76.53502983941016,31.34222493489591],[76.53668009440159,31.34307508680567],[76.53825615776967,31.34304307725715],[76.54022501627654,31.346515842014156],[76.53969726562528,31.347540418836914],[76.5383306206601,31.34888617621543],[76.53721950954932,31.350552842882237],[76.53639160156288,31.35278049045158],[76.53456665039104,31.355500488281493],[76.53336073133735,31.356085340711886],[76.52721394856806,31.360547146267393],[76.52629747178864,31.361471354166767],[76.52329006618984,31.360958387586976],[76.5219810655386,31.360284016927295],[76.52254435221406,31.3569816080731],[76.52166937934086,31.355956217448153],[76.52348944769997,31.35370171440985],[76.52388617621565,31.35253607855917],[76.52314114040828,31.351669379340464],[76.52262668185793,31.35325493706611],[76.52053941514791,31.354623480902944],[76.5205697970924,31.356113009982764],[76.5166581217454,31.356386447482777],[76.51666951497467,31.357780219184207],[76.51609768337707,31.358890245225865],[76.51870239257855,31.359208713107805],[76.52148478190176,31.360895996094015],[76.52305284288244,31.362934570312603],[76.52206665039094,31.364389377170255],[76.5180887858078,31.366837022569598],[76.5146542697486,31.366335177951555],[76.51402777777813,31.365683051215385],[76.51345567491362,31.366278483073074],[76.51472656250056,31.367220594618203],[76.51424777560814,31.36861924913211],[76.51005479600755,31.371943630642534],[76.5047844780822,31.372312011718932],[76.50444715711839,31.37327202690983],[76.50664998372432,31.37270724826402],[76.50694173177126,31.373722601996676],[76.50441460503507,31.375291883680646],[76.49945271809932,31.38056396484393],[76.49833062066025,31.381108398437775],[76.4934427897139,31.386127387152982],[76.49180555555594,31.386094021267553],[76.49136461046058,31.38700303819462],[76.49139499240508,31.388496093750163],[76.49052571614638,31.389719509548783],[76.48912841796906,31.3889995659723],[76.48803385416724,31.389741753472293],[76.48627780490497,31.3897056749133],[76.48549804687562,31.388516438802213],[76.48305826822948,31.388684624566096],[76.48502577039963,31.390574815538372],[76.48895833333361,31.390610894097364],[76.48998575846409,31.391636555989763],[76.48741861979224,31.39483859592029],[76.4859722222225,31.396228298611348],[76.48434217664968,31.394912380642538],[76.48499728732676,31.393313530816144],[76.48281141493104,31.393358289930603],[76.48015082465335,31.391744791666795],[76.47944715711864,31.39251898871541],[76.48000271267423,31.393052842882227],[76.48054063585099,31.39416151258689],[76.4813916015631,31.39471950954878],[76.48186808268267,31.39570149739599],[76.48376220703156,31.39710747612854],[76.48330349392407,31.39833062065989],[76.48164347330791,31.397492947048875],[76.48084906684099,31.396666124132167],[76.47921698676262,31.3963916015626],[76.47889160156294,31.398058268229235],[76.4774701605908,31.39833062065989],[76.47573079427119,31.39652018229195],[76.4741693793408,31.39778049045148],[76.47220798068619,31.398054470486315],[76.4722311740455,31.39919162326403],[76.4752415635854,31.4020838758682],[76.47413682725764,31.403052842882033],[76.47194173177118,31.402224934895955],[76.47146294487882,31.40123833550372],[76.47038235134576,31.400836046007072],[76.46911282009589,31.40345296223977],[76.46779147678004,31.402772081163263],[76.46507337782171,31.40323594835077],[76.46444715711866,31.404015028212015],[76.46797458224879,31.40601508246543],[76.46740926106818,31.407112358941077],[76.46579956054737,31.407504882812617],[76.46466023763074,31.40809163411464],[76.46389160156306,31.40889187282994],[76.45683241102492,31.40874782986137],[76.45289062500072,31.41194173177098],[76.45080037434948,31.41109375000022],[76.45028049045177,31.410552842882097],[76.44884806315164,31.410280490451626],[76.44687255859427,31.410956759982753],[76.44328165690158,31.411386176215373],[76.43852240668454,31.41005343967025],[76.43581434461848,31.40972493489602],[76.4352804904519,31.410280490451626],[76.43433268229225,31.410588107639086],[76.43366536458385,31.4126445855038],[76.43641425238744,31.41528591579872],[76.43638034396739,31.416945258246784],[76.43722493489642,31.417219509548815],[76.43888617621556,31.42194715711824],[76.44005805121563,31.42223280164947],[76.4393452962245,31.42571289062512],[76.44139173719677,31.42833062065999],[76.4416701931427,31.42916558159736],[76.44111748589447,31.433506130642442],[76.44375908745721,31.432964952257052],[76.44806098090314,31.434593098958516],[76.44803561740488,31.43583658854172],[76.44833604600731,31.435830349392532],[76.44860839843787,31.436768663194556],[76.44489271375917,31.439599609375236],[76.44250271267398,31.437497287326522],[76.44079142252642,31.436669379340444],[76.4402804904519,31.43725206163211],[76.44111911349884,31.438913845486184],[76.44110243055596,31.439730360243146],[76.44166937934077,31.44027506510446],[76.44216078016544,31.44128770616328],[76.44107001410626,31.443404947916846],[76.43925225151943,31.443886176215386],[76.43875556098132,31.442355685764042],[76.43831339518263,31.441930609809248],[76.43737643771735,31.441949869791827],[76.43639160156303,31.443640950520972],[76.4369637044276,31.444751519097366],[76.43692179362014,31.44680284288215],[76.4383473036028,31.447511393229348],[76.43833618164095,31.448613552517543],[76.43803059895887,31.449207085503673],[76.4372264268666,31.44997965494801],[76.43666937934071,31.451391601562648],[76.43617797851604,31.451863878038353],[76.43470526801255,31.452223036024463],[76.43277506510472,31.45388617621545],[76.43231608072969,31.454832085503682],[76.42942491319499,31.45640679253485],[76.42945027669319,31.45764431423632],[76.43425265842072,31.457030436198053],[76.43499728732681,31.458203938802214],[76.43387749566003,31.458747287326602],[76.43389282226596,31.459500054253624],[76.43695868598141,31.45999918619802],[76.43692884657153,31.46145996093759],[76.43609130859417,31.463085666232857],[76.43310587565159,31.464441731770947],[76.43273518880235,31.462542588975836],[76.430921088325,31.46218858506964],[76.42999159071226,31.46250651041693],[76.43000610351592,31.463214518229492],[76.43166937934055,31.465275065104308],[76.43221910264813,31.466680772569575],[76.431375054254,31.46666368272591],[76.43083604600727,31.46555284288206],[76.42860839843783,31.465280490451505],[76.42812947591185,31.4647821723092],[76.42628946940138,31.46589816623286],[76.42498060438405,31.46555881076408],[76.42418240017392,31.466389431423707],[76.42214219835111,31.466721733941114],[76.42250420464447,31.467779134114764],[76.42151936849015,31.469444444444576],[76.42221950954914,31.47128146701401],[76.42026706271739,31.474161783854427],[76.4205871582034,31.474469401041972],[76.42432725694479,31.474392903645906],[76.4261086697052,31.475115559895954],[76.42833062066009,31.476697862413502],[76.42638088650202,31.476657986111235],[76.42512098524364,31.477775065104282],[76.42388170030429,31.4769349500869],[76.42331963433216,31.477520073785016],[76.42333658854201,31.47835286458347],[76.4242309570316,31.479212239583518],[76.4241368272574,31.479997287326597],[76.42305826822954,31.479441731770905],[76.42071031358537,31.47905951605921],[76.42028049045197,31.480101996527907],[76.42166937934067,31.48055284288212],[76.42306382921063,31.481398383246685],[76.42304267035624,31.483824055989714],[76.42185017903702,31.485395507812683],[76.42068481445361,31.48651529947928],[76.4180308702262,31.486941731770898],[76.41636705186667,31.48581380208347],[76.41581637912381,31.4846785481773],[76.41472100151944,31.48362630208348],[76.4144411892365,31.481336805555657],[76.41248074001763,31.47941867404532],[76.41251166449686,31.477902289496626],[76.41123602973121,31.478327365451605],[76.41083604600729,31.47920735677097],[76.41139716254392,31.480846625434182],[76.41136962890678,31.482192925347334],[76.41249728732694,31.484474283854325],[76.41084052191897,31.486088053385487],[76.41017415364658,31.48741509331606],[76.40831637912365,31.487777777777893],[76.40944173177124,31.48895263671905],[76.40638088650209,31.49028618706626],[76.40556355794305,31.49026936848969],[76.40278049045193,31.491616210937565],[76.40447347005241,31.491946885850794],[76.40576416015662,31.49261176215299],[76.40740139431458,31.494676649305816],[76.40665242513049,31.49613064236128],[76.40497911241354,31.496096462673748],[76.4055103895403,31.496606987847443],[76.40840820312556,31.497172580295427],[76.4103759765629,31.495495876736243],[76.41201144748291,31.495002712673767],[76.41345472547792,31.497434082031518],[76.41287448459255,31.49912896050367],[76.40999728732695,31.499441731771128],[76.4088598632816,31.499831000434128],[76.40889865451422,31.501727701823228],[76.40945421006992,31.503351236979228],[76.40819471571214,31.504594455295347],[76.40889838324685,31.50527072482656],[76.40832383897603,31.5061181640626],[76.40971950954898,31.50754069010445],[76.40915812174521,31.509180772569664],[76.40798611111157,31.509156629774424],[76.40527411566896,31.506423339843863],[76.40302571614612,31.506113823784858],[76.40180555555608,31.506742350260524],[76.40042914496578,31.506033257378604],[76.39970865885462,31.50386013454873],[76.39973578559088,31.502528754340517],[76.39932630750903,31.5013321940105],[76.39999728732667,31.499916178385575],[76.39886990017388,31.498891601562633],[76.39783949110293,31.499964192708575],[76.39509195963572,31.501466742621687],[76.39444715711838,31.50280897352455],[76.39649983723993,31.50276692708347],[76.39764214409783,31.504691297743364],[76.39636040581652,31.507554524739746],[76.39536688910644,31.508509114583447],[76.39371663411507,31.51380371093768],[76.39273057725748,31.51477701822934],[76.39183430989615,31.516624620225883],[76.39137125651084,31.51899631076398],[76.39139526367242,31.5201738823786],[76.39228298611144,31.52236219618068],[76.39350382487035,31.523162706163333],[76.39432725694476,31.524418674045293],[76.3937539333775,31.525531412760685],[76.39158704969648,31.524976128472446],[76.38821709526948,31.525044759114692],[76.38669067382867,31.524653591580062],[76.38511990017398,31.52358886718767],[76.38445651584234,31.52222167968783],[76.38331353081642,31.521947157118277],[76.38337388780408,31.52490071614602],[76.38135904947976,31.525552842882107],[76.38003214518264,31.524171820746787],[76.37898681640658,31.523891601562568],[76.37698744032153,31.52641357421888],[76.37947496202295,31.526392415364654],[76.38028605143288,31.527236328125127],[76.38027492947103,31.52778021918435],[76.38071723090312,31.528639051649407],[76.38262301974882,31.528599989149413],[76.38582505967909,31.526658257378656],[76.39007324218798,31.52581488715292],[76.39168619791704,31.52584798177098],[76.39164754231822,31.527740342882083],[76.39224134657164,31.529204101562655],[76.39220893012211,31.530789659288303],[76.39081936306471,31.532511121962145],[76.3908525933164,31.53413736979188],[76.39006279839455,31.53572943793408],[76.38768052842934,31.5374953884551],[76.38678385416713,31.538863118489843],[76.38779215494853,31.540820583767527],[76.38777438693629,31.541692165798878],[76.38663492838592,31.5433734809029],[76.3838920084639,31.548902180989714],[76.38249728732691,31.550552842882126],[76.3818636067713,31.55181532118074],[76.38232896592936,31.5559122721355],[76.38166775173667,31.55719563802107],[76.38138902452309,31.558908148871794],[76.37830362955796,31.563403049045277],[76.37837226020011,31.56677110460089],[76.37968071831645,31.56721950954882],[76.38003214518264,31.56506076388908],[76.38175116645019,31.563933648003655],[76.38344835069498,31.561793077257136],[76.38388617621578,31.559997287326595],[76.38469902886337,31.55917371961816],[76.38639336480091,31.55813720703138],[76.38638359917562,31.557659505208477],[76.38887722439276,31.554689127604334],[76.38555826822986,31.550409071180738],[76.38807779947948,31.549563530816087],[76.38896348741346,31.54821261935774],[76.38959187825552,31.544351942274474],[76.39040676540847,31.543149956597347]],[[76.4485659450958,31.461170789930634],[76.44958333333372,31.460972222222395],[76.44982950846386,31.462174207899437],[76.4491639539934,31.46249728732647],[76.44691813151101,31.464434136284837],[76.44582641601605,31.463332248264194],[76.44722493489613,31.462780490451593],[76.4485659450958,31.461170789930634]],[[76.44748969184067,31.44415879991331],[76.44477945963578,31.441125488281315],[76.44625000000033,31.44097222222244],[76.44677435980955,31.441558973524394],[76.45045857747434,31.44224663628499],[76.45110324435822,31.44359646267378],[76.44748969184067,31.44415879991331]]]]},"properties":{"id":"1666"}}]}