{"type":"FeatureCollection","features":[{"type":"Feature","geometry":{"type":"MultiPolygon","coordinates":[[[[69.3926999989275,30.96977673013511],[69.3926999989275,30.96950917725836],[69.39242801988067,30.969241622324503],[69.39189297295783,30.968969598918747],[69.38973477798888,30.968162541696728],[69.38919518312017,30.967890506783633],[69.38730896321849,30.96600433305514],[69.38704143853968,30.965736753031493],[69.38704143853968,30.963850546649212],[69.38730896321849,30.963578573818637],[69.38838806362688,30.963043439337028],[69.38892765889969,30.962503914150815],[69.38892765889969,30.960885294763486],[69.38812053921797,30.95953861698105],[69.38704143853968,30.959266640314794],[69.38622986174974,30.959266595713217],[69.38622986174974,30.959538599814067],[69.38569481180852,30.95953864088503],[69.38542283101899,30.95926662945415],[69.38515521494574,30.958459537628954],[69.38515521494574,30.957652394761467],[69.38488323402149,30.9573803807522],[69.38461570875884,30.957112872898904],[69.38407611136606,30.957112826590702],[69.38245749947944,30.955226654874735],[69.38218997361517,30.954419559941186],[69.38218997361517,30.954147549641917],[69.38245749947944,30.9538800000621],[69.38272948099669,30.953607997254792],[69.38407611136606,30.953608005195818],[69.38461570875884,30.953608043167847],[69.38569481180852,30.951993822524827],[69.38730896321849,30.950914743738593],[69.38784855902108,30.95064273380784],[69.38838806362688,30.950642729971875],[69.38946716297542,30.950107632779364],[69.38946716297542,30.949835604468916],[69.38919518312017,30.94956802669084],[69.3886556789096,30.949296092514956],[69.38784855902108,30.949296081842874],[69.38622986174974,30.948756524182627],[69.38569481180852,30.948756506943795],[69.38542283101899,30.949028537374332],[69.38407611136606,30.950375191495354],[69.38299700672653,30.950914738402588],[69.38245749947944,30.951182293713927],[69.3819179010267,30.95118225024443],[69.38084325001867,30.950914745005306],[69.37949661570585,30.95091471095016],[69.37895710674329,30.949835650426635],[69.37922463338899,30.948756482815185],[69.37922463338899,30.94848898496909],[69.37895710674329,30.94821693968963],[69.3786851242916,30.947949428889814],[69.37787799710893,30.947949428916814],[69.37733839641916,30.9492960569236],[69.37733839641916,30.949568071867148],[69.37707086932411,30.94983561638037],[69.37653135918461,30.94983564682437],[69.37518471963452,30.949568072226597],[69.3749126453213,30.949296021125846],[69.37275896382951,30.94768190484902],[69.37140786393743,30.947142295059464],[69.37087271589141,30.946602769172557],[69.37087271589141,30.946063178741824],[69.37114024447752,30.945795645133842],[69.37167984816753,30.945795648296027],[69.37167984816753,30.945256136225183],[69.37140786393743,30.94525610819774],[69.37140786393743,30.944716594474002],[69.37167984816753,30.94444451953214],[69.37194737655639,30.944176977542867],[69.37194737655639,30.94363745792623],[69.37194737655639,30.94336987409345],[69.37167984816753,30.94255837387594],[69.37114024447752,30.942558378412315],[69.37087271589141,30.942830360100146],[69.37087271589141,30.94309794380716],[69.37114024447752,30.94309790071506],[69.37114024447752,30.943369921560546],[69.37087271589141,30.943637463172436],[69.37060073146361,30.943909454005052],[69.36979359840578,30.943909489039513],[69.3692540847359,30.943369897539682],[69.36871457080557,30.942290785812148],[69.36844695069877,30.94201878854743],[69.36790743638224,30.942018792598773],[69.36790743638224,30.942558393243743],[69.36763545123577,30.94283037633285],[69.36736792180514,30.94283032695253],[69.36602127118763,30.94255840073552],[69.3657491946469,30.942290767163158],[69.36548166476703,30.94201878088485],[69.36548166476703,30.941211686670187],[69.36520967902757,30.940944149900204],[69.36332350929669,30.94094420535336],[69.36332350929669,30.941483715941928],[69.36305597884169,30.9417512343322],[69.3627839015733,30.941751256448825],[69.36143724545823,30.941751292821593],[69.3611697145632,30.941483737303855],[69.3611697145632,30.94094414811248],[69.3611697145632,30.939057953938473],[69.36089772777294,30.93824637155194],[69.36035820982707,30.938246428918404],[69.36009067867164,30.9387859642557],[69.35982305651672,30.939057985298632],[69.35928353805897,30.939325529416962],[69.35847194103897,30.939325505773027],[69.35820440943431,30.939057943805423],[69.35793687775785,30.938785943926632],[69.35793687775785,30.938246434649642],[69.35820440943431,30.938246419288333],[69.35820440943431,30.937439326906244],[69.35820440943431,30.937171746181733],[69.35820440943431,30.93689972752827],[69.35712537070421,30.935820700961145],[69.35658576002513,30.935553147087333],[69.35577870784269,30.935285535757174],[69.35469957587642,30.935285593276234],[69.35443204338233,30.935013584881403],[69.35443204338233,30.934473984129056],[69.35443204338233,30.933934464799847],[69.3538925223464,30.932859809434873],[69.3536248987273,30.932587782463003],[69.35335291013146,30.932320220620895],[69.35254585564914,30.93178073714354],[69.35227386679261,30.931780674971137],[69.35200624278744,30.932320273971996],[69.35200624278744,30.9328597944061],[69.35227386679261,30.933934484742466],[69.35335291013146,30.93501354592145],[69.35443204338233,30.936360190583017],[69.35469957587642,30.936632197675337],[69.35523909651684,30.937439336661996],[69.35523909651684,30.937978842965634],[69.35497156414877,30.93824642616967],[69.35469957587642,30.938518374170584],[69.35416005497487,30.938785971666576],[69.35416005497487,30.939325553374957],[69.35443204338233,30.939597544836573],[69.35469957587642,30.93986502786919],[69.35497156414877,30.939865093365327],[69.35523909651684,30.940132575400966],[69.35523909651684,30.940404583544165],[69.35497156414877,30.940672158753088],[69.35469957587642,30.94094418234741],[69.35416005497487,30.941211685214824],[69.35335291013146,30.941211685268826],[69.35335291013146,30.941483688830715],[69.3536248987273,30.94175124228238],[69.3538925223464,30.94201882326749],[69.3538925223464,30.942558390548555],[69.3536248987273,30.942830375533404],[69.35200624278744,30.94283037753651],[69.3517387096555,30.943097932569216],[69.3517387096555,30.9433699301304],[69.35200624278744,30.943637413432583],[69.35335291013146,30.943637427347582],[69.3538925223464,30.94417699483543],[69.35497156414877,30.94525609193812],[69.35523909651684,30.945795649185357],[69.35523909651684,30.946063208161576],[69.35497156414877,30.946330764703475],[69.35524139254582,30.94660276513926],[69.35793687775785,30.948216937713255],[69.35901155081947,30.948756474155445],[69.35955106940318,30.949028527304435],[69.35982305651672,30.949296064864626],[69.35982305651672,30.949835615185947],[69.36009067867164,30.95010761681631],[69.36063019674319,30.950375145285733],[69.36143724545823,30.950642662553363],[69.36251637099278,30.95145423565124],[69.36305597884169,30.951993846078523],[69.3638630258142,30.953607995018004],[69.36520967902757,30.95441953214751],[69.36548166476703,30.95468714026157],[69.36628880093295,30.95495464670435],[69.36763545123577,30.95495462558489],[69.36817496567821,30.95468709832818],[69.36898209991276,30.955226663372656],[69.37006121817998,30.955226635471064],[69.37006121817998,30.953340496830762],[69.37033320274239,30.953068455961727],[69.37114024447752,30.953068434222416],[69.37140786393743,30.953340500711477],[69.37140786393743,30.953880061327226],[69.37140786393743,30.954147538538805],[69.37140786393743,30.95468709569616],[69.37140786393743,30.956573309130135],[69.37114024447752,30.95684087682018],[69.37087271589141,30.956840819983597],[69.37060073146361,30.95738040338965],[69.37060073146361,30.95791994480848],[69.37140786393743,30.958731482458887],[69.37194737655639,30.95899905118189],[69.37248697986004,30.95899908155404],[69.37275896382951,30.958731487264828],[69.37329402003198,30.958731511231875],[69.37464511764247,30.958999045854952],[69.3749126453213,30.959266565970083],[69.3749126453213,30.959806193294767],[69.37518471963452,30.960078150638168],[69.37733839641916,30.961424808343338],[69.37814552400633,30.96169232962633],[69.37814552400633,30.962503942295058],[69.37922463338899,30.962503937093885],[69.37949661570585,30.96169234773639],[69.38003175959264,30.9611528112044],[69.38057126802525,30.961152789402277],[69.38138284899256,30.96169235238075],[69.38165037504561,30.961964381140362],[69.3819179010267,30.962771436188305],[69.3819179010267,30.963850524433823],[69.38218883685781,30.964657674431777],[69.38272948099669,30.96492970214244],[69.38299700672653,30.96519720528839],[69.38380858589707,30.967355440187717],[69.38622986174974,30.969509167332077],[69.38730896321849,30.970048724031045],[69.38784855902108,30.970316246517697],[69.38946716297542,30.97031629818889],[69.38973477798888,30.970048705930054],[69.38973477798888,30.96977672029844],[69.3908138760078,30.96977671242935],[69.39108139976125,30.97004872016835],[69.39108139976125,30.97058825608039],[69.39242801988067,30.97058825598154],[69.3926999989275,30.96977673013511]]]]},"properties":{"id":"37044"}}]}