{"type":"FeatureCollection","features":[{"type":"Feature","geometry":{"type":"MultiPolygon","coordinates":[[[[78.40628173828114,24.67578609890458],[78.40777642144113,24.6752744886616],[78.41336317274326,24.675830552843323],[78.41462510850684,24.675180562337815],[78.4179652235243,24.674065890842442],[78.42028049045157,24.673613891602017],[78.425056966146,24.6719197591151],[78.42672634548606,24.670788201226728],[78.42776041666676,24.66975514729873],[78.43051839192722,24.669418165419344],[78.43442165798618,24.669452480740603],[78.43600314670155,24.669128553602945],[78.43666395399319,24.667715182834712],[78.4360956488716,24.664941101074845],[78.4342795138891,24.6644472249354],[78.43157063802076,24.665545959473235],[78.42855278862842,24.6649278089741],[78.42648111979187,24.66408749050622],[78.42539415147579,24.661933559842083],[78.4213083224827,24.66187761094882],[78.42053738064229,24.66109903971423],[78.41921630859363,24.658376295302162],[78.41974609374998,24.656309305827293],[78.41972520616312,24.654719543457546],[78.41933892144115,24.654348517524554],[78.42028049045157,24.653891669379902],[78.42110405815961,24.653078748915362],[78.42140245225707,24.652463819716417],[78.4214008246527,24.650940789117186],[78.4222306315107,24.64971672905871],[78.42221896701395,24.64914689805829],[78.42110243055564,24.649169684516522],[78.42110405815961,24.647845289442813],[78.41966471354183,24.648937377930196],[78.418031141493,24.64860276964032],[78.41692138671871,24.647770657010057],[78.41470323350691,24.645518697103412],[78.41472601996523,24.644399041070457],[78.41110839843739,24.64111389160209],[78.41008165147574,24.63972886827308],[78.41063340928812,24.638116760254448],[78.41166937934028,24.63778055826873],[78.41274658203125,24.637050408257878],[78.41416748046882,24.63778235541507],[78.41471950954875,24.637302246094237],[78.41312093098955,24.63625417073628],[78.411765407986,24.63405534532386],[78.4130390082465,24.63280999077753],[78.41391655815985,24.631471659342964],[78.41373209635427,24.63083611382436],[78.41250271267373,24.631669548882925],[78.41022705078117,24.63162312825584],[78.4080579969619,24.632502882216286],[78.4074175347221,24.632489827474544],[78.4066693793404,24.631636759440553],[78.40788194444454,24.630471801758333],[78.40749565972217,24.629722222222725],[78.40916937934017,24.626947224935392],[78.40944173177095,24.626108330621108],[78.41110839843739,24.624763760037524],[78.40880886501728,24.624389411079207],[78.40804741753462,24.623596903483573],[78.40791666666686,24.62263888888934],[78.40722493489571,24.623630133735276],[78.40793972439255,24.624316813151538],[78.40860839843751,24.626586642795687],[78.40705159505225,24.627607218425027],[78.40639160156243,24.62861399332732],[78.40535210503467,24.628997904460164],[78.40615098741338,24.627409396701935],[78.40607042100689,24.626391669379785],[78.40498046875015,24.62752590603354],[78.40418023003465,24.62999250623976],[78.4036081271702,24.63054219563847],[78.40361735026053,24.630995008681097],[78.40539903428831,24.633869323730977],[78.40470974392352,24.637303331163693],[78.40473036024318,24.638312547472353],[78.40412570529512,24.641000366211486],[78.40295654296878,24.641567586263477],[78.40250271267357,24.642502780490958],[78.40166097005212,24.6429112074116],[78.4016701931424,24.64337012396969],[78.40361355251733,24.643330451118103],[78.40422553168398,24.643645629883324],[78.40414225260432,24.647728203668052],[78.40275010850726,24.649562920464945],[78.40079535590294,24.65086374918684],[78.39874457465285,24.65083909776523],[78.39821641710088,24.649750298394736],[78.3961138237847,24.649474351671486],[78.3969417317708,24.651620720757947],[78.39311659071168,24.653147379557865],[78.39193630642362,24.651919080946683],[78.3894257269965,24.651970350477967],[78.38861382378482,24.652742546929815],[78.3911821831596,24.6531010606559],[78.39220648871546,24.654167344835614],[78.39390462239587,24.654443766276543],[78.39476399739593,24.65533816867456],[78.39528049045143,24.656402994792145],[78.39614176432312,24.65638543023053],[78.39724229600702,24.65526401095984],[78.39806396484377,24.655280795627718],[78.3980607096353,24.657338290744832],[78.40028862847234,24.656881985135],[78.40278049045159,24.659441663954667],[78.40364474826404,24.66058247884176],[78.40462429470497,24.66260118272635],[78.40253472222238,24.663425326877757],[78.40427761501726,24.666348232693622],[78.40547010633699,24.666663886176806],[78.40585232204867,24.66548573811893],[78.40742567274302,24.665888943142974],[78.40888617621542,24.66793450249625],[78.40741563585075,24.668647935655912],[78.40583062065966,24.67027499728782],[78.40418240017348,24.673326551649822],[78.40275661892375,24.6743833753803],[78.40278211805551,24.675634731717167],[78.4048784722224,24.676145731608543],[78.40628173828114,24.67578609890458]]]]},"properties":{"id":"4962"}}]}