{"type":"FeatureCollection","features":[{"type":"Feature","geometry":{"type":"MultiPolygon","coordinates":[[[[78.85546034071197,24.650550265842483],[78.85582790798637,24.64855519612675],[78.85527208116324,24.647504543728772],[78.85526177300338,24.646403672960545],[78.85574245876731,24.645495537652337],[78.85434678819442,24.643780551486998],[78.854769965278,24.642980787489748],[78.85582790798637,24.641868116591212],[78.85356391059022,24.63966037326439],[78.85362331814255,24.638166910807854],[78.85447998046877,24.63778306749178],[78.85557156032993,24.638873019748857],[78.85666124131964,24.64056084526962],[78.8580604383682,24.64168297661729],[78.85861599392379,24.641660970052712],[78.86017252604185,24.642772488064665],[78.86250000000004,24.641380784776942],[78.86459120008672,24.641966145833806],[78.86626030815998,24.64193301730731],[78.86666124131946,24.643616400825223],[78.86725775824667,24.64388359917595],[78.86879041883694,24.642364535862058],[78.87139431423626,24.6419497341585],[78.87166124131963,24.64149410671712],[78.86889350043427,24.63999430338599],[78.86711018880212,24.639990064833555],[78.86667209201411,24.638605821398116],[78.86433946397588,24.638160502116406],[78.86386420355902,24.637153184679292],[78.86389458550346,24.636384175619042],[78.86332763671882,24.63556026882665],[78.86327745225717,24.634449734158423],[78.86182156033007,24.63522006564716],[78.85861653645836,24.63332804362038],[78.8570836046006,24.63306084526964],[78.85395426432288,24.635041130914175],[78.8525604926215,24.634985894097724],[78.85222764756949,24.633679945204605],[78.85400553385435,24.632531840006934],[78.85558430989599,24.632155761719318],[78.85666124131964,24.63117645263722],[78.85546929253493,24.6296217854823],[78.85449028862851,24.62754757351398],[78.85263888888906,24.625138888889424],[78.85163899739607,24.625275539822653],[78.85171386718767,24.627166408963205],[78.85107991536458,24.62808780246364],[78.85044352213552,24.630098063151507],[78.84856336805572,24.63226596408468],[78.84862955729167,24.6339365302197],[78.85011990017372,24.635418328179767],[78.85055013020863,24.63649943033913],[78.84833767361104,24.637227884928933],[78.84701063368075,24.637175292969246],[78.84663275824673,24.63598212348151],[78.8453198242187,24.635134209527436],[78.84361653645837,24.636309848362075],[78.84424587673621,24.643525899251784],[78.84486599392378,24.64648993598145],[78.84614990234397,24.648987867567826],[78.84672254774298,24.64943915473137],[78.84779269748256,24.648872951932148],[78.84930555555579,24.648855862088297],[78.85174994574666,24.648908691406902],[78.85279269748284,24.649460381402463],[78.853360731337,24.649437866211585],[78.85332709418438,24.64859436035212],[78.85419840494794,24.648628879123777],[78.85471679687518,24.649727511936334],[78.85546034071197,24.650550265842483]]]]},"properties":{"id":"9556"}}]}