{"type":"FeatureCollection","features":[{"type":"Feature","geometry":{"type":"MultiPolygon","coordinates":[[[[104.42386094834794,17.675891113281565],[104.42322075737562,17.672895236545543],[104.42447536892084,17.671535644531545],[104.42670274522291,17.672746039496957],[104.42707546657695,17.671476508246883],[104.42477511935485,17.669420844184444],[104.4233591037299,17.670518120660248],[104.42261555989299,17.670114203559507],[104.42268690320904,17.668918728298948],[104.4188796657958,17.666384548611433],[104.41653564452841,17.66422471788232],[104.41715521918107,17.663084309896234],[104.42428629557006,17.661813422309322],[104.42752577039633,17.66357367621569],[104.42983262803537,17.66587293836845],[104.43090413411161,17.665290798611437],[104.43213161892069,17.666664496528185],[104.43300292968476,17.666191134982938],[104.43346435546599,17.663772515191383],[104.43153564452828,17.66126491970519],[104.43380289713261,17.65866536458371],[104.4337228732609,17.657322048611476],[104.432075466577,17.65681342230934],[104.43070231119518,17.655713704427598],[104.43320231119506,17.653480088976067],[104.43457546657712,17.651895345052523],[104.43373616536181,17.65069363064285],[104.43542453341715,17.64875786675384],[104.43568657768807,17.64765814887184],[104.43485270182012,17.643754340278207],[104.43471815320922,17.64065755208371],[104.43536648220194,17.639464518229516],[104.43444444444148,17.638611111111473],[104.43295654296602,17.639319932726124],[104.43264675563958,17.640980088976008],[104.43137776692433,17.64467909071213],[104.42947835286182,17.646911892361558],[104.4277468532957,17.647908799913623],[104.42370252820896,17.64704481336848],[104.42278266058733,17.647099609375317],[104.42091688367773,17.647769097222522],[104.41986897786168,17.648405219184298],[104.42078993055273,17.650619845920517],[104.42068359374727,17.652406412760854],[104.41889485676782,17.653543836805937],[104.4160373263858,17.654492187500352],[104.41706841362557,17.656389431423918],[104.41735324435464,17.658027072483122],[104.41542860242774,17.659746907552417],[104.41514675563954,17.661257866753814],[104.41401611327828,17.662876519097622],[104.41433810763604,17.666824001736515],[104.41666503905978,17.669443359375393],[104.42031629774024,17.670227050781648],[104.42235324435481,17.671186252170457],[104.4215519205699,17.674850260417045],[104.42106201171586,17.67540879991357],[104.41986219617755,17.674570855035014],[104.41899712456322,17.675040690104524],[104.41904134114313,17.675784776476064],[104.42217854817417,17.676931152344082],[104.42386094834794,17.675891113281565]]]]},"properties":{"id":"10185"}}]}