{"type":"FeatureCollection","features":[{"type":"Feature","geometry":{"type":"MultiPolygon","coordinates":[[[[79.33680392795154,24.610396762424514],[79.33916666666667,24.609849243164547],[79.34135932074676,24.61035729302344],[79.34179497612868,24.60979254828615],[79.34108886718766,24.60862196180605],[79.3412980143232,24.607206895616926],[79.34044053819449,24.605785047743538],[79.34114013671913,24.60303924560597],[79.34418457031254,24.602240091960127],[79.34494140625029,24.60178351508293],[79.34621582031255,24.600569763184126],[79.34605767144095,24.599499884711904],[79.3447303602434,24.60002173529776],[79.34418077256944,24.599940524631663],[79.34384982638912,24.60036933051269],[79.34199544270828,24.601128302680735],[79.33890679253497,24.601192287869523],[79.34022243923633,24.600653754340996],[79.3393980577259,24.598556382921615],[79.33843180338565,24.598699171278753],[79.33734212239594,24.598041924371188],[79.3368055555558,24.5970833333338],[79.33600965711807,24.59730499267623],[79.33641059027806,24.598325229221516],[79.3365429687502,24.59979220920195],[79.33570800781271,24.6011763509119],[79.33715304904516,24.602040710449714],[79.3374820963542,24.603711107042585],[79.33560085720504,24.603707038032297],[79.33473632812516,24.6048269314241],[79.33341905381943,24.604771118164578],[79.33112901475707,24.606385091146407],[79.33241617838544,24.607977701823444],[79.33362901475712,24.608315463596483],[79.33429823133682,24.60918240017412],[79.33577419704866,24.609786512587362],[79.33639973958336,24.6094092475049],[79.33680392795154,24.610396762424514]]]]},"properties":{"id":"19272"}}]}