{"type":"FeatureCollection","features":[{"type":"Feature","geometry":{"type":"MultiPolygon","coordinates":[[[[75.67594068739126,22.58756456163222],[75.67547797309007,22.586138509114903],[75.6743844943575,22.586701660156535],[75.67389166937912,22.58600911458373],[75.67863640679244,22.58248806423653],[75.67860534667957,22.580966796875387],[75.68029140896252,22.579986165364986],[75.68138909233934,22.58000840928858],[75.68166388617621,22.57940185546923],[75.67861389160149,22.57942545572955],[75.67948594835056,22.57856228298641],[75.67942511664475,22.57557942708368],[75.68013888888882,22.57347222222259],[75.67944166395367,22.57360839843787],[75.67844970703104,22.575619032118396],[75.67694166395395,22.576108398437867],[75.6766655137803,22.57865044487886],[75.6753801133897,22.579885253906596],[75.67467013888867,22.578802354601166],[75.67462015787751,22.575280490451874],[75.67388943142359,22.576395128038556],[75.67361389160143,22.576108398437867],[75.67250278049025,22.575863172743453],[75.67306389702676,22.576952582465623],[75.67304199218736,22.578026801215657],[75.6735327148435,22.579460449219084],[75.67313374837207,22.579997287326734],[75.6713235812716,22.57862358941017],[75.66895528157525,22.57982069227465],[75.66788343641477,22.58202989366349],[75.66861504448761,22.584167209201823],[75.66778055826799,22.586418728299037],[75.66835259331575,22.587529296875417],[75.6683220757375,22.58902479383707],[75.67009521484354,22.591687011719117],[75.67170749240418,22.593052842882315],[75.67336025661862,22.592486979167134],[75.67428826226117,22.590574273003824],[75.6764004855684,22.59027940538239],[75.67740071614551,22.588272840712236],[75.67594068739126,22.58756456163222]]]]},"properties":{"id":"9756"}}]}