{"type":"FeatureCollection","features":[{"type":"Feature","geometry":{"type":"MultiPolygon","coordinates":[[[[83.19943413628468,23.377510308159955],[83.19917697482632,23.376100802951584],[83.19778808593745,23.374141981337075],[83.19804524739598,23.372211914062632],[83.19887858072909,23.371036648220738],[83.1966441514758,23.370143229166885],[83.19388129340271,23.370011800130428],[83.19221191406265,23.369176974826615],[83.19180555555553,23.368472222222422],[83.19107421875012,23.36869249131979],[83.19138292100709,23.371719156901236],[83.19276746961825,23.372912055121716],[83.19221354166692,23.374509548611286],[83.19056586371525,23.376006130642565],[83.1908997938369,23.377598470052234],[83.19251030815971,23.3772325303822],[83.19350613064242,23.376676974826594],[83.19514458550341,23.37760077582496],[83.19708794487846,23.37951036241337],[83.19776746961796,23.380728352864807],[83.19750271267387,23.382277696397736],[83.1961214192709,23.383467610677286],[83.19648735894091,23.385267469618285],[83.19721191406259,23.384156358507255],[83.1979801432291,23.383813476562736],[83.19832302517355,23.383045247396055],[83.19918348524314,23.382661268446356],[83.20026746961801,23.380718315972416],[83.19969102647585,23.379139404296964],[83.19977294921901,23.378117811415308],[83.19943413628468,23.377510308159955]]]]},"properties":{"id":"19751"}}]}