{"type":"FeatureCollection","features":[{"type":"Feature","geometry":{"type":"MultiPolygon","coordinates":[[[[75.34589683000016,33.16411624800011],[75.34570964200012,33.16097565300005],[75.34763203000014,33.160382031000225],[75.34811797000029,33.16011796900014],[75.34895557800039,33.15985932100024],[75.34973593900011,33.1589859370001],[75.35105625200018,33.15780625000028],[75.35227812600013,33.156438721000015],[75.35261797000001,33.15461797000009],[75.35301968400015,33.15273776100021],[75.35473921200011,33.1506420020001],[75.35624302300008,33.150361315000225],[75.35805145600025,33.149712429000004],[75.35936797000002,33.15063203000015],[75.359911831,33.150867970000135],[75.35986010000013,33.150000000000176],[75.359893642,33.14943723900015],[75.36088203000017,33.14913203000003],[75.36186797000019,33.14836797000024],[75.36317169200007,33.14753881100019],[75.36542480100016,33.14713203000011],[75.36586797000021,33.148171223000205],[75.36522182800033,33.14874854500002],[75.3646320300002,33.149426733000254],[75.36569273800026,33.14936351200001],[75.36732510800019,33.14822327800016],[75.36686797000019,33.14738203000019],[75.3666320300002,33.14642489400005],[75.36913203000037,33.146132030000146],[75.36972148100014,33.1458117180002],[75.37011797000005,33.14536797000025],[75.37232304800025,33.14444804800034],[75.37261797000022,33.14411797000021],[75.37313203000022,33.14388203000014],[75.37361797000008,33.14361797000015],[75.3753236660003,33.14329960100001],[75.37611797000025,33.14286797000008],[75.37675458900011,33.14257578100016],[75.37958068800006,33.142048288000126],[75.38003135700015,33.14058884400025],[75.3813820340001,33.139382030000135],[75.3823679660002,33.13761797000028],[75.38263203400024,33.13738203000004],[75.38327354399999,33.135713280000246],[75.38373657200023,33.13323254000008],[75.38719785300017,33.13288203000029],[75.38934862500028,33.13405078100001],[75.39025698100014,33.1350674130001],[75.39321720900031,33.13679086300006],[75.3965000000002,33.13659520000013],[75.39713002800002,33.13663275100012],[75.39890943900016,33.13599427800014],[75.40113203400014,33.13538203000029],[75.4016179660002,33.135117970000195],[75.40238203400028,33.13488203000021],[75.40365107000028,33.134354202000154],[75.40417421700013,33.13438538400007],[75.40461796600019,33.13488203000021],[75.40510517100026,33.135317345000004],[75.40586796600022,33.13411797000023],[75.4067361760003,33.13299764600001],[75.41063203400014,33.13263203000021],[75.4113679660002,33.13236797000013],[75.41584668000021,33.131901245000236],[75.41636796600008,33.131617970000065],[75.41738203400016,33.13138203000008],[75.4186179660002,33.13036797000021],[75.41913203400017,33.130132030000226],[75.42011796600022,33.12936797000006],[75.42113203400007,33.128632030000105],[75.42136796600008,33.12836797000028],[75.42203774300017,33.127769531000325],[75.42322531900018,33.12722447600025],[75.42448779300017,33.126882030000075],[75.4270843730001,33.128293037000205],[75.4277547300002,33.12934706100002],[75.42934655000013,33.1298386080001],[75.43211796600022,33.13213203000015],[75.43263203400019,33.13236797000013],[75.4333108980002,33.13273687000019],[75.43362393200019,33.13441398600021],[75.43413203400016,33.134867970000215],[75.43486796600027,33.13588203000009],[75.43527368200026,33.13624453000007],[75.43663203400021,33.13686797000014],[75.43750964400019,33.13748099500023],[75.43786796600014,33.1378820300002],[75.43918752300019,33.138650280000164],[75.43964395900011,33.13916112100016],[75.44081759600013,33.139091171000146],[75.44226754800022,33.13969424400004],[75.44316587800009,33.13920607800014],[75.44669012500012,33.139416134000115],[75.448367966,33.13911797000014],[75.45063203400022,33.13888203000025],[75.45333407600006,33.13826080700018],[75.45550000000011,33.138389900000206],[75.45887385600022,33.138188808000265],[75.46136796600015,33.13863203000008],[75.4631320340001,33.138867970000064],[75.46500038100024,33.13919998900009],[75.46711796600019,33.1401320300002],[75.46838203400014,33.140367970000185],[75.46936796600019,33.14063203000009],[75.4710468750001,33.141022652000174],[75.47150865200032,33.14153948000012],[75.47338203400014,33.142117970000285],[75.47411796600002,33.14238203000029],[75.47685762000006,33.14261797000019],[75.48124134800028,33.1420350800001],[75.48359529100011,33.14217538300025],[75.48578143300008,33.14295979100014],[75.4871891780002,33.14517325600005],[75.48710078400026,33.146656244000184],[75.48829110700015,33.14573379100024],[75.48867242400016,33.1453070220001],[75.48836731000026,33.14387896300016],[75.48839543200009,33.14340717900021],[75.49073010300017,33.14390598700008],[75.49353350800018,33.143738897000205],[75.49844259600005,33.14448564100009],[75.49936796600005,33.145132030000184],[75.50088203400017,33.14536797000025],[75.50171489000016,33.14566681100011],[75.50413203400004,33.14611797000023],[75.5053734740001,33.14663432300006],[75.5069163970002,33.14622108300014],[75.50993968200018,33.146680967000265],[75.51531852700018,33.14630078100025],[75.51802548200013,33.14557578100005],[75.51954245000033,33.14475145000014],[75.52288203400022,33.143382030000254],[75.52390750100008,33.14282478500016],[75.52503121900017,33.142891762000104],[75.52807611100022,33.142597879000206],[75.53018827800028,33.14203217900021],[75.53136796600026,33.14111797000024],[75.531882034,33.140882030000085],[75.53286796600028,33.140117970000105],[75.53381704700021,33.139514359000245],[75.53485391200005,33.13835390500007],[75.53538203400004,33.1378820300002],[75.53588497900014,33.137319126000165],[75.53824879500027,33.13623421900027],[75.54149421700018,33.13580015200024],[75.54325000000009,33.13590480000002],[75.54583366400024,33.13575080900034],[75.54781485000032,33.136174095000186],[75.55011796600027,33.13713203000013],[75.55088203400024,33.1373679700002],[75.55186796600012,33.138132030000094],[75.55563203400024,33.13911797000014],[75.55650859100004,33.139432487000136],[75.55815132100022,33.140579960000224],[75.55925697300015,33.14181741100012],[75.56181219500016,33.143305058000195],[75.56411796600028,33.14538203000009],[75.56498368800013,33.14577936700019],[75.5662510990002,33.14611797000023],[75.56858662400018,33.14549244900034],[75.56936796600016,33.14461797000011],[75.56988203400024,33.144382030000216],[75.57377465800019,33.1416197680002],[75.57538201900005,33.140882030000085],[75.57586798100019,33.14055836500003],[75.57424655200023,33.140655006000216],[75.57213201900007,33.14213203000021],[75.57161798100006,33.14236797000011],[75.57138201900025,33.1426320300001],[75.57061798100037,33.14311797000025],[75.56988203400024,33.14363203000025],[75.56936796600016,33.14386797000023],[75.5665281680003,33.14543951000023],[75.56555365000023,33.14508984400007],[75.56513203400024,33.14461797000011],[75.56473593100017,33.14426406300031],[75.56438203400009,33.14386797000023],[75.56389891100005,33.14343630400003],[75.56111796600013,33.14188203000005],[75.56013203400025,33.14111797000024],[75.55936796600028,33.14063203000009],[75.55913203400021,33.140367970000185],[75.55886796600012,33.1401320300002],[75.55863203400011,33.13986797000028],[75.55661195400032,33.13821896400019],[75.55664767500033,33.13761959800016],[75.55358825700009,33.13730077700015],[75.5523820340002,33.13686797000014],[75.55161796600012,33.13663203000016],[75.55084942600021,33.13609519600023],[75.54836796600014,33.135632030000195],[75.54738203400021,33.13536797000019],[75.54457647700022,33.13488203000021],[75.54025000000021,33.135139900000155],[75.5398710330002,33.13511731300015],[75.53836875900006,33.13543828200015],[75.53713203400034,33.13588203000009],[75.53636796600026,33.13611797000007],[75.5355740360001,33.13654939700015],[75.53424035600008,33.13748099500023],[75.53388203400019,33.1378820300002],[75.53361796600026,33.13811797000018],[75.53338203400008,33.13838203000026],[75.53241992200017,33.139241665000156],[75.53032109100016,33.14076485800015],[75.5283679660001,33.14136797000015],[75.52737541200023,33.14206128300022],[75.52329951500022,33.1418183480001],[75.52063906900017,33.14326406300009],[75.5162907560003,33.14453693400024],[75.51486796600008,33.14486797000019],[75.51413203400031,33.145132030000184],[75.51261100800022,33.14548592200025],[75.50990470900021,33.14532461700023],[75.5081582340002,33.14469796400016],[75.50270468100027,33.14435612500003],[75.50010165400002,33.14365896200016],[75.49850697300022,33.143361315000135],[75.49642569000034,33.14261452900017],[75.4955000000003,33.14266970300011],[75.4943750000003,33.14260265000016],[75.49197348000038,33.142745787000194],[75.48844709800008,33.14227689600003],[75.48638203400017,33.14136797000015],[75.4841179660003,33.140882030000085],[75.48312908900019,33.14061718400028],[75.47731692500022,33.141027996000076],[75.47390470900015,33.14082461900021],[75.47199302700025,33.14013868299995],[75.4705069730002,33.13986131700018],[75.46905365000012,33.139339844000204],[75.46863203400008,33.138867970000064],[75.46822747800016,33.13850651200026],[75.46654812600005,33.13811578000018],[75.46563203400021,33.13761797000028],[75.46311796600017,33.13738203000004],[75.46238203400023,33.137117970000304],[75.4592590180001,33.136535057000216],[75.45737500000027,33.136647350000004],[75.45550000000011,33.13653559500008],[75.45362500000024,33.136647350000004],[75.45297891200008,33.1366088410001],[75.45255078100016,33.134768742000176],[75.45211796600026,33.134382030000154],[75.45155067400017,33.13374710500011],[75.45165480000011,33.13200000000006],[75.4516129460001,33.13129765700012],[75.4510000000001,33.13075000000002],[75.45076374800001,33.13364522600011],[75.45167213400012,33.13570909500008],[75.45160562100031,33.13682500500022],[75.44812052900014,33.13661728300035],[75.44713203400019,33.13688203000024],[75.44586796600024,33.137117970000304],[75.4443017880001,33.137452591000184],[75.4428750000001,33.13736755000026],[75.44200000000026,33.13741970100004],[75.44071665200013,33.13734321200029],[75.4393820340002,33.13661797000006],[75.43801874500011,33.13630077700002],[75.43763203400019,33.13586797000018],[75.43712145200018,33.13541177000009],[75.4368540270003,33.13312893300012],[75.43536796600009,33.13138203000008],[75.4350140610002,33.1302359390002],[75.43461796600022,33.12988203000015],[75.43438203400021,33.12961797000014],[75.4333877940002,33.12898564100014],[75.43186796600023,33.128632030000105],[75.43089688100022,33.128283592000045],[75.42963203400032,33.12686797000025],[75.4285248640002,33.12587872300011],[75.42776054400034,33.12467695200024],[75.42707283000013,33.12436131700015],[75.42641564900029,33.12362579000013],[75.42516690800036,33.12333525100016],[75.42429765300037,33.12338706200009],[75.42363203400018,33.1241320300001],[75.42280490900023,33.12465807300019],[75.42212052900007,33.124617283000276],[75.42048154400018,33.12505625200018],[75.41910221900028,33.1258057860002],[75.41698932600016,33.12504765700018],[75.4159626540002,33.12389860200014],[75.41460306500025,33.123382030000215],[75.41464307400028,33.12405323000014],[75.41621303600024,33.12596669800028],[75.41790519700018,33.12674334300006],[75.4178601460001,33.12749922200017],[75.41556195800021,33.128837227000204],[75.41189059400025,33.12921982200007],[75.41088353700033,33.12976706700013],[75.40837500000023,33.12961755000019],[75.40763922900013,33.12966140400019],[75.4051197280003,33.13033619700023],[75.40421315000006,33.131350849000086],[75.40286796600006,33.131867970000144],[75.40238203400028,33.13213203000015],[75.4013679660001,33.13236797000013],[75.40063203400032,33.13263203000021],[75.39689483600031,33.13292457600018],[75.39522082500017,33.134093895000206],[75.39341861000017,33.134867970000215],[75.39308546400005,33.13167108500011],[75.39040897400028,33.13135754800001],[75.3887600480002,33.13007970000015],[75.38762500000027,33.13014735000024],[75.3862450710001,33.13006510200027],[75.38478626300028,33.130671864000206],[75.38386936200018,33.130617214000225],[75.38297454100015,33.13110346600013],[75.38211796600032,33.131367970000255],[75.3813820340001,33.13163203000025],[75.37999889400024,33.131867970000144],[75.37867446900017,33.130385662000066],[75.37838203400028,33.13288203000029],[75.37787579000022,33.13429291500023],[75.37758517100028,33.13708172200023],[75.3776499860002,33.13816924300025],[75.3765094720001,33.139188282000276],[75.37396155200028,33.139975063000094],[75.37221652200023,33.14070087100019],[75.37137587700013,33.140113670000105],[75.37059738500031,33.1405367090002],[75.37066970100025,33.141750000000215],[75.36986797,33.142117970000285],[75.36913203000037,33.1426320300001],[75.36812518300022,33.14309414100023],[75.3663679700002,33.14336797000007],[75.36588203000022,33.14363203000025],[75.36528338200006,33.14390679200007],[75.36400000000023,33.14383029700022],[75.36304230900029,33.14388737900023],[75.36213203000025,33.144382030000216],[75.3615276950002,33.144659401000254],[75.36067717000006,33.14561131500014],[75.35960390500011,33.14610390700004],[75.35813203000018,33.14713203000011],[75.3563679700002,33.14736797000009],[75.35463203000015,33.147632030000096],[75.35286797000018,33.14786797000008],[75.35036300300013,33.149284124000275],[75.34914609500018,33.15064609300025],[75.34848593900008,33.15123593700012],[75.3481320300003,33.1516320300002],[75.34764185000014,33.15207000500003],[75.34623655900012,33.151565771000236],[75.3442312720002,33.15244838700008],[75.34276953100007,33.152361263000145],[75.3418813210001,33.15136717200005],[75.3415304390002,33.15138808600018],[75.34191015600018,33.152446352],[75.3426272950002,33.15308710900025],[75.34507613600002,33.15354418600006],[75.34661935800008,33.154382786000255],[75.3471250000002,33.15435265000016],[75.34784516500017,33.15439557300007],[75.34811797000029,33.15604133000008],[75.34636796999999,33.156367970000105],[75.34509176400016,33.15682588400024],[75.34338203000013,33.156367970000105],[75.3404996190001,33.15613203000012],[75.33888203000001,33.157132030000085],[75.33808224300012,33.15749910700018],[75.33496820100018,33.157313501000175],[75.33365312600009,33.15802812500007],[75.33154467400007,33.158995833000205],[75.32836796900014,33.15936796900009],[75.32690104600019,33.15976085300008],[75.32656209500001,33.16085851500013],[75.32738910900034,33.16216400200024],[75.32786796900015,33.161867969000255],[75.32844785000023,33.161632031000266],[75.33004835400007,33.16250175900021],[75.33162274200023,33.16193685100018],[75.33312120600013,33.16298355000001],[75.33455895400007,33.16137441500027],[75.33677773300016,33.16113203100021],[75.33811797000013,33.16263203100023],[75.33844368700014,33.162923059000065],[75.34001928900014,33.1628291480002],[75.34097148100031,33.162311719000115],[75.34136797000028,33.161867969000255],[75.34172495700014,33.161549004000236],[75.34312500000013,33.16163245000013],[75.34400000000025,33.161580298000075],[75.34474831600008,33.163210735000064],[75.34540145300028,33.164145774000076],[75.34589683000016,33.16411624800011]]]]},"properties":{"id":"6947"}}]}