{"type":"FeatureCollection","features":[{"type":"Feature","geometry":{"type":"MultiPolygon","coordinates":[[[[81.4496914062502,23.73030761718755],[81.44955859375014,23.730067382812678],[81.44934765625018,23.729592773437588],[81.44868359375008,23.729442382812564],[81.44844140625023,23.729307617187587],[81.44793359375015,23.72919238281257],[81.44769140625007,23.729057617187507],[81.44721093750005,23.72884375000008],[81.44705859374997,23.728567382812727],[81.4469414062502,23.727807617187736],[81.44680859375009,23.727567382812495],[81.44669140625004,23.726557617187694],[81.4465585937501,23.726317382812724],[81.44636328125003,23.72588476562514],[81.44593359374997,23.72569238281261],[81.44544140625007,23.725307617187653],[81.44493359375011,23.725192382812722],[81.4446914062502,23.72505761718749],[81.44443359375012,23.724942382812642],[81.44419140625004,23.72480761718758],[81.44341406250012,23.724689453125137],[81.44325000000018,23.724500000000035],[81.44219531249999,23.724564453125097],[81.44094531250025,23.725931640625205],[81.44231640625023,23.72605761718762],[81.44330859375006,23.726942382812567],[81.44425000000004,23.727085937500078],[81.44455859375014,23.72764062500019],[81.44444140625004,23.728817382812636],[81.44419140625004,23.72926562500018],[81.44435546875016,23.72987207031254],[81.44480859374997,23.730192382812618],[81.44506640625022,23.73030761718755],[81.44570703125012,23.730807617187537],[81.44619140625022,23.73069238281269],[81.44643359375007,23.73055761718763],[81.4469414062502,23.730442382812527],[81.44739062500022,23.730192382812618],[81.44825000000017,23.73033886718747],[81.44844140625023,23.730682617187583],[81.44865234375024,23.73115527343745],[81.44905859375015,23.731442382812574],[81.44981640625005,23.73155761718759],[81.45026562499996,23.731807617187584],[81.45019140625007,23.73155761718759],[81.45005859375013,23.73131738281262],[81.44994140625008,23.730807617187537],[81.44980859375008,23.730567382812566],[81.4496914062502,23.73030761718755]]]]},"properties":{"id":"26965"}}]}