{"type":"FeatureCollection","features":[{"type":"Feature","geometry":{"type":"MultiPolygon","coordinates":[[[[79.02809271918429,24.8613907368983],[79.02932562934049,24.859452260335843],[79.03299777560764,24.860891062419086],[79.0334410264758,24.86232664320258],[79.0344444444448,24.861781446669426],[79.0357524956598,24.862492184109698],[79.03650092230899,24.861956821018325],[79.03152235243076,24.85797661675393],[79.03237575954861,24.85640631781736],[79.03120279947919,24.85633641560925],[79.0307600911461,24.857769961887556],[79.02704779730922,24.857472161187545],[79.02597222222263,24.855416666667267],[79.02499213324668,24.855547739665226],[79.02390190972235,24.856309322781627],[79.02239556206595,24.85677446153491],[79.02304524739586,24.857970140245797],[79.02356689453146,24.86021167331323],[79.02683403862866,24.863603295220727],[79.02964925130223,24.863287963867705],[79.02809271918429,24.8613907368983]]]]},"properties":{"id":"19205"}}]}