{"type":"FeatureCollection","features":[{"type":"Feature","geometry":{"type":"MultiPolygon","coordinates":[[[[74.66430078125009,24.477823242187554],[74.66425000000007,24.475500000000025],[74.66405078125021,24.475551757812468],[74.66357421875014,24.47594824218757],[74.66308593750009,24.476135742187452],[74.66294921875013,24.476823242187592],[74.66280078125018,24.477051757812674],[74.66269921875008,24.47757324218756],[74.6615507812501,24.478801757812604],[74.66144921875022,24.479073242187596],[74.66105078125011,24.479551757812587],[74.66094921875023,24.48007324218746],[74.66080078124995,24.480301757812555],[74.66069921875012,24.480573242187617],[74.66055078125018,24.48080175781253],[74.66044921875007,24.48107324218769],[74.66030078125019,24.481301757812517],[74.66019921875014,24.48157324218758],[74.66005078125019,24.48180175781259],[74.65994921874997,24.482073242187568],[74.65980078125008,24.48230175781248],[74.65969921875015,24.48307324218753],[74.6595507812502,24.48330175781261],[74.6594492187501,24.484573242187466],[74.6593007812501,24.484801757812562],[74.65919921875022,24.485573242187698],[74.65880078125011,24.48605175781269],[74.65869921875023,24.48632324218758],[74.65844921875012,24.486716796875086],[74.65856250000004,24.48779394531256],[74.65917968750014,24.488301757812692],[74.6602929687501,24.488188476562712],[74.66069921875012,24.487698242187577],[74.66080078124995,24.4874267578125],[74.66094921875023,24.48719824218759],[74.66105078125011,24.486426757812538],[74.66119921875011,24.48619824218754],[74.66130078125005,24.48567675781257],[74.66144921875022,24.485448242187573],[74.6615507812501,24.484926757812687],[74.6616992187501,24.484698242187505],[74.66180078125021,24.483176757812572],[74.66194921875015,24.482948242187575],[74.66205078125009,24.482676757812683],[74.66219921874998,24.4824482421876],[74.6623007812502,24.48217675781261],[74.66244921875014,24.481948242187528],[74.66255078125008,24.481426757812557],[74.66269921875008,24.48119824218746],[74.66281640625013,24.4803281250001],[74.66317578125009,24.480051757812475],[74.66444921874998,24.47994824218769],[74.6645507812502,24.479426757812718],[74.66469921875014,24.479198242187536],[74.66480078125008,24.478926757812474],[74.66500000000005,24.478613281250162],[74.66430078125009,24.477823242187554]]]]},"properties":{"id":"19307"}}]}