{"type":"FeatureCollection","features":[{"type":"Feature","geometry":{"type":"MultiPolygon","coordinates":[[[[107.85418945312526,12.474093750000108],[107.85468945312525,12.473437500000074],[107.8548105468752,12.472468749999948],[107.85431054687504,12.471812499999999],[107.85418945312526,12.47131250000011],[107.85308593750025,12.470078125000114],[107.85203710937517,12.469937500000114],[107.85156445312506,12.470187500000108],[107.851162109375,12.470312500000063],[107.85068945312523,12.470062500000068],[107.85018554687517,12.469937500000114],[107.84943945312509,12.469312500000271],[107.84853320312507,12.469164062500212],[107.84793945312506,12.46841406250006],[107.84818945312506,12.467937500000104],[107.84831054687501,12.466617187500063],[107.84793554687516,12.466437500000069],[107.84758007812516,12.466250000000016],[107.84743945312525,12.464914062500014],[107.84768945312513,12.46443750000006],[107.84781054687502,12.463257812500103],[107.84750000000005,12.462750000000241],[107.84636718749996,12.462820312500142],[107.84618945312522,12.463562500000052],[107.84606054687507,12.463812500000216],[107.84590039062525,12.464148437499986],[107.84556054687502,12.464312500000105],[107.84525000000005,12.464476562500138],[107.84484179687504,12.464257812500065],[107.84468945312508,12.463312500000143],[107.84357031250002,12.463187500000103],[107.84343945312506,12.464710937500087],[107.84368945312505,12.465187500000127],[107.84381054687506,12.465437500000107],[107.84405859375002,12.465906250000089],[107.84351757812502,12.466617187500063],[107.8435683593751,12.467882812500065],[107.84431445312507,12.468062500000059],[107.84456054687499,12.468187500000184],[107.84481445312505,12.468312500000224],[107.84531054687514,12.468687500000172],[107.84631445312525,12.468812500000112],[107.84689648437504,12.469257812500231],[107.84706054687504,12.469937500000114],[107.84730859375,12.470406250000096],[107.84679492187493,12.471078125000076],[107.84681835937502,12.47163281250019],[107.84756445312522,12.471812499999999],[107.84782812500012,12.471953124999999],[107.84806054687502,12.472437500000112],[107.84818945312506,12.472687500000106],[107.84831054687501,12.473085937500073],[107.84806054687502,12.473562500000114],[107.84793945312506,12.473812500000108],[107.84756054687514,12.474312500000082],[107.84743945312525,12.474562500000076],[107.84725781249998,12.474906250000004],[107.84631054687517,12.475062499999964],[107.84606445312508,12.475187500000004],[107.84541210937496,12.475312500000044],[107.84493945312508,12.475062499999964],[107.84418945312521,12.475031249999958],[107.84468945312508,12.475687500000078],[107.84481054687504,12.476187499999966],[107.84553515625012,12.477046875000198],[107.84608007812514,12.476671874999994],[107.84631054687517,12.476187499999966],[107.84650000000019,12.475828124999992],[107.84793945312506,12.475687500000078],[107.84818554687504,12.475562500000223],[107.84843945312522,12.475437500000083],[107.84868554687515,12.475312500000044],[107.8489394531251,12.475187500000004],[107.84918554687502,12.475062499999964],[107.84943945312509,12.47493750000011],[107.85018554687517,12.474312500000082],[107.85068945312523,12.474187500000042],[107.85093554687515,12.474062500000002],[107.851341796875,12.473867187500062],[107.85189453125017,12.474250000000069],[107.85206054687515,12.47493750000011],[107.85318945312505,12.476187499999966],[107.85331054687518,12.477085937500007],[107.85306054687501,12.477562500000047],[107.85293945312523,12.478148437499996],[107.85343164062502,12.478312500000115],[107.85356054687517,12.476437500000046],[107.85395703125002,12.475914062500223],[107.85443945312508,12.475687500000078],[107.8548105468752,12.475468750000104],[107.85431054687504,12.47481250000007],[107.85418945312526,12.474093750000108]]]]},"properties":{"id":"28416"}}]}