{"type":"FeatureCollection","features":[{"type":"Feature","geometry":{"type":"MultiPolygon","coordinates":[[[[77.26555859375011,26.701403808593824],[77.26544140625023,26.70106005859381],[77.26530859375,26.70081494140628],[77.26519140625012,26.700560058593922],[77.26505859375013,26.70031494140639],[77.26494140624996,26.70006005859385],[77.26480859375002,26.69981494140623],[77.26469140625014,26.69956005859396],[77.26455859375025,26.699314941406342],[77.26444140624997,26.69906005859397],[77.2640585937501,26.698564941406275],[77.2639414062501,26.69831005859392],[77.2638085937501,26.698064941406386],[77.26360937500024,26.697640136718874],[77.26294921875004,26.697328613281243],[77.26280859375012,26.69706494140634],[77.26269140625007,26.696810058593968],[77.26230859375025,26.69631494140627],[77.26213281250003,26.695939941406337],[77.26155859375015,26.696060058593915],[77.26114453125004,26.696280761718754],[77.26055859375012,26.695564941406218],[77.26044140625007,26.695310058593847],[77.25980859375008,26.69456494140634],[77.2596914062502,26.6943100585938],[77.25875000000016,26.693250000000006],[77.25850000000005,26.693328613281395],[77.25869140625028,26.693685058593772],[77.2588085937501,26.694189941406407],[77.2589414062501,26.69443505859401],[77.25905859375027,26.69518994140637],[77.2596914062502,26.695935058593776],[77.25980859375008,26.69643994140641],[77.26030468750022,26.69708642578142],[77.26032031250011,26.69743408203125],[77.25955859375009,26.69831005859392],[77.25944140625009,26.698564941406275],[77.25869140625028,26.699452636718732],[77.25892968750006,26.69992919921887],[77.25947656250011,26.700303710937575],[77.26016406250014,26.699939941406356],[77.26056640625009,26.70006005859385],[77.2619414062502,26.70131005859389],[77.26244140625013,26.701189941406227],[77.26291406250013,26.700939941406318],[77.26331640624997,26.70106005859381],[77.26396484374996,26.701558593750164],[77.26450000000003,26.70127587890636],[77.26503906250011,26.701560058593785],[77.26555859375011,26.701403808593824]]]]},"properties":{"id":"18737"}}]}