{"type":"FeatureCollection","features":[{"type":"Feature","geometry":{"type":"MultiPolygon","coordinates":[[[[73.1393001302084,33.71093465169295],[73.138613823785,33.70892971462689],[73.13900987413209,33.70805833604622],[73.14021375868057,33.70906195746544],[73.14119113498268,33.710552775065295],[73.141663953993,33.70991095648897],[73.1405376519098,33.707760959201565],[73.13850097656271,33.707100016276286],[73.13780409071202,33.706430528428996],[73.13776936848959,33.70473300510007],[73.1386083984377,33.70221944173214],[73.1394306098093,33.70055833604633],[73.14043701171894,33.70191650390646],[73.14277506510425,33.701964246962106],[73.1411542426217,33.69998494466165],[73.13985839843784,33.700011393229346],[73.13914523654526,33.69854159885007],[73.13615180121522,33.69556945800801],[73.1340654839411,33.69503479003926],[73.13139160156274,33.69498019748292],[73.132436794705,33.696033935547106],[73.13105333116343,33.69650743272591],[73.12833604600704,33.69416388617637],[73.12749728732675,33.693891669379624],[73.12696343315966,33.69333611382402],[73.12506564670147,33.69414550781265],[73.12256971571205,33.69419643825971],[73.12136013454861,33.693609551323945],[73.12009087456599,33.692288547092176],[73.11791666666667,33.69097222222253],[73.11721950954879,33.69110833062095],[73.11392632378468,33.69274719238298],[73.11343804253491,33.693216484917684],[73.11254177517364,33.69681606716604],[73.1102804904514,33.70130995008694],[73.11075900607639,33.70194166395429],[73.11166476779519,33.700256076389124],[73.11194173177111,33.7013916693796],[73.11275906032992,33.702219848632964],[73.11416395399308,33.70267571343335],[73.11366373697913,33.70439968533006],[73.1124953884549,33.705286187066164],[73.11055826822931,33.70524664984832],[73.11115532769114,33.70679117838564],[73.1119452582465,33.70638420952713],[73.11273410373266,33.707205200195546],[73.11378960503495,33.70771721733961],[73.11318739149314,33.70888610839867],[73.11470540364584,33.70846530490475],[73.11470893012151,33.70615329318596],[73.11583062065998,33.70498582628068],[73.11639350043416,33.70583238389776],[73.1158360460071,33.706914537218125],[73.12018934461801,33.705669759114784],[73.12081814236106,33.70689025878936],[73.12080213758682,33.71055209689693],[73.12198893229166,33.70996520996117],[73.12389160156258,33.71027499728754],[73.12455213758679,33.71096252441433],[73.12678765190984,33.70944722493502],[73.1301616753473,33.70998819987],[73.12916937934031,33.71191453721812],[73.13020182291658,33.712497219509686],[73.130588107639,33.71096394856811],[73.13166666666703,33.71040825737869],[73.13277235243052,33.71097778320332],[73.13490288628466,33.71149719238308],[73.13728976779512,33.712655097113924],[73.13629638671901,33.71498148600283],[73.13676567925361,33.71642720540383],[73.13819769965292,33.717165052626086],[73.13974093967013,33.716664293077585],[73.14053249783004,33.715840454101794],[73.14115587022579,33.71553792317731],[73.14083604600702,33.71194166395418],[73.1393001302084,33.71093465169295]]]]},"properties":{"id":"4592"}}]}