{"type":"FeatureCollection","features":[{"type":"Feature","geometry":{"type":"MultiPolygon","coordinates":[[[[70.3280201594786,34.515890179393324],[70.32982733794032,34.51524475851427],[70.33215085310533,34.515890179393324],[70.33473253662194,34.51576109521753],[70.33602337838025,34.51524475851427],[70.34867362761221,34.512275822469974],[70.35215890035934,34.51098498071187],[70.35628959398619,34.50879054972259],[70.35809677244785,34.50737062378842],[70.35912944585473,34.505821613678194],[70.36003303508542,34.503498098513475],[70.36119479266776,34.49781839477673],[70.36235655025067,34.49601121631518],[70.36351830783283,34.49188052268849],[70.36300197112931,34.49097693345749],[70.36145296101941,34.49007334422659],[70.36106570849208,34.48942792334762],[70.36106570849208,34.487491660709935],[70.36196929772294,34.4856844822482],[70.36377647618465,34.48452272466581],[70.36338922365692,34.483748219610604],[70.36209838189873,34.48361913543491],[70.36042028761292,34.48400638796237],[70.35964578255769,34.48478089301766],[70.35912944585473,34.485813566424184],[70.35848402497541,34.489169754995686],[70.35745135156859,34.49097693345749],[70.3560314256346,34.49252594356754],[70.35228798453537,34.49497854290823],[70.34299392387553,34.49394586950153],[70.3378305568423,34.49394586950153],[70.32866558035786,34.49162235433681],[70.31808067793943,34.49136418598496],[70.31691892035704,34.49252594356754],[70.31691892035704,34.493429532798174],[70.3176934254117,34.495494879611755],[70.31820976211552,34.49781839477673],[70.31678983618119,34.50156183587596],[70.31485357354401,34.50530527697511],[70.31330456343395,34.50698337126086],[70.3109810482687,34.507886960491774],[70.30259057683944,34.50698337126086],[70.30013797749868,34.507886960491774],[70.29936347244362,34.50930688642602],[70.29987980914714,34.51021047565675],[70.30155790343272,34.5118885699425],[70.30310691354262,34.51524475851427],[70.30401050277342,34.516664684448344],[70.31162646914785,34.5182136945584],[70.3165316678296,34.5182136945584],[70.31885518299455,34.51885911543745],[70.3207914456319,34.51885911543745],[70.32672931772007,34.51731010532758],[70.3280201594786,34.515890179393324]]]]},"properties":{"id":"1618"}}]}