{"type":"FeatureCollection","features":[{"type":"Feature","geometry":{"type":"MultiPolygon","coordinates":[[[[79.03455859375012,24.75423437500008],[79.03437890625023,24.753573242187585],[79.03385546875009,24.75353125000018],[79.03336718750009,24.753802734374972],[79.03307031250014,24.753827148437566],[79.03205859375001,24.752942382812535],[79.03130859375014,24.753057617187466],[79.03066796875018,24.753557617187454],[79.03022265625006,24.75333984374994],[79.02950000000018,24.752500000000026],[79.028578125,24.752577148437524],[79.02846093750011,24.753999023437487],[79.02880859375003,24.754192382812576],[79.02927734375012,24.75440039062498],[79.02969140625012,24.75493261718762],[79.02980859375,24.755192382812538],[79.02994140625023,24.75543261718751],[79.03009375000019,24.756101562499992],[79.03080859375015,24.756692382812574],[79.03106640625023,24.75680761718769],[79.03151562500008,24.757057617187584],[79.03194140625013,24.756942382812653],[79.03218359375003,24.75680761718769],[79.03269140625022,24.756692382812574],[79.03318359375001,24.75630761718743],[79.0336484375002,24.756100585937602],[79.03419140625013,24.755442382812447],[79.03430859375001,24.754682617187456],[79.03455859375012,24.75423437500008]]]]},"properties":{"id":"29352"}}]}