{"type":"FeatureCollection","features":[{"type":"Feature","geometry":{"type":"MultiPolygon","coordinates":[[[[75.58109571668862,25.650015462239637],[75.57708333333343,25.64597222222227],[75.5766080729168,25.646352810329873],[75.57782653808621,25.647802191840327],[75.57766743977888,25.64908121744807],[75.57618645562096,25.64851209852435],[75.57436272515221,25.648926323784835],[75.57446780734628,25.64977105034731],[75.57547295464437,25.64976372612857],[75.57695983886751,25.650540093316096],[75.57723707411046,25.65213324652794],[75.57859571668845,25.652793240017488],[75.58029317220078,25.65304009331608],[75.58145467122395,25.653722873264044],[75.58262329101561,25.651799045139057],[75.58109571668862,25.650015462239637]]]]},"properties":{"id":"18931"}}]}