{"type":"FeatureCollection","features":[{"type":"Feature","geometry":{"type":"MultiPolygon","coordinates":[[[[101.98120849609055,15.913498535156535],[101.98060574001411,15.910555555555803],[101.98119330511852,15.909586046007163],[101.98292087130781,15.910980631510682],[101.98374443901608,15.910963812934199],[101.98474338107323,15.911640896267599],[101.98513617621231,15.910375976562705],[101.98277642143776,15.908108723958478],[101.98168579101272,15.906637369792051],[101.98220770941523,15.906136067708573],[101.98383477104724,15.906553005642522],[101.9845806206566,15.905642632378644],[101.98375569661144,15.902424045139156],[101.98531399196733,15.902043999566189],[101.9856917317679,15.901199815538433],[101.98316460503176,15.900141601562709],[101.98208604600373,15.900697157118302],[101.97931315103861,15.90123860677106],[101.97751464843444,15.902748209635647],[101.97653049044837,15.901247287326626],[101.97587890624706,15.900930989583614],[101.97423231336509,15.901268446180765],[101.97285834418088,15.901240234375251],[101.9712419976099,15.899558105468955],[101.96958753797432,15.899591742621752],[101.96819715711487,15.898469509548875],[101.9661055501272,15.898060980903125],[101.96527777777456,15.896666666666874],[101.96403049044832,15.897946506076607],[101.96680284287899,15.903184136284821],[101.96601589626417,15.904025065104378],[101.96401719834759,15.902347276475908],[101.96082234700205,15.902372775607873],[101.96041937933714,15.904041612413408],[101.96155273437185,15.904591200087182],[101.96235649956296,15.904574924045335],[101.96347384982337,15.905422905816181],[101.96409111870364,15.903913031684326],[101.96507147894667,15.904418131510823],[101.96541395399012,15.907919379340441],[101.9661187065943,15.908747287326605],[101.96663601345173,15.90662543402803],[101.96770114474512,15.905053982205146],[101.96990275064806,15.905807562934257],[101.97096950954543,15.906530490451573],[101.97224012586506,15.90680284288213],[101.97375827365127,15.905773654514093],[101.97642144096906,15.907689073350966],[101.97681898328679,15.908508300781563],[101.97680067273987,15.90940836588571],[101.97391303168106,15.91047987196211],[101.97627468532667,15.9137472873266],[101.97862698024866,15.912363823785],[101.98069485134258,15.914033203125186],[101.98120849609055,15.913498535156535]]]]},"properties":{"id":"10270"}}]}