{"type":"FeatureCollection","features":[{"type":"Feature","geometry":{"type":"MultiPolygon","coordinates":[[[[83.0782773437501,22.895308593750116],[83.07819140625,22.894808593750042],[83.07805859375006,22.894566406250206],[83.07783593750011,22.894082031250093],[83.07693359375006,22.893941406250093],[83.07669140625003,22.893808593750165],[83.07574609375004,22.893662109375043],[83.07545703125024,22.89312500000011],[83.07569140625006,22.89269140625005],[83.07591406250006,22.892206054687563],[83.07618359375019,22.89205859375005],[83.07680859375003,22.891913085937503],[83.07669140625003,22.891558593750162],[83.07574609375004,22.89141210937504],[83.07551562500001,22.890988281250088],[83.07594140624988,22.890441406250048],[83.0760000000001,22.889750000000106],[83.07541406250024,22.889828125000093],[83.07455859375003,22.89080859375011],[83.07441015625014,22.891752929687726],[83.07406640625013,22.891941406250083],[83.0733203125001,22.892114257812665],[83.07319140625,22.894288085937546],[83.07363281249994,22.89486035156257],[83.07406640625013,22.895058593749937],[83.07452734375019,22.895308593750116],[83.07494140625002,22.89519140625005],[83.07540234375003,22.894941406250155],[83.07781640625004,22.895058593749937],[83.0782773437501,22.895308593750116]]]]},"properties":{"id":"20007"}}]}