{"type":"FeatureCollection","features":[{"type":"Feature","geometry":{"type":"MultiPolygon","coordinates":[[[[79.55293359375005,23.8163105468751],[79.55342187500005,23.81608105468753],[79.55369140625001,23.815689453125074],[79.55380859375,23.814435546875032],[79.55405859375006,23.813962890625163],[79.55394140625012,23.81206054687499],[79.5529257812502,23.811938476562645],[79.55275000000009,23.811750000000018],[79.55155859375,23.811810546875265],[79.55131640625015,23.811939453125035],[79.55069140625014,23.812088867187484],[79.55080859375002,23.81218945312493],[79.5513007812502,23.812420898437622],[79.5514804687501,23.812764648437465],[79.55080859375002,23.81356054687511],[79.55057812500016,23.814049804687514],[79.55031640625,23.81418945312504],[79.54955859375005,23.814310546874992],[79.54931640625003,23.814439453124933],[79.54905859375017,23.81456054687517],[79.54894140625012,23.81481445312515],[79.54855859375002,23.815310546875224],[79.54844140625013,23.815564453124935],[79.54819140625003,23.816037109375173],[79.54834765625017,23.816560546874996],[79.54869140625001,23.816439453125042],[79.54901171875011,23.81626953125007],[79.54955859375005,23.816689453124937],[79.55031640625,23.816810546875175],[79.55096484375017,23.817308593750113],[79.55143359375003,23.81706054687507],[79.55194140624988,23.816939453125116],[79.55218359375019,23.816810546875175],[79.55244140625015,23.816689453124937],[79.55293359375005,23.8163105468751]]]]},"properties":{"id":"29358"}}]}