{"type":"FeatureCollection","features":[{"type":"Feature","geometry":{"type":"MultiPolygon","coordinates":[[[[79.58113769531312,28.966166246202604],[79.58282443576448,28.965077107747803],[79.58277235243114,28.966393568251178],[79.58295030381979,28.96666137695341],[79.58416775173649,28.965823567708668],[79.58471733941016,28.966416625976947],[79.58559516059071,28.966381835937824],[79.58610568576447,28.965242241753828],[79.58483778211868,28.964026353624362],[79.58543891059063,28.96306084526941],[79.58688585069481,28.96499471028696],[79.58730794270869,28.963223198785016],[79.58818413628504,28.96193305121571],[79.58949327256974,28.96164245605506],[79.58945149739631,28.959407348633164],[79.59000542534753,28.958894178602776],[79.59066189236162,28.95750257704026],[79.59110568576446,28.954716932509044],[79.59142795138942,28.95441847059493],[79.59277886284767,28.954471978081983],[79.59336859809062,28.952505289713912],[79.59392306857703,28.953103705512518],[79.59580837673647,28.953029039171412],[79.59812120225737,28.95363505045603],[79.59986545138926,28.957329983181765],[79.6003548177089,28.958877020942154],[79.59850043402813,28.95931877983979],[79.59806098090334,28.960333658854495],[79.59893934461851,28.961147664388406],[79.60003851996558,28.96110405816009],[79.5999940321187,28.959994778103734],[79.60210123697979,28.95972751193605],[79.60273383246582,28.961067369249506],[79.60360568576445,28.959716932509025],[79.60454101562553,28.95942077636755],[79.60612630208377,28.959483574761677],[79.60609592013921,28.960244750976898],[79.60838921441027,28.960550265842386],[79.60989583333392,28.959753011068102],[79.61406250000036,28.959353773329326],[79.6144390190976,28.95777248806455],[79.61480360243101,28.957434963650527],[79.61644476996568,28.95667195638063],[79.61759223090328,28.95727912055166],[79.61918294270893,28.957216050890082],[79.61916069878518,28.95666144477029],[79.62028320312552,28.956394178602793],[79.62082790798647,28.955957845052424],[79.61916124132003,28.95556084526943],[79.6185308159726,28.953680691189717],[79.61638346354206,28.953338623047188],[79.61497992621563,28.952762044271353],[79.61442816840318,28.952783949110625],[79.61440917968807,28.95360582139793],[79.61358398437537,28.952762993706997],[79.61362684461838,28.95168646918431],[79.61010199652836,28.951379326714815],[79.60961371527813,28.95139872233122],[79.60917209201452,28.954171956380634],[79.60827907986149,28.95506944444486],[79.60493706597285,28.954936930338945],[79.60275227864614,28.955509575738233],[79.60283745659765,28.953353746202623],[79.60214084201439,28.953024970160953],[79.60227267795179,28.949700385200103],[79.60283365885456,28.948338623047377],[79.60389214409767,28.94889865451418],[79.60426757812556,28.948102823893578],[79.60722493489621,28.948617824978726],[79.60832790798648,28.947721896701736],[79.60708333333375,28.946505737305003],[79.6066617838546,28.9469607883033],[79.60598198784763,28.9469337972008],[79.60500542534763,28.945272488064575],[79.60362684461839,28.944150797526348],[79.60144965277826,28.94306349012615],[79.59874565972265,28.942448459201728],[79.59442871093805,28.940293646918732],[79.59387369791702,28.939117702908376],[79.59241753472273,28.939175415039458],[79.59251681857668,28.941672837999448],[79.59191243489616,28.941648898654805],[79.59130533854207,28.940361531576002],[79.59026258680606,28.939694552951764],[79.5902718098964,28.93859483506985],[79.58235297309099,28.938039686415422],[79.58192437066018,28.938947618272934],[79.57832790798662,28.939439154731318],[79.57212999131983,28.94195265028239],[79.57038465711841,28.942876180013386],[79.56972764756975,28.943894178602733],[79.56837727864641,28.944766099718308],[79.5670491536462,28.946822374132424],[79.56667209201427,28.949123806423913],[79.56777235243109,28.95556084526943],[79.56844455295183,28.957318386502067],[79.56920301649367,28.956917182075046],[79.56971679687555,28.955828043620073],[79.57006673177116,28.95556084526943],[79.57055013020883,28.956157769097743],[79.56942816840339,28.957788221571676],[79.56945421007,28.958445366753935],[79.57083875868105,28.958883599175664],[79.57114474826435,28.959851209852758],[79.57333875868116,28.961105821397993],[79.57360568576442,28.96528306749174],[79.57568142361171,28.96555026584238],[79.57614746093813,28.96310919867655],[79.57581705729226,28.962484130859664],[79.57473578559078,28.962526991102763],[79.57444986979206,28.962196316189704],[79.57598253038233,28.961472913954353],[79.5769493272575,28.962516343858965],[79.57779351128508,28.962482842339796],[79.57776041666719,28.96164021809929],[79.57499457465329,28.960560845269498],[79.57472113715338,28.95941297743086],[79.57416124132013,28.958894178602776],[79.57389431423681,28.95777248806455],[79.57306098090314,28.95666137695352],[79.57098470052134,28.95578769260021],[79.57114637586861,28.954727511936156],[79.57176595052115,28.95539598253076],[79.57277235243097,28.95524224175395],[79.57167209201421,28.95373189290413],[79.57319444444485,28.95297397189711],[79.5741878255212,28.953499484592427],[79.57417860243086,28.95515814887186],[79.57586859809058,28.955550265842405],[79.57638888888928,28.954989013672247],[79.5775054253476,28.955828043620073],[79.57785970052143,28.95657925076003],[79.57891981336857,28.962733289930995],[79.58045681423667,28.96305026584247],[79.5814241536464,28.960838623047167],[79.58251736111143,28.961929660373613],[79.58248372395886,28.96277587890664],[79.58360568576424,28.963654513889267],[79.58211154513938,28.96499471028696],[79.58139431423646,28.96388359917583],[79.5806542968754,28.963616400825018],[79.57940158420197,28.966833563910996],[79.57946234809063,28.968371107313814],[79.58158528645876,28.9697419569231],[79.5822835286464,28.969714287652224],[79.58277235243114,28.969131130642708],[79.58194281684067,28.96836256239179],[79.5816720920142,28.96666137695341],[79.58113769531312,28.966166246202604]],[[79.58695529513952,28.956776733398982],[79.58722819010464,28.95476501464873],[79.58791666666721,28.954583333333673],[79.58811360677137,28.955400661892725],[79.58780544704902,28.95695977105069],[79.58737033420189,28.95764526367229],[79.58630642361143,28.95805555555586],[79.58642035590341,28.958630438911],[79.58586859809063,28.958865966797177],[79.58617024739644,28.957339613173062],[79.58695529513952,28.956776733398982]],[[79.58608886718807,28.953194444444804],[79.58620713975725,28.954669189453483],[79.58471191406286,28.953899197048983],[79.58306586371563,28.951762695312837],[79.58486111111145,28.951527777778168],[79.58613172743108,28.95266086154551],[79.58608886718807,28.953194444444804]]]]},"properties":{"id":"9363"}}]}