{"type":"FeatureCollection","features":[{"type":"Feature","geometry":{"type":"MultiPolygon","coordinates":[[[[81.8985165744356,24.356086018880404],[81.89443888346332,24.355422227647836],[81.89076334635402,24.35384860568604],[81.8908364529079,24.350263671875254],[81.892154812283,24.3502905951609],[81.89258585611995,24.348522542318094],[81.89208333333309,24.347361111111425],[81.89164808485228,24.347502373589677],[81.89092556423614,24.348254258897825],[81.89055826822928,24.347497219509748],[81.88972493489567,24.347263047960396],[81.89044596354174,24.349369439019313],[81.8887798394098,24.352116834852723],[81.88721950954843,24.352497219509914],[81.88611382378483,24.35349005805152],[81.88694715711793,24.354719441731973],[81.88731445312479,24.355851304796317],[81.88901163736958,24.355816650390935],[81.88944173177092,24.357368706597512],[81.88584662543403,24.35850558810786],[81.88679063585053,24.359898274739834],[81.89148369683161,24.36113891601603],[81.89305284288176,24.361947224935207],[81.89587415907104,24.36221944173205],[81.89772745768218,24.36029039171038],[81.8997020128036,24.35963033040396],[81.8985165744356,24.356086018880404]]]]},"properties":{"id":"19332"}}]}