{"type":"FeatureCollection","features":[{"type":"Feature","geometry":{"type":"MultiPolygon","coordinates":[[[[75.17147202508656,24.654980639226906],[75.17335820711,24.65148022798533],[75.17363028069454,24.65094069378935],[75.17389781183763,24.6498615511414],[75.1741653425245,24.648514905450526],[75.1741653425245,24.646896293004048],[75.17443732565138,24.64581713734154],[75.17470485541807,24.645549584613732],[75.1749769266668,24.645549633002673],[75.1749769266668,24.643663414237224],[75.17443732565138,24.643663422004266],[75.1741653425245,24.6433914589838],[75.17389781183763,24.642856333371185],[75.17389781183763,24.64204699488242],[75.17281868958483,24.64150522218638],[75.17255115660171,24.641505186033072],[75.17120448980685,24.64150524410742],[75.17093250107584,24.641237700284506],[75.17066496487652,24.640970160658227],[75.17066496487652,24.640698149425404],[75.17039297521049,24.64043060507295],[75.16985335843,24.64043059863357],[75.16958582039106,24.641777250254634],[75.16958582039106,24.64366344468816],[75.16958582039106,24.644202949689273],[75.16931828189641,24.644742496486657],[75.16904628989667,24.645010029548047],[75.1674276872881,24.645010076740164],[75.16473434330632,24.644742553445354],[75.16392724846398,24.644470552003185],[75.16365524712714,24.644202997952178],[75.16338769852908,24.643663445636918],[75.16311569625836,24.64339137979026],[75.16284814674148,24.64312382971812],[75.16258059676912,24.64285636781571],[75.16176903760814,24.642316773720083],[75.16122948026324,24.642316735461975],[75.15907577475994,24.643391391360822],[75.1577290815001,24.643391392539442],[75.15584288994606,24.643391412991164],[75.15557087462165,24.643663418041214],[75.15530331226566,24.64393100422508],[75.1547638218033,24.644470510983552],[75.15422424042177,24.645010092278667],[75.15287759469689,24.64635673555982],[75.15233800684783,24.646628731156525],[75.15179850621948,24.646896309609616],[75.15017981509735,24.64716829688099],[75.14964476067152,24.64743577965602],[75.14910516174146,24.647703333148016],[75.1482936221341,24.647975392169272],[75.14721895590688,24.64797536764418],[75.14640740658095,24.64824290079848],[75.14613991772435,24.64878244529237],[75.14587233933966,24.649054505984026],[75.14560030678737,24.649322048984317],[75.14479329193401,24.649589580182663],[75.14263508588132,24.649589536107882],[75.14074880259724,24.64986154217044],[75.1399417629053,24.650129124278024],[75.13859508416616,24.650401148045177],[75.13805553648169,24.650668645635832],[75.13670893071836,24.65148026765867],[75.13428310505785,24.6514802168538],[75.13374363170996,24.651747786730624],[75.13347157823549,24.65228734732328],[75.13347157823549,24.65282686550931],[75.13401114159419,24.652826856975793],[75.13401114159419,24.653094405131412],[75.13455070310849,24.653366453908788],[75.1353577703799,24.6536339319279],[75.13643688235587,24.65390153716818],[75.1372484830085,24.653901558659882],[75.13751598695168,24.653633945108552],[75.1399417629053,24.653901502686693],[75.14128843014427,24.65336643758141],[75.143174617896,24.652826881710396],[75.14587233933966,24.652287339142617],[75.14748653200465,24.652287322453745],[75.15017981509735,24.652554876244068],[75.15153093744922,24.652554905142296],[75.15341718069604,24.652554829708848],[75.15449180461317,24.65255490516263],[75.1547638218033,24.652826895699306],[75.15503138507708,24.653094458122453],[75.15584288994606,24.653901479283903],[75.15638246577592,24.654173550944478],[75.15853620817066,24.6549806179966],[75.1598828054513,24.655792202851572],[75.16015481331729,24.656059675973083],[75.16042236741922,24.65632723216372],[75.16096192753506,24.657406331883422],[75.16284814674148,24.65929258534308],[75.16311569625836,24.660639259336023],[75.16311569625836,24.661178730084714],[75.16338769852908,24.66145079965115],[75.16419479614328,24.66199031748164],[75.16473434330632,24.66225785796226],[75.16581343207272,24.662797445270343],[75.1660809765394,24.663064995592862],[75.16635297367569,24.66333697323718],[75.16689251342538,24.663604507698153],[75.16716005605375,24.663604486873922],[75.1674276872881,24.663336992528414],[75.16769968209192,24.662797410884423],[75.16823921721422,24.661718324318713],[75.17012543809145,24.657945923541632],[75.17066496487652,24.656327306392427],[75.17093250107584,24.655792202814794],[75.17120448980685,24.65525259044223],[75.17147202508656,24.654980639226906]]]]},"properties":{"id":"38992"}}]}