{"type":"FeatureCollection","features":[{"type":"Feature","geometry":{"type":"MultiPolygon","coordinates":[[[[81.05090826812197,28.269336151146852],[81.05198287798167,28.28239692679731],[81.05265622864651,28.2835250294651],[81.05423027809547,28.284510520340604],[81.05467624601955,28.286530520506446],[81.05607192224942,28.288015362929922],[81.06128459747806,28.2890498682366],[81.06693869779409,28.288960731465714],[81.07044801580788,28.286080091543408],[81.0710321850285,28.28464873355738],[81.07403314263695,28.284920722164976],[81.07749784589609,28.283748035158474],[81.0783049633347,28.282575274668467],[81.07839414660694,28.279752618141647],[81.08054790444858,28.277509737168565],[81.08180535165235,28.27507955806027],[81.08117663057249,28.27157465102293],[81.08013770551364,28.27071847388599],[81.0764544928117,28.269683989788277],[81.07506322147678,28.270134369528662],[81.07385476606977,28.269866853617746],[81.07080924783607,28.267396499883606],[81.06837458422459,28.26641098276528],[81.06778593123975,28.26699069758783],[81.06415621403434,28.265871467591726],[81.06321982521085,28.266005213180545],[81.06263121779348,28.265599464194167],[81.05509087429681,28.26456943051667],[81.05284349879928,28.264658612067777],[81.05108661259091,28.265831300119945],[81.0512694215698,28.266290589260475],[81.0531824035685,28.26655820717626],[81.05135417065722,28.26807430384429],[81.05090826812197,28.269336151146852]]]]},"properties":{"id":"38905"}}]}