{"type":"FeatureCollection","features":[{"type":"Feature","geometry":{"type":"MultiPolygon","coordinates":[[[[80.88162672254762,23.747015109592226],[80.88217902289492,23.745080973307495],[80.87973761664497,23.745119086371673],[80.88005242241726,23.74423977322067],[80.88191982693124,23.743452962239772],[80.88071492512998,23.741738823784942],[80.87922675238704,23.740834825303978],[80.87902777777745,23.740138888888993],[80.87684719509522,23.740267198350892],[80.87554016113265,23.74081800672768],[80.87527893066377,23.74173163519984],[80.87400404188341,23.742268880208584],[80.87387084960935,23.74333943684917],[80.87452541775153,23.74601630316853],[80.87665330674915,23.747516954210354],[80.87935743543838,23.74785332573815],[80.88162672254762,23.747015109592226]]]]},"properties":{"id":"19553"}}]}