{"type":"FeatureCollection","features":[{"type":"Feature","geometry":{"type":"MultiPolygon","coordinates":[[[[77.59580468750013,22.948514648437595],[77.59564453125009,22.947833984375052],[77.59533203125008,22.94778808593756],[77.59489453125022,22.948051757812564],[77.59463281250018,22.947618164062504],[77.59503515625013,22.947073242187585],[77.59425781250005,22.946909179687466],[77.59405468750018,22.9465703125001],[77.59387109375015,22.946126953125187],[77.59338671875022,22.945928710937636],[77.5932500000001,22.945749999999947],[77.59230468750016,22.945804687499987],[77.59207031250006,22.945945312499987],[77.59162890625001,22.946126953125187],[77.59137500000006,22.946743164062582],[77.59057031250009,22.947445312500193],[77.5898359375,22.947600585937593],[77.58977343750027,22.94802539062502],[77.59005468750016,22.94819531249999],[77.59032031249993,22.94830468750007],[77.59080468750014,22.948695312500064],[77.59146484375006,22.94883496093759],[77.59194531250003,22.94942968750007],[77.59210156250018,22.950165039062554],[77.59301953125006,22.950301757812568],[77.59342968750016,22.950054687500185],[77.5939453125001,22.949945312500105],[77.59417968750014,22.949804687500105],[77.59444531250008,22.949695312500197],[77.59467968750013,22.94955468750011],[77.59535546875,22.9494111328125],[77.59555468750014,22.948929687500183],[77.59580468750013,22.948514648437595]]]]},"properties":{"id":"26903"}}]}