{"type":"FeatureCollection","features":[{"type":"Feature","geometry":{"type":"MultiPolygon","coordinates":[[[[104.42378662109095,16.94508843316001],[104.42373019747973,16.943666720920433],[104.42310492621229,16.94248508029544],[104.42151936848663,16.94370090060795],[104.41643853081322,16.93892035590305],[104.41656467013584,16.93573513454882],[104.41577826605626,16.93459228515664],[104.41527777777489,16.933055555555825],[104.4142789713512,16.933494466146186],[104.41433213975395,16.934835611979594],[104.41373019747968,16.935710177951677],[104.41182590060484,16.935634765625338],[104.41065565320886,16.93791314019124],[104.41066840277492,16.940100640191233],[104.40957438150744,16.941527235243356],[104.41084065754924,16.943595377604467],[104.41447726779242,16.947536078559523],[104.41672254774025,16.948856065538536],[104.42118923610829,16.947021213107917],[104.423052842879,16.945880262587096],[104.42378662109095,16.94508843316001]]]]},"properties":{"id":"10230"}}]}