{"type":"FeatureCollection","features":[{"type":"Feature","geometry":{"type":"MultiPolygon","coordinates":[[[[74.90306315104235,24.365563354492878],[74.90381130642444,24.364387342665665],[74.90667426215353,24.363341132270634],[74.90695963541734,24.36271979438007],[74.90770996093815,24.362049492730776],[74.90822102864647,24.363047756619665],[74.90871907552142,24.361961873373147],[74.91056315104251,24.361674465603997],[74.91191786024368,24.36037570529581],[74.91332302517438,24.357307671441816],[74.91366861979228,24.355823228624885],[74.9135552300356,24.353921915690776],[74.91289225260496,24.352074110243805],[74.91153537326451,24.35032321506145],[74.9099924045145,24.349730021159544],[74.90891981336884,24.3489809163419],[74.90542860243116,24.343946601020747],[74.90421712239643,24.34339063856423],[74.90250759548675,24.341936645508596],[74.90019042968831,24.34048129611621],[74.89902777777863,24.3398611111118],[74.8964458550353,24.340666571723872],[74.89298231336866,24.340460137261985],[74.89250759548676,24.341276380751495],[74.89335828993117,24.34166666666735],[74.89327636718807,24.343040771485107],[74.89389648437563,24.34332553439738],[74.89416937934104,24.34420789930634],[74.89515190972284,24.344149305556314],[74.89661729600769,24.34517272949293],[74.90165907118134,24.350080973307954],[74.90086914062587,24.351534084744728],[74.8999924045145,24.351936645508474],[74.89834092882009,24.35334113227084],[74.89665907118135,24.354158867730717],[74.89639648437563,24.354605034722866],[74.89720865885485,24.354992201064164],[74.90054796007021,24.353603312175196],[74.90286512586866,24.35334113227084],[74.90484212239656,24.35673706054773],[74.90471082899384,24.358943549262932],[74.9004465060772,24.362060411242112],[74.8977853732645,24.364518500434755],[74.89985243055631,24.364395277236],[74.9002701822923,24.366747639974818],[74.89962348090333,24.36793762207097],[74.89977376302144,24.368603312175168],[74.90111870659783,24.367507798937353],[74.90207302517436,24.36586920844259],[74.90306315104235,24.365563354492878]]]]},"properties":{"id":"9582"}}]}