{"type":"FeatureCollection","features":[{"type":"Feature","geometry":{"type":"MultiPolygon","coordinates":[[[[80.94302001953102,23.92971693250894],[80.94363769531222,23.928864813910764],[80.94357326931427,23.927240261501993],[80.94556084526883,23.92749471028671],[80.94702745225672,23.928270738390083],[80.94850484212228,23.927573513455044],[80.94795627170109,23.92548007541258],[80.95239495171424,23.925655992296214],[80.95432040744342,23.92314500596811],[80.9525865342882,23.922227511935986],[80.95091668023,23.923035753038377],[80.9497564019097,23.92308173285629],[80.94899956597223,23.92268127441433],[80.94625556098063,23.92196221245679],[80.94512600368913,23.923883599175596],[80.9427904595266,23.92323669433621],[80.94277208116287,23.922772759331835],[80.94386759440081,23.922065294054093],[80.9439055718315,23.92110717773457],[80.94152777777757,23.920694444444806],[80.93833977593303,23.92144694010436],[80.93889668782546,23.922499457465634],[80.9377830674911,23.925051405165192],[80.93805026584184,23.926116400824938],[80.94009399414037,23.926506618923923],[80.94082804361952,23.927186686198155],[80.94056084526912,23.928060845269414],[80.94000528971353,23.928575575087038],[80.94031751844611,23.92894788954034],[80.94223700629342,23.928871799045368],[80.94302001953102,23.92971693250894]]]]},"properties":{"id":"19473"}}]}