{"type":"FeatureCollection","features":[{"type":"Feature","geometry":{"type":"MultiPolygon","coordinates":[[[[107.89568945312502,13.060312500000109],[107.89556054687515,13.06006250000003],[107.89543945312514,13.05981250000022],[107.89521289062517,13.0594375000001],[107.89438867187502,13.06010546875001],[107.89396093749988,13.05988281250022],[107.89418945312511,13.0594375000001],[107.89431054687506,13.058207031250092],[107.89356054687508,13.057312500000037],[107.89343945312501,13.056847656250056],[107.89401367187517,13.056089843750016],[107.8949023437502,13.055937500000141],[107.89556054687515,13.056437500000214],[107.89616796875,13.056562499999984],[107.89631054687524,13.055687500000062],[107.89643945312517,13.055437499999982],[107.89660156250008,13.055101562500113],[107.89693945312504,13.054937500000094],[107.89718554687508,13.05481250000014],[107.89816796875013,13.0546875000001],[107.89906054687512,13.055437499999982],[107.89981445312512,13.055562500000022],[107.90007031250022,13.055695312500035],[107.90031054687509,13.056187500000036],[107.90093945312512,13.056937500000103],[107.90117578125015,13.057421875000117],[107.90240039062516,13.057562500000216],[107.9025605468751,13.057050781250169],[107.9023105468751,13.056562499999984],[107.90218945312515,13.056097656250088],[107.90268945312513,13.055437499999982],[107.90281054687509,13.0546875000001],[107.90315234375012,13.05418750000021],[107.90381054687506,13.0546875000001],[107.90414843749991,13.054851562500033],[107.904310546875,13.055187500000073],[107.90606445312514,13.055312500000213],[107.9068105468751,13.055937500000141],[107.90739648437503,13.056062500000095],[107.90756054687509,13.055582031250054],[107.90668554687508,13.055437499999982],[107.90642968750015,13.055304687499955],[107.90618945312488,13.05481250000014],[107.90606054687507,13.05456250000006],[107.90593945312506,13.054175781250052],[107.90618945312488,13.053687500000137],[107.90631054687512,13.053437500000058],[107.90662890625006,13.052964843750189],[107.90706054687527,13.053187499999979],[107.90756445312505,13.053312500000104],[107.90781054687508,13.053437500000058],[107.90811328124997,13.053562500000098],[107.90831054687513,13.053242187500018],[107.90786914062508,13.05258984374997],[107.90693554687525,13.052437500000096],[107.90667968750003,13.052304687500069],[107.90643945312505,13.051812500000068],[107.90634179687524,13.051687500000028],[107.90618945312488,13.052312500000056],[107.90606054687507,13.052562500000136],[107.90593945312506,13.053562500000098],[107.90581054687524,13.053812500000092],[107.9056894531249,13.054062500000072],[107.90525195312503,13.054640625000033],[107.90459765625005,13.05481250000014],[107.90393945312516,13.05431249999998],[107.90368554687527,13.05418750000021],[107.90279492187514,13.05344140624996],[107.90231445312489,13.053687500000137],[107.90206054687528,13.053812500000092],[107.90193945312504,13.054062500000072],[107.90181054687511,13.05431249999998],[107.90168945312516,13.055062500000034],[107.90152343750006,13.055382812500213],[107.90084765625019,13.055562500000022],[107.90018945312502,13.055062500000034],[107.89993554687507,13.054937500000094],[107.89968945312503,13.05481250000014],[107.89943554687508,13.0546875000001],[107.89918945312505,13.05456250000006],[107.89868554687527,13.054437500000105],[107.89843164062503,13.054308593750164],[107.89843945312501,13.053871093750118],[107.89918945312505,13.053687500000137],[107.89968554687525,13.053312500000104],[107.89999218750003,13.05316406250003],[107.90031054687509,13.05280078125007],[107.9000605468751,13.052312500000056],[107.8999394531252,13.052062499999977],[107.89981054687527,13.051812500000068],[107.899607421875,13.051394531250239],[107.89918554687509,13.051187500000054],[107.89893945312488,13.0510625000001],[107.89868554687527,13.05093749999989],[107.89843164062503,13.05080859375012],[107.89843945312501,13.050421875000026],[107.89868945312512,13.049937500000098],[107.89881054687507,13.049687500000203],[107.89899414062504,13.049328124999946],[107.90043945312513,13.04918750000013],[107.90056054687508,13.048800781250222],[107.90019531250007,13.048089843749963],[107.900701171875,13.04742187499997],[107.90068554687511,13.04667968750006],[107.90018554687524,13.046437500000138],[107.89993164062517,13.046308593750112],[107.8999394531252,13.045859375000006],[107.9008261718752,13.045687500000085],[107.90142187500018,13.045996093750105],[107.90156054687506,13.045550781250071],[107.90131054687524,13.045062500000057],[107.90118945312489,13.044097656249917],[107.901751953125,13.043355468750107],[107.90243945312503,13.043187500000087],[107.9025605468751,13.042687500000014],[107.90274414062517,13.042332031250211],[107.90416796875004,13.04218750000004],[107.90506054687509,13.042937500000093],[107.9053906250002,13.043062500000133],[107.90556054687508,13.042621093750185],[107.90518554687512,13.042437500000204],[107.90493945312514,13.04231250000025],[107.9045781250002,13.042136718750072],[107.90443945312515,13.041562500000012],[107.904310546875,13.041312500000203],[107.90418945312504,13.041062500000038],[107.90381054687506,13.04056250000015],[107.90368945312505,13.040062500000161],[107.90318554687528,13.039937500000036],[107.90282617187503,13.039753906250056],[107.90268945312513,13.038062500000237],[107.90250000000012,13.037750000000045],[107.9023105468751,13.037812500000157],[107.90218945312515,13.038312500000046],[107.90181054687511,13.038812500000034],[107.90168945312516,13.039449218750107],[107.90193945312504,13.039937500000036],[107.90206054687528,13.0401875000002],[107.90222851562501,13.040515625000083],[107.90156054687506,13.041312500000203],[107.90143945312505,13.042062500000085],[107.90131054687524,13.04231250000025],[107.90118945312489,13.042812500000053],[107.90106054687507,13.043062500000133],[107.90093945312512,13.044062500000095],[107.90080664062506,13.044320312499977],[107.90034179687498,13.044308593750188],[107.90018945312502,13.043062500000133],[107.89981054687527,13.042562499999974],[107.89968945312503,13.04231250000025],[107.89931054687506,13.041812500000091],[107.89918945312505,13.04081250000013],[107.89906054687512,13.04056250000015],[107.89890234375005,13.039914062500188],[107.8984355468751,13.039687500000127],[107.89811132812511,13.039523437500009],[107.89790039062515,13.038656250000159],[107.89741796875003,13.038437500000086],[107.89718945312515,13.038699218750054],[107.89747070312515,13.039249999999996],[107.8973105468751,13.039562500000088],[107.89718945312515,13.040062500000161],[107.89681054687512,13.04056250000015],[107.89668945312516,13.04102734375013],[107.89718945312515,13.041687500000151],[107.8973105468751,13.041937500000131],[107.89743945312503,13.04218750000004],[107.89756054687527,13.043402343750174],[107.8969980468751,13.044144531250154],[107.89631054687524,13.044312500000089],[107.89531445312511,13.045187500000196],[107.89409765625001,13.045312500000136],[107.89343945312501,13.044812499999978],[107.89304101562524,13.044687500000208],[107.8930644531251,13.045820312500197],[107.89356445312504,13.04606250000002],[107.89381054687507,13.046187500000059],[107.89431445312513,13.046312500000198],[107.89456054687511,13.046437500000138],[107.89595117187505,13.046562500000093],[107.89651757812507,13.046269531250118],[107.89830664062507,13.04792578125003],[107.89755078124998,13.04882421875007],[107.89706054687505,13.04906250000009],[107.89681445312502,13.04918750000013],[107.89656054687507,13.049312499999985],[107.89631445312503,13.049437500000025],[107.89606054687508,13.049562500000064],[107.89593945312512,13.050027343750045],[107.89643945312517,13.050687500000066],[107.89656054687507,13.05165234375012],[107.89601171874997,13.052375000000069],[107.89542382812519,13.052562500000136],[107.89484375000009,13.052261718750088],[107.89468945312504,13.051312500000094],[107.89318554687495,13.051187500000054],[107.89293945312514,13.0510625000001],[107.89243554687508,13.05093749999989],[107.8919394531251,13.050562500000026],[107.89159960937505,13.050437499999987],[107.89143945312512,13.05094921875012],[107.891689453125,13.051437500000134],[107.89181054687523,13.051687500000028],[107.89243945312504,13.052437500000096],[107.8925605468751,13.05268750000009],[107.89268945312514,13.05293750000007],[107.8928105468751,13.053687500000137],[107.89305468750004,13.054160156250092],[107.8925605468751,13.05481250000014],[107.89243945312504,13.055062500000034],[107.89205273437514,13.055574218750081],[107.89156054687507,13.055812500000101],[107.89108007812504,13.056136718750082],[107.89093945312513,13.057449218749966],[107.89118945312501,13.05793750000015],[107.89131054687508,13.058503906249967],[107.89067382812496,13.059062500000067],[107.89018945312503,13.058812499999988],[107.88968554687526,13.058687500000218],[107.88843554687523,13.057558593750045],[107.88807617187516,13.057566406250018],[107.88793945312503,13.059949218749964],[107.88818945312514,13.060437500000063],[107.88831054687509,13.060687500000043],[107.888939453125,13.061437500000196],[107.88906054687507,13.063152343750218],[107.88856054687525,13.063812500000068],[107.88843945312502,13.064007812500009],[107.88886914062502,13.06464062500001],[107.88956445312502,13.064812500000201],[107.88981054687505,13.06493750000007],[107.89031445312511,13.06506250000011],[107.8905605468751,13.06518750000005],[107.89156445312514,13.06531250000009],[107.89181054687523,13.065437500000044],[107.89206445312513,13.065562499999999],[107.8923925781252,13.065730468750104],[107.89456835937509,13.065687500000038],[107.8948105468751,13.06518750000005],[107.89518945312503,13.064687500000076],[107.89531054687527,13.064437499999997],[107.89568945312502,13.063937500000108],[107.89581054687508,13.063550781250015],[107.89552929687514,13.063000000000073],[107.89569335937509,13.06267968750008],[107.89641601562514,13.062328124999993],[107.89656054687507,13.061457031250143],[107.89581054687508,13.060562500000103],[107.89568945312502,13.060312500000109]],[[107.89258203125027,13.059242187499962],[107.89244335937516,13.058308593750098],[107.892208984375,13.057898437500072],[107.892326171875,13.056749999999951],[107.89275,13.056624999999997],[107.8929433593751,13.056933593750017],[107.89305664062519,13.057691406250157],[107.89369335937519,13.058433593750138],[107.89380664062506,13.058683593750047],[107.89309374999996,13.05953515625012],[107.89258203125027,13.059242187499962]]]]},"properties":{"id":"22706"}}]}