{"type":"FeatureCollection","features":[{"type":"Feature","geometry":{"type":"MultiPolygon","coordinates":[[[[75.43668750000009,25.6410615234375],[75.43718750000008,25.640818359375103],[75.43719531250022,25.640325195312542],[75.43696484375013,25.63987500000013],[75.43718750000008,25.63943847656256],[75.43731250000005,25.639186523437715],[75.43743750000007,25.638938476562487],[75.43756250000021,25.638436523437562],[75.43768750000024,25.638188476562604],[75.43783593750024,25.636992187500226],[75.43842578125017,25.636688476562483],[75.43881250000024,25.63681152343767],[75.43906250000006,25.636938476562563],[75.43931250000006,25.63706152343765],[75.43956250000005,25.637188476562642],[75.43981250000022,25.63731152343756],[75.44006250000021,25.63743847656255],[75.44073437500012,25.637602539062485],[75.44193750000008,25.638936523437636],[75.44208984375015,25.640184570312627],[75.4429140625002,25.640201171875063],[75.44318750000022,25.640061523437637],[75.44388281250016,25.639891601562667],[75.44418750000008,25.63943847656256],[75.44431250000022,25.639186523437715],[75.44468750000013,25.638688476562677],[75.4448125000001,25.637936523437673],[75.44493750000007,25.637688476562715],[75.44506250000009,25.63718652343752],[75.44518750000006,25.636938476562563],[75.44531250000009,25.636686523437632],[75.44543750000022,25.636438476562674],[75.44556250000025,25.63593652343765],[75.44568750000005,25.63568847656252],[75.44581250000007,25.63543652343749],[75.4459375000001,25.635188476562547],[75.44606250000007,25.63443652343763],[75.44631250000006,25.633951171875125],[75.44615624999997,25.633146484375203],[75.44518750000006,25.632311523437664],[75.44443750000025,25.632188476562575],[75.44418750000008,25.632061523437486],[75.44299218749998,25.631915039062633],[75.44268750000006,25.631326171875088],[75.44285156250018,25.630484375000137],[75.44318750000022,25.63031152343764],[75.44393359375002,25.630128906249965],[75.4439687500001,25.628467773437507],[75.44293750000006,25.62756152343748],[75.44244531250004,25.627321289062607],[75.44231250000021,25.627063476562725],[75.44214453125008,25.62638671875],[75.44118750000021,25.625561523437554],[75.44093750000022,25.62543847656265],[75.44051562500002,25.625221679687712],[75.43981250000022,25.626061523437627],[75.43968750000008,25.626313476562657],[75.43956250000005,25.626561523437516],[75.43932031250009,25.627055664062468],[75.43882421875023,25.62731152343767],[75.43843750000005,25.627188476562495],[75.43818750000005,25.627061523437504],[75.43793750000006,25.626938476562586],[75.43743750000007,25.626561523437516],[75.43694921875013,25.62632421875024],[75.43606250000025,25.62531347656261],[75.43591406250002,25.62381542968771],[75.43532421875014,25.62380371093765],[75.43482421875021,25.624061523437703],[75.43443750000009,25.62393847656253],[75.4341875000002,25.623811523437624],[75.4334765625002,25.623637695312482],[75.43331250000008,25.6233134765625],[75.43318750000006,25.62306152343747],[75.4330625000002,25.622813476562527],[75.43293750000007,25.622561523437497],[75.43206250000006,25.621563476562656],[75.43191406250006,25.620671874999942],[75.43143750000021,25.620438476562654],[75.43118750000005,25.620311523437493],[75.43050781250017,25.620145507812694],[75.42981250000005,25.619313476562652],[75.4295742187501,25.61882128906248],[75.42918750000021,25.618561523437464],[75.42891015625017,25.618425781250025],[75.42850000000007,25.618000000000123],[75.42825390625009,25.61807910156257],[75.42843750000011,25.61843652343761],[75.42856250000003,25.618938476562633],[75.42868750000005,25.61918652343749],[75.42892578125017,25.619676757812627],[75.42956250000006,25.620188476562674],[75.43005468750007,25.620428710937645],[75.43018750000007,25.620686523437698],[75.4303242187502,25.622607421875074],[75.43081250000003,25.622938476562567],[75.4313046875001,25.623178710937538],[75.43143750000021,25.62343652343759],[75.43156250000024,25.62368847656272],[75.43168750000021,25.623936523437663],[75.43181250000006,25.62418847656261],[75.4319375000002,25.624436523437552],[75.43206250000006,25.62493847656249],[75.43218750000008,25.625186523437705],[75.43231250000005,25.625938476562723],[75.43243750000008,25.626186523437667],[75.43256250000022,25.627938476562548],[75.43268750000024,25.628186523437506],[75.43281250000021,25.628438476562536],[75.43303515624999,25.628875000000022],[75.43281250000021,25.629311523437508],[75.43268750000024,25.629563476562538],[75.43256250000022,25.629811523437482],[75.43243750000008,25.631563476562633],[75.43218750000008,25.63204882812505],[75.43231250000005,25.632188476562575],[75.4330625000002,25.632311523437664],[75.43331250000008,25.632438476562555],[75.43422656250002,25.632587890625103],[75.43505859375003,25.633580078125092],[75.43481250000005,25.63406152343768],[75.43468750000008,25.63456347656252],[75.43446484375002,25.635000000000005],[75.43481250000005,25.635673828125036],[75.43466796875006,25.637005859374966],[75.43431250000006,25.637188476562642],[75.43356250000008,25.63731152343756],[75.43331250000008,25.63743847656255],[75.43256250000022,25.637561523437725],[75.43231250000005,25.637688476562715],[75.43182421875011,25.637926757812735],[75.43131250000008,25.638561523437602],[75.43118750000005,25.638813476562717],[75.43106250000008,25.639061523437675],[75.4308867187502,25.63977148437509],[75.4305625000002,25.63993847656272],[75.4283125000002,25.640061523437637],[75.42806250000021,25.64018847656253],[75.42738281250004,25.640355468750073],[75.42668750000004,25.641212890625084],[75.42687890625027,25.641561523437574],[75.4271875000002,25.64143847656267],[75.42784765625024,25.64093847656268],[75.42856250000003,25.6410615234375],[75.42881250000008,25.64118847656249],[75.42931250000024,25.64131152343768],[75.42956250000006,25.64143847656267],[75.43005468750007,25.64167871093754],[75.43018750000007,25.641936523437607],[75.43031250000021,25.64268847656261],[75.43156250000024,25.64281152343753],[75.43222265625016,25.643311523437504],[75.43268750000024,25.6431884765626],[75.43343750000005,25.64256152343772],[75.43385546875007,25.642357421875047],[75.43417578124993,25.641697265625197],[75.43468750000008,25.64131152343768],[75.43643750000021,25.64118847656249],[75.43668750000009,25.6410615234375]]]]},"properties":{"id":"27056"}}]}