{"type":"FeatureCollection","features":[{"type":"Feature","geometry":{"type":"MultiPolygon","coordinates":[[[[86.06281025272264,24.808880542576418],[86.06364473894232,24.808576536635556],[86.06701367611655,24.810667872355978],[86.06879454634239,24.80874579051465],[86.07090365007488,24.80961211674078],[86.07255526140298,24.80873814416593],[86.07400593143339,24.80480122399989],[86.07445670997086,24.802908828980534],[86.07514410146374,24.80190986996884],[86.07549301910697,24.800807761543254],[86.07533005523985,24.798854314413248],[86.07325587717989,24.799951879110594],[86.07169866689347,24.798757777141205],[86.07210624610374,24.797987496514992],[86.07412712012697,24.797347695489677],[86.07541129981453,24.79622871762517],[86.07424959734053,24.79552098107989],[86.0727777006393,24.796299823582117],[86.07178960927641,24.79577697269775],[86.07181205665032,24.79521143111245],[86.07384181467998,24.79405461145106],[86.07316859690647,24.792415614055216],[86.07320623525285,24.791466737780326],[86.0744687135514,24.790870915975802],[86.07472214508377,24.78954346914415],[86.07344420454532,24.789679475817366],[86.07212754059137,24.79110052684284],[86.07069769033095,24.79104384891862],[86.07011928050034,24.79252927507953],[86.06904960547868,24.793520333429143],[86.06677882639863,24.794148995538535],[86.06684257422856,24.795757288859903],[86.06585509321715,24.7970449950232],[86.06431076813075,24.79578817943063],[86.06324292416335,24.795284215536455],[86.06290336524418,24.796709844198418],[86.06289902496653,24.79804251292677],[86.06188570573889,24.798002348403244],[86.06153299035262,24.79578817943063],[86.06014410146375,24.794399290541747],[86.05955735016184,24.794132092191106],[86.05879956478842,24.795737825426812],[86.05772643110797,24.796343734986323],[86.05681076813042,24.79518199860385],[86.0573866009212,24.79409372481365],[86.05676994239278,24.793576536635584],[86.05520276303068,24.795267973403128],[86.05404852040928,24.795222230944233],[86.05178255632492,24.793307371596526],[86.05097743479703,24.794107627265902],[86.0532951431305,24.79672949412793],[86.05289441342151,24.797486787829],[86.0518385052184,24.797444927884428],[86.05004739464968,24.795987238811065],[86.04824319543096,24.796728307333268],[86.04754210493596,24.7982881794308],[86.04625521257512,24.796899290541745],[86.04451706695866,24.796632092191004],[86.04403299035258,24.79784845503835],[86.0454796591894,24.798306456069128],[86.04652275000987,24.799432300388773],[86.04754447852534,24.79939179678101],[86.04882085927633,24.79851350088252],[86.05089476606904,24.798595711847213],[86.05226900652033,24.79954134986808],[86.0539464560645,24.798953394816948],[86.05611645931961,24.798576536635494],[86.0573557442589,24.79937146868305],[86.05567137739726,24.80136462257299],[86.0548936538726,24.801333799819133],[86.053360382931,24.801735546781046],[86.05292187924155,24.80357653663556],[86.05116332075633,24.805604141480387],[86.04920483822613,24.804917716377403],[86.04736985016169,24.803655017673947],[86.04538953060873,24.803028050985603],[86.04548372820003,24.805404098755872],[86.04511663564361,24.80609789894028],[86.04320542145084,24.806055174330922],[86.04264410146371,24.8064253355994],[86.04386344825187,24.807555130249952],[86.04461743588209,24.80715618073279],[86.04551756880315,24.807191869344948],[86.04688807932834,24.80506949046581],[86.04848021528747,24.806365215970303],[86.04983600955856,24.806311488078748],[86.05153299035285,24.80717706831956],[86.05275125207154,24.808111279202976],[86.05358994293525,24.807667468845708],[86.05300719282653,24.806566191176472],[86.05447807227537,24.804965425524358],[86.0556946385731,24.805802607463505],[86.05683701324759,24.804926600383382],[86.05739738379899,24.80315659780625],[86.05851358117289,24.802465425524446],[86.05950709788331,24.80457046024671],[86.06110554080854,24.803470538914127],[86.06377047136405,24.80458000546706],[86.06373235829969,24.80554251292675],[86.06217799632046,24.805480918281546],[86.06068907759223,24.80745484609733],[86.05958854590816,24.81107653663564],[86.05874463314777,24.812177068319556],[86.05847743479731,24.813054024835495],[86.060976756629,24.813021371026863],[86.0618001887033,24.81256535363856],[86.06096298981006,24.81134873647821],[86.06281025272264,24.808880542576418]]]]},"properties":{"id":"9536"}}]}