{"type":"FeatureCollection","features":[{"type":"Feature","geometry":{"type":"MultiPolygon","coordinates":[[[[82.46149576822907,27.597763129340862],[82.46248725043412,27.596032172309634],[82.46223497178832,27.59443169487905],[82.4607880316839,27.591415744358173],[82.46085232204857,27.590786404080504],[82.4582131618923,27.58947401258733],[82.45708333333314,27.589027777778412],[82.4543104383682,27.589159613715864],[82.4486615668404,27.591589626736805],[82.4484426540798,27.595124782986673],[82.45102484809021,27.60076171875052],[82.45309624565968,27.599271104601343],[82.45500786675328,27.601318901910318],[82.45606906467017,27.60142713758745],[82.45668565538202,27.600191514757526],[82.45791503906256,27.599170193142953],[82.45901991102423,27.597234971788765],[82.45943169487836,27.59917941623324],[82.4601565212673,27.599781629774853],[82.46037733289924,27.60194986979225],[82.45890163845499,27.60455376519147],[82.45916693793399,27.605329318576977],[82.46121365017368,27.606098361545747],[82.4623049587673,27.60572835286517],[82.46184054904515,27.60449245876798],[82.46180826822908,27.601581217448498],[82.46275444878475,27.60064561632001],[82.46284233940978,27.599783799913766],[82.46140163845482,27.598876139323522],[82.46029052734386,27.598550075955487],[82.46054280598966,27.59804280599026],[82.46149576822907,27.597763129340862]]]]},"properties":{"id":"9410"}}]}