{"type":"FeatureCollection","features":[{"type":"Feature","geometry":{"type":"MultiPolygon","coordinates":[[[[107.862898716475,12.76337862312592],[107.862898716475,12.763998441604345],[107.86310390638846,12.764404152722033],[107.8639332547625,12.76508199369027],[107.86542265287679,12.765086403830107],[107.86568569600253,12.764885729469356],[107.86599339348682,12.764885776474951],[107.86615393143403,12.765081989945775],[107.86781264795974,12.765291515477006],[107.86837896397046,12.765688403487879],[107.87006454027245,12.76569289484039],[107.87073336794032,12.765291573165392],[107.8714869873341,12.765086408773186],[107.87234763626593,12.764279307042738],[107.87330184679429,12.76407867296456],[107.87396625252326,12.763672858784798],[107.87471536050093,12.763672916959987],[107.87578112743299,12.762865827109527],[107.87618239556873,12.762665163927394],[107.87673534920796,12.762665104932584],[107.87734181861187,12.762295027624189],[107.87764500858863,12.762455588201938],[107.87806860727731,12.763253692380259],[107.87847439840363,12.763467748559647],[107.87935730566296,12.763472236810076],[107.87976752804695,12.763271536103295],[107.880043962936,12.763048598776766],[107.88005291227132,12.762798889464944],[107.88048103433002,12.76247341527258],[107.88067276740667,12.762990639957952],[107.88130148283463,12.763467791816229],[107.88296028561126,12.763472208636463],[107.88312074251058,12.763668399280132],[107.88356667755632,12.763672894474524],[107.88419539921648,12.764078696756634],[107.88522097325433,12.764078636094712],[107.88582746029164,12.76370854008649],[107.88635367401744,12.764074240967869],[107.88740601391171,12.763878035621271],[107.88756647325258,12.76407421944611],[107.88821310268894,12.764078659816745],[107.88837356247275,12.764274842535967],[107.88905138173104,12.764279302964155],[107.88972920256018,12.763864610199008],[107.88992094170602,12.76347226067756],[107.8902330039886,12.763472225713079],[107.89046045167889,12.763672851630417],[107.89127197852338,12.763672897441694],[107.89153513536667,12.76347221215296],[107.89184276972287,12.763472229994756],[107.89057643560493,12.764328373826139],[107.89057191557576,12.764578104497547],[107.89037574637769,12.764738634576442],[107.89037131675217,12.765612580609835],[107.89078598423322,12.766285953046413],[107.89138353313021,12.76669616968134],[107.89180715174089,12.767302558343097],[107.89244475043431,12.767503229726627],[107.8923868032959,12.767810901661123],[107.89219506253441,12.767962530589365],[107.89218611282723,12.768359379693294],[107.89140577173602,12.76895688282435],[107.89065662093375,12.768956901077365],[107.88996993871676,12.769380509523348],[107.88976482028922,12.770031593190346],[107.88916284509102,12.770794031865082],[107.88915841548385,12.771471889886321],[107.88935910387596,12.771877610110172],[107.8899878379958,12.77235473089355],[107.892047889607,12.772359253161184],[107.8922753387078,12.77255988247443],[107.89309130025096,12.772559918133368],[107.89335445872972,12.772359205807271],[107.89450490973756,12.772359225854597],[107.89476797908468,12.772158519934267],[107.8954814315753,12.77215851716088],[107.8957087929406,12.772359230188078],[107.89774221596869,12.772359229630577],[107.8984155367634,12.771944532560303],[107.89843334615557,12.771685857939996],[107.89862509099969,12.7715298346433],[107.89863395050045,12.771057186797693],[107.89843334615557,12.770646934735806],[107.89793396036085,12.770187667004013],[107.89842439625785,12.769126333983646],[107.89883021563227,12.769059463603478],[107.89928060437693,12.769322551913877],[107.89976218299084,12.769331520504197],[107.90043550842302,12.768916756800987],[107.90045331793785,12.76865817591894],[107.90064506410243,12.768502074711297],[107.90065392366422,12.768024975121964],[107.89984689100602,12.766776423091697],[107.9002481921702,12.765831119427741],[107.90097503775779,12.765492163309665],[107.90125149268401,12.765273681075639],[107.90126044266799,12.765077529862133],[107.90218346773375,12.764685124116662],[107.9024643536065,12.76446658865459],[107.90247330362746,12.764270439903388],[107.90326253382159,12.763869054783246],[107.90348104157107,12.76340537962133],[107.90407409610863,12.763053066031205],[107.9040874760114,12.762798942782647],[107.90428365438557,12.762647267203983],[107.90428817462613,12.7617643707459],[107.90378425863469,12.761086586727377],[107.90388677753383,12.760150172351617],[107.90369059942479,12.759762252207242],[107.90428365438557,12.759213769738649],[107.90428817462613,12.758959597751456],[107.90448435313434,12.758808015018792],[107.90448878297315,12.758130195918366],[107.90429703429788,12.757742311627439],[107.90489009048316,12.757193844241433],[107.90489461073308,12.756944061600631],[107.90509078964631,12.75678354658175],[107.9048946107331,12.756105788767133],[107.90450659273387,12.755780295737738],[107.90489009048316,12.755579604036328],[107.90489461073308,12.75539229650202],[107.90662912616304,12.755392341253847],[107.90730246734142,12.75498213047435],[107.90769491891966,12.754339983874596],[107.90832360194537,12.753960959642498],[107.90852873335291,12.753363469312152],[107.90892561647365,12.753153842630276],[107.9089344762852,12.75290419312986],[107.90933135995351,12.752547458642127],[107.90954092197894,12.751891923410765],[107.90993780646559,12.751334554827311],[107.90994223638657,12.750277778849663],[107.91011174871917,12.75014400242975],[107.91079395773968,12.750540807248877],[107.9112398444796,12.750545275793502],[107.9118017242107,12.751147290914481],[107.9122699430715,12.751352356295634],[107.91309039015832,12.751151701324174],[107.91337128645219,12.750933205617272],[107.91337580683246,12.75073706137594],[107.9141784466534,12.750326812242694],[107.91438801213012,12.749858614289163],[107.91438801213012,12.74903813302135],[107.91419625700087,12.748721530817527],[107.91478490315255,12.748306795826332],[107.91519508470965,12.747245529195116],[107.91559197681948,12.746692663355828],[107.91560083683169,12.7458097203947],[107.9153333188257,12.74532812101682],[107.91579711329268,12.74507399169691],[107.91580154330184,12.744824254709483],[107.91639905269729,12.744061718861015],[107.9164080031423,12.743589134760064],[107.91624300760891,12.743379509610735],[107.91639905269729,12.743250222805832],[107.9164080031423,12.74237177167737],[107.91582378375693,12.741658323380818],[107.91632329035554,12.741658311227235],[107.91692966086107,12.741301559558352],[107.91705451529778,12.741448731213907],[107.91753612302303,12.741457632283533],[107.91820948915118,12.741042948539905],[107.9182272997423,12.740851212005932],[107.91874896068057,12.740851172551126],[107.91899867114785,12.740650555651351],[107.91934647605036,12.740851250107703],[107.92056384164385,12.740650585194983],[107.92124164477563,12.74023584762445],[107.9212550254587,12.740044085905346],[107.92157164152846,12.740044144650565],[107.92206211683602,12.739772077343492],[107.92291378280872,12.740240307318173],[107.92379221283394,12.740244768953616],[107.92405530837888,12.740044148639784],[107.92436749731411,12.740044090014123],[107.92452797684018,12.740240272999841],[107.92497388435285,12.740244732628474],[107.92553579025692,12.740641656020577],[107.92581669840403,12.740650514213607],[107.9264899930128,12.740235831377305],[107.92682885597982,12.739691863007119],[107.92694928442775,12.739834525041609],[107.92743090829823,12.739843406696163],[107.92829597075172,12.739237033389253],[107.92904955721568,12.739031866169507],[107.92953109409497,12.738612750933353],[107.92970947812104,12.738233698323677],[107.93005286541378,12.738425486359757],[107.93086441105795,12.738224798201323],[107.93134595089154,12.737596073690176],[107.9313549017896,12.736922701643502],[107.93117208653153,12.736432254545228],[107.93146638117896,12.736610598461944],[107.93228236095636,12.736405477918105],[107.93255884525159,12.73618699429448],[107.93256779618633,12.735937234059001],[107.93316524908859,12.735580528862641],[107.93316976977192,12.73533082611881],[107.9333659674952,12.735174738061657],[107.93337482804061,12.73389946390027],[107.93316976977192,12.733484747529348],[107.9327460916296,12.733012087730145],[107.9321530698278,12.732802530137812],[107.93173834405037,12.732008815288832],[107.93106946772944,12.731589618030302],[107.93064588300672,12.731589669083966],[107.92997257893366,12.73200438333393],[107.92975405154122,12.73280254674066],[107.92862588497331,12.73280255565188],[107.92795258549907,12.733217191166728],[107.92793920451258,12.733417869233966],[107.92714547802534,12.73382369096804],[107.9265301357773,12.735228251987813],[107.92569184025997,12.735326344881438],[107.92527269339324,12.734626275463308],[107.92442102061678,12.734416728611839],[107.9240686891895,12.733828152859102],[107.92365397475325,12.73361855501089],[107.92297173596474,12.733609611441134],[107.9223742132533,12.733970850363022],[107.92227611802286,12.73377463109308],[107.923056450661,12.733364355320605],[107.92344892322625,12.732570678583086],[107.92440311924082,12.73257065785453],[107.92529050441063,12.731892849865984],[107.92574084323273,12.732160395578747],[107.92622246513375,12.732164913294884],[107.92690019084283,12.73175014760059],[107.92730604947214,12.731139291858709],[107.92731490983606,12.7302519676663],[107.92688690031571,12.729583054115958],[107.92641422808026,12.729368981878865],[107.92519683836161,12.729369007529902],[107.9249337417998,12.72956968068163],[107.92401968649413,12.729569681482674],[107.92388144830694,12.729070240266186],[107.92405530837888,12.72893645381319],[107.92460383170003,12.728936499546245],[107.9258836028621,12.728115987287753],[107.92590141391632,12.72791534652665],[107.92629823001712,12.727705803134388],[107.92630275059551,12.727451644007115],[107.92649894376386,12.727299957893782],[107.92650780410358,12.726822837679034],[107.92607979575217,12.72614508511984],[107.9250274077654,12.725734823438941],[107.92486692796798,12.725538656471127],[107.9244789740686,12.725529718600193],[107.92428278224173,12.725003561123557],[107.92365397475325,12.724526431756457],[107.9227711150254,12.724521963472977],[107.92209330838084,12.724932214380106],[107.92206654693929,12.725150751498793],[107.92184359529416,12.724736007679494],[107.92159388241878,12.72472268250144],[107.9214288839838,12.724526403720477],[107.92095179039802,12.724521966234754],[107.92069312770195,12.724722652793188],[107.92014470205771,12.724722664665196],[107.91993956255929,12.72487867358842],[107.91981922738002,12.724731541253526],[107.91937323724518,12.724722664251482],[107.91921276052202,12.724526404854775],[107.91873115005795,12.724521939307465],[107.91804892265228,12.724941173284737],[107.91803997215746,12.7251953064748],[107.91784378461175,12.725351368346864],[107.9178393545719,12.726345755357862],[107.91763864671395,12.72640816140831],[107.91721508125501,12.726336874794702],[107.91721508125501,12.725609959408338],[107.91678699597207,12.724932255686625],[107.91638124221664,12.724731538984097],[107.91569892984168,12.724722636029126],[107.91501670945493,12.725146249932477],[107.9148071435309,12.726002433197165],[107.91461538812878,12.726158441307732],[107.91460652814624,12.726809456445688],[107.9144325832365,12.726943242910718],[107.91371917512068,12.726943243162989],[107.913384666778,12.726751560111374],[107.91357199140309,12.726492866204776],[107.91358094176218,12.725614452937808],[107.913384666778,12.725288938559615],[107.91416949627613,12.724887612551269],[107.91418730662308,12.72462451673619],[107.91437906174647,12.7244728947407],[107.91438801213012,12.723790703064545],[107.91421406734945,12.723500810658606],[107.91470905081786,12.72368370546068],[107.91559197681948,12.72305940101869],[107.91580154330184,12.722591176441725],[107.91580154330184,12.722180911851682],[107.91560978725244,12.721855432985665],[107.91601110993324,12.721592344170553],[107.91663538069996,12.721663690395927],[107.91684937794926,12.722056139131613],[107.9170946567789,12.722064976691021],[107.917255222758,12.722261230672762],[107.91793744832697,12.722270142176692],[107.91861524542317,12.721855448110468],[107.91875791119693,12.721516524278407],[107.91887381588778,12.721654776987323],[107.9195516151363,12.72166365567108],[107.9200421774955,12.72139166958685],[107.9204925083116,12.721654761894637],[107.92116579077968,12.721663696580775],[107.92185254590441,12.721240121628908],[107.92186149651492,12.720990384099816],[107.92205768673281,12.72083433129295],[107.92206211683603,12.719550111765965],[107.92123269418393,12.718466495300001],[107.92098750232249,12.718462034914438],[107.92082250422658,12.71826584586166],[107.9197433737498,12.71826140421671],[107.9188292441097,12.718756366955407],[107.9188292441097,12.717935878757965],[107.9186286259871,12.717530128855493],[107.91793744832697,12.717048548844845],[107.91732212527512,12.71704854482094],[107.91691185034834,12.717249200437346],[107.91663095067828,12.717472139647539],[107.91642581362458,12.7181231574028],[107.91543141174664,12.718676105250063],[107.91520846511831,12.719139845433379],[107.91478490315255,12.71906845985434],[107.9143656813755,12.718265850148919],[107.91355861106877,12.717864515849298],[107.91287187526729,12.717855638048228],[107.91179277390569,12.718471005190333],[107.91138259708839,12.719086296161876],[107.91137364679612,12.719969217028984],[107.91180615415973,12.720682690651172],[107.91100804115092,12.721088444588759],[107.91065129582323,12.721088433093273],[107.9099645668056,12.721561127045804],[107.90951868199849,12.721298029768388],[107.9088319556251,12.721289149066967],[107.90815861094354,12.721703855969778],[107.9077662491522,12.722301334166188],[107.90694572650887,12.722716065110587],[107.90693234647593,12.722885472628352],[107.90662469629197,12.722702698304245],[107.90580869709959,12.722702701515981],[107.90542962800409,12.722894374169655],[107.90526915888252,12.722711579107134],[107.90439069370117,12.72270268054957],[107.90317782482053,12.723313541974239],[107.90271857046973,12.723915510314201],[107.90240640448748,12.723915514740977],[107.90206747921391,12.723723775259666],[107.90206747921391,12.723384869650243],[107.90105531633608,12.721726117587707],[107.90085461993152,12.720963630864253],[107.90045331793785,12.72069159646799],[107.90003411659912,12.71988898279782],[107.89964176566238,12.719683835487753],[107.89941883100911,12.719278059802198],[107.89883464538572,12.71906851814402],[107.89863395050045,12.718537895525467],[107.89822822180061,12.71827029287572],[107.89822822180061,12.716950454893459],[107.89862509099969,12.716393063509642],[107.89863395050045,12.716121068605926],[107.8980275273304,12.715264871223143],[107.8980275273304,12.71349460212654],[107.89783578287707,12.713111116514023],[107.89802309758913,12.712955111309494],[107.8980275273304,12.712103353110795],[107.89862509099967,12.711545987189746],[107.89863395050045,12.711296253201438],[107.89883021563227,12.711135754808328],[107.89883464538572,12.710489223602746],[107.89923151540549,12.710132450329747],[107.89924046532784,12.709882713967046],[107.8998201315877,12.709343207515133],[107.90097060797201,12.70934317905248],[107.90137634046496,12.709142544843239],[107.90182673311836,12.708500428231837],[107.90258920190335,12.708130286779674],[107.9028701785687,12.70791184270308],[107.90287460838314,12.707715604039091],[107.90327148386689,12.707506065339405],[107.90368173977136,12.706449269612044],[107.90407852594124,12.706092521492717],[107.90428817462613,12.705437034579075],[107.90448435313434,12.705285403190281],[107.90448878297315,12.704830549462061],[107.90609853657095,12.703265435103404],[107.90610748670267,12.70307369742675],[107.90650427614898,12.702859628633927],[107.90671392656489,12.702204168607677],[107.9073114175098,12.701851900125572],[107.90752097809562,12.701196454847473],[107.90810961089399,12.700848597235666],[107.90812742087415,12.7006479935321],[107.90892561647365,12.700032570418962],[107.90934031018364,12.69903379393496],[107.90993780646559,12.69861910264746],[107.91014736892309,12.698021572262284],[107.91093661972529,12.697620223947899],[107.91095452028351,12.697415072309163],[107.91155201984378,12.697004855677696],[107.91156097014147,12.696750696897164],[107.91215847093301,12.69639845441383],[107.91236803497199,12.695742971728277],[107.9129655374018,12.695386184206871],[107.91317510201532,12.694530092383618],[107.91357199140309,12.693972694505543],[107.91358094176218,12.692082035682937],[107.91317510201532,12.691234824604226],[107.91317510201532,12.690869157884343],[107.9127737831989,12.690227050798102],[107.91317067204568,12.68953142134079],[107.91317510201532,12.689049857549344],[107.91275597293745,12.688380935097001],[107.91236803497199,12.68818925237387],[107.91196228730438,12.687399932485048],[107.91196228730438,12.68642791361796],[107.91156097014147,12.685616304523561],[107.91032574122734,12.68453722658992],[107.91008046803604,12.684528342850676],[107.90951868199849,12.683930803399582],[107.90927340948016,12.683921833835917],[107.90873386490355,12.682949774778406],[107.90873386490355,12.682187310385862],[107.90852873335291,12.681777058072122],[107.90790004988857,12.681103690211224],[107.90772167905557,12.68109480388443],[107.90772167905557,12.680595374179147],[107.9079222897466,12.680376850376074],[107.9079222897466,12.678954402077911],[107.90772167905557,12.678704672401263],[107.90772167905557,12.67814282630429],[107.90730246734142,12.677474012980712],[107.90691453656815,12.677268920462444],[107.90643737609086,12.676042614053598],[107.90671392656489,12.675342525224229],[107.9073114175098,12.674990245567965],[107.90772167905557,12.67398698949878],[107.90851978314748,12.67337611300126],[107.90852873335291,12.673121921956701],[107.90872491469189,12.672970277956061],[107.90873386490355,12.671481012928009],[107.90845740293538,12.670990471312704],[107.90852873335291,12.670754127207895],[107.90913074830115,12.670343938961679],[107.90934031018364,12.66974641813349],[107.9105219237649,12.668948244148114],[107.9114717383979,12.668948178707563],[107.91188200574658,12.668743071732917],[107.91215847093301,12.668524559003167],[107.9121673308419,12.66833280994541],[107.9129565870614,12.667922572761434],[107.91337580683246,12.667119946435],[107.9137681761044,12.666914818773433],[107.91378155644824,12.666714169176677],[107.91457524698545,12.666308435794464],[107.91479376314047,12.665648502336154],[107.91539127049211,12.665291721058539],[107.91560083683169,12.664435560713896],[107.91580154330184,12.664221541854346],[107.91580154330184,12.660194999618074],[107.91639905269729,12.659436978564417],[107.9164080031423,12.657943146673661],[107.91598877905558,12.65727875662017],[107.91579259287526,12.657260899688467],[107.91539579090337,12.656328968573808],[107.91498551865871,12.656061431062323],[107.9143656813755,12.655249862493228],[107.9141784466534,12.65524090169327],[107.9139599309549,12.65484404605278],[107.91210051990284,12.654032543382499],[107.91193995673373,12.653836268939907],[107.9110927524086,12.653827414920977],[107.91086528872384,12.653626748251162],[107.90973267407522,12.653626738889425],[107.90911736816876,12.652828564116026],[107.90886766608025,12.652819615786006],[107.90870710467553,12.652623421604545],[107.90785990966125,12.652810716563435],[107.90738717753179,12.652351389819469],[107.90699481677005,12.65159786504987],[107.90624571654922,12.651406090393351],[107.90573736734213,12.650670343200437],[107.9058978367194,12.650549937336217],[107.905906786845,12.650095085157123],[107.90610748670267,12.649751735439867],[107.90650427614898,12.649537780358317],[107.90671392656489,12.648882265766584],[107.90751202792087,12.648329312790723],[107.90752097809562,12.648075179431784],[107.90850197314354,12.647678305655635],[107.9083459322415,12.648440777686172],[107.90814975115538,12.648601294115757],[107.90814523085541,12.64947973406647],[107.9084350726308,12.649760657523302],[107.90889885622816,12.649555550545873],[107.90942059104789,12.64955557200218],[107.91004927776284,12.649961328509253],[107.91054425422793,12.649742862922322],[107.91075381711741,12.648949149781728],[107.9114717383979,12.648949095906337],[107.91173482294751,12.648748499929129],[107.91386183852403,12.648748487015823],[107.91402231233346,12.648944674933038],[107.91446829437123,12.648949160282312],[107.91483390431358,12.649350493385304],[107.91530212799596,12.649555573787843],[107.91874453062712,12.649555600464772],[107.92026955785576,12.648949118729728],[107.9204835577426,12.649346000936365],[107.92072883959511,12.649354908104785],[107.92088940755298,12.649551079255616],[107.92217802282501,12.649555600886043],[107.92286478030503,12.649136396501868],[107.92307435195531,12.648480922905886],[107.92326611285797,12.648329300255012],[107.9232749731007,12.647847716815738],[107.92307435195531,12.647602524793763],[107.92307435195531,12.646661644396527],[107.92326611285797,12.646505562304974],[107.9232749731007,12.645827761958898],[107.92285139954897,12.645158871431347],[107.92246787840699,12.644976089326779],[107.92246787840699,12.643437720937827],[107.92298963725392,12.643495663554535],[107.92367187608379,12.643076475235615],[107.92388144830694,12.64242104502573],[107.9240776398672,12.64226938238269],[107.92408207000071,12.641587200818325],[107.92365397475325,12.64090938088472],[107.92318582822162,12.640699770651475],[107.92245892777808,12.64079788988008],[107.92226273729348,12.640530335849133],[107.92206211683603,12.63896074386936],[107.92145564536753,12.637903910772257],[107.9212550254587,12.636940746386736],[107.92075560091536,12.636285287812234],[107.92245006755984,12.63541126882742],[107.9226685895507,12.635005538886052],[107.923471164258,12.634390149976074],[107.92347568479312,12.634140498875581],[107.92367187608379,12.633988855030704],[107.9236807363387,12.633128236360898],[107.92388144830694,12.632914222487253],[107.92388144830694,12.631313383968395],[107.92408207000071,12.63109491864038],[107.92408207000071,12.627068306974579],[107.92468402631083,12.62631030223612],[107.9246885468645,12.62563250996483],[107.92426940142143,12.624963658133568],[107.92383687577248,12.624767419102994],[107.9232749731007,12.623969231742693],[107.92286921042034,12.622800996957476],[107.92244563745082,12.622328300172144],[107.92225387708113,12.622319381018162],[107.92206211683603,12.621958173334665],[107.92206211683602,12.62138739115727],[107.92166973652476,12.620598148189181],[107.92225830718728,12.620049683249913],[107.92226273729348,12.619866922464407],[107.92723019391855,12.619866854337847],[107.92850997645449,12.619251521100736],[107.928527787667,12.619050836465487],[107.92931708765322,12.618645052511123],[107.92993243570174,12.618029757493254],[107.93014201236434,12.617374260025342],[107.93033820808037,12.61722265252318],[107.93034263830772,12.616767795070617],[107.93094912801655,12.615746653428452],[107.93094912801656,12.6151268434134],[107.93074841124897,12.614881632718955],[107.93074841124897,12.613316465964894],[107.9312656640605,12.613401187780099],[107.93167595892812,12.61320056035306],[107.9321530698278,12.612776941935579],[107.93256779618633,12.611907394277123],[107.93236264806323,12.61108691162492],[107.93173834405039,12.61041361384498],[107.93149314347171,12.610404673855983],[107.93132813950936,12.610208446263519],[107.93085102993972,12.610199582339401],[107.9303426383077,12.610484917734334],[107.93034263830772,12.609874059568938],[107.93014201236434,12.609628764261513],[107.93014201236434,12.607073740505374],[107.93033820808037,12.606922072129946],[107.9303426383077,12.60632456626285],[107.93073955078219,12.60611503850063],[107.93094912801656,12.6056467635687],[107.93074841124897,12.604853116018473],[107.93094460736714,12.604701452531389],[107.93094912801656,12.604224334146918],[107.93047201905809,12.603323636684632],[107.93047201905809,12.602529894041798],[107.93073955078219,12.602070608311537],[107.93074841124897,12.601597916097452],[107.93034263830772,12.600942416188838],[107.93034263830772,12.600612517143604],[107.93151990576688,12.600072892855922],[107.93227793069998,12.600072945122877],[107.93253651312267,12.599872295650131],[107.93369145709248,12.599872271668845],[107.93470364161242,12.599466497081368],[107.93498455846539,12.599247979730777],[107.9349890791765,12.599051789792092],[107.9357916873202,12.598436467416033],[107.93600126813077,12.597785410087527],[107.9363980977765,12.597223560475651],[107.93640261850919,12.59594380604428],[107.93579611762915,12.594690835907095],[107.93579611762915,12.59412006265355],[107.93559548798999,12.593874799589333],[107.93559548798999,12.592907161437534],[107.9352164710343,12.59230071745482],[107.93558653696373,12.591770123778147],[107.93559548798999,12.588693288122691],[107.93576492463893,12.588506048020136],[107.93559548798999,12.586040173333712],[107.9349890791765,12.58498775883106],[107.93478835966972,12.584020207879199],[107.93418195250865,12.583168448978858],[107.93418195250865,12.582807300224637],[107.93375836333182,12.582142853050032],[107.93330792188796,12.581924385341726],[107.9327460916296,12.581326848164881],[107.93209511487171,12.581117292199266],[107.93173391380213,12.580720397705196],[107.9310873695091,12.580510869027751],[107.93092679600912,12.580314620076889],[107.93048087951686,12.580310197100994],[107.92950885260713,12.579507562412745],[107.92741752733535,12.579503093836474],[107.92714547802534,12.579712686947138],[107.92672632909662,12.580185311726511],[107.92672632909662,12.581817365321418],[107.92694928442775,12.582089374033744],[107.92794815530753,12.582098270202108],[107.92816216075856,12.582495121417645],[107.9298209568904,12.582905363454275],[107.93018215562468,12.583302268967163],[107.93117651677137,12.583712505664131],[107.93139504521451,12.584109377856972],[107.93177405727845,12.584283276687668],[107.93177405727845,12.585050201315862],[107.93219321336097,12.585714638704374],[107.93238045950767,12.585732473212474],[107.93238045950768,12.586057947625527],[107.93258108696871,12.586303206694634],[107.93258108696871,12.588479292344624],[107.9327862352432,12.588728956546506],[107.93258108696871,12.589665409427306],[107.93218426243756,12.590227209314099],[107.93217983218265,12.59313009102009],[107.93258108696871,12.593776685866578],[107.9327862352432,12.5945436032996],[107.93318758126495,12.594989524176345],[107.93318758126495,12.595551386167383],[107.9333927299597,12.595796681703348],[107.9333927299597,12.59667959064456],[107.93260784936226,12.59707195484833],[107.9318632047476,12.59707198200606],[107.93160010225373,12.597277058897465],[107.93003948433226,12.597277051559777],[107.92923237116202,12.59767835305231],[107.92774301038817,12.598909080833618],[107.92773405959943,12.599158783039279],[107.92733724157075,12.599716190350962],[107.92733281138842,12.600371668131324],[107.92693590348667,12.600929090270352],[107.92692695272235,12.601785239578547],[107.92673075926984,12.601936811344702],[107.92672632909662,12.60259230424556],[107.92652118502528,12.602810830070363],[107.92652118502528,12.607260970592305],[107.92672632909662,12.607510672978352],[107.92672632909662,12.60867454976243],[107.92692695272237,12.608928690357862],[107.92692695272237,12.610498283163876],[107.92733281138842,12.611149371192495],[107.92733281138842,12.612518284882666],[107.92773405959942,12.613169276245301],[107.92773405959943,12.615318581521079],[107.92753786561117,12.615657510914309],[107.92713652725467,12.615875964081699],[107.92692695272237,12.616531457073707],[107.92594598676231,12.617071003189272],[107.92543317341108,12.617071002429626],[107.9248044538845,12.616665263698525],[107.92216464210009,12.616665232308682],[107.92150030795254,12.617071047375811],[107.92054603091162,12.617271712097756],[107.91973894368141,12.617672972229185],[107.91946247138199,12.617895954193516],[107.91945352084426,12.618145625191286],[107.91905671394423,12.61870308412016],[107.91905219347682,12.619358537933817],[107.91884705473827,12.619572566108264],[107.91884705473827,12.620972706572953],[107.91864643660355,12.621191227084472],[107.91864643660355,12.62160591039668],[107.91884705473827,12.621851160915847],[107.91884705473827,12.622814328136705],[107.91985927882793,12.62483877620161],[107.92026060729354,12.625284647564396],[107.92046574701521,12.626051642454346],[107.92107221644922,12.62710402254958],[107.92107221644922,12.628673579991808],[107.92126397605111,12.629052657870906],[107.92107664653761,12.629208730954517],[107.92107221644922,12.630064812712023],[107.92047017709451,12.631023525442084],[107.92046574701521,12.631679042772985],[107.92026955785576,12.631830680646013],[107.92026060729354,12.632285512099507],[107.92006884834379,12.632619913037344],[107.91933761592557,12.632825064950625],[107.9188560052576,12.633244143148856],[107.91884705473827,12.633435914665455],[107.91805787314739,12.633846158806968],[107.9176431671597,12.634256415280369],[107.91763421667719,12.634506126127436],[107.9172373218168,12.635063536246644],[107.91723289178607,12.636352188661482],[107.9176342166772,12.637003236533989],[107.91803997215746,12.638372144717215],[107.91864643660355,12.639223862983348],[107.91864643660355,12.63998186980638],[107.91884705473827,12.640231608229952],[107.91892290813797,12.640869262515055],[107.91805787314739,12.64131957906024],[107.9178393545719,12.641792293559526],[107.9178393545719,12.642608261587156],[107.91803997215746,12.643018521750527],[107.91826744138311,12.64329049724469],[107.91894966929436,12.643486768840468],[107.91884705473827,12.644405334781828],[107.91864643660355,12.644748649121604],[107.91804892265229,12.645163339060558],[107.91803997215746,12.64541307469527],[107.91711246730266,12.646108691205685],[107.91638567223457,12.645149942842018],[107.91614039399502,12.64514548985723],[107.91597539861148,12.64494928472249],[107.91509699186741,12.64494037796164],[107.91472686119742,12.645136564507718],[107.9145663870041,12.644949309036217],[107.91428991955665,12.644940438318953],[107.91397331130746,12.64513663424286],[107.91378155644824,12.644614912412626],[107.91314834138338,12.644142199259093],[107.91126217499712,12.644133283466118],[107.91059334508986,12.644539074566016],[107.9090415172947,12.644539066916145],[107.90877843515362,12.644739733597628],[107.90762349829858,12.644739777695683],[107.90736041742632,12.644940444513338],[107.90681201661246,12.644940395098203],[107.90532267871501,12.645769775633788],[107.90511302929175,12.646362861549143],[107.90472510140896,12.646572402009886],[107.9043104142108,12.646978180175195],[107.9043059843747,12.64717439268674],[107.90350337149917,12.647789802191129],[107.90349885127068,12.64803950646245],[107.90310197547961,12.648391758878887],[107.90289241804598,12.64925236333215],[107.9026962406013,12.649408416545064],[107.90269181078955,12.651495301135501],[107.9028567987214,12.651704843146533],[107.9026962406013,12.65182525670565],[107.90269181078955,12.652302383894211],[107.90289241804598,12.652552087757007],[107.902892418046,12.653113899786426],[107.90331162346732,12.653782801232815],[107.90356132083471,12.653800599426505],[107.90391805755779,12.654389246874102],[107.90431484404698,12.654607715106092],[107.90493466015036,12.655405953542],[107.90659350638533,12.65602123821235],[107.90756111827665,12.656823912390767],[107.90942059104789,12.6568283644448],[107.90958558275776,12.657024592792341],[107.91083409836743,12.657029043346569],[107.91119527385659,12.657425910417816],[107.91184186497591,12.657635435756108],[107.91262216999252,12.658411346033073],[107.91299229801714,12.659017746255786],[107.91299229801714,12.660359969323988],[107.91259540941083,12.660917390915433],[107.91258654948905,12.661773469131225],[107.91238584520997,12.661987565337402],[107.91238584520997,12.663187051450027],[107.91218523147498,12.66353036087608],[107.91178391400807,12.6637444328667],[107.91160554081986,12.66412790363584],[107.91125774505626,12.664127941677645],[107.91017864961331,12.664743252465984],[107.91016526943326,12.665006320416207],[107.90876505503728,12.665956106026773],[107.90874724501849,12.666156811933272],[107.90835036213849,12.666370837045067],[107.9083459322415,12.66662057227018],[107.90756554816183,12.66724035494101],[107.90730246734142,12.666772147766741],[107.90688777650573,12.666558123940783],[107.90641070647735,12.666553700919687],[107.90573736734213,12.666968371801216],[107.90512197939344,12.667989527570862],[107.90511302929175,12.6684666112613],[107.90530477849968,12.668702960812661],[107.90512197939344,12.669001681097184],[107.90518887915206,12.66975084870748],[107.9047162417243,12.670004998053153],[107.90417661510895,12.670749691500607],[107.90365940982967,12.670397427090602],[107.90298164718516,12.670392979599388],[107.9022993658952,12.670803151917854],[107.9020853792319,12.671280275769773],[107.9020853792319,12.67169947519044],[107.90225036682293,12.671900111846945],[107.90168850535173,12.672836504038518],[107.9016795553547,12.673920103261715],[107.90204966960113,12.674526527467524],[107.9018891119225,12.674655828081752],[107.90188025232342,12.675333618189514],[107.9022993658952,12.676002539878565],[107.90255358261557,12.676015877377049],[107.90271405025331,12.676212112675938],[107.90350780132317,12.676118460985146],[107.90369954948312,12.67658220737395],[107.90369954948312,12.678160680511155],[107.90411866565199,12.678829605037762],[107.9043059843747,12.678842931899691],[107.9043059843747,12.679373617839886],[107.90471172147714,12.680015667757344],[107.90451554281708,12.680305496688392],[107.90450659273387,12.680987785399571],[107.90592016683125,12.68285166647071],[107.90592016683125,12.683413541050445],[107.90612529656153,12.683658755389903],[107.90612529656153,12.686436832270646],[107.90753878804011,12.688911603589226],[107.90753878804011,12.689870266778524],[107.90814523085541,12.69113222252431],[107.9083459322415,12.69220684185681],[107.90742288781144,12.69220690815667],[107.90715980711872,12.692407548626758],[107.90681201661246,12.692407539167561],[107.90580426724088,12.6930139806123],[107.90512197939343,12.69363824570411],[107.90491242051843,12.694101951141754],[107.90491242051843,12.695502115735218],[107.90450659273387,12.696121997885454],[107.90450659273387,12.69674174759867],[107.90491242051843,12.697392791575734],[107.90491242051843,12.698935656883519],[107.90433274420198,12.699475171498818],[107.90351223114725,12.699894361134717],[107.9026962406013,12.700705919380775],[107.90269181078955,12.700955654849098],[107.90229041587955,12.701312359338184],[107.90188025232342,12.70236917853148],[107.9012826820233,12.702926559066404],[107.90026600167364,12.70513829928927],[107.89946339984554,12.705753646065896],[107.8994589700826,12.705949799863067],[107.89833073875866,12.706342233701417],[107.8980498568435,12.7065652156216],[107.89804542710189,12.706814885234348],[107.89724274094854,12.707372271223731],[107.89723831121914,12.707622027828075],[107.89544572274868,12.708968652253693],[107.89469665201155,12.708968646488769],[107.89380926873652,12.709592932542868],[107.89380474865743,12.709842619942195],[107.89360857729284,12.710003108047708],[107.89359962754247,12.710654178486715],[107.89320276514971,12.71120706728854],[107.89319833548139,12.712290687267036],[107.89380474865743,12.713146817633179],[107.89380474865744,12.71451130488271],[107.89400544023556,12.714761021345616],[107.89400544023555,12.7185512539264],[107.89440673340258,12.719206711810912],[107.89440673340258,12.72008520213196],[107.89400986991609,12.720299245793587],[107.89400544023555,12.720548951028581],[107.8938092687365,12.720700529851651],[107.89380474865743,12.721583393539477],[107.89440673340259,12.722439620832615],[107.89440673340259,12.723202074138547],[107.8950132394826,12.724816239979189],[107.89584701788867,12.725899816440231],[107.89631530171603,12.726104931431598],[107.89805428658516,12.726104959092456],[107.89847348509417,12.726706927967685],[107.89912004821359,12.726916519081344],[107.8994589700826,12.727108266451431],[107.89968190476638,12.727514062854208],[107.89992716927563,12.727518532323979],[107.90049345715288,12.728321091724982],[107.90134063092046,12.728530738630903],[107.90150118829904,12.728726940790192],[107.9018891119225,12.72873136454542],[107.90210761864972,12.72912819417855],[107.90269181078955,12.729337800846588],[107.90311092552001,12.73013598938062],[107.90336062271673,12.730144948912475],[107.90369954948312,12.730876218251595],[107.9043059843747,12.731527211776235],[107.9043059843747,12.731790278433426],[107.90381996847645,12.731790316383123],[107.90285227850285,12.731192811215537],[107.90196496095005,12.731188343434257],[107.9012826820233,12.731607522653624],[107.90127382244252,12.731861683421494],[107.90108207586705,12.732017702043883],[107.90107312588852,12.732869410077441],[107.90066287362998,12.733275188409756],[107.89937869194112,12.733208338014224],[107.89881231581286,12.732806984936488],[107.8981301346212,12.73280251025509],[107.89704213755556,12.7336274985828],[107.8970331877003,12.733881590669576],[107.89623502443534,12.734639683889249],[107.89622607460474,12.734880460647874],[107.89509794612553,12.735228279703108],[107.894576236764,12.73582135979403],[107.89377356011371,12.734635241844721],[107.8931581972654,12.734220488782707],[107.89251164730102,12.734216056611636],[107.89228419801658,12.734015373608704],[107.88973806179187,12.734216034820063],[107.8895463227659,12.733685460843322],[107.8891406066557,12.73341790527167],[107.8891406066557,12.731290878068783],[107.88933677502553,12.731139276650493],[107.8893412046354,12.73046149681452],[107.8891406066557,12.730051247895569],[107.88851187435706,12.72957856864767],[107.88812387804725,12.72956966043247],[107.88770469435542,12.728767015077718],[107.88745953048209,12.728762610648065],[107.88729446082183,12.72856636193382],[107.8864160495262,12.728561962984037],[107.88615298768832,12.728762620644666],[107.88560896571086,12.728762589821208],[107.88520316466605,12.728963285468316],[107.88492229534893,12.729186168429944],[107.88491777540719,12.729377915210959],[107.88411512526129,12.729792597914216],[107.88410626620002,12.730042305551914],[107.88391453086832,12.730198400875011],[107.88390558141462,12.73087617172162],[107.88432918919085,12.731545100499384],[107.88467704341097,12.731696644778987],[107.88454768281451,12.731830461832748],[107.88358448604482,12.732361080378586],[107.88285768364017,12.731799242441381],[107.88237161294202,12.7317903022532],[107.88169832907161,12.732205045397217],[107.88108299164018,12.733020995978787],[107.88107847175786,12.733498189902551],[107.88127915459997,12.733908380232313],[107.88168495019197,12.73417595416874],[107.88205060965706,12.734911646737372],[107.88189449244499,12.735045471196255],[107.88188563345106,12.735928375432257],[107.88230923829693,12.736592782845264],[107.8826481406958,12.736744361694717],[107.88251878099807,12.736842443940743],[107.88200604347276,12.736842445117054],[107.88166714181932,12.736111208856077],[107.881033905722,12.735638543691577],[107.87995040171958,12.735629575617192],[107.87927703303832,12.736044263416792],[107.87925922481264,12.736302957263293],[107.87908530087896,12.736401010625334],[107.87923689673427,12.736186988992271],[107.87924584604484,12.735504703645283],[107.87882224564613,12.734831433888548],[107.87821134372183,12.73442566003163],[107.87772971019781,12.734416744554256],[107.87651686143408,12.73502766114006],[107.87603523070959,12.735647472108784],[107.87603080130158,12.736035404626863],[107.8757454210138,12.736035385822397],[107.8755135553855,12.735830254692594],[107.8751033389871,12.735830293491583],[107.8747912024803,12.736026448475647],[107.87437646732054,12.735237213185359],[107.87378338260477,12.735023153352763],[107.87315911275454,12.733819176408815],[107.87275332903,12.733618512511665],[107.87187496151921,12.733609604917584],[107.87119718216418,12.734024322696424],[107.87117928403775,12.734282942288534],[107.87098755720707,12.734434576463736],[107.87097860815018,12.73502313354466],[107.87045694188446,12.735023133086239],[107.86977473651913,12.735446764707799],[107.86976578749952,12.73569650691164],[107.86957406160019,12.735852527790962],[107.86956511258676,12.736530376080598],[107.86998427020832,12.73719920074629],[107.8701804256969,12.737217046247798],[107.8705995842049,12.738015197145998],[107.87084039497294,12.738024127754146],[107.8710053649272,12.738220335308293],[107.87151374415784,12.73817572296743],[107.87138890913293,12.738273829208476],[107.87138438940096,12.73875545016744],[107.87185263400664,12.739433179677885],[107.8708136382111,12.739870206319107],[107.86944913701336,12.739870240966916],[107.86876250471389,12.740293790079484],[107.86855740119897,12.740762019355662],[107.86875798502271,12.742996075523038],[107.86917714148129,12.743664930980783],[107.86942690008097,12.743678295567143],[107.86958743992382,12.743874481274863],[107.8700689695897,12.743878933696703],[107.87027407417035,12.743722893960367],[107.8710009355957,12.744280268854267],[107.87199979675258,12.744186603826195],[107.87241443813272,12.744681574936168],[107.87259730719154,12.744703875723596],[107.87187044177969,12.744922340970536],[107.87079140117442,12.745742863277322],[107.87038110103406,12.746353764249573],[107.87037224239013,12.747031499638217],[107.87057734718455,12.74743731869593],[107.87120604083321,12.747914414511179],[107.8722941224676,12.747918917737307],[107.87315911275454,12.74731245326735],[107.87552250458177,12.74711174611371],[107.87620029400262,12.746701571355525],[107.87621367263068,12.74650090971551],[107.8768379490259,12.746313575751454],[107.8768379490259,12.746804096257675],[107.8762359100814,12.747361534141417],[107.87623148067034,12.747615704369373],[107.87603523070958,12.74776726142501],[107.87603080130158,12.748645682516523],[107.87619577419598,12.748855298169502],[107.87585244988847,12.749363595295355],[107.87560720557417,12.749363589276888],[107.8754065266353,12.748632360189399],[107.87471093111297,12.748150737668587],[107.8734891457797,12.748150721379128],[107.87282474113923,12.748556516774832],[107.87207111828212,12.748556546547535],[107.87125512509614,12.749185252574028],[107.87126850349706,12.749760449474339],[107.87160739306034,12.750135065717595],[107.87269095644261,12.750144001378002],[107.87335979014516,12.749773890536275],[107.87319924822161,12.750442774925551],[107.87260173654734,12.751000094428818],[107.87239220097374,12.752485034224994],[107.87282022138497,12.752962148659844],[107.8736719251181,12.752765916144334],[107.87383689667679,12.752962134177876],[107.87462171059892,12.752971047695207],[107.8747912024803,12.7533010140365],[107.87461285182594,12.75367553949192],[107.87401533725152,12.754027823733473],[107.87401081747878,12.754277549212002],[107.87381465940919,12.754433667505706],[107.87380571026539,12.755918547659121],[107.87441217357198,12.756774681791363],[107.87481795960765,12.758143593573774],[107.87521922641706,12.758415647612914],[107.87542433462563,12.759356500165314],[107.87581674346053,12.760136782888889],[107.8751389549318,12.760270555453525],[107.8749785024234,12.760074355357945],[107.87430071584468,12.760069921603732],[107.87296295525861,12.760573841796072],[107.87235206561792,12.76007441850155],[107.87187044177969,12.760069927349528],[107.87059072555431,12.760885937262879],[107.87037224239013,12.761492395149109],[107.86999764855081,12.761684112820008],[107.86944913701336,12.761684097213756],[107.86877136330881,12.762098832491642],[107.86875798502271,12.762357461176547],[107.86856183049326,12.762509043055779],[107.86855740119897,12.762968338223173],[107.86811148912022,12.762700795733721],[107.86746490426157,12.762696374282875],[107.86730436559036,12.762500165436947],[107.86645268049638,12.76249126481337],[107.86628771312444,12.762299494146863],[107.86399571586401,12.762290594396633],[107.86331343526908,12.762709688049162],[107.862898716475,12.76337862312592]],[[107.90752097809562,12.695002739600165],[107.9077662491522,12.695078518242235],[107.90752097809562,12.695399605590586],[107.90752097809562,12.695002739600165]],[[107.89990926938928,12.740155561820162],[107.90052464641158,12.740075295491076],[107.90033733010185,12.740432073791089],[107.89990926938928,12.740155561820162]],[[107.87476887474416,12.743910161095755],[107.87481795960765,12.743887869742336],[107.87481795960765,12.743910127474384],[107.87476887474416,12.743910161095755]]]]},"properties":{"id":"40263"}}]}