{"type":"FeatureCollection","features":[{"type":"Feature","geometry":{"type":"MultiPolygon","coordinates":[[[[77.49838161892345,23.277129041884123],[77.49827392578132,23.27578843858545],[77.49994140624986,23.27435180664102],[77.50026746961791,23.272211914062865],[77.5010845269098,23.27074734158019],[77.50117947048616,23.2695644802521],[77.4977880859374,23.26526746961848],[77.49665635850695,23.264176974826768],[77.4959676106769,23.26307752821222],[77.49409098307305,23.26292670355936],[77.49315511067718,23.263448893229707],[77.49182671440954,23.261575385200103],[77.49165635850702,23.259454752604626],[77.49152777777792,23.25930555555604],[77.48999538845473,23.259506022135824],[77.48918375651053,23.26020548502646],[77.48914062500003,23.26074137369838],[77.49076144748253,23.263003743489975],[77.49124484592025,23.265669759114957],[77.49028808593764,23.26701890733547],[77.49058756510422,23.268238661024725],[77.49162624783011,23.268702121311136],[77.49009819878458,23.270830213759183],[77.48832302517363,23.271100802951835],[77.48723253038193,23.2719547526046],[77.48501030815962,23.272510308160207],[77.48204779730892,23.27281250000047],[77.48157524956585,23.27409952799522],[77.48278944227437,23.274777018229628],[77.48593153211797,23.27507025824704],[77.48775689019081,23.274923502604565],[77.48911865234365,23.275333523220866],[77.48883436414931,23.278873291016012],[77.48999023437509,23.27896620008721],[77.49051079644099,23.277237006293802],[77.49271999782994,23.27705946180599],[77.49302652994791,23.27883287217921],[77.49445475260424,23.279989691840598],[77.49563232421875,23.28186971028677],[77.4977880859374,23.283323025174226],[77.49956732855892,23.28525417751777],[77.50082302517362,23.285355088976075],[77.50042860243062,23.283942464193146],[77.4986287434896,23.282017279731335],[77.49720540364578,23.280001220703625],[77.49838161892345,23.277129041884123]]]]},"properties":{"id":"5011"}}]}