{"type":"FeatureCollection","features":[{"type":"Feature","geometry":{"type":"MultiPolygon","coordinates":[[[[101.78718261718777,15.274554687500057],[101.78730664062508,15.273238281250187],[101.78700000000006,15.272749999999988],[101.78605664062522,15.272808593749929],[101.7858183593751,15.272941406250041],[101.78555664062523,15.273058593750108],[101.78512500000002,15.2733046875001],[101.7846933593751,15.273058593750108],[101.78418847656266,15.272941406250041],[101.78331542968769,15.27369531250018],[101.78319335937508,15.275285156250078],[101.78360253906251,15.275855468750052],[101.78406835937525,15.27605859375008],[101.78430664062515,15.276191406250092],[101.78456835937513,15.276308593749974],[101.78480664062513,15.276441406250086],[101.78507324218756,15.276558593750153],[101.78718261718777,15.274554687500057]]]]},"properties":{"id":"22256"}}]}