{"type":"FeatureCollection","features":[{"type":"Feature","geometry":{"type":"MultiPolygon","coordinates":[[[[76.41026746961839,27.117788085937704],[76.41013888888924,27.117638888889118],[76.40867743598105,27.118243272569643],[76.40816541883694,27.119160970052278],[76.40839694552963,27.122042100694685],[76.40715847439245,27.12483208550374],[76.40788397895003,27.127254231771033],[76.40699910481803,27.13029106987868],[76.40689941406262,27.13153238932324],[76.40766140408019,27.13324001736133],[76.4111008029515,27.135222981771065],[76.41076809353328,27.137823621962],[76.41028808593782,27.138899197048858],[76.40903998480914,27.139274902344],[76.40775214301229,27.14120198567727],[76.40556586371534,27.14203179253498],[76.40628255208364,27.14304524739609],[76.40831244574665,27.14226888020856],[76.40942694769976,27.141183810764133],[76.40991210937514,27.140096571180706],[76.41156426323809,27.139599338107857],[76.41195475260437,27.138899197048858],[76.41284288194456,27.135416666667012],[76.41213433159729,27.133274468316216],[76.41094292534754,27.131753200954975],[76.41193413628488,27.1293996853301],[76.41167697482669,27.12832302517387],[76.4111214192711,27.127327202691177],[76.41138468424506,27.1243655056425],[76.41248969184048,27.122211914062675],[76.41291815863727,27.121842719184272],[76.413493245443,27.119741753472468],[76.41232435438386,27.11838487413212],[76.41026746961839,27.117788085937704]]]]},"properties":{"id":"18657"}}]}