{"type":"FeatureCollection","features":[{"type":"Feature","geometry":{"type":"MultiPolygon","coordinates":[[[[107.80375644259894,13.934128214518609],[107.80482252332794,13.932797037760807],[107.80632019042858,13.933225301107186],[107.8076594373903,13.934012383355451],[107.8083500840917,13.933627861871116],[107.80752271864051,13.932482367621887],[107.80447855631397,13.931908298068919],[107.80355516221667,13.933061184353676],[107.80197665744251,13.932864854601121],[107.8009892442482,13.932987670898882],[107.7994921196823,13.931790161133137],[107.79795674641835,13.931457994249527],[107.79708435058487,13.929196845161115],[107.79547980414398,13.927191704644557],[107.79461554633147,13.926388888889264],[107.79407653808491,13.926820475260882],[107.79476799858847,13.929177042643715],[107.79586961534179,13.930059204101994],[107.79624315049827,13.932204454210577],[107.79731167263341,13.93298516167583],[107.7994921196823,13.933456827799944],[107.80039245605386,13.933986206055124],[107.80375644259894,13.934128214518609]]]]},"properties":{"id":"22424"}}]}