{"type":"FeatureCollection","features":[{"type":"Feature","geometry":{"type":"MultiPolygon","coordinates":[[[[78.92500569661493,29.346393432617532],[78.92497558593809,29.34563686794742],[78.92683322482694,29.343632066515184],[78.92871039496552,29.34355760362449],[78.93101426866357,29.344161376953508],[78.93289143880267,29.343475273980587],[78.93388102213581,29.342558254666145],[78.93386230468812,29.339466620551562],[78.93485677083365,29.33894042968788],[78.93795003255255,29.338517659505555],[78.93848659939269,29.33750359429304],[78.93746988932324,29.33316460503511],[78.93583875868083,29.332394816081106],[78.93626247829914,29.33167195638056],[78.93813910590333,29.33200174967483],[78.93903889973993,29.33297261556048],[78.9408279079868,29.330050455729562],[78.94022379557347,29.32844896104639],[78.93806098090337,29.326444769965732],[78.93835150824705,29.32486775716184],[78.93934895833385,29.324339938693967],[78.94090250651104,29.32474697536945],[78.94195909288234,29.324705132378867],[78.94278944227469,29.325601264106268],[78.94554172092049,29.327711724175728],[78.94559299045184,29.326416761610545],[78.94361653645868,29.32543477376342],[78.94408474392392,29.321741468641946],[78.9477723524308,29.321595323351062],[78.94694986979201,29.323277452257358],[78.9474603949657,29.32392517089893],[78.94852756076412,29.323190714518674],[78.9490440538199,29.324166666667026],[78.94846218533027,29.32526638454911],[78.95407389322943,29.32531263563412],[78.95542154947967,29.32406412760453],[78.95443901909746,29.3227830674917],[78.95333875868087,29.316383599175808],[78.95128173828184,29.310195176866728],[78.9489683702262,29.30808620876782],[78.93055745442737,29.307216661241654],[78.9250257703998,29.307822740343227],[78.92494303385476,29.309907769097762],[78.92531819661488,29.310616455078687],[78.92593451605936,29.314157172309393],[78.92531467013922,29.314181722005713],[78.92362901475727,29.31309332953596],[78.92362494574698,29.312010362413574],[78.92307861328172,29.310284220377966],[78.92205810546906,29.310650566949263],[78.92139431423655,29.310035536024856],[78.92166124131975,29.309161376953497],[78.92225531684082,29.308611111111446],[78.92012613932323,29.30642605251792],[78.91222764756995,29.305272488064546],[78.8967814127607,29.303468221029036],[78.89652777777829,29.303194444444955],[78.89388346354198,29.303328043620155],[78.89177951388919,29.30539991590757],[78.88611653645879,29.312227511936115],[78.88472764756992,29.313616400824998],[78.88339274088591,29.31447828504818],[78.88531467013942,29.32032158745706],[78.88526177300386,29.321651882595987],[78.88566786024333,29.32241936577735],[78.88721679687526,29.331394178602807],[78.8890242513024,29.339155544705235],[78.88971598307344,29.339182942708746],[78.8891720920142,29.33432461208801],[78.88982584635485,29.33346204969672],[78.89085883246563,29.332751261393568],[78.89332221137184,29.332739664713955],[78.89172037760468,29.334707845052478],[78.89271755642395,29.33474738227042],[78.89443901909758,29.333152262370263],[78.89380181206636,29.33224650065138],[78.89139431423663,29.33186292860286],[78.89218858506993,29.33116427951441],[78.89443169487893,29.330736016167933],[78.89446994357692,29.32977511935809],[78.89371202256987,29.328601616753843],[78.8925179036465,29.328648952908395],[78.892483995226,29.327788221571694],[78.89358452691025,29.325839911567172],[78.89415174696208,29.32581739637621],[78.89495849609429,29.326244235569007],[78.89555013020887,29.323985595703462],[78.8952832031255,29.321661376953557],[78.8944656032991,29.32011644151514],[78.89435112847266,29.317231445312927],[78.89521755642411,29.317197062174813],[78.89653021918437,29.318519015842412],[78.89844346788234,29.318974745009086],[78.8993996853304,29.320006713867627],[78.90136474609412,29.32062886556028],[78.90000786675395,29.321886189779065],[78.89994222005251,29.323540174696547],[78.90056342230955,29.324442749023817],[78.89977539062525,29.326690945095876],[78.90103488498303,29.32805026584242],[78.90139458550382,29.327504679362434],[78.90134223090317,29.32618706597266],[78.90306287977464,29.324210951063705],[78.90358859592041,29.321949734158338],[78.90500542534775,29.32221693250908],[78.9057812500005,29.323054334852813],[78.90694986979221,29.323605821397948],[78.90746582031298,29.324162801107235],[78.90876057942742,29.324572753906594],[78.90930718316028,29.32629916720957],[78.91227484809062,29.324574110243503],[78.91065212673661,29.318015882704415],[78.9126052517365,29.31667195638059],[78.91309516059076,29.3188986545142],[78.91403157552114,29.319909261068204],[78.91541015625026,29.31925869411944],[78.91464057074703,29.318545735677475],[78.91519721137203,29.316957736545547],[78.91417209201441,29.316960720486463],[78.9144536675353,29.315181410048183],[78.91688096788224,29.312227511936115],[78.91748860677129,29.31318291558209],[78.91755777994845,29.314929063585524],[78.91667209201435,29.316216295030785],[78.91700168185795,29.317806396484755],[78.91776312934061,29.318628200955274],[78.91859619140669,29.318595174153984],[78.91966634114627,29.319161376953474],[78.9197431098095,29.31847676595092],[78.91861653645881,29.316839260525526],[78.9188916015631,29.3160837131081],[78.92025065104193,29.31613755967939],[78.92085991753513,29.315252210829428],[78.92081759982685,29.31418382432767],[78.92139377170176,29.314160970052484],[78.92370551215325,29.315820583767746],[78.92471679687552,29.315817057292094],[78.92337103949686,29.317800971137572],[78.92332031250035,29.319081556532538],[78.92513888888939,29.319803805881392],[78.92584825303854,29.319428507487345],[78.92666042751765,29.319460720486546],[78.92663926866354,29.317783067491717],[78.92778320312553,29.31805026584253],[78.92855658637185,29.31880764431456],[78.92658582899341,29.32185926649342],[78.92528428819489,29.322473551432694],[78.92523356119844,29.3237562391498],[78.92597032335132,29.32564826117668],[78.92694986979225,29.326661376953453],[78.92777235243088,29.32972751193617],[78.92880018446235,29.332082180447358],[78.9280482313371,29.334951782226938],[78.92808159722259,29.33579427083373],[78.92390190972256,29.33882581922782],[78.92337049696229,29.34050455729212],[78.92056098090328,29.343216213650678],[78.92121337890674,29.345550265842377],[78.92274224175381,29.34417195638062],[78.9228830295144,29.34509406195785],[78.92235107421911,29.346099717882424],[78.9241593424484,29.346061876085614],[78.92415039062539,29.346938273112386],[78.92470567491378,29.346960313585484],[78.92500569661493,29.346393432617532]]]]},"properties":{"id":"1706"}}]}