{"type":"FeatureCollection","features":[{"type":"Feature","geometry":{"type":"MultiPolygon","coordinates":[[[[79.83639919704913,25.20501030815987],[79.83730414496588,25.202822265625073],[79.83873860677144,25.2002517361112],[79.84062337239621,25.197592773437606],[79.84015516493102,25.19675347222224],[79.84108018663247,25.19595594618059],[79.84214680989638,25.195480143229233],[79.84334147135488,25.192803276909785],[79.84487087673651,25.1909543185765],[79.84607204861143,25.189037000868083],[79.84486111111144,25.187916666666666],[79.84355848524356,25.18804958767376],[79.8429410807295,25.18876627604179],[79.84403428819493,25.190161675347312],[79.8429584418407,25.19208984375004],[79.84189615885461,25.19133680555565],[79.8410785590282,25.191402452257066],[79.84112304687554,25.191951497395834],[79.84030327691013,25.193897569444502],[79.83804524739642,25.194156358507044],[79.83751030816032,25.19467122395838],[79.84028808593806,25.194989691840405],[79.84072374131998,25.195495334201354],[79.8399273003478,25.195850694444545],[79.83921169704942,25.19668131510427],[79.83727973090313,25.196526150173668],[79.83552625868114,25.195882161458428],[79.83560872395893,25.196913519965378],[79.83529785156313,25.19721191406255],[79.83402235243094,25.194999457465414],[79.83182237413232,25.194176974826362],[79.83203287760463,25.19679578993059],[79.83029839409758,25.19756998697929],[79.82917697482699,25.198478732639074],[79.8322325303823,25.19887858072927],[79.83276746961869,25.199777018229312],[79.82997504340321,25.199552951388938],[79.83002170138931,25.20013020833349],[79.83227322048677,25.200808376736177],[79.83122178819477,25.20188313802086],[79.83149414062532,25.202489691840384],[79.83303710937545,25.201628689236145],[79.83360080295196,25.202164713541706],[79.83142523871564,25.20403917100704],[79.8311214192714,25.20479926215289],[79.83303656684078,25.204645724826477],[79.83359754774361,25.205902777777908],[79.83251030816032,25.207173936632074],[79.83390733507005,25.207491319444472],[79.83300401475739,25.209636501736185],[79.83192057291714,25.210119900173808],[79.83197645399358,25.210811631944523],[79.83411838107676,25.211100802951478],[79.83462076822954,25.208889431423728],[79.83585937500047,25.20833658854167],[79.83528808593783,25.207513563368238],[79.83639919704913,25.20501030815987]]]]},"properties":{"id":"9492"}}]}