{"type":"FeatureCollection","features":[{"type":"Feature","geometry":{"type":"MultiPolygon","coordinates":[[[[77.08591796875012,23.65368261718757],[77.0857500000001,23.65350000000015],[77.08520703125018,23.653574218750137],[77.08619140625015,23.65468554687496],[77.08630859375003,23.65493945312511],[77.08644140625009,23.655185546874932],[77.08666406250015,23.655663085937633],[77.08780859374988,23.656689453125225],[77.08814843750011,23.656850585937562],[77.08830859375016,23.657189453125213],[77.08855859375004,23.65766210937508],[77.08838281249999,23.658253906250053],[77.08781640625014,23.658689453125064],[77.08755859375017,23.658810546875017],[77.08731640625015,23.658939453125143],[77.08680859375002,23.659060546875097],[77.08656640625011,23.659189453125137],[77.08607812500011,23.65941894531261],[77.08580859375004,23.65981054687498],[77.08569140625016,23.660064453125145],[77.08544140625011,23.6605371093752],[77.08555859374988,23.660939453125067],[77.08581640624996,23.66106054687502],[77.08628515625011,23.66130859374998],[77.08693359375005,23.66081054687494],[77.08719140625013,23.660689453125073],[77.08743359375003,23.660560546875132],[77.08769140625012,23.66043945312518],[77.08793359375002,23.660310546874967],[77.08969140624995,23.660189453125],[77.08993359375015,23.66006054687506],[77.09019140625017,23.659939453125105],[77.09068359375001,23.65956054687517],[77.09119140625015,23.659439453125216],[77.09168359374999,23.659060546875097],[77.09205859375012,23.658882812499968],[77.09194140624996,23.65831054687513],[77.09030859375005,23.6565644531251],[77.09008203125009,23.656083007812597],[77.08944140625013,23.65556054687505],[77.08918359375005,23.655439453125098],[77.08894140625014,23.655310546874972],[77.08868359375,23.65518945312502],[77.08844140625015,23.655060546875163],[77.08793359375002,23.65493945312511],[77.08719140625013,23.65431054687501],[77.08693359375005,23.654189453125056],[77.08669140625014,23.65406054687493],[77.08643359375012,23.653939453125147],[77.08619140625015,23.65381054687512],[77.08591796875012,23.65368261718757]]]]},"properties":{"id":"19600"}}]}