{"type":"FeatureCollection","features":[{"type":"Feature","geometry":{"type":"MultiPolygon","coordinates":[[[[83.00759087456586,24.90465592278406],[83.00947672526033,24.90303637186713],[83.01111382378477,24.903069780138125],[83.01166395399329,24.902497219509883],[83.01434895833339,24.901973063151303],[83.01833143446166,24.898904758029758],[83.01860839843741,24.898119142320738],[83.01721950954854,24.897780558268565],[83.01528049045132,24.896385998196436],[83.01475396050361,24.896396747165525],[83.01436387803832,24.89320382860008],[83.01504177517356,24.89188807169647],[83.01687662760409,24.890125071208033],[83.01721950954854,24.889531199137835],[83.01474500868065,24.88912839253777],[83.01582573784711,24.888089989556477],[83.01612413194462,24.887170469496297],[83.01611436631944,24.88498055352133],[83.01668674045132,24.8844306776262],[83.0177723524304,24.884452836778763],[83.01919162326405,24.88360311720139],[83.02086778428836,24.883601904975336],[83.02194173177068,24.8819184197324],[83.02080349392375,24.881391669379553],[83.01972900390646,24.88250999450716],[83.01840901692734,24.88150837368471],[83.01526150173603,24.88204522026949],[83.01529161241317,24.877789696587868],[83.01417914496531,24.876323615180397],[83.01618570963527,24.872428944905934],[83.01570529513893,24.871026034885332],[83.01689290364592,24.87044988844154],[83.01721950954854,24.869430720011707],[83.01610839843741,24.868891669379664],[83.01513888888874,24.86736111111155],[83.01471950954854,24.867497219509872],[83.01430935329878,24.86959849887461],[83.0133623589409,24.868612882826454],[83.01177137586816,24.86833611382407],[83.01135091145821,24.87048981560632],[83.01221950954854,24.87237896389469],[83.01138617621527,24.873608330620897],[83.01103000217009,24.87470565795931],[83.0094311523437,24.874158435397916],[83.0088170030381,24.874170964559355],[83.00833604600703,24.87543451945011],[83.00937771267374,24.876971087985808],[83.00721950954872,24.87749721950985],[83.00694715711799,24.877975514730082],[83.00915011935783,24.879419725206617],[83.00971950954883,24.88006257798972],[83.00867621527792,24.883110733032495],[83.00478135850679,24.88307418823277],[83.00248019748281,24.882502780490853],[83.00250488281259,24.883713887532878],[83.00432698567718,24.884305140177673],[83.00573513454864,24.88577076382137],[83.0052693684897,24.886674686008334],[83.005281032986,24.887236328125425],[83.00638617621527,24.88721377054881],[83.00668050130199,24.88751999749101],[83.00640842013902,24.892208870782255],[83.00571777343745,24.892872424655792],[83.00693142361112,24.894873835246116],[83.00721950954872,24.8971366628014],[83.00452473958322,24.898281987508383],[82.99722493489585,24.89750845167407],[82.9960506184897,24.8963472239179],[82.99453097873257,24.89560985989064],[82.99301106770841,24.896130048964054],[82.9914062500001,24.8960972934303],[82.99083604600699,24.896410861545505],[82.99294813368081,24.897435531616523],[82.99340467664942,24.898841993544153],[82.99539713541654,24.899327757093985],[82.99657335069443,24.90112152099637],[82.99813395182301,24.90141944037576],[82.99970893012139,24.903058666653408],[83.0000027126737,24.903052664863154],[83.00139322916695,24.904175084432353],[83.00221788194429,24.904158248901595],[83.00379964192703,24.90543492635122],[83.00585801866308,24.905830552843142],[83.00759087456586,24.90465592278406]]]]},"properties":{"id":"4948"}}]}