{"type":"FeatureCollection","features":[{"type":"Feature","geometry":{"type":"MultiPolygon","coordinates":[[[[79.08549099392403,25.30541992187503],[79.08486111111145,25.304305555555544],[79.08226725260445,25.30526258680561],[79.08097873263924,25.304321289062656],[79.08057101779568,25.304595269097234],[79.08119466145868,25.30565646701406],[79.08271674262201,25.306297743055666],[79.0831418185767,25.308262803819545],[79.08405761718805,25.308996310763888],[79.08593641493113,25.309533420139005],[79.08645073784774,25.31075358072917],[79.0863709852434,25.311394856770946],[79.08700005425382,25.314669053819543],[79.08635172526076,25.315772026909826],[79.08672851562531,25.317092013888924],[79.0894129774309,25.316758355034864],[79.0913883463547,25.31559733072919],[79.09251546223985,25.313904079861146],[79.09276231553852,25.310878363715332],[79.09191731770872,25.30972167968757],[79.08907307942772,25.308669704861117],[79.0891856553823,25.30776312934033],[79.08756944444505,25.307481553819485],[79.08668212890657,25.306373697916726],[79.08549099392403,25.30541992187503]]]]},"properties":{"id":"19025"}}]}