{"type":"FeatureCollection","features":[{"type":"Feature","geometry":{"type":"MultiPolygon","coordinates":[[[[76.09481899685309,23.610263671875472],[76.09527865939643,23.608288167318108],[76.09652730305967,23.607172580295526],[76.09900817871076,23.607320421007373],[76.09986111111087,23.60685696072096],[76.10068657769094,23.60730550130252],[76.10277038574228,23.607181260851178],[76.10312594943551,23.607956000434598],[76.10381259494338,23.60832546658027],[76.10421447753882,23.60574625651084],[76.10611348470033,23.60404947916723],[76.10754869249106,23.603606363932684],[76.10867980957025,23.602340359158433],[76.11005825466574,23.59987399631123],[76.11084113226971,23.59917453342051],[76.11511623806402,23.59371012369847],[76.11580986870635,23.59219875759588],[76.11673299153634,23.591373969184446],[76.12060845269073,23.58968139648485],[76.12135965983069,23.588044704861474],[76.11943664550765,23.583063422309422],[76.11902777777775,23.580694444444887],[76.11836357964378,23.58089952256985],[76.11790500216998,23.583356255425755],[76.11889750162734,23.58582777235287],[76.11885023328975,23.586621093750423],[76.11788696289065,23.588000081380557],[76.11678724500857,23.587402479384053],[76.11583150227844,23.588070068359883],[76.11511881510424,23.587272406684505],[76.11414401584196,23.587802191840865],[76.11335442437056,23.58691840277814],[76.11274393717449,23.58695475260457],[76.11159837510857,23.589825710720973],[76.10930230034725,23.589688856337233],[76.10733276367162,23.590038926866782],[76.10689982096326,23.591899820963903],[76.10554775661896,23.592214355469096],[76.10210327148442,23.595017768012724],[76.0987268066406,23.59508422851613],[76.09650668674053,23.59389675564276],[76.09598164876277,23.596153564453616],[76.09511250813799,23.59665879991357],[76.09443664550778,23.595285644531728],[76.09414679633224,23.593732774523062],[76.09097222222218,23.593921983507457],[76.08844923231331,23.593771565755688],[76.08750779893651,23.59460435655423],[76.08917541503908,23.594992404514485],[76.08915167914475,23.595390489366764],[76.08711168077238,23.595825466580308],[76.0852193196612,23.59514648437535],[76.08445068359353,23.595564236111485],[76.0802809651693,23.59531561957506],[76.07911804199207,23.5946837022573],[76.07800869411884,23.594749891493535],[76.07750779893647,23.59584120008715],[76.07466078016469,23.596108398437977],[76.0735582139757,23.596707492404946],[76.07214267306827,23.599642605252114],[76.07009351942267,23.600667724609778],[76.06972134060325,23.60226738823846],[76.06893785264745,23.602967393663718],[76.0676431613496,23.602263861762637],[76.06723002115862,23.603648952908415],[76.06884779188348,23.604391411675763],[76.07042087131063,23.603826904297236],[76.07093960232194,23.60104763454902],[76.07293226454001,23.600432264540387],[76.0743259684244,23.597128092448358],[76.07648064507376,23.597588433160226],[76.07929199218748,23.59667453342061],[76.08176181369336,23.5977969021272],[76.08435499403188,23.597642415364973],[76.08554775661881,23.597214355469177],[76.0888966878255,23.596952311198365],[76.09054280598937,23.59593465169317],[76.09221442328536,23.597230088976204],[76.09443664550778,23.598341200087233],[76.09578674316381,23.598655327691432],[76.0966717529295,23.598602566189783],[76.10073187934003,23.59973646375913],[76.10363477918835,23.60085327148481],[76.10360053168378,23.60142795138927],[76.10084113226978,23.602785644531707],[76.09554775661869,23.60304768880262],[76.0944574652776,23.603809271918834],[76.09247653537304,23.604420979818272],[76.09079291449629,23.606043701172368],[76.0910593668618,23.606658799913646],[76.09304775661863,23.60526991102485],[76.09780442979573,23.604452311198344],[76.09832553439665,23.605538736979597],[76.09507222493491,23.605844048394673],[76.09467956542946,23.607115749783404],[76.09312635633657,23.608503417969104],[76.09110331217423,23.60888102213596],[76.09056335449193,23.60934380425384],[76.09119208441828,23.61026991102476],[76.09259887695285,23.609505479601168],[76.09335442437063,23.610351019965734],[76.09481899685309,23.610263671875472]]]]},"properties":{"id":"5002"}}]}