{"type":"FeatureCollection","features":[{"type":"Feature","geometry":{"type":"MultiPolygon","coordinates":[[[[84.50423828125,23.875269911024574],[84.50646864149306,23.874698350694672],[84.50856391059031,23.87474107530403],[84.5102229817708,23.873936089409995],[84.51138617621532,23.872818603515867],[84.51058268229175,23.872754923502868],[84.50891384548638,23.873886108398665],[84.50666449652775,23.87352471245687],[84.50555826822918,23.872774997287635],[84.50416395399336,23.872225002712867],[84.5040277777778,23.871805555555767],[84.5031640625003,23.872085910373443],[84.50210394965282,23.873482530382248],[84.50423828125,23.875269911024574]]]]},"properties":{"id":"19493"}}]}