{"type":"FeatureCollection","features":[{"type":"Feature","geometry":{"type":"MultiPolygon","coordinates":[[[[77.71403401692729,25.425745985243324],[77.71375000000015,25.425416666666734],[77.71223253038218,25.42561523437506],[77.7128461371532,25.42619574652781],[77.71581732855944,25.427054578993122],[77.71362141927105,25.428946397569504],[77.71429361979202,25.429236111111194],[77.71526746961845,25.42887858072926],[77.71858669704889,25.42849826388894],[77.71865152994812,25.42769042968763],[77.71751030816003,25.426100802951424],[77.71403401692729,25.425745985243324]]]]},"properties":{"id":"18998"}}]}