{"type":"FeatureCollection","features":[{"type":"Feature","geometry":{"type":"MultiPolygon","coordinates":[[[[80.70692905002167,24.816404249403476],[80.70609571668822,24.815570916070115],[80.70506761338956,24.813915371365326],[80.70208333333304,24.8123611111114],[80.70014980739992,24.812567749023785],[80.69809488932268,24.81377568562857],[80.69779317220028,24.815848693848054],[80.69549533420113,24.81742084079349],[80.69578918457003,24.818040195041633],[80.69720682779936,24.81720686170827],[80.69918206108915,24.816959804958998],[80.70074801974798,24.816404249403476],[80.70418206108926,24.81915130615276],[80.70634643554675,24.821271870931284],[80.70785461425774,24.82108427259699],[80.7085550944008,24.819421861436894],[80.70829956054664,24.817367587619614],[80.70692905002167,24.816404249403476]]]]},"properties":{"id":"19218"}}]}