{"type":"FeatureCollection","features":[{"type":"Feature","geometry":{"type":"MultiPolygon","coordinates":[[[[108.0491625298383,12.581792263455213],[108.05090569390077,12.580426974826665],[108.05349982367525,12.581239691840707],[108.05469991048082,12.58080485026072],[108.05518575032445,12.579481608073166],[108.05404561360567,12.580117730035028],[108.05295430501192,12.580205349392756],[108.05128221299802,12.578611111111357],[108.05023810492506,12.578801540798935],[108.04865363226887,12.58071723090309],[108.0491625298383,12.581792263455213]]]]},"properties":{"id":"22880"}}]}