{"type":"FeatureCollection","features":[{"type":"Feature","geometry":{"type":"MultiPolygon","coordinates":[[[[104.27541124131668,15.607911241319599],[104.2773952907958,15.606975097656559],[104.27957790798305,15.605374077691167],[104.27918945312231,15.60462049696197],[104.27314290364282,15.607355685764077],[104.26951768662903,15.605895182291874],[104.26573486327831,15.603792317708525],[104.26429741753176,15.60262261284737],[104.26351969400744,15.602653537326532],[104.2627777777748,15.602222222222451],[104.26188449435469,15.602505154080035],[104.26141411675044,15.603394097222335],[104.26510253905954,15.605375976562627],[104.26684190537932,15.606846245660023],[104.27253417968453,15.610052083333485],[104.27485053168098,15.613899468316177],[104.27624593098679,15.614558105468902],[104.27704101562213,15.616242947048846],[104.27791124131679,15.616277398003646],[104.27757052951117,15.61410970052097],[104.27461507161175,15.61137125651058],[104.27422309027477,15.609497070312699],[104.27482476128174,15.60822184244806],[104.27541124131668,15.607911241319599]]]]},"properties":{"id":"22225"}}]}