{"type":"FeatureCollection","features":[{"type":"Feature","geometry":{"type":"MultiPolygon","coordinates":[[[[77.68361897786477,25.913618977864843],[77.68391004774347,25.913293185764076],[77.68494384765668,25.91335476345502],[77.68644395616363,25.913034396701548],[77.68728542751782,25.91397623697931],[77.68892957899331,25.91387830946192],[77.68890570746547,25.912636176215273],[77.69054768880247,25.909436577691096],[77.69169623480931,25.90841064453143],[77.69165798611132,25.907771538628552],[77.69201117621569,25.907121582031394],[77.69396918402819,25.906368815104287],[77.69547227647584,25.906458333333475],[77.69642523871565,25.906976182725813],[77.69697536892377,25.909341362847258],[77.69696180555579,25.910709092882],[77.69784912109415,25.91022677951392],[77.69779161241357,25.90824137369799],[77.69848578559058,25.90696397569461],[77.70030029296922,25.906364474826546],[77.70170545789969,25.907768012152914],[77.70263617621569,25.9057397460939],[77.70185682508716,25.904305555555652],[77.70234809027798,25.903401421441146],[77.70165879991359,25.90278564453132],[77.70133626302109,25.901741265191077],[77.7016786024308,25.901111111111135],[77.70136420355934,25.90053222656266],[77.69928304036486,25.90065619574665],[77.69889675564278,25.9003675672745],[77.69973008897605,25.899174533420208],[77.69999213324675,25.898173285590502],[77.69717664930576,25.897477756076427],[77.6949297417539,25.89747097439259],[77.69458333333355,25.897083333333427],[77.6923659939238,25.897238498264116],[77.69078667534743,25.89780517578137],[77.69006754557321,25.899371744791807],[77.68804768880241,25.90054768880215],[77.68694200303841,25.90162462022583],[77.68526991102473,25.901936577691203],[77.68473008897607,25.9023822699654],[77.6863967556425,25.90276991102448],[77.68685628255238,25.903284233941264],[77.68573838975752,25.90598605685794],[77.68439317491365,25.90638102213549],[77.6836070421011,25.90550157335086],[77.6827856445316,25.90563639322923],[77.68334391276065,25.906663953993174],[77.68299343533002,25.907972819010524],[77.67999348958355,25.90832465277788],[77.6781825086808,25.909444173177206],[77.67415879991361,25.909714355469035],[77.67340983072953,25.91012152777806],[77.671118977865,25.909714355469035],[77.66483127170179,25.909222276475745],[77.66389512803838,25.90973090277788],[77.66071912977455,25.90913275824674],[77.65860622829891,25.909454210069583],[77.65732177734432,25.908557128906452],[77.6556087239587,25.906360948350724],[77.65377170138905,25.90637369791675],[77.65278564453169,25.905196940104233],[77.65386854383709,25.90422932942731],[77.65443657769126,25.90312472873275],[77.65328206380244,25.90278564453132],[77.65242187500027,25.90360324435774],[77.65167453342039,25.90165879991335],[77.65047471788236,25.900196397569516],[77.64927544487878,25.90062689887168],[77.64861897786486,25.90026991102448],[77.64701768663227,25.90000786675367],[77.64653076171899,25.901584201389014],[77.64528564453153,25.902965766059154],[77.64618326822952,25.904250759548816],[77.64778564453141,25.905269911024376],[77.64835394965323,25.905906032986238],[77.64832465277809,25.906395128038426],[77.64867187500042,25.907034233941033],[77.64750786675384,25.90889675564243],[77.64611897786514,25.9102856445314],[77.6443264431426,25.911281467014007],[77.64452528211828,25.912492133246687],[77.64579888237867,25.911800130208533],[77.64612928602455,25.912870008680656],[77.64708387586833,25.913603244357716],[77.64936550564258,25.912192654080158],[77.65053982204884,25.91226264105913],[77.65296739366349,25.912912868923655],[77.6533810763892,25.91469129774333],[77.65480305989612,25.91526991102444],[77.65685818142381,25.914153374566126],[77.65747097439274,25.914189724392486],[77.65943440755254,25.913373209635523],[77.66628146701422,25.912683376736183],[77.66749213324672,25.91334120008699],[77.66861897786484,25.913603244357716],[77.66933132595503,25.913990342881974],[77.67059109158035,25.915265299479344],[77.67250786675376,25.916381022135567],[77.67276394314277,25.9181469726564],[77.67415879991361,25.91952528211816],[77.67334120008704,25.92146972656255],[77.67409667968772,25.92286024305571],[77.67358398437537,25.92623101128487],[77.67435139973978,25.92665879991347],[77.67496392144139,25.923377549913326],[77.67617051866344,25.920857476128646],[77.67604519314281,25.918757324218845],[77.67714274088584,25.918253851996624],[77.67765163845533,25.917144639757055],[77.68012288411498,25.91633409288201],[77.68166395399354,25.91479871961829],[77.6827856445316,25.91445231119802],[77.68361897786477,25.913618977864843]]]]},"properties":{"id":"4907"}}]}