{"type":"FeatureCollection","features":[{"type":"Feature","geometry":{"type":"MultiPolygon","coordinates":[[[[73.8725202750991,25.098177610724704],[73.87404313014306,25.097606540083618],[73.87499491454517,25.097606540083618],[73.87708884023058,25.096654755681044],[73.8791827659156,25.098177610724704],[73.88127669160107,25.095512614398245],[73.8845127585686,25.09379940247409],[73.88527418609058,25.092847618071957],[73.8919366769068,25.090753692386585],[73.89555345763566,25.08904048046243],[73.8959341713967,25.08656584101645],[73.89917023836446,25.084662272211645],[73.90107380716918,25.083900844689808],[73.90316773285409,25.08180691900479],[73.90392916037612,25.08028406396103],[73.90392916037612,25.078951565797766],[73.90183523469116,25.076476926351603],[73.90050273652784,25.073240859383603],[73.89917023836446,25.0711469336985],[73.89993166588656,25.070004792415787],[73.90183523469116,25.06581694104557],[73.90164487781058,25.062771230957978],[73.90050273652784,25.05896409334862],[73.89878952460359,25.0582026658267],[73.89403060259193,25.058773736468325],[73.89060417874364,25.06067730527286],[73.88679704113409,25.06334230159942],[73.88127669160107,25.06657836856759],[73.87708884023058,25.06772050985002],[73.87499491454517,25.069433721774445],[73.87328170262114,25.072098718100904],[73.87004563565304,25.07571549882968],[73.8692842081314,25.077428710754006],[73.87004563565304,25.078951565797766],[73.87061670629484,25.082377989646062],[73.86814206684878,25.086756197896662],[73.86680956868534,25.090563335506275],[73.86642885492452,25.09360904559371],[73.86623849804394,25.096654755681044],[73.86661921180465,25.099510108887984],[73.86757099620715,25.102175105214627],[73.86890349437087,25.10293653273628],[73.871568490697,25.100461893290387],[73.8725202750991,25.098177610724704]]]]},"properties":{"id":"1772"}}]}