{"type":"FeatureCollection","features":[{"type":"Feature","geometry":{"type":"MultiPolygon","coordinates":[[[[79.36610080295199,25.30139919704861],[79.3659722222229,25.30097222222227],[79.36498969184069,25.301100802951538],[79.36473253038272,25.30223253038197],[79.36308024088575,25.303419053819525],[79.36582302517397,25.30464301215288],[79.36556586371589,25.306954752604298],[79.36498969184069,25.307767469618156],[79.36473253038272,25.308621419270935],[79.36306586371578,25.309123263888964],[79.36332302517414,25.309454752604196],[79.36498969184069,25.309833441840354],[79.3646416558166,25.310448676215444],[79.3634586588548,25.311189778645968],[79.36407362196215,25.311903754340364],[79.36791178385474,25.312211914062544],[79.3688446723094,25.309856228298756],[79.36899061414968,25.30803927951409],[79.36862141927114,25.307211914062563],[79.3668519422749,25.304905598958413],[79.36639919704899,25.30193413628473],[79.36610080295199,25.30139919704861]]]]},"properties":{"id":"19026"}}]}