{"type":"FeatureCollection","features":[{"type":"Feature","geometry":{"type":"MultiPolygon","coordinates":[[[[75.96696499294714,27.756147189670415],[75.96694166395426,27.755002712673857],[75.96222500271287,27.755040554470852],[75.96278198242194,27.756109754774613],[75.96237419976146,27.75730116102453],[75.96307210286474,27.758365478515827],[75.9644106038414,27.759651557074946],[75.96000278049073,27.762268202040175],[75.96083611382406,27.762775065104492],[75.96128682454454,27.76416395399329],[75.96235426161033,27.7637238227],[75.96472296820755,27.761448160807575],[75.96718404134148,27.75839925130235],[75.96788757324234,27.75703355577288],[75.96696499294714,27.756147189670415]]]]},"properties":{"id":"18527"}}]}