{"type":"FeatureCollection","features":[{"type":"Feature","geometry":{"type":"MultiPolygon","coordinates":[[[[77.46776041666695,25.724472384982704],[77.46822862413231,25.721889919704992],[77.46582166883732,25.719127875434182],[77.46417697482693,25.71776746961818],[77.46337022569489,25.717407497829896],[77.46178466796894,25.715199110243134],[77.45861463758715,25.714944390191064],[77.45716769748284,25.715850694444484],[77.45723415798628,25.716676703559102],[77.45501030815993,25.71708224826395],[77.45526746961829,25.718065863715353],[77.45609076605925,25.71877522786481],[77.45622314453144,25.7204223632814],[77.4552880859379,25.72174126519114],[77.45562608506967,25.72238688151066],[77.45809244791704,25.72076822916685],[77.45992648654536,25.7211683485244],[77.46150390625039,25.720288085937582],[77.46224256727473,25.721111924913288],[77.46194444444464,25.723711480034936],[77.46049587673647,25.723595106336887],[77.45875000000015,25.72486111111114],[77.46028266059048,25.725045572916798],[77.4613785807293,25.7244341362849],[77.46260606553838,25.724155273437674],[77.46378390842037,25.722788085937665],[77.46446370442723,25.723232693142492],[77.46441216362885,25.723875054253554],[77.46583821614618,25.72385498046887],[77.46615912543419,25.72526746961816],[77.46776041666695,25.724472384982704]]]]},"properties":{"id":"18917"}}]}