{"type":"FeatureCollection","features":[{"type":"Feature","geometry":{"type":"MultiPolygon","coordinates":[[[[75.64750528971396,25.695283203125086],[75.64968322753916,25.6945195855036],[75.65161180284306,25.695700683593856],[75.65202819824245,25.69658284505215],[75.65329345703148,25.6971799045141],[75.6544391547313,25.696363118489685],[75.65239271375899,25.695195041232722],[75.6507052273221,25.69337375217023],[75.64909193250898,25.692730034722345],[75.64793545193143,25.69148193359385],[75.6468055555558,25.69069444444459],[75.64403286404084,25.69078938802096],[75.64357543945337,25.691758897569613],[75.63845255533877,25.691555718316096],[75.63778306749165,25.692123480902907],[75.64388359917538,25.693486599392457],[75.64205993652345,25.69392089843754],[75.64068427191867,25.69390028211822],[75.6412206353082,25.694914008246684],[75.64295037163654,25.69527235243079],[75.64465304904539,25.694172092014057],[75.64506747775616,25.697204318576524],[75.64657477484818,25.69557779947924],[75.64750528971396,25.695283203125086]]]]},"properties":{"id":"18924"}}]}