{"type":"FeatureCollection","features":[{"type":"Feature","geometry":{"type":"MultiPolygon","coordinates":[[[[83.2282495117187,23.028139377170277],[83.2269647894964,23.027532958984565],[83.22636366102441,23.026884223090406],[83.22639458550341,23.0261062282988],[83.22588921440965,23.025283067491543],[83.22739203559055,23.026078287760555],[83.22803521050363,23.024715847439367],[83.22988308376736,23.025517985026298],[83.23047173394113,23.023046739366464],[83.23136800130234,23.023082275390806],[83.23166124131942,23.025838623046965],[83.23197998046905,23.02638359917546],[83.23262586805586,23.025686577691104],[83.23217692057281,23.023109130859595],[83.23258653428812,23.02250528971362],[83.23416910807285,23.023342692057525],[83.23547281901054,23.021773952908276],[83.23706461588532,23.022869330512364],[83.2377731662327,23.022494303385585],[83.24111545138877,23.022494303385585],[83.24247422960084,23.022970648871663],[83.24305013020845,23.022620849609496],[83.23824110243058,23.020220811632157],[83.23473280164941,23.02025065104185],[83.23389431423604,23.02139417860259],[83.2330259874133,23.021661376953233],[83.2316408962673,23.019727511935955],[83.23109917534723,23.02087483723969],[83.23052788628459,23.02140435112861],[83.22933376736123,23.021409776475807],[83.22861653645836,23.020499674479368],[83.23024359809048,23.018892686632043],[83.23172715928817,23.018422987196345],[83.23388346354173,23.01693915473109],[83.23475775824662,23.01667195638035],[83.23546603732646,23.0174362521703],[83.23777235243071,23.017979193793522],[83.23714463975713,23.016187744140808],[83.23769856770852,23.01556084526932],[83.23811984592007,23.016891682942898],[83.24031060112858,23.01750230577271],[83.24101915147568,23.018267008463653],[83.24170220269085,23.017227511935957],[83.24271185980919,23.018317192925664],[83.24332790798601,23.018534749349115],[83.2425054253471,23.01563693576412],[83.24360568576404,23.01639417860268],[83.24416124131929,23.01649414062517],[83.24317220052095,23.015056694878737],[83.24066460503488,23.014657253689364],[83.23887505425361,23.013891465928964],[83.23944525824672,23.013363308376952],[83.23971679687517,23.011908908420395],[83.23913981119804,23.011374104817932],[83.23917371961821,23.010518527560976],[83.24050944010426,23.00928073459214],[83.24122450086819,23.00776570638037],[83.24174614800361,23.007786458333413],[83.24342258029529,23.009595811632153],[83.24481906467028,23.00999471028662],[83.24725151909749,23.007544216580087],[83.24720757378466,23.006433105468886],[83.24924289279508,23.005838623047012],[83.25051405164933,23.007210422092214],[83.25182427300362,23.007869330512307],[83.25300509982642,23.00705674913209],[83.25639431423625,23.00777248806439],[83.25705919053834,23.00812445746547],[83.25833875868071,23.009439154731012],[83.25875515408003,23.01032158745666],[83.26216172960082,23.010313856337092],[83.2633588324654,23.011137559678986],[83.26419406467014,23.011104465060924],[83.26416097005242,23.010272894965468],[83.26724473741317,23.007783067491502],[83.2678504774307,23.009695638021],[83.2697276475694,23.00999471028662],[83.27249457465277,23.011394178602615],[83.27349500868067,23.01166137695334],[83.27388346354164,23.010806070963753],[83.27267035590293,23.010823567708513],[83.27194986979183,23.00996446397592],[83.272660861545,23.009305555555656],[83.27185004340296,23.008554280599185],[83.26890923394106,23.008670789930875],[83.26807779947924,23.007032470703308],[83.26678575303814,23.006623399522738],[83.26496283637172,23.006695692274434],[83.26444986979155,23.007783067491502],[83.26276258680562,23.00910997178842],[83.26069118923604,23.008567165798752],[83.25876383463552,23.008589680989715],[83.25833875868071,23.00716634114613],[83.2591612413195,23.005221896701556],[83.25860568576408,23.00417195638039],[83.25824055989571,23.002258300781506],[83.25981906467015,23.00151326497415],[83.25960503472217,23.000560845269177],[83.25663682725681,23.001601291232788],[83.25415039062497,23.001939154731033],[83.25415961371525,22.998017306857818],[83.25300618489578,22.998063015408277],[83.253124186198,23.00103393554707],[83.25207085503493,23.002407633463733],[83.24911078559043,23.00167195638039],[83.24633544921878,23.00309190538215],[83.2452547200522,23.003049180772692],[83.24451497395845,23.000712076823135],[83.24337700737854,23.00017510308183],[83.24517089843764,22.997568495008807],[83.24610134548604,22.99670627170147],[83.24810465494792,22.99638726128481],[83.24963026258698,22.995579969618234],[83.24912651909736,22.99317179361998],[83.246916232639,22.99247694227445],[83.24652777777774,22.99125000000018],[83.24414523654534,22.99138454861118],[83.24306098090275,22.993234592014105],[83.2449945746529,22.994061414930727],[83.24385633680558,22.99591878255221],[83.24110568576404,22.997216932508977],[83.24000542534705,23.000035536024455],[83.24108506944438,23.001035970052257],[83.2399880642362,23.002819281684225],[83.23894911024306,23.003782009548758],[83.23823404947947,23.004889322916867],[83.23680745442724,23.004389377170384],[83.23445475260436,23.004428304036637],[83.23358561197912,23.005026448567875],[83.23265597873282,23.004989691840436],[83.23084798177072,23.003038465712038],[83.23026150173624,23.003061659071264],[83.23030843098948,23.004246148003716],[83.23197374131942,23.005789116753647],[83.2319387478299,23.00667127821201],[83.2327723524306,23.008616400824764],[83.23334879557288,23.009194335937693],[83.2333034939235,23.010335964626876],[83.2327723524306,23.01082804361998],[83.23222764756949,23.012227511935976],[83.2311431206596,23.01273939344631],[83.2308387586805,23.01528306749148],[83.23036376953118,23.01618069118952],[83.22796034071175,23.015762125651193],[83.22672064887146,23.01619669596373],[83.22630506727447,23.017508816189448],[83.22515625000003,23.01917833116336],[83.22465820312502,23.019158664279686],[83.2236165364582,23.02028306749156],[83.22299967447921,23.02055026584229],[83.22195909288203,23.01942735460088],[83.22133951822903,23.019451904297014],[83.22133300781249,23.02249471028668],[83.22026285807291,23.02192857530406],[83.21965087890615,23.021952718099286],[83.21982666015637,23.02638400607664],[83.22244411892379,23.028074273003682],[83.22417914496535,23.028005506727553],[83.22643663194438,23.029200032552197],[83.2279378255208,23.031249186198167],[83.228348795573,23.030805664062797],[83.2283167860243,23.02999823676231],[83.22970377604182,23.029559054904666],[83.2286949327258,23.029082845052415],[83.2282495117187,23.028139377170277]]]]},"properties":{"id":"5023"}}]}