{"type":"FeatureCollection","features":[{"type":"Feature","geometry":{"type":"MultiPolygon","coordinates":[[[[104.45330506852875,15.311335720499828],[104.45356377276875,15.311812775125887],[104.45339426458246,15.312053583423294],[104.45341656360428,15.31269567905124],[104.45392935319103,15.313596422847294],[104.4548301152167,15.314403553026121],[104.45763042821186,15.315558441905699],[104.46167036377895,15.316757910266976],[104.46310620569332,15.317444611721516],[104.46544279912123,15.317984178655388],[104.46688303111658,15.31798422001591],[104.46804686605306,15.317801411114742],[104.46959418801656,15.317422347504372],[104.47040130740224,15.317061189344548],[104.47157405506285,15.316102419401131],[104.47337108956793,15.314127039535796],[104.47389727604549,15.31322186954907],[104.47381251031688,15.312936527364844],[104.47337553220179,15.312923088782988],[104.47345132355585,15.312610984746968],[104.47388830189374,15.31277149285214],[104.47416925529774,15.312503926331209],[104.47416925529774,15.311246526628084],[104.47363418257389,15.310154040784482],[104.47264418760439,15.30907490523237],[104.4711013652946,15.308459530029781],[104.46984394675032,15.30845956846597],[104.46883611818798,15.308838575341722],[104.46784624403547,15.309708142528933],[104.4674583281837,15.310278871411066],[104.46667796823746,15.310706972620943],[104.46502361516032,15.310274430990187],[104.46473379430077,15.309525267225498],[104.46455538860846,15.303429728694855],[104.46399360754273,15.300540225635753],[104.46381520274004,15.300000626270023],[104.46312406384803,15.299015166357911],[104.46258449975379,15.298475665583995],[104.46184876600337,15.298310682795671],[104.45924463011998,15.298310657725159],[104.45879427943608,15.298654029014767],[104.45697938625887,15.298600528014395],[104.4564398445138,15.299108839019377],[104.45609202636605,15.30010763107301],[104.45609202636605,15.301721890116665],[104.45662268257995,15.302814302083355],[104.4574164049619,15.30358128290836],[104.45746988853463,15.307808511321433],[104.45610099944211,15.307830852698215],[104.45491487010663,15.308303498244351],[104.45410330404634,15.309079340202636],[104.45330506852875,15.311335720499828]],[[104.46886739337866,15.31531323166828],[104.46883611818798,15.315219532510381],[104.46901008651969,15.31513482105299],[104.46893873993204,15.31529094156088],[104.46886739337866,15.31531323166828]]]]},"properties":{"id":"39312"}}]}