{"type":"FeatureCollection","features":[{"type":"Feature","geometry":{"type":"MultiPolygon","coordinates":[[[[81.57107584635415,25.14328016493097],[81.57196655273444,25.139954427083723],[81.57188856336782,25.13864637586856],[81.57249213324653,25.13810709635463],[81.57186808268236,25.13707519531303],[81.56600206163174,25.135892469618412],[81.56383395724825,25.13498806423644],[81.56347222222215,25.13458333333388],[81.56198554144967,25.13478244357684],[81.5612512207031,25.1372987196185],[81.56191284179673,25.139441189236564],[81.56274237738708,25.13982204861145],[81.56282511393206,25.14121148003514],[81.56231418185766,25.143603515625372],[81.56298163519946,25.143232421875425],[81.56456814236086,25.140737304687804],[81.56549709743908,25.141242404514216],[81.56720201280368,25.14063042534775],[81.5691037326387,25.142010633680897],[81.5698346625434,25.143603515625372],[81.57107584635415,25.14328016493097]]]]},"properties":{"id":"19100"}}]}