{"type":"FeatureCollection","features":[{"type":"Feature","geometry":{"type":"MultiPolygon","coordinates":[[[[105.0522113630494,14.45027777777834],[105.0526033698176,14.448781704373275],[105.0521864997003,14.44678921169745],[105.05096470302865,14.445195956760486],[105.04900039672722,14.444866400825148],[105.04808682759486,14.447948133680981],[105.0472975752078,14.448679436578146],[105.04347259521344,14.448013407389823],[105.04182591756071,14.446673278809087],[105.04100443522029,14.444722222222751],[105.0388908216677,14.445153503418396],[105.03835372924672,14.446291537815256],[105.0372669304729,14.447298516168132],[105.0338334740521,14.448303154839849],[105.03307296752823,14.447900729709659],[105.03249514685618,14.447923651801787],[105.03183857387833,14.448632269965842],[105.0327569664835,14.449483201769269],[105.03605469173746,14.44987782796268],[105.03868359883487,14.451376715766514],[105.04040528191345,14.450056457520049],[105.0433008321115,14.451245829264877],[105.04520191616362,14.451548665365152],[105.04613802591834,14.452150777181473],[105.04425070868464,14.456383904351597],[105.04771124097923,14.45763359917585],[105.04809161715926,14.455641276042087],[105.04870617336584,14.454479844835674],[105.05178152296142,14.453346659342955],[105.05258804321173,14.451715359158499],[105.0522113630494,14.45027777777834]]]]},"properties":{"id":"10345"}}]}