{"type":"FeatureCollection","features":[{"type":"Feature","geometry":{"type":"MultiPolygon","coordinates":[[[[79.14499457465277,24.977247212728386],[79.14301595052106,24.974965869056362],[79.1422873263891,24.9734216096672],[79.14118706597228,24.974003817240913],[79.14007378472249,24.972876697117016],[79.13944986979166,24.96994408501577],[79.14000868055555,24.968887918260904],[79.13916124131944,24.967783071730466],[79.13886528862852,24.966847606235618],[79.13887993706592,24.965745357937834],[79.13667399088538,24.965219925775074],[79.13822916666666,24.963778957791476],[79.13736111111123,24.962361111111676],[79.13624999999993,24.963494241503057],[79.13558593750005,24.962777637906072],[79.13425591362855,24.96250529395263],[79.13361653645833,24.96618742624983],[79.13423122829877,24.96794145796082],[79.13377821180555,24.970979016622394],[79.13480685763906,24.97232050365932],[79.13722764756969,24.97388359281814],[79.13798339843774,24.97469937006683],[79.14001654730905,24.975554991828616],[79.1399869791666,24.976303755442842],[79.14120795355919,24.97669035381793],[79.14283854166669,24.976674584283273],[79.14442789713544,24.977515589396745],[79.14499457465277,24.977247212728386]]]]},"properties":{"id":"19166"}}]}