{"type":"FeatureCollection","features":[{"type":"Feature","geometry":{"type":"MultiPolygon","coordinates":[[[[108.07416469997739,12.483438042535042],[108.07450758192184,12.48185356987885],[108.07611565483833,12.481888563368301],[108.07623175726886,12.480955946180913],[108.07544887966489,12.479722222222534],[108.07418341742508,12.479845648871787],[108.07313388400499,12.480462782118437],[108.06921434190431,12.481033257378712],[108.0695927598733,12.481814507378957],[108.07106655544615,12.48299479166704],[108.07106574164405,12.484513346354547],[108.07177971733827,12.484932996962058],[108.07272779676535,12.483749186198239],[108.07416469997739,12.483438042535042]]]]},"properties":{"id":"22908"}}]}