{"type":"FeatureCollection","features":[{"type":"Feature","geometry":{"type":"MultiPolygon","coordinates":[[[[77.80443413628481,24.589732564290912],[77.80414577907996,24.58877468533032],[77.80332302517351,24.58806589762419],[77.80238416883665,24.586095852322543],[77.79958333333323,24.584027777778402],[77.79736219618056,24.58509297688856],[77.79695339626724,24.585567423503093],[77.79647460937517,24.58552897135469],[77.79584364149295,24.586493937175007],[77.7969590928819,24.587455037435447],[77.79757839626737,24.589749416775746],[77.79806559244784,24.589710252550375],[77.79832302517363,24.591121453179696],[77.7987084960939,24.591812269423286],[77.79993326822913,24.590943806966678],[77.8048792860242,24.590530395508367],[77.80443413628481,24.589732564290912]]]]},"properties":{"id":"19280"}}]}