{"type":"FeatureCollection","features":[{"type":"Feature","geometry":{"type":"MultiPolygon","coordinates":[[[[82.05537462022565,25.133041449653135],[82.0562490505641,25.129922960069948],[82.05578653971341,25.128195529514286],[82.05489108615453,25.128682183160294],[82.05328586154505,25.128106553819748],[82.05054768880208,25.12778537326426],[82.04973782009532,25.127345377604613],[82.04662000868043,25.126859809028332],[82.0446523708766,25.1255349392366],[82.04365980360248,25.125594075521263],[82.04082058376721,25.124240451389284],[82.0408668348525,25.123464626736492],[82.03970472547726,25.122931315104566],[82.03973782009533,25.122376302083694],[82.03721937391512,25.123345269097612],[82.03486111111116,25.121527777778127],[82.03358683268235,25.121676432292062],[82.03363552517342,25.12249294704894],[82.03303114149301,25.123032769097605],[82.03339355468742,25.123699544271247],[82.03447496202253,25.12331163194473],[82.03699069552957,25.123985460069846],[82.03943657769102,25.126118706597623],[82.0405476888022,25.126674262153145],[82.04118096245642,25.126965060764377],[82.04192925347215,25.1269205729171],[82.04279296875004,25.127523871528254],[82.04333997938343,25.12749131944483],[82.04554768880192,25.128896484375375],[82.04813490125875,25.12948350694478],[82.04960286458314,25.131126302083715],[82.05063164605028,25.131442057292105],[82.05167344835078,25.131380208333695],[82.05330037434905,25.1327153862851],[82.05537462022565,25.133041449653135]]]]},"properties":{"id":"19107"}}]}