{"type":"FeatureCollection","features":[{"type":"Feature","geometry":{"type":"MultiPolygon","coordinates":[[[[70.47978574117005,33.04283867730058],[70.48111560397658,33.04241767035617],[70.48333755493164,33.04250569661471],[70.48694974263506,33.04167195638044],[70.49112637837706,33.03663519965292],[70.49110398186556,33.0360702853734],[70.49223544650604,33.032139214409796],[70.49220514933265,33.03137478298639],[70.49338628133117,33.02965820312512],[70.49500529819059,33.02889417860271],[70.49656133015955,33.027391221788335],[70.4995714484318,33.027510579427215],[70.5001525709362,33.03055433485261],[70.49970280965161,33.03227077907998],[70.49888241238054,33.033031005859556],[70.49894760131818,33.03467583550369],[70.49623097737609,33.039191487630404],[70.49558034261057,33.04192301432306],[70.50055409749345,33.04127441406271],[70.50235253228075,33.042511935764],[70.50277248806427,33.043228081597576],[70.5013533867731,33.0449947102866],[70.50057032267242,33.04414957682303],[70.49980280558262,33.04417995876746],[70.50029334174243,33.045579562717165],[70.50021560668918,33.04920722113732],[70.49830932617166,33.04981079101593],[70.4983394877116,33.05057183159741],[70.498982832167,33.05054633246546],[70.5007316928438,33.04962090386309],[70.50110582139743,33.04805026584219],[70.5020767890081,33.047591959635696],[70.50138359917517,33.046949734158105],[70.50098795572919,33.04611138237881],[70.50361640082471,33.0450052897138],[70.50466432359505,33.04428426106794],[70.50566602918835,33.04320312500025],[70.5049701775445,33.04219184027798],[70.50270300971121,33.041341281467126],[70.50070817735443,33.039846869574845],[70.50271738688136,33.03638292100713],[70.50305202907984,33.032194959852646],[70.5038938056098,33.031372612847576],[70.50516006469726,33.03137708875886],[70.50573589748805,33.03015692816851],[70.5049722798664,33.029449327257055],[70.50501539442249,33.02836154513906],[70.50620557996959,33.025634223090606],[70.50736589219835,33.024833984375135],[70.50688861423046,33.023472222222395],[70.50726464165555,33.022399359809185],[70.50888680352105,33.02004204644112],[70.5091613769529,33.01867648654529],[70.50634746975359,33.01520874023457],[70.5041276211206,33.01302951388905],[70.5028132968479,33.01308173285598],[70.50250528971353,33.01082804361995],[70.50211168077252,33.01028306749146],[70.501363457574,33.01144178602458],[70.50140526665555,33.013607720269164],[70.50105519612609,33.01388359917564],[70.5001071166993,33.012860378689425],[70.49972790188244,33.01110649956617],[70.49934604220911,33.01038492838549],[70.49832804361975,33.00972751193595],[70.49806084526912,33.00860582139771],[70.49652777777774,33.00763888888916],[70.49610373602948,33.00777316623281],[70.49640477498352,33.00921196831624],[70.49694974263505,33.00971693250884],[70.49721692403145,33.01131117079022],[70.49583225674084,33.0108257378474],[70.49526247660302,33.0111272515193],[70.4912717692055,33.00861640082482],[70.48972222222207,33.01028876410611],[70.48844601101334,33.008911404080166],[70.48806085374602,33.00972751193595],[70.48746186998156,33.010010172526165],[70.4875065528021,33.01113755967904],[70.4886164093015,33.01166137695331],[70.48888359069846,33.0136164008249],[70.4906079949271,33.01389105902801],[70.49190967983665,33.016984185112975],[70.49027956644679,33.017784966362996],[70.48872428894046,33.01737738715296],[70.4878193325466,33.01640068901931],[70.48695785522435,33.015994194878644],[70.48611640930162,33.01615776909743],[70.48734373304578,33.01794135199685],[70.48836105346666,33.01888400607653],[70.48831619262674,33.02001586914079],[70.48745234171523,33.01998155381963],[70.48669126722544,33.01916015625011],[70.48636162651908,33.01917331271714],[70.48640827602807,33.020350206163386],[70.48574623955611,33.020828043620014],[70.48452252705889,33.01915961371556],[70.4827394527857,33.0186164008249],[70.48280318366139,33.020224202474225],[70.48469494289819,33.020674777561055],[70.48527247958705,33.02199381510434],[70.48227376302063,33.02187486436655],[70.48279872470411,33.02337266710083],[70.48138405693877,33.02333902994812],[70.47888112386053,33.02116821289073],[70.47890346103222,33.02060451931446],[70.47653491550014,33.01921210394977],[70.47539985656735,33.019812689887274],[70.47682691786022,33.02188652886302],[70.4790864054361,33.023980034722456],[70.48118009779168,33.02710720486138],[70.48051750183092,33.02835937500025],[70.47581703186015,33.02750528971366],[70.47580034891737,33.030971001519205],[70.47355519612617,33.03000528971366],[70.47248413933622,33.03057210286474],[70.47250734117293,33.03115749783004],[70.4747262318929,33.03082668728317],[70.47586252848325,33.03205308702272],[70.47780177646231,33.031373291015754],[70.47887413024878,33.031415879991485],[70.47993372599277,33.03039021809927],[70.48219410366491,33.02995863172765],[70.48294103834363,33.03076483832477],[70.48157071431464,33.03748006184922],[70.4805608537462,33.03944973415811],[70.47997016906717,33.04030815972234],[70.4782772996688,33.04084404839428],[70.47712217542866,33.043589002821406],[70.47527247958718,33.04388359917566],[70.47472752041287,33.044345703125344],[70.47696992662222,33.04477376302104],[70.47693652682815,33.04561645507833],[70.47592452155212,33.04763414171025],[70.4789929368761,33.05015557183182],[70.48168296813961,33.051661376953305],[70.48165801154235,33.05103162977454],[70.48055025736485,33.05000528971388],[70.47887425740541,33.047174750434195],[70.478913514879,33.0461843532987],[70.48000914679639,33.04583740234389],[70.47939301384801,33.0443374294706],[70.47978574117005,33.04283867730058]]]]},"properties":{"id":"4610"}}]}