{"type":"FeatureCollection","features":[{"type":"Feature","geometry":{"type":"MultiPolygon","coordinates":[[[[105.18791137694981,16.53949625651022],[105.18637824164168,16.538371853298344],[105.18357613457263,16.537836642794872],[105.18445180256825,16.535338541666334],[105.18349126179695,16.53394259982626],[105.18594580755976,16.53249945746491],[105.18625717162755,16.531192220051835],[105.18768863253788,16.52986599392345],[105.18762178208763,16.52817979600661],[105.18846243963978,16.527400716145536],[105.19128706190011,16.527090386284527],[105.19193384805985,16.527788357204614],[105.19538909911799,16.52826063368032],[105.1956891547276,16.530144314236026],[105.19652248806099,16.532088758680246],[105.19711047702052,16.53294325086783],[105.19827780829209,16.532896864149095],[105.19971204969315,16.532137858072616],[105.20030426025053,16.530882975260113],[105.20104868570652,16.52674858940955],[105.2029585435624,16.524546440971903],[105.20403233845721,16.52458902994762],[105.20496966891525,16.52409315321151],[105.20568915472776,16.524422743055283],[105.20449332342898,16.526682671440682],[105.20288816663643,16.528169759114306],[105.20292694091464,16.529148220485794],[105.20486226399422,16.528743489583135],[105.20541137694985,16.528922526041413],[105.2044230821364,16.530358886718474],[105.2034331766732,16.531276041666374],[105.20199529011731,16.531258951822707],[105.2009775119324,16.534083658854],[105.20185657077056,16.534898274739334],[105.20389948526704,16.53554497612822],[105.2050248209604,16.536759440103907],[105.20740258110598,16.537911241319208],[105.20839662339634,16.53580512152749],[105.20954683091597,16.53542209201369],[105.210133599172,16.53642252604139],[105.20928944905282,16.537649197048296],[105.20931257459549,16.53823269314215],[105.21195375230243,16.538127983940655],[105.21263860066418,16.53567111545111],[105.21507975260087,16.534519042968455],[105.21568915472758,16.533158908419907],[105.21406078762172,16.531650119357337],[105.21458862304374,16.530144314236026],[105.21485365125548,16.526478407117807],[105.2132092454668,16.526543782551855],[105.21244311862196,16.526138237846922],[105.21297014024194,16.524127061631674],[105.21294277614695,16.521563313801906],[105.21086168076945,16.520977647569154],[105.21011474609057,16.52333685980885],[105.20927890353417,16.522894422742837],[105.20937259249902,16.5205308702255],[105.20827367146492,16.52014431423588],[105.20623959011189,16.521543782551774],[105.20566796196536,16.521521267360825],[105.20490644666566,16.519907497829564],[105.20291873507719,16.521275499131676],[105.20089431762389,16.520256618923383],[105.1962276543479,16.51969807942686],[105.19356964110992,16.520476345486017],[105.19292195637715,16.5201334635414],[105.19094356960417,16.51986328124984],[105.19055555555227,16.519444444444247],[105.18791137694981,16.51985568576356],[105.18649439493484,16.520437825520574],[105.18554089016052,16.522358127169824],[105.18050889756617,16.526664225260106],[105.18207804361654,16.52842692057257],[105.18068915472767,16.530133463541375],[105.17986036512261,16.532038845485957],[105.17958862304354,16.534381781683805],[105.18044748941739,16.53755560980875],[105.18039123534837,16.53897488064213],[105.18186147053703,16.540133463541437],[105.18366595797741,16.53931098090264],[105.1859669325053,16.541255425347032],[105.18664369370893,16.541522352430405],[105.18791137694981,16.53949625651022]]]]},"properties":{"id":"10248"}}]}