{"type":"FeatureCollection","features":[{"type":"Feature","geometry":{"type":"MultiPolygon","coordinates":[[[[104.21159667968752,14.862232767741077],[104.2109836154514,14.86107386271189],[104.20680799696211,14.860053049723533],[104.20630425347244,14.859509463840297],[104.20553466796886,14.857078043620021],[104.2048347981773,14.856666666666897],[104.20303466796875,14.856841057671645],[104.20385145399311,14.85759785970069],[104.20584201388922,14.861897820366977],[104.20739691840308,14.861541256374963],[104.20778211805558,14.862757415771696],[104.20914577908005,14.863189154731131],[104.20972140842045,14.864080657959263],[104.20966010199655,14.865623033311849],[104.20785861545156,14.867836608886961],[104.20961669921874,14.868744710286805],[104.21168836805569,14.867319217258213],[104.21159667968752,14.862232767741077]]]]},"properties":{"id":"22290"}}]}