{"type":"FeatureCollection","features":[{"type":"Feature","geometry":{"type":"MultiPolygon","coordinates":[[[[103.26717245499995,19.258510834000006],[103.26764044200016,19.25760235600025],[103.2690000000002,19.257630096000142],[103.26956424000016,19.257618591000167],[103.26862249800021,19.256377502000163],[103.26762164300018,19.254691467000185],[103.26535232500001,19.254374694999996],[103.26404327400022,19.253700317000252],[103.2636275020001,19.25291436800005],[103.26512750199996,19.251127502000003],[103.26587249800033,19.249357208000077],[103.26437500000017,19.249387756000118],[103.26361740100006,19.249372284000074],[103.26363351400008,19.248582489000185],[103.26462750199997,19.247627502000128],[103.26487249800007,19.247372498000175],[103.26589947500023,19.246699188000065],[103.26587240600011,19.245372955000022],[103.26613165300009,19.244107269000196],[103.26712731900014,19.24412759400009],[103.26766131600007,19.243852509000163],[103.26812249800034,19.24337249800024],[103.26937750200014,19.24312750200012],[103.27024157700023,19.24268237300015],[103.27087249800022,19.243401917],[103.27011721800008,19.244868073000163],[103.2701293330002,19.245462463000138],[103.27252413900018,19.245053986000187],[103.27300894199996,19.246547974000165],[103.27364279200012,19.247122498000095],[103.27361990400018,19.246000000000123],[103.27362835700026,19.245585785000046],[103.27420547500023,19.243899689000244],[103.2759883420002,19.243609467000212],[103.27689788800015,19.24362802100015],[103.27687219200024,19.24488751200009],[103.27587249800021,19.245372498000066],[103.2755450130002,19.247384277000165],[103.27637500000029,19.247367340000096],[103.27704748500017,19.24738107300017],[103.27737249800018,19.249377502000158],[103.27837750200015,19.24962249800018],[103.27949069200034,19.249907776000242],[103.27894329800009,19.25097036700005],[103.27940191700011,19.251372498000023],[103.28037249800022,19.250872498000135],[103.28087750199998,19.250627502000114],[103.28189227300012,19.249857482999985],[103.28315289300016,19.24988320900016],[103.28311605526258,19.25168877728376],[103.28309768700021,19.252589081000053],[103.28328085300026,19.25287249800023],[103.283684937,19.250802704000122],[103.28415338100004,19.250352631000197],[103.28537735000018,19.250377594000128],[103.28612249800008,19.24985208100017],[103.2844009090002,19.24988723800014],[103.28349514799996,19.249577209000066],[103.28236770600009,19.247857544000254],[103.2823845830001,19.247030823000145],[103.28389624000019,19.246540283000144],[103.28386276200015,19.244900909000037],[103.28412844800013,19.244124695000124],[103.28335797100007,19.242343933000043],[103.28250647000024,19.241525848000123],[103.2808724980002,19.241127502000026],[103.27941326900017,19.240138336000072],[103.28016159100028,19.2382934270001],[103.28012219200022,19.236362305000185],[103.27912500000022,19.23638266000019],[103.2785537410002,19.236371002000197],[103.2781275020001,19.234622498000206],[103.27775000000011,19.234000000000037],[103.27737249800018,19.234122498000048],[103.27708981300012,19.235282043000254],[103.27739749100019,19.236180939000107],[103.279058289,19.237776581000148],[103.27860250900025,19.238661316000076],[103.2781018070003,19.239142395000172],[103.27710199000015,19.23912197900009],[103.27557125900026,19.238084381000206],[103.27512750200029,19.237622498000192],[103.27485168500024,19.237357513000106],[103.27310882600014,19.236791931000027],[103.27312759400004,19.235873230000223],[103.27309808300006,19.235627502000142],[103.27144812000026,19.23734481800004],[103.27084808300006,19.237622498000192],[103.26937429800009,19.23686328100007],[103.26905984500027,19.238474030000205],[103.26835824600019,19.23811257900006],[103.26718344100007,19.238136565999994],[103.26585772700017,19.239142517000275],[103.2648750000001,19.23912243700012],[103.26397750900023,19.23914077800022],[103.26319064300012,19.240762634000205],[103.26155014000008,19.239650604000033],[103.25987249800014,19.239377502000096],[103.25909829700007,19.239112488000103],[103.25862750200011,19.238622498000055],[103.25806753500015,19.23812750200014],[103.2571275020002,19.239308411000053],[103.2591275020001,19.239872498000196],[103.26025781200028,19.240259369000142],[103.26065768400022,19.242307800000162],[103.26166723600002,19.24263540600009],[103.26264764400023,19.243140442000126],[103.26262054400021,19.244468140000023],[103.26159600800023,19.245139862000002],[103.26112750200022,19.245627502000033],[103.26058337400005,19.246122498000133],[103.2591273190001,19.245372406000158],[103.25885211200026,19.24537802100008],[103.2588923650001,19.247351166],[103.25859808300007,19.24787249800025],[103.25762741100007,19.246862183000133],[103.25664862099998,19.2468821720001],[103.2563775020001,19.249377502000158],[103.25598394800008,19.25037249800006],[103.2548775020002,19.24962249800018],[103.25405621300015,19.24922406000016],[103.25283502200003,19.2496420290001],[103.25185751300003,19.249622101000142],[103.25137750200011,19.24912249800029],[103.25073999000014,19.248510010000146],[103.25012750200008,19.24787249800025],[103.2498367920002,19.247627502000128],[103.24988299600003,19.24989181500017],[103.24909661900026,19.25064736900015],[103.24784750400019,19.250621887000094],[103.24711261000024,19.24985699500013],[103.24712756300013,19.24912500000005],[103.24712243700023,19.248875000000325],[103.24712756300013,19.24862500000016],[103.24710678100027,19.247607513000162],[103.24605111700006,19.247629059000175],[103.24611215950009,19.250620613250177],[103.24613250700023,19.25161779800007],[103.24586431900033,19.252138397000152],[103.24360253900002,19.252872345000043],[103.24198822000025,19.25177807600018],[103.24239614900014,19.249786438000058],[103.24237210100003,19.248607513000124],[103.24173733500018,19.24799762000012],[103.24057095300006,19.24839685100011],[103.23912500000014,19.248367340000158],[103.23853759800019,19.248379333000074],[103.23783969100018,19.24731481900011],[103.23735720800025,19.246877502000075],[103.23738519300016,19.248250000000212],[103.23737100200012,19.248946259000178],[103.23493325800021,19.24954052700015],[103.23412750200018,19.250627502000114],[103.2338414000001,19.250902374000205],[103.23212500000031,19.25086734000014],[103.23079156500003,19.250894562000184],[103.23012750200016,19.25165191700013],[103.23062896700017,19.252625336000122],[103.23008242800015,19.25343164100022],[103.22909808300014,19.25437249800008],[103.22790094000013,19.253755798000043],[103.22755270400009,19.255184296000195],[103.22658828700023,19.255622498000122],[103.22512500000013,19.25512164300025],[103.22437750200007,19.2553775020002],[103.22362249800014,19.255622498000122],[103.22267898600026,19.256604523000206],[103.22241171300007,19.257872498000125],[103.22387249800025,19.257372498000237],[103.22512750200016,19.25712750200013],[103.22562249800015,19.256872498000163],[103.22675500500023,19.25650500500005],[103.22825000000032,19.255993286000162],[103.22937249800012,19.256377502000163],[103.23033364900024,19.256622498000084],[103.23138604700009,19.254849670000127],[103.23187750200017,19.25437750200014],[103.23259402500022,19.253631744000174],[103.23337750200008,19.253377502000006],[103.23439663700023,19.25285247800008],[103.2357500000002,19.252880096000155],[103.23722415200021,19.25285000600006],[103.23762713600016,19.25160824600026],[103.23859796100001,19.250675476000083],[103.24014212000034,19.25037750200012],[103.24064239500015,19.25089819300021],[103.24060464500027,19.252747559000014],[103.24211187700027,19.25347879000013],[103.2423727720001,19.255879944000284],[103.24325000000019,19.255428040000112],[103.24431390400011,19.25597610500016],[103.24487249800015,19.25712750200013],[103.24524514800007,19.257850891000118],[103.24612249800029,19.257338287000167],[103.24537204000009,19.255145721000204],[103.24538342300033,19.254586548000205],[103.24589541600025,19.25359271200014],[103.24814212000015,19.252877502000118],[103.24863916000024,19.253394836000012],[103.24912561000016,19.255390289000005],[103.2498928220003,19.256127411000065],[103.24986734000007,19.257374999999996],[103.24987771600021,19.257882598999984],[103.25048339800034,19.257870239000027],[103.25137249800017,19.256372498000275],[103.25162750200022,19.256127501999984],[103.25212249800015,19.255372498000142],[103.25271685800013,19.254877502000127],[103.25322100800028,19.256431061000143],[103.25412249800033,19.25612249800011],[103.25525500500007,19.255755004999983],[103.25585412600017,19.255131409000086],[103.25787414600015,19.25415139800009],[103.25908938600006,19.252886566000157],[103.26089404300015,19.25212048300027],[103.26173349000018,19.251246765000275],[103.26237249800019,19.251804626000066],[103.26114657600019,19.253420227000163],[103.26200500500008,19.254244995000107],[103.26237249800019,19.2553775020002],[103.26287750200007,19.25612249800011],[103.26312249800017,19.257627502000204],[103.26337750200022,19.258372498000114],[103.26362249800033,19.260377502000097],[103.2641536250002,19.261161040999994],[103.26474499500003,19.26238000500014],[103.26514749100019,19.263161316000037],[103.26562750200023,19.263622498000174],[103.26588916000017,19.263894836000148],[103.2665514830002,19.266611725000146],[103.2668771360002,19.265608246000255],[103.2678099670002,19.26471200600018],[103.26712240600008,19.263377319000057],[103.26713485700017,19.26276651000005],[103.26912750200009,19.26237750200002],[103.26962249800019,19.262175995000135],[103.26837249800016,19.26062750199999],[103.26717245499995,19.258510834000006]]]]},"properties":{"id":"7404"}}]}