{"type":"FeatureCollection","features":[{"type":"Feature","geometry":{"type":"MultiPolygon","coordinates":[[[[77.47833593750013,25.746992187500055],[77.47892578125018,25.746688476562582],[77.48031250000011,25.746811523437586],[77.48056249999993,25.746938476562576],[77.48131250000009,25.74706152343758],[77.48197265625012,25.747561523437653],[77.48256250000011,25.747406250000168],[77.48243750000009,25.747311523437475],[77.48176953125008,25.747147460937626],[77.48018750000008,25.745430664062653],[77.48043359375012,25.744943359375114],[77.48109765625,25.74443847656258],[77.48181250000007,25.744561523437582],[77.48206250000018,25.744688476562487],[77.48256250000011,25.744811523437576],[77.48322265625026,25.74531152343765],[77.48356250000009,25.744727539062566],[77.48343750000006,25.743311523437626],[77.48318750000018,25.743188476562537],[77.4826875000002,25.742811523437467],[77.48168749999994,25.742688476562563],[77.48143750000011,25.742561523437658],[77.48118750000006,25.742438476562484],[77.48093750000018,25.74231152343758],[77.48068750000007,25.742188476562575],[77.48043750000019,25.742061523437584],[77.4799375000002,25.741938476562595],[77.4796875000001,25.741811523437505],[77.47868750000018,25.741688476562686],[77.47843750000007,25.741561523437696],[77.47767968750006,25.741437500000046],[77.4775000000001,25.74125000000008],[77.47706250000024,25.74131152343753],[77.47681250000008,25.74143847656252],[77.47586328125001,25.741593750000007],[77.47568750000008,25.742313476562614],[77.47518750000009,25.742972656250075],[77.47531250000017,25.743438476562616],[77.47593750000019,25.744186523437648],[77.47606249999993,25.74443847656258],[77.47631250000009,25.744923828125167],[77.47565234375017,25.745673828125135],[77.47481250000018,25.74581152343754],[77.47432421875007,25.746061523437703],[77.47368750000018,25.74593847656253],[77.47279296875021,25.74518847656246],[77.47168750000006,25.745326171875035],[77.47181250000008,25.74593847656253],[77.47206250000019,25.746061523437703],[77.47231250000007,25.746188476562693],[77.47280468750009,25.74642871093758],[77.47293750000009,25.74668652343763],[77.47306250000017,25.746938476562576],[77.4752500000001,25.74707226562508],[77.4754375000002,25.747436523437514],[77.47556250000005,25.747688476562544],[77.47568750000008,25.747936523437588],[77.47582812499999,25.74936132812516],[77.47631250000009,25.74968847656247],[77.47726171875021,25.749843749999954],[77.47756250000018,25.75042382812522],[77.4774375000001,25.75081347656247],[77.47731250000007,25.7510615234377],[77.47718749999993,25.751313476562544],[77.4769375000001,25.751798828125217],[77.47707812500013,25.75281152343763],[77.47718749999993,25.752688476562625],[77.47731250000007,25.7521865234377],[77.4780625000001,25.75129296875012],[77.47793750000008,25.750311523437546],[77.47781250000006,25.750063476562588],[77.4776875000002,25.749561523437478],[77.47744140625016,25.74908007812516],[77.47818750000008,25.748188476562532],[77.47833593750013,25.746992187500055]]]]},"properties":{"id":"18914"}}]}