{"type":"FeatureCollection","features":[{"type":"Feature","geometry":{"type":"MultiPolygon","coordinates":[[[[102.22284844292219,15.065761176215432],[102.22521837022256,15.065348307291856],[102.22734456379911,15.065432400173748],[102.22791137694995,15.064361436632083],[102.22510240342567,15.062042643229276],[102.2235210503442,15.061296657986276],[102.22181084526594,15.057355685764037],[102.22097751193266,15.056144748263975],[102.22228271484082,15.055422092014027],[102.22639512803497,15.057058376736236],[102.22925008137733,15.057776692708444],[102.22976087781805,15.056319444444611],[102.22718763563071,15.055667860243176],[102.22202528211486,15.053814561632151],[102.2194444444415,15.052500000000165],[102.2185511610214,15.052782660590466],[102.21818630642045,15.053472222222439],[102.21889458550035,15.054810655382127],[102.21957804361668,15.058199869791778],[102.22095106336499,15.060855577257186],[102.22095052083014,15.062770182291786],[102.22132093641184,15.064709743923714],[102.22284844292219,15.065761176215432]]]]},"properties":{"id":"22269"}}]}