{"type":"FeatureCollection","features":[{"type":"Feature","geometry":{"type":"MultiPolygon","coordinates":[[[[84.08355957031247,23.95252549913225],[84.08397786458372,23.950334811740674],[84.08558024088555,23.950271267361316],[84.08661078559052,23.95138359917553],[84.0869501410593,23.950838012695712],[84.08691786024306,23.950025566949037],[84.08805013020842,23.94837999131967],[84.084994574653,23.946949734158167],[84.08323513454863,23.94505079481364],[84.08225775824653,23.94610582139778],[84.0813834635417,23.945560845269284],[84.08069444444439,23.94458333333354],[84.08011718750018,23.945118069119232],[84.08056315104162,23.946389973958645],[84.07917209201392,23.949666341146056],[84.07972493489584,23.949728393554878],[84.08077989366345,23.94935865614174],[84.08116807725727,23.95009223090304],[84.08109483506948,23.951938273112347],[84.08278401692732,23.951927693685064],[84.08276150173637,23.952493828667784],[84.08355957031247,23.95252549913225]]]]},"properties":{"id":"19460"}}]}