{"type":"FeatureCollection","features":[{"type":"Feature","geometry":{"type":"MultiPolygon","coordinates":[[[[78.11411241319442,23.549379611545504],[78.11349039713534,23.547106933594165],[78.1138853624133,23.546648491753942],[78.11539279513877,23.54748969184068],[78.11604465060779,23.5465212673615],[78.11612277560775,23.545547824436213],[78.11581732855913,23.545000000000528],[78.11634168836795,23.544060058594226],[78.11642225477428,23.543055555555867],[78.11528808593758,23.542549370660183],[78.11588812934028,23.54217081705785],[78.11710177951377,23.542268337673974],[78.11802191840289,23.541475558811143],[78.11650716145826,23.539048394097662],[78.11624999999995,23.538194444444898],[78.1149896918404,23.538323025174066],[78.11171766493047,23.541125081380684],[78.10878011067703,23.542763943142816],[78.1063677300348,23.543131510417112],[78.10564453124991,23.54375461154568],[78.10549967447903,23.54555555555595],[78.10789198133673,23.54640977647618],[78.10882649739582,23.547494710286884],[78.10998969184041,23.547844916450146],[78.10834364149301,23.548935818142866],[78.10914360894114,23.54971191406284],[78.11047905815971,23.549315728082007],[78.11126193576379,23.548065863715877],[78.11165635850685,23.550288085937936],[78.11220458984391,23.550760498047282],[78.11260443793392,23.551656358507316],[78.11443413628481,23.551033935547295],[78.11411241319442,23.549379611545504]]]]},"properties":{"id":"19666"}}]}