{"type":"FeatureCollection","features":[{"type":"Feature","geometry":{"type":"MultiPolygon","coordinates":[[[[103.61453124999716,18.045695665148003],[103.61580647786153,18.04509372287366],[103.61722900390347,18.045150146484687],[103.62028645833041,18.04578979492247],[103.62350314669848,18.04537041558197],[103.62633761935459,18.042828097873695],[103.625954861108,18.040630154080333],[103.62458875867745,18.038436686198253],[103.62526150173304,18.03781317816886],[103.62681776258395,18.03876600477483],[103.62746066622967,18.038740505642778],[103.628898654511,18.035323079427528],[103.63026855468465,18.03467651367228],[103.63068901909415,18.03291137695345],[103.632943250865,18.03177842881982],[103.63289740668111,18.030623643663617],[103.63046603732343,18.030720079210454],[103.623888888886,18.025000000000517],[103.62086100260134,18.025504421658553],[103.61890028211505,18.026309814453498],[103.61786431206295,18.025946723090755],[103.6170250108477,18.025980088976098],[103.61599934895557,18.027086995443113],[103.61235568576095,18.027355821397947],[103.61149576822615,18.027657335069833],[103.61095757378186,18.02879747178865],[103.61099365234074,18.029705539279902],[103.61160020616026,18.031436631944842],[103.61095594617748,18.032654215495185],[103.61154378254926,18.03376478407158],[103.61151855468447,18.038566216363236],[103.61060275607358,18.04029676649337],[103.61014431423334,18.041902262370243],[103.61084526909426,18.044577907986508],[103.61338568793107,18.046931830512563],[103.61453124999716,18.045695665148003]]]]},"properties":{"id":"10161"}}]}