{"type":"FeatureCollection","features":[{"type":"Feature","geometry":{"type":"MultiPolygon","coordinates":[[[[83.23722764756937,23.278060845269252],[83.23762044270839,23.27641167534756],[83.23934543185769,23.276401502821358],[83.24106038411477,23.276074083116583],[83.24138346354161,23.27471693250895],[83.24221679687489,23.273944769965453],[83.24194905598952,23.273604736328465],[83.23846679687514,23.273967692057496],[83.2369170464411,23.27333157009572],[83.23697970920134,23.270635986328415],[83.23680555555543,23.270138888889022],[83.23529568142354,23.27034518771727],[83.23611680772561,23.271106228298933],[83.23614718967016,23.272716742621725],[83.23360568576388,23.275550265842313],[83.23231933593777,23.278042941623397],[83.23284179687514,23.278063557942886],[83.23413113064251,23.27667195638037],[83.23525689019121,23.277176242404693],[83.2360007052952,23.27832804361998],[83.23722764756937,23.278060845269252]]]]},"properties":{"id":"19817"}}]}