{"type":"FeatureCollection","features":[{"type":"Feature","geometry":{"type":"MultiPolygon","coordinates":[[[[105.44618359375019,14.6465585937501],[105.44709863281267,14.646441406250048],[105.44755859375007,14.646691406250127],[105.44839843750017,14.646808593750094],[105.44855859374994,14.64636328125006],[105.44818359375009,14.64619140625014],[105.44734667968763,14.64548046874998],[105.44719140625014,14.64480859375017],[105.44705859375009,14.644566406249979],[105.44694140625015,14.644062500000103],[105.44819140625017,14.642691406250194],[105.44827636718756,14.64219140625012],[105.44781640625004,14.642441406250015],[105.44715136718756,14.642558593750167],[105.44669140625004,14.642308593750002],[105.44618359375019,14.64219140625012],[105.44585449218775,14.642011718750041],[105.44569140625006,14.64130859375004],[105.44536328125011,14.641191406249973],[105.44519140625013,14.641566406250192],[105.44501171875012,14.641894531249974],[105.4443085937501,14.642058593750093],[105.44406640625002,14.64219140625012],[105.44356152343758,14.642308593750002],[105.4418349609376,14.640710937500032],[105.44169140625016,14.639902343750038],[105.44194140624998,14.639441406250128],[105.44205859375009,14.638933593749996],[105.44251269531267,14.638347656250147],[105.44319140625001,14.638191406250087],[105.4435439453126,14.637999999999948],[105.44330859375017,14.637566406250158],[105.44319140625001,14.636808593750033],[105.44295507812504,14.636374999999973],[105.44319140625001,14.635941406250083],[105.44330859375017,14.635433593750221],[105.44394140625016,14.634691406250042],[105.44405859375004,14.63443359374999],[105.44419140624998,14.634191406250153],[105.4443085937501,14.633933593750001],[105.44449707031274,14.633589843749988],[105.44544140625001,14.633441406249915],[105.44568359375003,14.633308593749987],[105.44609863281252,14.63319140625019],[105.4465585937501,14.633441406249915],[105.44706640625017,14.633558593750067],[105.44738964843768,14.63373437500016],[105.44818359375009,14.633058593750178],[105.44934863281267,14.632941406250197],[105.44980859375008,14.63319140625019],[105.45081640625003,14.633308593749987],[105.4510585937501,14.633441406249915],[105.4527890625001,14.633558593750067],[105.45343359375019,14.633058593750178],[105.45412011718756,14.632898437500131],[105.45430859375008,14.632343750000018],[105.45377636718754,14.632191406249959],[105.4533164062502,14.632441406250038],[105.45305859374994,14.632558593750105],[105.45262500000015,14.632792968750138],[105.45219140625002,14.632558593750105],[105.45143359375007,14.632441406250038],[105.45119140625005,14.63230859375011],[105.4506835937502,14.632191406249959],[105.45044140625018,14.632058593750216],[105.44968359374994,14.63194140625015],[105.44944140625014,14.631808593750037],[105.44918359375006,14.631691406249985],[105.44869140625016,14.631308593750063],[105.44743359374993,14.631191406249997],[105.44690917968754,14.630785156249956],[105.44669140625004,14.630308593750101],[105.4465585937501,14.630066406249995],[105.44644140624999,14.629652343750067],[105.44675097656258,14.629082031249993],[105.44794140625007,14.628941406249993],[105.44818359375009,14.62880859375015],[105.44963671875016,14.628671875000151],[105.44980859375008,14.627933593750058],[105.4502158203126,14.627410156249951],[105.45069140625017,14.627191406249977],[105.45080859374994,14.62683593750016],[105.45018359375004,14.62669140624999],[105.44986621093747,14.626519531250068],[105.44969140625003,14.625902343750028],[105.44994140625002,14.625441406249948],[105.45005859375019,14.625183593750165],[105.45019140625001,14.624941406249974],[105.45030859375007,14.623933593750024],[105.45044140625018,14.623691406250202],[105.45055859375017,14.62343359375005],[105.45069140625017,14.623191406249944],[105.45080859374994,14.622683593749983],[105.45119140625005,14.622191406249982],[105.45130859375004,14.621433593750211],[105.45280566406265,14.619816406249939],[105.45469140625002,14.619691406250084],[105.4549335937501,14.619558593750156],[105.45544140625017,14.61944140625009],[105.45555859375011,14.619085937500103],[105.4549335937501,14.618941406250016],[105.454072265625,14.618207031250094],[105.45394140625015,14.616835937500099],[105.4544414062502,14.616191406250039],[105.45450000000014,14.61600000000007],[105.45390136718757,14.616078125000058],[105.45344140625005,14.616722656249934],[105.45369140625004,14.617183593750013],[105.4538085937501,14.617597656250126],[105.45355859375005,14.618058593750206],[105.45344140625005,14.618566406250082],[105.4532617187501,14.618894531250234],[105.45255859375007,14.619058593750168],[105.45109472656262,14.620402343750058],[105.45094140625017,14.62106640624998],[105.45080859374994,14.621308593750086],[105.45069140625017,14.621566406249968],[105.45030859375007,14.62205859375014],[105.45019140625001,14.622316406250022],[105.45005859375019,14.622558593750213],[105.44994140625002,14.622816406250095],[105.4493085937502,14.62355859375009],[105.44919140625004,14.624316406249946],[105.44905859375004,14.624558593750052],[105.44894140625004,14.625066406250099],[105.4488085937501,14.625308593750205],[105.44869140625016,14.625566406249987],[105.44757714843766,14.626800781250068],[105.4468271484375,14.626222656250107],[105.44669140625004,14.625058593750026],[105.4465585937501,14.624816406250204],[105.44644140624999,14.623058593750201],[105.44606835937518,14.622941406250135],[105.44594140625017,14.624566406250025],[105.44580859374994,14.624808593750132],[105.44569140625006,14.625316406250178],[105.44555859375018,14.625558593750014],[105.44544140625001,14.626222656250107],[105.44569140625006,14.626683593750016],[105.44580859374994,14.627597656250018],[105.44555859375018,14.628058593750097],[105.44544140625001,14.62831640624998],[105.44530859375007,14.62855859375017],[105.44519140625013,14.628816406250053],[105.4443085937501,14.629808593750212],[105.44419140624998,14.630316406250074],[105.44404394531253,14.630585937500115],[105.44355859374994,14.630808593750174],[105.44316113281255,14.631085937500004],[105.44294140625001,14.631566406250116],[105.44228808593769,14.632332031249959],[105.44182226562506,14.632558593750105],[105.44087207031257,14.631750000000096],[105.43931640625013,14.63319140625019],[105.43855859375006,14.633308593749987],[105.43806640625016,14.63369140625008],[105.4378085937499,14.633808593750146],[105.43756640625,14.633941406249988],[105.43605859375018,14.63405859375004],[105.43569140625013,14.634273437499942],[105.43608691406266,14.63483984375003],[105.43656640625014,14.635058593750003],[105.43683593749998,14.635207031250076],[105.43705859375015,14.635691406250004],[105.43719140625004,14.63593359375011],[105.43730859375003,14.636191406249992],[105.43769140625014,14.636683593749993],[105.4378085937499,14.636941406250145],[105.43794140625013,14.637183593750152],[105.43805859375007,14.637441406250034],[105.43819140625013,14.637683593750225],[105.43830859375018,14.638183593750114],[105.43730859375003,14.6393085937502],[105.43719140625004,14.641066406250204],[105.43705859375015,14.64130859375004],[105.43694140625016,14.641566406250192],[105.43680859374993,14.641808593750014],[105.43669140625016,14.64206640625008],[105.43653808593771,14.642347656250081],[105.43657031250004,14.642886718749963],[105.43731640625018,14.643058593750055],[105.43758593750013,14.643207031250043],[105.43782617187512,14.643726562500063],[105.43862500000014,14.643679687499997],[105.43888574218764,14.643695312500057],[105.43905859374993,14.644441406250124],[105.43919140625016,14.644683593750045],[105.43930859375016,14.644941406250197],[105.43956640625018,14.645058593750079],[105.44005859374991,14.645441406250086],[105.44031640625016,14.645558593750138],[105.44080859375006,14.64594140625016],[105.44106640625003,14.646058593750212],[105.44130859374994,14.64619140625014],[105.44156640625013,14.646308593750021],[105.44355859374994,14.648191406250163],[105.44380859375016,14.648308593750215],[105.44493359375016,14.647308593749983],[105.44519140625013,14.6471914062502],[105.44568359375003,14.646808593750094],[105.44594140625017,14.646691406250127],[105.44618359375019,14.6465585937501]]]]},"properties":{"id":"26048"}}]}