{"type":"FeatureCollection","features":[{"type":"Feature","geometry":{"type":"MultiPolygon","coordinates":[[[[78.52322374132015,25.50784396701394],[78.52409993489633,25.507380371093788],[78.52447347005253,25.506588812934154],[78.52556043836861,25.505539279513982],[78.52623508029538,25.505565863715404],[78.52666124132006,25.506268174913302],[78.52556098090307,25.506867947048647],[78.52670220269133,25.507216796875085],[78.52721679687531,25.50666124131949],[78.5280354817713,25.506274956597323],[78.52833957248319,25.504367404513914],[78.52965467664964,25.503148600260573],[78.53222439236148,25.502739257812635],[78.53360622829908,25.50279405381957],[78.53450032552112,25.502227647569484],[78.53547336154551,25.50327745225711],[78.53737928602462,25.503605685763972],[78.53839626736138,25.501446126302227],[78.5383517795141,25.498563368055628],[78.53916124131993,25.49753743489596],[78.53561089409752,25.49598524305557],[78.53528320312526,25.495191243489742],[78.53689480251771,25.49214545355916],[78.53638346354202,25.491672092014],[78.53611653645865,25.490242241753492],[78.53721489800384,25.489224446614656],[78.53582763671923,25.48889404296888],[78.53579508463596,25.487227376302158],[78.53693901909745,25.486712510850822],[78.53527235243106,25.486394314236165],[78.53497422960103,25.48514160156266],[78.53278320312538,25.483050130208426],[78.5308279079866,25.481672092013937],[78.53028320312532,25.480827907986267],[78.52857801649341,25.479146321614607],[78.52777642144147,25.47744791666682],[78.52502441406304,25.475100911458327],[78.52410291883703,25.473148871527826],[78.52332790798633,25.472783203125076],[78.52291666666721,25.47208333333336],[78.52221679687548,25.472216796875088],[78.5216720920142,25.472950303819516],[78.5234855143232,25.47380615234391],[78.5245374891496,25.47543538411466],[78.52663547092047,25.4773792860245],[78.52693901909774,25.47833875868058],[78.5283387586808,25.47999457465282],[78.52889024522611,25.48116319444452],[78.53134277343796,25.483497178819533],[78.53166124131971,25.48417209201402],[78.53309271918445,25.485034450954984],[78.5330756293408,25.48925726996545],[78.53244411892396,25.49027235243065],[78.53059244791692,25.488340115017465],[78.53028428819468,25.491138509114805],[78.53193901909773,25.491309678819604],[78.5308279079866,25.49166124131952],[78.53022732204917,25.492258843316037],[78.52913221571211,25.492215440538217],[78.52833902994817,25.488328450520896],[78.5277832031255,25.48721679687523],[78.52694986979193,25.48638346354177],[78.52618706597272,25.48602349175357],[78.52556098090307,25.486166992187606],[78.52639458550371,25.486939561632013],[78.52639458550371,25.487781304253573],[78.5253640407989,25.493205295138992],[78.5234855143232,25.494418402777868],[78.52208387586833,25.494716796875124],[78.51917100694473,25.493605414496727],[78.51859537760438,25.493628200954873],[78.51861680772598,25.494171820746715],[78.51704969618098,25.494439019097356],[78.51587456597272,25.49194905598958],[78.51487928602492,25.491672092014],[78.51444986979189,25.49237928602446],[78.51551188151072,25.492880588107766],[78.51640082465312,25.494763726128582],[78.51745090060788,25.495736762152873],[78.5186452907989,25.496114908854196],[78.51934760199683,25.4968731011285],[78.52029269748314,25.496372884114635],[78.52110622829926,25.49640516493062],[78.52139377170161,25.496094835069513],[78.52197184244815,25.496117621527844],[78.52190809461851,25.497724338107716],[78.52364908854193,25.501106499566077],[78.5217683919274,25.503044704861267],[78.5213894314239,25.505030110677197],[78.52056098090301,25.50583875868078],[78.51916124131989,25.506105685764155],[78.51889431423652,25.507004665798647],[78.52056043836834,25.506938747830063],[78.52110622829926,25.507527669270914],[78.52219835069482,25.507484537760647],[78.52322374132015,25.50784396701394]]]]},"properties":{"id":"4917"}}]}