{"type":"FeatureCollection","features":[{"type":"Feature","geometry":{"type":"MultiPolygon","coordinates":[[[[76.49935937499995,23.192902343750063],[76.50005859375014,23.192046875000102],[76.49930859375004,23.192058593750062],[76.49884765625026,23.19230859374997],[76.4983164062501,23.191928710937475],[76.49817968750025,23.190149414062475],[76.49769140624997,23.189808593750058],[76.49702734375015,23.189654296875148],[76.49605859375012,23.188566406250004],[76.49600000000018,23.187250000000034],[76.49580859375001,23.187308593749975],[76.49569140625013,23.188316406250095],[76.49505859375014,23.18905859375009],[76.49483593750008,23.189543945312494],[76.49456640625013,23.189691406250006],[76.4936406250001,23.189834960937603],[76.49330859375013,23.19030859375013],[76.49319140624996,23.1905664062501],[76.49294140625014,23.191026367187533],[76.49305859375002,23.19219140625009],[76.49319140624996,23.19243359375001],[76.49330859375013,23.193691406250124],[76.49394140625012,23.194433593750105],[76.49410546874995,23.195143554687704],[76.49498046875019,23.195346679687546],[76.49569140625013,23.19618359374995],[76.49586328125,23.19655859375007],[76.49625000000006,23.196418945312544],[76.49605859375012,23.19606640625007],[76.49594140625013,23.195808593750016],[76.49555859375013,23.1953164062501],[76.49544140624997,23.19480859375014],[76.49530859375002,23.194566406249947],[76.49519140625014,23.194308593750065],[76.49496093750011,23.193888671875115],[76.4954335937501,23.193558593750012],[76.49819140624996,23.193441406249946],[76.49868359375003,23.193058593750123],[76.49935937499995,23.192902343750063]]]]},"properties":{"id":"19865"}}]}