{"type":"FeatureCollection","features":[{"type":"Feature","geometry":{"type":"MultiPolygon","coordinates":[[[[77.0834902615023,31.67678249783002],[77.07840521918459,31.671786295573042],[77.07943413628507,31.670823025173775],[77.08005506727474,31.67054606119811],[77.07986287434952,31.668154568142512],[77.08060045030439,31.66742540147601],[77.08248263888933,31.667576768663324],[77.08254950629382,31.666744520399504],[77.08208333333377,31.66569444444461],[77.07998969184067,31.666100802951718],[77.07831108941022,31.66674370659733],[77.0768656412765,31.667988823784896],[77.07509318033894,31.670281304253564],[77.06965047200563,31.67073621961832],[77.06723253038237,31.671285536024456],[77.06753011067755,31.673024631076515],[77.07125000000033,31.67316704644125],[77.07490587022616,31.6728732638891],[77.07739637586869,31.67362331814256],[77.07790066189293,31.674753146701548],[77.07860080295191,31.67556586371549],[77.07955864800388,31.67585422092027],[77.08045342339474,31.676892903645978],[77.0814321560334,31.677252332899528],[77.0836671278216,31.677498101128762],[77.08524685329903,31.67919759114602],[77.08751193576447,31.67971218532999],[77.08746595594661,31.68028455946191],[77.08917697482698,31.680545247395983],[77.09167697482698,31.681378580729344],[77.09215562608543,31.681934136284866],[77.09387858072964,31.681631944444604],[77.09362141927144,31.68082302517375],[77.08821044921919,31.67858751085093],[77.08654839409789,31.677340494791807],[77.0834902615023,31.67678249783002]]]]},"properties":{"id":"17085"}}]}