{"type":"FeatureCollection","features":[{"type":"Feature","geometry":{"type":"MultiPolygon","coordinates":[[[[77.0804448784721,23.80207153320366],[77.08063001844604,23.799767116970983],[77.08013888888891,23.799305555555947],[77.07854885525151,23.800050862630755],[77.07670925564238,23.79990302191881],[77.07517957899293,23.802410481771275],[77.07761284722207,23.806359320746992],[77.07876315646698,23.806656358507425],[77.08081271701374,23.80400716145877],[77.08218356662334,23.803395453559503],[77.08276746961783,23.802806667752193],[77.08082302517354,23.802510308160123],[77.0804448784721,23.80207153320366]]]]},"properties":{"id":"19529"}}]}