{"type":"FeatureCollection","features":[{"type":"Feature","geometry":{"type":"MultiPolygon","coordinates":[[[[79.13804768880257,25.040547960069475],[79.13894287109432,25.039978298611118],[79.13993625217049,25.040037434895865],[79.1402699110246,25.03860351562517],[79.1409564887156,25.037206488715455],[79.1408010525179,25.03459635416678],[79.14000786675379,25.032770182291827],[79.13870062934083,25.030898437500042],[79.13727430555608,25.029624023437577],[79.13534261067744,25.02849934895835],[79.13496175130248,25.027669813368178],[79.13305826822969,25.025909830729262],[79.13111680772604,25.025269097222207],[79.12958930121587,25.02521213107636],[79.12902777777819,25.024583333333325],[79.12829698350723,25.02480902777789],[79.128386773004,25.026312934027814],[79.12785481770865,25.027291666666756],[79.12911078559088,25.027868381076487],[79.12943657769145,25.028787434895946],[79.12665879991354,25.029159071180615],[79.12638888888924,25.029461263020877],[79.12611897786516,25.029159071180615],[79.12488959418451,25.028896484375082],[79.12370171441032,25.030226236979374],[79.12505805121586,25.030848524305668],[79.12593668619851,25.031832139756972],[79.12922715928877,25.031129014757056],[79.12996799045195,25.03195800781269],[79.13037896050398,25.03459635416678],[79.12962999131994,25.03566894531255],[79.12595784505234,25.036159939236114],[79.12427273220541,25.03605957031246],[79.12192084418436,25.036964518229325],[79.12193576388941,25.03778537326393],[79.12347629123306,25.03807291666689],[79.12541476779543,25.039126519097252],[79.12882812500058,25.039526367187534],[79.12974338107674,25.040023328993115],[79.13333848741345,25.03987575954872],[79.13508626302118,25.04060275607641],[79.13584120008736,25.041381293402836],[79.13619059244846,25.042142469618142],[79.13701443142398,25.04252061631955],[79.13759684244852,25.04248589409721],[79.13804768880257,25.040547960069475]]]]},"properties":{"id":"9510"}}]}