{"type":"FeatureCollection","features":[{"type":"Feature","geometry":{"type":"MultiPolygon","coordinates":[[[[75.9225045437287,31.95945014105932],[75.92352735731376,31.958908962673846],[75.92471693250897,31.959727647569622],[75.92917195638066,31.96138346354188],[75.93166137695354,31.963616536458503],[75.93383300781304,31.96443901909747],[75.93470099555188,31.963754882812694],[75.93249471028682,31.962783203125227],[75.92797044542132,31.959087456597487],[75.92475931803429,31.95757215711825],[75.9239662000875,31.955641276041803],[75.92456285264817,31.95451388888901],[75.9219549560552,31.954015842014073],[75.9219387478303,31.953605957031414],[75.92305026584253,31.953081325955054],[75.92250528971411,31.952772352430856],[75.91721693250909,31.95250542534731],[75.91400309244861,31.95194580078143],[75.90780368381124,31.95157389322938],[75.90639417860294,31.950827907986465],[75.90486111111167,31.950416666666897],[75.89820536295602,31.951274414062766],[75.89566277398032,31.952079535590613],[75.89472751193634,31.95343858506979],[75.89507175021768,31.958319769965527],[75.90514316135048,31.958863389757113],[75.90659674750478,31.959209526909916],[75.90706285264807,31.964074164496807],[75.90872748480976,31.96495496961826],[75.91070421006995,31.965033365885787],[75.9150094265411,31.96427218967048],[75.91722751193609,31.963338758680734],[75.91903428819492,31.96162380642383],[75.92007005479658,31.959524197048836],[75.9225045437287,31.95945014105932]]]]},"properties":{"id":"9192"}}]}