{"type":"FeatureCollection","features":[{"type":"Feature","geometry":{"type":"MultiPolygon","coordinates":[[[[78.32665391710091,25.611679416232633],[78.32652777777824,25.609861111111144],[78.3252650282121,25.60998725043413],[78.32501274956624,25.610846082899542],[78.3242708333336,25.611168077257034],[78.32271104600719,25.61058186848973],[78.32207682291713,25.61204454210076],[78.32218804253492,25.61547309027786],[78.32253417968818,25.61702690972234],[78.3224129231775,25.61821641710081],[78.32279052734427,25.618876139323163],[78.32304280599007,25.620128309462032],[78.32248725043436,25.621098361545222],[78.32223497178856,25.622456868489593],[78.32425699869819,25.62290527343751],[78.32521592881992,25.622356228298656],[78.32693657769155,25.620145941840434],[78.32748725043442,25.618876139323163],[78.32868489583373,25.618024902343777],[78.32943169487893,25.616260579427205],[78.32881998697948,25.615192599826543],[78.3277650282121,25.61473497178841],[78.3269571940107,25.613985460069586],[78.32779052734426,25.613623860677123],[78.32804280599012,25.611987575955],[78.32665391710091,25.611679416232633]]]]},"properties":{"id":"18944"}}]}