{"type":"FeatureCollection","features":[{"type":"Feature","geometry":{"type":"MultiPolygon","coordinates":[[[[77.04362901475699,23.097517903646178],[77.04387098524299,23.0960932074656],[77.04631279839415,23.095163981120223],[77.04791666666651,23.095400933160164],[77.04914876302067,23.093302544488182],[77.04879882812477,23.092517903646282],[77.04803765190948,23.092759874132327],[77.04691365559913,23.093593207465787],[77.04589016384531,23.09313680013075],[77.0453457302518,23.091751708984788],[77.04597222222199,23.08902777777824],[77.04452663845464,23.089476047092447],[77.04307345920128,23.090851236979645],[77.04043280707455,23.09110324435808],[77.03974012586801,23.092795681424136],[77.03942654079853,23.09303765191018],[77.03862901475671,23.095295681424034],[77.0378450520831,23.096352945963858],[77.03856838650157,23.0972900390628],[77.04078653971337,23.09696234809067],[77.04229424370638,23.097985026042053],[77.04204020182274,23.099704318576713],[77.04293077256924,23.09941908094666],[77.04362901475699,23.097517903646178]]]]},"properties":{"id":"19917"}}]}