{"type":"FeatureCollection","features":[{"type":"Feature","geometry":{"type":"MultiPolygon","coordinates":[[[[104.05516303168397,14.419930962456704],[104.05612548828125,14.419268663194615],[104.05797878689256,14.419342108832808],[104.05882378472236,14.418559231228457],[104.06093804253496,14.41464484320771],[104.06218939887154,14.414054226345726],[104.06221299913196,14.413457438151212],[104.06163492838576,14.412921956380373],[104.06119683159747,14.411537746853384],[104.06055230034744,14.411512179904818],[104.05855143229164,14.413879801432543],[104.05859998914954,14.415106540256303],[104.05697401258683,14.41596693250878],[104.05472032335072,14.415618421766638],[104.05465711805559,14.414024319119065],[104.05607937283,14.411336534288367],[104.05567328559042,14.409085422092161],[104.05402018229174,14.408505995008781],[104.05276041666664,14.408456081814407],[104.05129720052108,14.409578043620002],[104.04863796658012,14.408984103732777],[104.0481681315105,14.407500000000155],[104.04670410156248,14.407779473198872],[104.04585801866315,14.409839206271855],[104.04747287326407,14.411581963433463],[104.05107177734376,14.413280368381251],[104.05106933593751,14.414837103949793],[104.05143717447928,14.41588704427106],[104.05008707682319,14.417647569444611],[104.04936984592032,14.42427191840305],[104.05068223741327,14.424966430664185],[104.05516303168397,14.419930962456704]]]]},"properties":{"id":"10349"}}]}