{"type":"FeatureCollection","features":[{"type":"Feature","geometry":{"type":"MultiPolygon","coordinates":[[[[76.55526245117213,26.895015462239755],[76.55513888888916,26.894861111111354],[76.5536264377171,26.895050184462008],[76.55426757812538,26.89568630642397],[76.55612643771721,26.896373426649475],[76.5584703233508,26.897896050347455],[76.55862969292556,26.89917751736138],[76.5580289713545,26.90000000000026],[76.55863647460947,26.90083170572943],[76.55807088216162,26.90179389105934],[76.55871215820329,26.902336154514003],[76.55964558919302,26.901588541666825],[76.55991183810775,26.898614366319578],[76.55942586263032,26.897787814670323],[76.5594915093317,26.896427408854407],[76.55682237413211,26.89596299913208],[76.55526245117213,26.895015462239755]]]]},"properties":{"id":"18703"}}]}