{"type":"FeatureCollection","features":[{"type":"Feature","geometry":{"type":"MultiPolygon","coordinates":[[[[104.5858851453996,14.487822943793546],[104.58806667751745,14.486018608941166],[104.58801242404516,14.48534437391504],[104.58738362630211,14.484802585178144],[104.58434326171894,14.483986206054823],[104.58444959852463,14.482662624783217],[104.58400146484385,14.481944444444736],[104.58274115668408,14.482073025173733],[104.58155192057316,14.48273647732232],[104.5810951063373,14.483760308159859],[104.57987820095494,14.485231662326626],[104.57832438151055,14.485106811523593],[104.5771525065106,14.486024576823084],[104.57531222873288,14.485876668294466],[104.57360053168415,14.483889567057403],[104.57144178602451,14.484798583984556],[104.57043646918416,14.484237603081837],[104.56915500217022,14.482191908094748],[104.56703911675376,14.48277099609399],[104.56721272786464,14.484933403863096],[104.56801459418446,14.485624389648663],[104.56891737196182,14.48780632866773],[104.56854844835087,14.488811170790129],[104.56614501953132,14.489883490668618],[104.56581732855912,14.491021660698934],[104.57250515408012,14.493734130859508],[104.57681667751754,14.492398613823966],[104.57861083984395,14.49099344889342],[104.5808173285591,14.49070475260433],[104.58339491102444,14.488572726779722],[104.5858851453996,14.487822943793546]]]]},"properties":{"id":"10341"}}]}