{"type":"FeatureCollection","features":[{"type":"Feature","geometry":{"type":"MultiPolygon","coordinates":[[[[80.60576953125016,23.193140625000083],[80.6055000000002,23.192750000000103],[80.60494921875008,23.19281250000003],[80.60505078125018,23.193699218750098],[80.60519921875007,23.193925781250144],[80.6053554687501,23.194344726562548],[80.60605078125022,23.194949218750054],[80.60632421875007,23.195050781250146],[80.60655078125004,23.195199218750133],[80.60697656250002,23.19535742187513],[80.60744921875008,23.195925781250068],[80.60757031250003,23.19654882812496],[80.60788281250015,23.19675292968755],[80.60842578125019,23.196300781250017],[80.6088437500002,23.196144531250056],[80.60955078125019,23.1953310546875],[80.60939843750012,23.194912109375096],[80.60844921875005,23.194050781250013],[80.60742578125004,23.19394921875009],[80.60719921875008,23.193800781250204],[80.60692578125006,23.193699218750098],[80.60669921875021,23.193550781250025],[80.60642578125001,23.193449218750203],[80.60619921875005,23.19330078125013],[80.60576953125016,23.193140625000083]]]]},"properties":{"id":"31097"}}]}