{"type":"FeatureCollection","features":[{"type":"Feature","geometry":{"type":"MultiPolygon","coordinates":[[[[108.00372609806706,14.77557915945303],[108.00372609806706,14.7747720356479],[108.00399812668277,14.774772070277976],[108.00399812668277,14.773692916527168],[108.00291896671595,14.772074314504266],[108.00237943339098,14.77180671988279],[108.00237943339098,14.770460087312529],[108.00265146079417,14.770188098608884],[108.00291896671595,14.769920582886328],[108.00319099460418,14.769648510064457],[108.0034585010022,14.76911342080409],[108.0034585010022,14.768841479459454],[108.00319099460418,14.768573928532177],[108.00237943339098,14.76857386366477],[108.00103277472473,14.769113449594926],[108.00103277472473,14.7712671870879],[108.00130036964268,14.772074269642374],[108.00211192795436,14.772885808280805],[108.00237943339098,14.773153364903706],[108.00237943339098,14.77396048449576],[108.00211192795436,14.774232464863132],[108.00183990103622,14.774232512455825],[108.00183990103622,14.775311594790338],[108.00211192795436,14.775851175043343],[108.00319099460418,14.776658229983738],[108.00399812668277,14.77719781924678],[108.00507720007917,14.778272447122973],[108.00507720007917,14.779351544055231],[108.0042656337906,14.780698229383376],[108.00399812668277,14.780970230690542],[108.00372609806706,14.781237714316276],[108.00211192795436,14.782316861706747],[108.00130036964268,14.782856412395944],[108.00076527048284,14.783123924893431],[107.99995371579152,14.783123986841389],[107.99995371579152,14.783663478744984],[108.00076527048284,14.783663500520092],[108.00211192795436,14.78339591697491],[108.00265146079417,14.783123935394983],[108.00291896671595,14.78285638074837],[108.00291896671595,14.782584413110087],[108.00319099460418,14.78204932655379],[108.0034585010022,14.781777322165354],[108.00399812668277,14.781237741229589],[108.00507720007917,14.780698157257774],[108.00534470813906,14.780430694895301],[108.00588433719739,14.778812024007394],[108.00588433719739,14.77800488993448],[108.00507720007917,14.777197810838302],[108.0042656337906,14.776386287004044],[108.00399812668277,14.776118733157048],[108.00372609806706,14.77557915945303]]]]},"properties":{"id":"39220"}}]}