{"type":"FeatureCollection","features":[{"type":"Feature","geometry":{"type":"MultiPolygon","coordinates":[[[[82.05446194118909,24.721235080295386],[82.05687757703973,24.720841132270337],[82.05902235243062,24.7217332288957],[82.06022867838524,24.723083326551958],[82.06250637478277,24.72294755723776],[82.06388251410598,24.723441331651827],[82.06592352973067,24.723319668240308],[82.06585042317695,24.719573771159162],[82.06786838107624,24.717770758735185],[82.06770616319452,24.7150491672097],[82.06832546657964,24.714235602485047],[82.0647143554688,24.713896687825866],[82.06407918294272,24.713551500108963],[82.06417819552931,24.711889750163053],[82.0653573947483,24.71072770860505],[82.06723008897572,24.710007798937],[82.06749213324636,24.70939307318821],[82.06686808268208,24.708835483127416],[82.0621647135417,24.709115837945262],[82.06138102213541,24.707507798936916],[82.06111897786442,24.70633751763269],[82.06194566514759,24.705598890516782],[82.06228990342888,24.703754475911822],[82.06333428276892,24.702821282281278],[82.06706990559903,24.702470703125258],[82.06760036892351,24.70075310601156],[82.07092203776043,24.6991064114044],[82.07069444444446,24.69847222222252],[82.0694382052952,24.6986024644644],[82.06814873589397,24.699303114149615],[82.06593112521713,24.699819098578843],[82.06416164822045,24.699713643392215],[82.06225911458316,24.70022321913008],[82.06063707139762,24.699641181098528],[82.05917453341996,24.7008411322702],[82.05749213324648,24.701103312174922],[82.05695231119788,24.701469828288026],[82.05784939236113,24.702271389431715],[82.05767591688377,24.705181850857528],[82.05469007703974,24.70592624240477],[82.05417453342014,24.70685146755673],[82.056179063585,24.70722564697307],[82.05807427300348,24.70954725477455],[82.05794243706592,24.711758524577107],[82.05864637586788,24.71315734863306],[82.05858859591993,24.71412828233531],[82.05655368381079,24.714508090549344],[82.053394232856,24.71383307562982],[82.0514227973089,24.71499220106368],[82.04973008897574,24.71360331217481],[82.04794664171007,24.71270657009572],[82.0457288953991,24.713441128201268],[82.04640475802935,24.714684821235153],[82.04606160481754,24.716615532769367],[82.04462402343748,24.719880676269824],[82.04475830078113,24.722133890788086],[82.04531494140608,24.72368516710091],[82.04695231119811,24.72443662855389],[82.05018432617189,24.72673017713791],[82.05152303059882,24.72665039062541],[82.05350368923612,24.725939704047548],[82.05582546657976,24.72436350504593],[82.05435384114563,24.723048536512835],[82.05446194118909,24.721235080295386]]]]},"properties":{"id":"9546"}}]}