{"type":"FeatureCollection","features":[{"type":"Feature","geometry":{"type":"MultiPolygon","coordinates":[[[[76.80656640625003,22.991135742187637],[76.80707421875022,22.990688476562568],[76.80764062500018,22.990980468750152],[76.80987890625002,22.990934570312476],[76.81006250000021,22.99018652343763],[76.8107382812502,22.989381835937436],[76.81037109375004,22.988840820312603],[76.80943750000009,22.988688476562643],[76.80918750000009,22.988561523437554],[76.8089375000001,22.98843847656265],[76.80868750000022,22.988311523437474],[76.80718750000025,22.98818847656257],[76.80692968750012,22.988055664062543],[76.8066875000001,22.98756152343769],[76.80594140625001,22.986669921875063],[76.80622656250003,22.98611230468761],[76.80693750000009,22.985938476562566],[76.80758984375015,22.98544531250009],[76.80806250000009,22.985688476562572],[76.80877734375017,22.985811523437576],[76.80943750000009,22.985311523437687],[76.80968750000008,22.9851884765625],[76.81018750000007,22.984811523437614],[76.81118750000022,22.984688476562525],[76.81268750000007,22.983311523437493],[76.81343749999994,22.983188476562674],[76.81356250000007,22.983081054687446],[76.81268750000007,22.982938476562495],[76.81221484375001,22.98262011718755],[76.81244531250005,22.982178710937504],[76.81293750000006,22.981938476562632],[76.81306250000009,22.98187109375006],[76.81268750000007,22.981688476562724],[76.81243750000007,22.981561523437463],[76.81168750000009,22.98143847656256],[76.8114375000001,22.98131152343757],[76.81043750000006,22.98118847656265],[76.81018750000007,22.98106152343749],[76.80993750000025,22.98093847656267],[76.80843750000005,22.97956152343764],[76.80793750000007,22.97943847656272],[76.80761718750014,22.9792744140626],[76.80743750000008,22.97859765625006],[76.80794921875011,22.977926757812625],[76.80843750000005,22.977688476562605],[76.80856250000008,22.977513671875172],[76.80825000000007,22.97700000000019],[76.80731250000005,22.977061523437456],[76.80718750000025,22.977563476562565],[76.80680078125019,22.978073242187477],[76.80631250000008,22.978311523437597],[76.80606250000025,22.978438476562488],[76.8055625000001,22.978561523437676],[76.80543750000007,22.978951171875096],[76.80568750000006,22.9794365234376],[76.80581250000009,22.9799179687501],[76.80496875000009,22.9809199218751],[76.80381250000025,22.98106152343749],[76.80356250000008,22.98118847656265],[76.80308203125006,22.98131152343757],[76.80215625000008,22.98053417968758],[76.80067968749998,22.980563476562722],[76.80043750000024,22.98106347656261],[76.79956250000018,22.982061523437622],[76.79943750000021,22.982813476562725],[76.79906250000019,22.983311523437493],[76.79893750000005,22.983813476562602],[76.79881250000008,22.984061523437646],[76.79868750000006,22.98445117187498],[76.79893750000005,22.98493652343747],[76.79906250000019,22.9851884765625],[76.79943750000021,22.98568652343762],[76.79956250000018,22.985938476562566],[76.79993750000008,22.98643652343769],[76.80006250000005,22.98668847656272],[76.80043750000024,22.987186523437472],[76.80056250000021,22.987438476562502],[76.8006874999999,22.98768652343763],[76.80081250000003,22.98843847656265],[76.80093750000006,22.988686523437508],[76.80106250000009,22.989188476562532],[76.80118750000005,22.989436523437476],[76.80131250000008,22.989688476562506],[76.80143750000022,22.989936523437635],[76.80156250000024,22.990438476562574],[76.80168750000021,22.990686523437518],[76.80181250000007,22.99143847656262],[76.80214062500002,22.991921875000074],[76.80356250000008,22.9920615234376],[76.80406250000007,22.992438476562498],[76.80531250000021,22.992561523437672],[76.80558593750024,22.992701171875197],[76.80641406250007,22.99268457031259],[76.80656640625003,22.991135742187637]]]]},"properties":{"id":"19955"}}]}