{"type":"FeatureCollection","features":[{"type":"Feature","geometry":{"type":"MultiPolygon","coordinates":[[[[83.28478108723957,24.621705356174388],[83.28473931206602,24.61992770724872],[83.28538411458342,24.619372151692943],[83.28765624999997,24.618688015408253],[83.28680555555556,24.617916666667014],[83.28526746961793,24.618045213487676],[83.2828675672744,24.618932054308104],[83.28213134765636,24.62058173285618],[83.28158989800349,24.62053822835307],[83.28178575303818,24.618102789985116],[83.27967285156242,24.61778811984628],[83.2788576931425,24.619471672906087],[83.27890597873264,24.620072292752027],[83.28114095052072,24.621997850206398],[83.28478108723957,24.621705356174388]]]]},"properties":{"id":"19270"}}]}