{"type":"FeatureCollection","features":[{"type":"Feature","geometry":{"type":"MultiPolygon","coordinates":[[[[76.80415879991361,25.080563151041858],[76.80230333116353,25.079267035590362],[76.80067884657169,25.078765733507055],[76.80041666666696,25.07847222222226],[76.79886542426246,25.078633897569503],[76.7988713921442,25.07959798177086],[76.79803439670175,25.079143337673656],[76.79735337999145,25.079183485243092],[76.79835069444462,25.081963433159757],[76.8012717013892,25.08457302517371],[76.80373521592927,25.08413519965289],[76.80477511935797,25.08357042100708],[76.80580783420177,25.081319986979153],[76.80415879991361,25.080563151041858]]]]},"properties":{"id":"19121"}}]}