{"type":"FeatureCollection","features":[{"type":"Feature","geometry":{"type":"MultiPolygon","coordinates":[[[[81.65686943901889,23.171000162760592],[81.65803453233482,23.169696180555718],[81.65946546766477,23.169781358507066],[81.66137369791662,23.167835693359493],[81.66165879991311,23.167214355468943],[81.66251085069447,23.166453179253637],[81.66323092990476,23.164120958116527],[81.65971435546876,23.1591745334203],[81.65924546983504,23.157655843099235],[81.65692097981767,23.15557902018257],[81.65604912651915,23.15367933485264],[81.65615112304667,23.15196723090301],[81.65569444444444,23.15069444444474],[81.6532918294271,23.152708197699994],[81.6517682562932,23.15441351996543],[81.65036743164066,23.154992133246637],[81.64902777777755,23.154056396484606],[81.64774454752589,23.15495266384565],[81.64630343967016,23.155288085937613],[81.6447995334203,23.156105278863023],[81.64439887152778,23.157402750651173],[81.64479573567704,23.15850857204873],[81.64918782552078,23.159745822482833],[81.6520213487411,23.15957695855049],[81.65342312282988,23.160338677300516],[81.654158799913,23.16321248372411],[81.6525192599826,23.16360324435773],[81.64791666666659,23.16261990017388],[81.64427476671014,23.163325466580062],[81.64114244249114,23.161715223524467],[81.63992445203988,23.16256605360259],[81.63945231119791,23.16364895290819],[81.64127577039929,23.16454603407132],[81.64193657769104,23.165285644531394],[81.64446397569426,23.166698133680867],[81.6484487575955,23.167540825738072],[81.65019110785605,23.168757866753594],[81.65149943033853,23.167507866753724],[81.65328219943572,23.168147515191137],[81.65390950520836,23.16951429579015],[81.6538990614147,23.170308973524442],[81.65686943901889,23.171000162760592]]]]},"properties":{"id":"9693"}}]}