{"type":"FeatureCollection","features":[{"type":"Feature","geometry":{"type":"MultiPolygon","coordinates":[[[[107.67980109320658,12.415307345920539],[107.68099358452585,12.414316677517675],[107.6817677815744,12.41227593315999],[107.68375888400513,12.41141248914957],[107.68361484103619,12.409997558594],[107.68267110188722,12.409166666667005],[107.68162536620989,12.409473470052546],[107.68039055718216,12.410960286458632],[107.6800216335711,12.4142491319448],[107.67883999294597,12.414570583767656],[107.67796325683511,12.413669976128958],[107.67643466525513,12.413207194010653],[107.67615607367512,12.415869683160068],[107.67732713487325,12.419119466146157],[107.67843417697364,12.41900661892393],[107.67827195909203,12.417415364583633],[107.67874125162675,12.417025282118374],[107.67980109320658,12.415307345920539]]]]},"properties":{"id":"22928"}}]}