{"type":"FeatureCollection","features":[{"type":"Feature","geometry":{"type":"MultiPolygon","coordinates":[[[[107.66467386344102,14.00644668046222],[107.66433495055415,14.006892530353335],[107.66450892337524,14.007713026719534],[107.66533380534945,14.00787800017078],[107.66571282553407,14.007708601088266],[107.66588228277287,14.007338442274936],[107.66583775055665,14.006749862971237],[107.66515097978426,14.006803359358946],[107.66467386344102,14.00644668046222]]],[[[107.66467386344102,14.00644668046222],[107.66533380534945,14.006352981087334],[107.66676967675274,14.007342932659958],[107.66759908197454,14.007169008698659],[107.66776854037305,14.006803372855122],[107.66774622894684,14.00624597029527],[107.66722891148551,14.00569301853696],[107.66705502727658,14.00517134430232],[107.6661186739885,14.004399956419261],[107.66651991624857,14.0043553681325],[107.66705954374815,14.003936135191532],[107.66734932071888,14.003030935460995],[107.66802715432378,14.003030983238299],[107.66842397319765,14.002758959273137],[107.66903044867365,14.00275896881164],[107.67108158137813,14.003566074203228],[107.67163901299645,14.00354825368613],[107.67245054728255,14.003129061512588],[107.67261558242987,14.00275899928116],[107.67259769684263,14.002206069956076],[107.67244160449413,14.00193848101538],[107.67201804184734,14.001769006722014],[107.67208046061413,14.001233949725979],[107.6719065733467,14.00085939772234],[107.6713848218709,14.000631947025175],[107.67217856018061,14.000582901628588],[107.67245054728255,14.000431327761378],[107.67261558242987,14.000065709148748],[107.67259769684263,13.999508271692937],[107.67234802139231,13.99922287156975],[107.67234802139231,13.998174994597923],[107.67271810841947,13.998005602196532],[107.67288756996241,13.997639917114768],[107.67288756996241,13.99725646470744],[107.67369468167041,13.995753723222],[107.67365448410924,13.995004589991417],[107.67396667026598,13.994402630461517],[107.67379278181049,13.993582157584964],[107.67342711958702,13.993296741121622],[107.67342711958702,13.992404951425153],[107.6736946816704,13.991981305904929],[107.6736946816704,13.991597871443531],[107.67406477050271,13.991267859052517],[107.67423423287218,13.99079075911201],[107.67460432242758,13.990460749809388],[107.67543366086687,13.989016051514009],[107.67595090337616,13.98884207718781],[107.67628983053332,13.988133116290445],[107.67704790152182,13.987397349681086],[107.67738673969166,13.987397344181813],[107.67798429188846,13.988039447795806],[107.67873342453228,13.98820895805339],[107.67924173020847,13.988668194440468],[107.67990613329638,13.988663792978677],[107.6803431677682,13.98775856896092],[107.68043232722128,13.987219032961644],[107.68034759412336,13.987022792448034],[107.67989276391873,13.986946982012354],[107.67945130381777,13.986304903818544],[107.67799766117385,13.98560036301788],[107.67701222010717,13.985600352520265],[107.67661087225909,13.985872315028894],[107.67564323158872,13.985979334185423],[107.674746956538,13.986848873840975],[107.67457758418581,13.98733046795894],[107.67411382063413,13.987856660933456],[107.67339586488386,13.9881955198845],[107.67323091960152,13.98867713186005],[107.6728608318869,13.989007133163328],[107.67196004931544,13.990532124226679],[107.67161227504187,13.991852011571565],[107.67054203633879,13.991798478730777],[107.67016300951536,13.991972441216788],[107.6699935496455,13.992788399965715],[107.67034141220937,13.993234349701796],[107.67028784622381,13.993970114501675],[107.67061782369984,13.99432684850214],[107.67134471497695,13.994407061283862],[107.67134471497695,13.995686841131782],[107.67097011325575,13.99601234791254],[107.6705331839428,13.99692200264735],[107.6705331839428,13.997573033231527],[107.67026562492426,13.998268630596463],[107.66989545085583,13.998438112951435],[107.66908392408494,13.999245165156783],[107.66891898138007,13.99999876206626],[107.66864690742969,14.000422441759468],[107.66757677056204,14.000422387326031],[107.66717986257807,14.00069440844725],[107.66612310011561,14.000712278386462],[107.6658332341051,14.000961970705255],[107.66531601056332,14.00098426745387],[107.66394708008073,14.001769058565339],[107.66334061579155,14.001769030673545],[107.6631845286839,14.001648693736012],[107.66316221762887,14.000908472710172],[107.66345650691309,14.00033321585536],[107.66345650691309,13.999882885371417],[107.66328262508497,13.999512748765731],[107.66290803431974,13.999343339388275],[107.66235071068573,13.999365552458434],[107.66158816371002,14.000034471908782],[107.66128945037343,13.999882837896264],[107.66019251491478,13.999905126303515],[107.65992496593809,14.000056785571036],[107.65975551236562,14.00042240324941],[107.6599115975288,14.001202776960398],[107.6597555123656,14.001572857208373],[107.65920704714729,14.001523797075327],[107.65884583028603,14.001760146739716],[107.65867637737828,14.002130205599876],[107.65875216147498,14.00294627117331],[107.65857385661324,14.003022021031946],[107.65808329302334,14.004078866233941],[107.6575259791616,14.003534830202021],[107.6575259791616,14.001769072948324],[107.65698637034977,14.00084159017383],[107.65696405979732,14.000047799656853],[107.65671882449196,13.999762455338583],[107.65671882449196,13.999164927916375],[107.65654494692181,13.99879486128257],[107.65608121372189,13.998536159381926],[107.65552381359316,13.998536186674478],[107.6548237004003,13.9979966746972],[107.65399433368046,13.9980189737187],[107.65365543395095,13.998340025542717],[107.65360196153715,13.998175002404615],[107.65402106992424,13.9976398874036],[107.65402106992424,13.995842887199096],[107.65384719406104,13.995468301207977],[107.65302668212209,13.995303345020522],[107.65264767941648,13.995472777688706],[107.6523087813486,13.996453764115657],[107.65102906555089,13.997630976420925],[107.65059207757298,13.998536166670949],[107.65061429728387,13.999075764218363],[107.64925429170809,13.999075767736763],[107.64887529421101,13.999245206956472],[107.64870584745366,13.999615264213608],[107.64872815733524,14.000168252820243],[107.64887972006056,14.000435796648256],[107.64951297857486,14.000725609310736],[107.64978494327774,14.001505984709192],[107.64887529421101,14.002210460691293],[107.64870584745366,14.00312018638442],[107.6483179087098,14.003387696137121],[107.64779620196491,14.00341003563895],[107.64725661227239,14.003829162275178],[107.647087166515,14.004194802370417],[107.647087166515,14.004912711811295],[107.64725661227239,14.005273934751521],[107.64664575900221,14.005349670695153],[107.64592778460053,14.005006392259443],[107.64548195315956,14.00500634702753],[107.64456337648414,14.005443382948188],[107.64412188271343,14.00608102531478],[107.6441976627925,14.006718669405174],[107.64319436875977,14.007699685119162],[107.64267709751563,14.007869066268576],[107.6422936833684,14.008921403735645],[107.64159802967121,14.009220188463555],[107.64142858741279,14.009585851632076],[107.64142858741278,14.010303808225569],[107.64160245540324,14.01067837140802],[107.64224463891196,14.011115348596759],[107.64267267176623,14.011115354126355],[107.64223569710593,14.011744084308335],[107.6422580064609,14.012296968635981],[107.64277527691361,14.012849888753063],[107.64277527691361,14.014062798570516],[107.64250765458956,14.014526563867152],[107.64261920149339,14.015440651691751],[107.6430561767655,14.015694830609126],[107.64377405332262,14.015694828096642],[107.64495573570218,14.014985851337293],[107.64520096049868,14.015275677042514],[107.64547301124789,14.015815189694905],[107.64547301124789,14.01838809087682],[107.64564688180505,14.018762660923358],[107.64600808130463,14.0190480832661],[107.64603039096674,14.019574206283338],[107.64628013285483,14.01985960283739],[107.64630235221648,14.020648865094811],[107.64681963030313,14.02120630191127],[107.6469935017143,14.021728006353126],[107.64735921913585,14.022013344504494],[107.64753309088914,14.022535049849182],[107.64833127655494,14.02270010380651],[107.6478942928734,14.023712308409614],[107.64735921913585,14.024407907991268],[107.64743942593614,14.025049985255395],[107.64900012126019,14.025108011257977],[107.64981167911162,14.024416800900585],[107.65007479237268,14.02388176987709],[107.65022635584182,14.024153779262347],[107.6506009293275,14.024318693451926],[107.65143037612354,14.024149256137154],[107.65159530834534,14.023779195557088],[107.65159530834534,14.022432503276416],[107.65223742493238,14.02226309773533],[107.65240687387,14.021892962468721],[107.65238456368941,14.021340064057082],[107.6520591242975,14.02099671554862],[107.6521349065694,14.020367994101784],[107.65186736543589,14.019975537780036],[107.65184505529913,14.018914315023652],[107.65151952622236,14.0185709745007],[107.65196545779962,14.018218640574915],[107.6521349065694,14.017848604779873],[107.65211259641092,14.017028085421206],[107.65196094157585,14.016760531591862],[107.65090414725469,14.016261125007874],[107.65117620366031,14.01596683546838],[107.65169791683122,14.01579289940751],[107.65186736543589,14.015427307017484],[107.65184505529913,14.013523229029397],[107.65169340061185,14.013255679534588],[107.651158319466,14.013001527982649],[107.65132776773764,14.012640379932153],[107.65132776773764,14.01174402334378],[107.65115389357973,14.01136948233443],[107.65077931933943,14.011204479591134],[107.64998112655189,14.011360598884828],[107.64998112655189,14.01099941306502],[107.65024866584702,14.010575760016675],[107.65052072160296,14.009496698666236],[107.65187621723156,14.009117619324538],[107.6521349065694,14.00868960529202],[107.6521349065694,14.007699638276396],[107.65196094157585,14.007325114563685],[107.65114052559709,14.007160084292442],[107.65062323936316,14.007427639666068],[107.65106022739067,14.006531411063458],[107.65106022739067,14.006147896304466],[107.65169791683122,14.005550348419392],[107.65198776794617,14.00491713760135],[107.65306236043041,14.004377604961366],[107.65365543395095,14.004301819423452],[107.65409685273751,14.004765589974365],[107.65420840435407,14.006009684163072],[107.65490399970703,14.006263854784873],[107.65506008211617,14.00659382440643],[107.65490399970703,14.006892546995367],[107.65493073603935,14.007409827390777],[107.6541057949302,14.00742765266754],[107.65372679073558,14.007601556921967],[107.65328537254368,14.008328408348117],[107.65339683350575,14.008881324512243],[107.65427081908398,14.009871203281943],[107.65492631009226,14.010036261650674],[107.65492631009226,14.010589154685055],[107.6554346621947,14.01121789656964],[107.65580915245805,14.011382893820917],[107.65661630445678,14.011311540029004],[107.65706667028833,14.011654902459098],[107.65762407354546,14.011632580115196],[107.65789604627898,14.011480991083628],[107.65806549870592,14.011115333055443],[107.65806549870592,14.010392989066446],[107.65789162028415,14.010022817217784],[107.6572584327787,14.009465424846356],[107.6572584327787,14.008306105077315],[107.65745010507653,14.008051964571813],[107.65766860443294,14.008043048646165],[107.65786930965825,14.00827041206597],[107.65798077247939,14.008970510228487],[107.65841777220912,14.009229157538178],[107.65931408449285,14.00915335343539],[107.65976445474237,14.009496704195723],[107.66058932250206,14.00932722525932],[107.66075877658803,14.008506776748563],[107.66021925176132,14.00757927713796],[107.66019251491478,14.00682569952094],[107.66058932250206,14.006629480814473],[107.66075877658803,14.005813485668988],[107.66058489646389,14.005438895561184],[107.66026387339613,14.005305130931186],[107.66049122706076,14.004912739726443],[107.6608791829929,14.004645128999117],[107.66139639820146,14.004622834712318],[107.66175319235401,14.004377594274612],[107.6623551367523,14.005019753453208],[107.66307306375492,14.00537642775257],[107.66416558459558,14.005380948615366],[107.66467386344102,14.00644668046222]],[[107.64992313866344,14.011467617551835],[107.64993208072019,14.011476501231805],[107.64991428693077,14.011498811599942],[107.64992313866344,14.011467617551835]]]]},"properties":{"id":"39145"}}]}