{"type":"FeatureCollection","features":[{"type":"Feature","geometry":{"type":"MultiPolygon","coordinates":[[[[79.97664550781283,25.408563368055667],[79.9758257378476,25.40777560763894],[79.9777804904518,25.407502712673647],[79.97977376302143,25.40665364583343],[79.9805528428823,25.40497016059041],[79.97917209201452,25.40364312065975],[79.98153754340333,25.403336046007027],[79.98194444444502,25.40417534722222],[79.98252549913238,25.404163411458555],[79.98249077691028,25.40246907552087],[79.98082465277841,25.402503255208472],[79.98153645833398,25.399858398437544],[79.98110839843801,25.399447157118146],[79.98111490885455,25.39911404079865],[79.9828379991325,25.397458224826494],[79.98444173177128,25.39668023003479],[79.98471950954931,25.396142578125122],[79.98440375434089,25.39416937934041],[79.98333224826442,25.395284288194617],[79.98279188368113,25.394169921875047],[79.98228569878509,25.393891601562558],[79.98194715711847,25.39528049045144],[79.98154242621561,25.395669487847243],[79.97974555121587,25.395208875868107],[79.97916558159787,25.396679687500054],[79.97888943142422,25.394702148437517],[79.97777506510474,25.394724934895834],[79.97638020833378,25.39389702690984],[79.97625000000048,25.392361111111114],[79.97554361979226,25.392498914930584],[79.97479166666702,25.394048394097254],[79.97562065972298,25.39604600694456],[79.97713650173651,25.396537543402857],[79.97777506510474,25.397449544270927],[79.97472330729224,25.39804524739597],[79.97444715711865,25.398560655381957],[79.9770252821186,25.399198133680642],[79.97749728732677,25.399773763021003],[79.97686631944478,25.40223470052092],[79.97554687500056,25.4022081163195],[79.97608127170187,25.403886176215337],[79.97500271267418,25.403330620659744],[79.97369791666702,25.40305826822926],[79.97503309461862,25.40502875434035],[79.97640028211853,25.4056917317709],[79.97637803819501,25.406787109375074],[79.97416395399344,25.407219509548696],[79.97303873697965,25.407916666666694],[79.97208333333393,25.40742404513894],[79.97125000000042,25.407853732639012],[79.96984863281287,25.407131618923614],[79.96888888888944,25.407782660590314],[79.9658029513894,25.40551812065972],[79.96501844618129,25.403900824652823],[79.96393229166725,25.40279459635427],[79.96318413628515,25.402431640625053],[79.96278049045188,25.40179578993056],[79.96380099826453,25.401300998263906],[79.96417480468793,25.400530598958483],[79.96416341145871,25.39997450086824],[79.96218532986146,25.3999962022571],[79.96222710503511,25.397953016493148],[79.96417480468793,25.397213541666716],[79.96416341145871,25.39664767795145],[79.96245930989645,25.395836046007034],[79.96137532552123,25.396964518229197],[79.9613595920143,25.39962239583342],[79.96166341145894,25.401125217013984],[79.96053059895874,25.401674804687588],[79.95758951822958,25.401673177083396],[79.95861707899363,25.403189019097354],[79.95861382378533,25.40389160156262],[79.95801378038234,25.405056423611214],[79.95710340711858,25.40593098958348],[79.95861382378533,25.40666395399309],[79.95944173177142,25.407414279514015],[79.95833062066029,25.407775065104303],[79.95778049045171,25.408204752604192],[79.95946940104213,25.40860839843758],[79.9619151475699,25.40695041232641],[79.96390842013946,25.40639214409744],[79.96529459635454,25.407766927083472],[79.96388509114624,25.409121093750088],[79.96389214409763,25.40946397569452],[79.9647222222226,25.410261501736173],[79.96499728732672,25.411669379340452],[79.96547743055615,25.41194173177084],[79.96697157118118,25.410807834201407],[79.96824164496573,25.41019151475703],[79.97139160156289,25.40916937934037],[79.97248155382002,25.408607855902844],[79.97664550781283,25.408563368055667]]]]},"properties":{"id":"9478"}}]}