{"type":"FeatureCollection","features":[{"type":"Feature","geometry":{"type":"MultiPolygon","coordinates":[[[[79.8300933159725,23.799535861545593],[79.82986111111134,23.79847222222267],[79.82871744791694,23.79881659613757],[79.82714246961805,23.800482313368462],[79.82590549045156,23.80103407118115],[79.82526746961824,23.801934136285112],[79.82500271267381,23.803099093967433],[79.82387858072937,23.803600802951834],[79.82352864583342,23.804384494358175],[79.82193413628491,23.804989691840703],[79.82162109375034,23.805690782335617],[79.82056586371536,23.80660007053004],[79.82134711371552,23.807929416233065],[79.82464246961817,23.80810492621579],[79.82547146267385,23.807252739800845],[79.82751030815982,23.806121419271236],[79.82776746961835,23.804434136285195],[79.82997884114613,23.800957845052537],[79.8300933159725,23.799535861545593]]]]},"properties":{"id":"19526"}}]}