{"type":"FeatureCollection","features":[{"type":"Feature","geometry":{"type":"MultiPolygon","coordinates":[[[[77.19987358940969,24.777393018934987],[77.200597466363,24.776341010200284],[77.20197089301209,24.77639545016872],[77.20281141493061,24.778103773329605],[77.20638359917521,24.777945014106592],[77.20499471028634,24.777505289714142],[77.20248426649303,24.7758135647249],[77.20251166449665,24.775123002794672],[77.20427842881949,24.77470216539224],[77.20471693250866,24.77405612521764],[77.20329915364587,24.773607262506104],[77.2023954264321,24.772631818983797],[77.20008992513007,24.774218241374314],[77.19966593424456,24.77643881903802],[77.19836995442697,24.777050493028938],[77.19539550781255,24.776932593452088],[77.19453898111985,24.775224592421438],[77.19514065212675,24.77350784301818],[77.19613661024309,24.774193183051693],[77.19707058376727,24.774156155056986],[77.19693657769082,24.77077507866798],[77.19423353407123,24.769499359131572],[77.19309990776915,24.768719346788686],[77.19078342013873,24.768277079264834],[77.19014906141487,24.766933034261626],[77.18969767252602,24.76695092095332],[77.18930555555559,24.76652777777842],[77.18748521592889,24.767238142226034],[77.1857857259113,24.767240634494826],[77.18462754991307,24.769694603814486],[77.18473605685782,24.772431318495578],[77.1832908799914,24.77420696682458],[77.18263373480895,24.775599399143275],[77.18091064453111,24.775531090631006],[77.1786844889323,24.774224700928457],[77.17826660156246,24.772470041911347],[77.17716634114586,24.771116400825193],[77.17519992404502,24.772104509142224],[77.17193915473072,24.77249471028695],[77.17111640082473,24.77306084526967],[77.17010009765627,24.773382636176834],[77.1695324707031,24.774585249159543],[77.16917195638027,24.776167026096445],[77.16972751193558,24.77721693250919],[77.17005805121536,24.778604668511917],[77.17308105468734,24.776917928060428],[77.17466864691826,24.77698086208828],[77.17533854166689,24.7766264173724],[77.18003594292529,24.777365044488405],[77.18403822157129,24.776560516357975],[77.18568305121508,24.774785376655274],[77.18749023437508,24.77393247816353],[77.18822618272563,24.773138139513392],[77.18866360134561,24.771756676568643],[77.18950032552087,24.771394178602947],[77.1911273871527,24.773060472276924],[77.19107720269116,24.77432795206765],[77.19402981228305,24.777685055203392],[77.19472941080718,24.77948165893602],[77.19544881184882,24.78014824761334],[77.19610622829865,24.779438747830426],[77.19730889214415,24.779435509576217],[77.2002830674912,24.77861640082517],[77.20082804361985,24.778277418349035],[77.19987358940969,24.777393018934987]]]]},"properties":{"id":"9540"}}]}