{"type":"FeatureCollection","features":[{"type":"Feature","geometry":{"type":"MultiPolygon","coordinates":[[[[77.18594140625001,26.509308593750077],[77.18575000000018,26.509000000000228],[77.1845742187501,26.509074218750044],[77.18453515625023,26.5096875],[77.18550390625009,26.509837890625107],[77.18569140625013,26.51018359375017],[77.18580859375018,26.510441406250052],[77.1866914062501,26.511433593749942],[77.18680859375016,26.512941406250135],[77.1871914062501,26.51343359375005],[77.18730859375015,26.513691406250103],[77.18744140625026,26.513933593750124],[77.187671875,26.514432617187623],[77.18804687500014,26.514455078125096],[77.18819140625001,26.51419140625009],[77.18830859375018,26.513683593749946],[77.18905859375016,26.512802734375086],[77.18889843750011,26.51212792968758],[77.18844140625012,26.51180859375006],[77.18773828125009,26.511645507812688],[77.18755859374997,26.51131640625006],[77.18744140625026,26.511058593750008],[77.18605859375018,26.509566406250045],[77.18594140625001,26.509308593750077]]]]},"properties":{"id":"31198"}}]}