{"type":"FeatureCollection","features":[{"type":"Feature","geometry":{"type":"MultiPolygon","coordinates":[[[[79.37832058376759,24.936931597392302],[79.37942382812506,24.936453124152877],[79.37947455512196,24.93595453050463],[79.37855794270862,24.93485112084339],[79.37512830946204,24.93665381961455],[79.37396592881944,24.935954288907226],[79.3732739257812,24.935121358236216],[79.37169976128487,24.934960895115026],[79.37068386501741,24.93554270850352],[79.36958333333357,24.93458333333389],[79.36890163845507,24.93514951070199],[79.3697349717884,24.93665381961455],[79.3699872504342,24.939179513719864],[79.37076904296904,24.940812628004736],[79.37249240451396,24.940988273621286],[79.37378390842017,24.93917023128985],[79.37529052734376,24.938901735942196],[79.37832058376759,24.936931597392302]]]]},"properties":{"id":"19176"}}]}