{"type":"FeatureCollection","features":[{"type":"Feature","geometry":{"type":"MultiPolygon","coordinates":[[[[80.31076778835708,23.72248955620691],[80.31179555257145,23.720898030599244],[80.31515584309906,23.72188178168429],[80.3158074612085,23.720650363498464],[80.3136164008246,23.72023206922769],[80.31416137695302,23.71721693250882],[80.31516272650791,23.714922281901238],[80.31404157850451,23.714393174913326],[80.31374999999989,23.71347222222242],[80.31277248806421,23.713605821397792],[80.31222751193545,23.71444973415818],[80.31155259874114,23.71476820204019],[80.30980187310095,23.716657714843933],[80.30797295464393,23.71700697157138],[80.30836113823753,23.71811442057303],[80.30890072292729,23.721501600477595],[80.31076778835708,23.72248955620691]]]]},"properties":{"id":"19564"}}]}