{"type":"FeatureCollection","features":[{"type":"Feature","geometry":{"type":"MultiPolygon","coordinates":[[[[105.43433300781257,14.684996093750144],[105.43487500000023,14.684710937500057],[105.43531054687494,14.684941406250104],[105.43556445312524,14.685058593750156],[105.43581054687505,14.685191406250084],[105.43606445312517,14.685308593749966],[105.43653710937517,14.685558593750045],[105.43843945312497,14.685441406249993],[105.43868554687495,14.685308593749966],[105.43910937500002,14.685109375000124],[105.43942089843765,14.684449218750004],[105.43968554687521,14.684308593750004],[105.44118945312496,14.684191406249951],[105.44143554687494,14.684058593750109],[105.441939453125,14.683941406250042],[105.4424355468752,14.68355859374995],[105.44268945312515,14.683441406250068],[105.44316210937515,14.683191406249989],[105.44381445312516,14.683308593750041],[105.44428710937515,14.68355859374995],[105.44481054687495,14.68340234374999],[105.444689453125,14.683058593749962],[105.44443945312517,14.682585937500008],[105.44495019531249,14.681941406250218],[105.44556445312517,14.68205859375],[105.44581054687521,14.682191406249942],[105.44656445312503,14.68230859375008],[105.446875,14.682472656250027],[105.44718554687498,14.68230859375008],[105.44743945312516,14.682191406249942],[105.44793554687513,14.681808593750105],[105.44818945312502,14.681691406250039],[105.44860351562514,14.681472656250065],[105.44943945312517,14.682433593749948],[105.44956054687512,14.6826914062501],[105.44968945312516,14.682933593750107],[105.44981054687523,14.683691406250063],[105.45030859375007,14.684339843749925],[105.44995800781257,14.685003906250117],[105.45037500000015,14.685222656250104],[105.45087500000014,14.684960937500051],[105.45131054687513,14.685191406250084],[105.45181445312514,14.685308593749966],[105.45228710937519,14.685558593750045],[105.45256054687522,14.685343750000143],[105.45193945312516,14.684808593750077],[105.45143554687522,14.68469140625011],[105.45118945312518,14.684558593750182],[105.45070019531252,14.684328125000135],[105.45056054687498,14.684066406250082],[105.45043945312503,14.683308593750041],[105.45031054687522,14.68306640624995],[105.45018945312498,14.682558593750073],[105.45006054687511,14.682316406250067],[105.44993945312515,14.681808593750105],[105.44981054687523,14.681566406250099],[105.44968945312516,14.681308593749947],[105.44956054687512,14.68106640625011],[105.44942578125026,14.679941406250109],[105.44906054687513,14.680058593750076],[105.44881445312515,14.680191406250103],[105.4485605468752,14.68030859375007],[105.44831445312516,14.680441406250097],[105.44806054687521,14.680558593750064],[105.44762500000016,14.680789062500097],[105.44718945312516,14.680558593750064],[105.44693554687521,14.680441406250097],[105.44643945312512,14.680058593750076],[105.44568554687524,14.679941406250109],[105.44518945312515,14.679558593750102],[105.44493554687497,14.679441406250035],[105.444689453125,14.679308593750108],[105.44349707031259,14.679167968750022],[105.4433105468751,14.678816406250107],[105.44316210937515,14.67788671875006],[105.44268945312515,14.677558593750092],[105.44218554687521,14.67744140625021],[105.44080761718769,14.67619140625007],[105.44043945312515,14.67673828125011],[105.4405605468751,14.678191406249994],[105.44081054687521,14.678664062499962],[105.44029980468761,14.679308593750108],[105.43968554687521,14.679191406250055],[105.43943945312517,14.679058593749943],[105.43868554687495,14.678941406250061],[105.43843945312497,14.678808593750134],[105.4374921875,14.67866015625006],[105.43731054687518,14.678316406250033],[105.43718945312517,14.678058593750066],[105.43706054687507,14.67781640625006],[105.43693945312512,14.677058593750019],[105.4368105468752,14.676816406250097],[105.43668945312513,14.67655859375013],[105.43643945312502,14.676085937500162],[105.43656054687509,14.675683593750108],[105.43668945312513,14.675441406250101],[105.43692089843753,14.674949218750015],[105.4371855468751,14.674808593750015],[105.437439453125,14.674691406249948],[105.43768554687509,14.674558593750106],[105.43806054687494,14.674382812499928],[105.4379394531251,14.674058593749947],[105.43756054687495,14.673566406250217],[105.437439453125,14.673058593750085],[105.43706054687507,14.672566406249985],[105.43693945312512,14.672308593750103],[105.4363105468752,14.671566406250022],[105.43618945312497,14.671058593750061],[105.43581054687505,14.67056640625006],[105.43567871093765,14.668644531249939],[105.43518945312499,14.668308593750169],[105.43448339843766,14.668140625000063],[105.43431054687508,14.667816406250168],[105.43418945312501,14.667058593750042],[105.43368945312514,14.666406249999994],[105.43434863281252,14.6659453125001],[105.43503710937492,14.666308593750074],[105.43567089843751,14.665812500000172],[105.43582812500014,14.664824218749999],[105.43715917968765,14.664664062499952],[105.43725000000009,14.66400000000003],[105.43706054687507,14.66405859375007],[105.43688476562508,14.664429687500018],[105.43581054687505,14.664558593749959],[105.43556445312524,14.664691406249972],[105.43531054687494,14.664808593750124],[105.43481445312514,14.66519140625013],[105.43364062500015,14.66533203124996],[105.4333105468751,14.66580859375],[105.43318945312515,14.666316406250132],[105.43306054687494,14.666558593750054],[105.43289941406252,14.666898437499995],[105.43256054687507,14.667058593750042],[105.43156445312516,14.667941406250208],[105.43131054687504,14.668058593750004],[105.43106445312523,14.668191406250017],[105.43057910156253,14.668417968749978],[105.43031054687506,14.668808593750057],[105.43014160156267,14.66951562500006],[105.42981445312515,14.669691406250053],[105.42916113281254,14.669843750000112],[105.42893945312508,14.670316406249981],[105.42868945312514,14.67078906249995],[105.4288105468751,14.671191406250088],[105.42906054687504,14.671664062500042],[105.42852539062514,14.672339843750123],[105.42806054687506,14.672558593750011],[105.42756445312514,14.672941406250203],[105.42731054687519,14.673058593750085],[105.42631445312512,14.673941406250066],[105.42536230468752,14.674089843750139],[105.42518945312511,14.674816406249988],[105.42493945312523,14.675289062499957],[105.42506054687519,14.67619140625007],[105.42518945312511,14.67643359375009],[105.42532910156265,14.67759375],[105.42606054687516,14.678191406249994],[105.42631445312512,14.67830859375006],[105.42706054687508,14.678941406250061],[105.42756445312514,14.679058593749943],[105.42906054687504,14.680441406250097],[105.4295429687501,14.680667968750143],[105.42993945312523,14.681183593750077],[105.4301689453126,14.681671875000092],[105.43056054687517,14.681941406250218],[105.43104003906254,14.682167968750079],[105.43168945312496,14.682933593750107],[105.4318105468752,14.683441406250068],[105.43218945312523,14.683933593750155],[105.43231054687519,14.684191406249951],[105.43293945312499,14.684933593750117],[105.43314062500016,14.685359375000104],[105.43379980468742,14.685671875000025],[105.43393945312496,14.685933593750079],[105.43411718750028,14.686308593749928],[105.43418945312501,14.686191406250046],[105.43433300781257,14.684996093750144]]]]},"properties":{"id":"26054"}}]}