{"type":"FeatureCollection","features":[{"type":"Feature","geometry":{"type":"MultiPolygon","coordinates":[[[[79.45921739366341,24.644846327040497],[79.46174479166703,24.64412458631776],[79.4627501085071,24.644249606662854],[79.4628247070315,24.643649631076926],[79.46248453776073,24.643070916070343],[79.46218153211808,24.640648295085185],[79.46054009331633,24.64029313829259],[79.46013888888896,24.63958333333379],[79.45963514539957,24.63972737630263],[79.45907687717013,24.64042449951218],[79.45584879557308,24.640894368490038],[79.45629313151048,24.641811591254893],[79.45846978081616,24.641910196940643],[79.45904052734377,24.643394673665924],[79.45834879557319,24.64457156711208],[79.45921739366341,24.644846327040497]]]]},"properties":{"id":"19269"}}]}