{"type":"FeatureCollection","features":[{"type":"Feature","geometry":{"type":"MultiPolygon","coordinates":[[[[77.10018750000009,25.364188476562504],[77.10031250000011,25.36334960937515],[77.09980078125002,25.36318847656254],[77.0993125000002,25.363438476562706],[77.09906250000009,25.363561523437525],[77.09862500000011,25.363786132812535],[77.0981875000002,25.363561523437525],[77.0974375000001,25.363438476562706],[77.09718750000022,25.363311523437716],[77.09692578125018,25.36318457031264],[77.09674999999996,25.363],[77.09656250000009,25.36306152343755],[77.09581250000011,25.363688476562615],[77.09467578125017,25.363811523437604],[77.09418359375005,25.3635585937501],[77.09385156250008,25.363565429687426],[77.09368750000019,25.364563476562438],[77.09294140625016,25.36545507812515],[77.09330468750008,25.36616113281258],[77.09280078125019,25.36682324218755],[77.09231250000008,25.36706152343767],[77.0920625000002,25.36718847656256],[77.09156250000021,25.367311523437564],[77.0913125000001,25.367438476562555],[77.09085937500018,25.367659179687664],[77.09068750000009,25.368201171875057],[77.0909375000002,25.36868652343756],[77.09111718750009,25.36941503906263],[77.09231250000008,25.369561523437568],[77.09256250000018,25.36968847656256],[77.09306250000006,25.369811523437562],[77.09331249999994,25.369938476562638],[77.09381250000021,25.370061523437556],[77.09406250000009,25.370188476562447],[77.09531250000012,25.370311523437536],[77.09556249999994,25.370438476562526],[77.09606250000022,25.370561523437715],[77.0963125000001,25.370688476562606],[77.09731250000007,25.37081152343761],[77.09756250000012,25.3709384765626],[77.09806250000011,25.371061523437604],[77.09831250000022,25.371188476562594],[77.09906250000009,25.371311523437498],[77.0993125000002,25.37143847656249],[77.10003515625002,25.371561523437677],[77.10091796875011,25.37085156250008],[77.10106250000021,25.369798828125028],[77.1008125000001,25.369313476562525],[77.10068750000008,25.36831152343771],[77.10056250000022,25.368063476562483],[77.1004375000002,25.36767382812515],[77.10068750000008,25.36718847656256],[77.1008125000001,25.366436523437557],[77.10094921875006,25.36616503906248],[77.10093750000013,25.365431640625133],[77.10035546875022,25.365149414062557],[77.09993750000021,25.364673828125092],[77.10018750000009,25.364188476562504]]]]},"properties":{"id":"19008"}}]}