{"type":"FeatureCollection","features":[{"type":"Feature","geometry":{"type":"MultiPolygon","coordinates":[[[[74.81739116947418,33.18006265818124],[74.81731687760808,33.17950546918408],[74.81978364142267,33.17964196604234],[74.82596081130609,33.18076508783932],[74.83143976264111,33.17978168631768],[74.83579482652297,33.17936022852271],[74.83930697481472,33.17809585513787],[74.8426786371746,33.1779553692061],[74.84956244782634,33.1752861365043],[74.85377702577628,33.17149301634943],[74.85728917406826,33.16994767110131],[74.85616528661487,33.16826183992089],[74.85461994136651,33.166997466536046],[74.85265313832295,33.16587357908273],[74.84942196189476,33.164468719765935],[74.84647175732968,33.164468719765935],[74.84506689801267,33.16348531824421],[74.84281912310612,33.1588492824994],[74.84492641208138,33.157303937251015],[74.84520738394482,33.149436725077464],[74.84647175732968,33.147469922034105],[74.84843856037301,33.147329436102424],[74.8565867444095,33.15126304218933],[74.86389201285661,33.152386929642475],[74.86880902046462,33.15224644371078],[74.87274262655129,33.14999866880396],[74.8747094295949,33.14845332355574],[74.87695720450157,33.14817235169255],[74.87906449347659,33.14901526728241],[74.88145275431495,33.15084158439426],[74.88327907142664,33.15308935930082],[74.88482441667529,33.15449421861743],[74.88679121971828,33.15477519048099],[74.89184871325844,33.154634704549125],[74.89381551630206,33.1532298452325],[74.89479891782358,33.15308935930082],[74.91362403266683,33.15294887336931],[74.91362403266683,33.15182498591598],[74.90969042658017,33.15126304218933],[74.90055884102182,33.15126304218933],[74.89255114291686,33.151965471847674],[74.88861753682997,33.15365130302749],[74.88636976192348,33.15365130302749],[74.88552684633308,33.15294887336931],[74.88356004329009,33.149577211009074],[74.8804693527932,33.1476104079658],[74.87934546533981,33.14662700644416],[74.87527137332157,33.14662700644416],[74.87246165468818,33.148031865760686],[74.8700733938501,33.14859380948744],[74.86824707673824,33.149436725077464],[74.8645944425148,33.150279640667335],[74.8609418082913,33.15070109846258],[74.85869403338464,33.150420126599016],[74.856024800683,33.14971769694111],[74.85447945543498,33.14817235169255],[74.8513887649381,33.14620554864918],[74.84815758850957,33.144800689332655],[74.84633127139787,33.14466020340089],[74.84324058090127,33.144941175263995],[74.84211669344793,33.14634603458087],[74.84225717937946,33.14831283762406],[74.84310009496969,33.15056061253071],[74.84324058090127,33.15421324675414],[74.84211669344793,33.15575859200263],[74.8402903763363,33.159973169952806],[74.84253815124274,33.16460920569753],[74.84605029953448,33.167559410262626],[74.84886001816781,33.167559410262626],[74.85040536341629,33.166997466536046],[74.85181022273301,33.16727843839925],[74.85209119459645,33.16924524144261],[74.84928147596324,33.1723359319393],[74.8459098136029,33.17388127718769],[74.84253815124274,33.17500516464119],[74.83804260142952,33.17570759429927],[74.83509239686444,33.17584808023096],[74.82497740978462,33.17739342547944],[74.81904372780676,33.176971967684466],[74.81885959201409,33.17630750868082],[74.81634358724008,33.17640719943594],[74.80972927517374,33.176045057509086],[74.80729899088581,33.176553548177424],[74.80465793185786,33.17609375000019],[74.80062038845531,33.17315049913202],[74.80024685329894,33.17119439019106],[74.80028645833355,33.17019829644117],[74.80468722873294,33.165772026909835],[74.80530490451449,33.1625360785594],[74.80451470269142,33.1609324815539],[74.80566677517405,33.15875528971375],[74.80724717881961,33.156931423611425],[74.80777235243059,33.155272488064455],[74.80852783203127,33.15384521484387],[74.81055013020855,33.15075697157138],[74.80962510850716,33.14811754014799],[74.811126573351,33.14691677517371],[74.81106716579879,33.145421820746876],[74.81224446614638,33.1448662651911],[74.81220974392377,33.14399074978337],[74.81082790798646,33.1433386230472],[74.8104166666669,33.142638888889024],[74.80864366319477,33.14276258680573],[74.80744032118085,33.14307793511311],[74.80754394531269,33.14569118923626],[74.80719753689257,33.14701348198825],[74.80730984158018,33.14984971788222],[74.80643120659758,33.15162638346372],[74.80527235243088,33.15305026584231],[74.80474717882007,33.154709201389196],[74.80425238715324,33.15516764322933],[74.80388807508692,33.15669813368086],[74.8033279079863,33.15721693250893],[74.80245225694458,33.159561903212065],[74.80194986979191,33.161671956380346],[74.79999457465286,33.16443915473107],[74.79855631510443,33.16792561848992],[74.79868787977463,33.171242811415155],[74.79721679687546,33.17305026584235],[74.7966894531252,33.174167751736306],[74.79467746310794,33.17490098741345],[74.79188856336808,33.17527248806458],[74.78738606770858,33.1735651312936],[74.78629937066015,33.1723923068579],[74.78320502387166,33.17348280164961],[74.78055094401097,33.17388319227453],[74.77996582031292,33.17419284396718],[74.77880560980955,33.17414686414979],[74.77703206380275,33.173208414713685],[74.77667209201431,33.1747481282555],[74.77840630425399,33.17560221354191],[74.78182020399314,33.17546685112872],[74.78299153645858,33.17420260959237],[74.7851158311635,33.17475925021725],[74.78705674913218,33.17578626844637],[74.7906602393139,33.17609044895134],[74.79561585006584,33.18132703156634],[74.79954945615233,33.18245091901957],[74.80516889341905,33.18245091901957],[74.80938347136922,33.18427723613125],[74.81247416186594,33.18399626426796],[74.81486242270424,33.18245091901957],[74.81739116947418,33.18006265818124]]]]},"properties":{"id":"4605"}}]}