{"type":"FeatureCollection","features":[{"type":"Feature","geometry":{"type":"MultiPolygon","coordinates":[[[[78.07311143663233,25.46535753038215],[78.07498399522595,25.463983832465402],[78.07531005859417,25.462614474826566],[78.07667209201432,25.46083875868071],[78.07718207465305,25.459757758246653],[78.0790600585942,25.459099663628564],[78.08267279730947,25.45978922526045],[78.08370741102456,25.460336914062665],[78.08666124131983,25.460954861111134],[78.08639431423657,25.459994574652868],[78.08578531901068,25.45877034505216],[78.08197455512177,25.45555501302104],[78.08055013020854,25.45528320312502],[78.08003553602461,25.454727647569513],[78.07891086154561,25.455071343316035],[78.07999457465306,25.456075575086842],[78.07947591145862,25.457772352430638],[78.0788834635421,25.45750542534735],[78.07860595703144,25.456917046441134],[78.07777262369828,25.45695014105911],[78.07720377604218,25.455744900173713],[78.07569444444468,25.454305555555635],[78.07492106119835,25.45445312500003],[78.07426893446203,25.45631374782998],[78.07515814887185,25.456733398437663],[78.07556369357687,25.457500000000067],[78.07518771701407,25.45821072048618],[78.0756114366325,25.460236273871644],[78.07527235243074,25.46055013020856],[78.07487711588581,25.46221055772591],[78.07443983289963,25.462227918836945],[78.0733892144099,25.461672092013984],[78.07328206380251,25.462140299479216],[78.07362738715332,25.462793511284758],[78.07247260199685,25.46333848741334],[78.07252658420182,25.46469509548615],[78.07164116753538,25.46530436197922],[78.06917209201416,25.465206434461848],[78.06969455295163,25.465899522569543],[78.07186821831638,25.466661241319585],[78.0727832031254,25.466394314236297],[78.07311143663233,25.46535753038215]]]]},"properties":{"id":"18993"}}]}