{"type":"FeatureCollection","features":[{"type":"Feature","geometry":{"type":"MultiPolygon","coordinates":[[[[78.9657769097224,23.430319417318188],[78.96747016059052,23.429447157118474],[78.9721568467883,23.431176350912054],[78.97253526475694,23.433886176215665],[78.97500271267373,23.433058268229587],[78.97528483072924,23.43247680664112],[78.97670355902775,23.431113823785196],[78.97499728732672,23.430836046007357],[78.9725887044273,23.428434922960477],[78.97706624348959,23.42633924696223],[78.97660563151064,23.42544528537374],[78.97713270399325,23.423905300564726],[78.9762999131946,23.422635226779917],[78.97499728732672,23.42166937934074],[78.97291666666686,23.41958333333379],[78.97113606770827,23.42016113281298],[78.97083604600695,23.421391601562988],[78.96823730468768,23.422865125868483],[78.96370524088545,23.42775919596407],[78.96276123046894,23.429198811849417],[78.96022433810779,23.431636284722643],[78.96113091362841,23.43223049587715],[78.96107991536454,23.434719509549026],[78.96167995876752,23.43444227430591],[78.96232747395825,23.433107910156693],[78.96339952256963,23.432760009766156],[78.9657769097224,23.430319417318188]]]]},"properties":{"id":"9659"}}]}