{"type":"FeatureCollection","features":[{"type":"Feature","geometry":{"type":"MultiPolygon","coordinates":[[[[75.95656236436682,31.673381076389063],[75.95661729600747,31.67063530815993],[75.95762478298647,31.669465874566228],[75.95984361436669,31.67070366753488],[75.96138488769586,31.669428982204977],[75.96266316731797,31.66989827473968],[75.96285061306472,31.667566189236297],[75.96125359429303,31.668378634982886],[75.96041558159763,31.669351399739725],[75.95927171495262,31.6699896918405],[75.95915310329892,31.669439832899542],[75.95953545464462,31.668754611545396],[75.95791666666699,31.666805555555896],[75.95743774414089,31.666949869791935],[75.95652418348553,31.668010253906402],[75.95538241916287,31.66851969401054],[75.95625834147202,31.66927435980911],[75.95483032226596,31.669798719618285],[75.95402777777812,31.66935085720499],[75.95330607096409,31.66975341796892],[75.95255594889355,31.669693196614787],[75.95221035427565,31.669991048177323],[75.95210598415841,31.672141384548766],[75.95280504014809,31.67253119574667],[75.95355516221818,31.67247097439254],[75.95414971245711,31.672983127170326],[75.95411892361156,31.674621853298817],[75.95657938639354,31.675719672309185],[75.95661214192765,31.677762315538317],[75.95745483398483,31.677829861111277],[75.95779452853762,31.67722086588556],[75.9570744493279,31.67620551215292],[75.95656236436682,31.673381076389063]]]]},"properties":{"id":"17088"}}]}