{"type":"FeatureCollection","features":[{"type":"Feature","geometry":{"type":"MultiPolygon","coordinates":[[[[79.72444715711819,23.55972479926257],[79.72443630642388,23.5591809082037],[79.72495822482685,23.55863742404567],[79.72805284288219,23.55863091362893],[79.72770236545162,23.557529703776467],[79.7255636935765,23.557181532118477],[79.72625542534743,23.555839165581972],[79.7255636935765,23.555825059679222],[79.72471625434028,23.556261393229576],[79.72474772135442,23.55472561306466],[79.72415852864586,23.55471354166727],[79.7236138237848,23.555280626085448],[79.72166992187525,23.555286187066372],[79.72168619791674,23.55362535264794],[79.7207595486112,23.55314805772622],[79.71951660156262,23.5557097710507],[79.71810221354193,23.556193847656616],[79.71722493489594,23.554490695529907],[79.71749728732644,23.553886176215656],[79.71844129774328,23.552979058160233],[79.71805175781256,23.552222764757488],[79.71838433159726,23.55125000000038],[79.71819444444449,23.550694444444872],[79.71723470052089,23.551616346571677],[79.71694715711837,23.55250271267407],[79.71480414496531,23.554699300130707],[79.71336154513912,23.55516750759594],[79.71462022569463,23.55708780924519],[79.71777506510435,23.56000284830769],[79.72029134114595,23.560003119575143],[79.7210915798614,23.559169921875508],[79.72165364583358,23.559158393012567],[79.72252875434029,23.559458007813006],[79.72333604600723,23.559441596137617],[79.72387532552105,23.560552842882274],[79.72444715711819,23.55972479926257]]]]},"properties":{"id":"19661"}}]}