{"type":"FeatureCollection","features":[{"type":"Feature","geometry":{"type":"MultiPolygon","coordinates":[[[[75.79368750000017,26.80918896484384],[75.79375000000002,26.808250000000086],[75.79292578125003,26.808323242187512],[75.79268750000014,26.808813964843807],[75.79256250000017,26.809061035156375],[75.79243750000015,26.80931396484388],[75.7916875,26.81020703125003],[75.79200781250026,26.810811035156306],[75.79258984375,26.810646484375212],[75.7928125,26.810186035156377],[75.79368750000017,26.80918896484384]]]]},"properties":{"id":"31215"}}]}