{"type":"FeatureCollection","features":[{"type":"Feature","geometry":{"type":"MultiPolygon","coordinates":[[[[78.93930859374998,25.152564453125223],[78.93919140625027,25.152060546875163],[78.93905859375016,25.15181445312507],[78.93883203125003,25.151329101562666],[78.93844140625012,25.1510605468751],[78.93773437500002,25.150891601562606],[78.93755859375014,25.15056445312503],[78.93740234375011,25.149581054687502],[78.93592578125006,25.14943847656255],[78.93575000000018,25.14925000000001],[78.9346484375001,25.14932031250011],[78.93419140625,25.14998437499993],[78.93430859374999,25.15043945312499],[78.9344414062501,25.150685546874982],[78.93455859375015,25.15143945312522],[78.93478906250002,25.15187500000023],[78.9344414062501,25.152537109375103],[78.93465625000019,25.152810546875216],[78.93519140625008,25.152689453124992],[78.93566406250014,25.152439453125083],[78.93633984375012,25.152974609375065],[78.93655859375016,25.153439453125046],[78.9366914062501,25.153685546875053],[78.93682812500018,25.154830078125187],[78.93731640625012,25.15506054687505],[78.93755859375014,25.155189453125075],[78.9378164062501,25.15531054687513],[78.93805859374996,25.15543945312507],[78.93906640625025,25.155560546875208],[78.93953906250002,25.155810546875017],[78.93969140625009,25.15568945312505],[78.94093359375015,25.154560546875146],[78.94162500000019,25.15439550781265],[78.94205859375015,25.153765625000077],[78.9416914062501,25.153560546875013],[78.94143359374996,25.153439453125046],[78.94119140625011,25.153310546875204],[78.94043359374999,25.153189453125066],[78.94019140625025,25.153060546875125],[78.93948437500009,25.15289160156253],[78.93930859374998,25.152564453125223]]]]},"properties":{"id":"19091"}}]}