{"type":"FeatureCollection","features":[{"type":"Feature","geometry":{"type":"MultiPolygon","coordinates":[[[[84.77797905815979,23.882486504449105],[84.77841254340277,23.88111735026068],[84.78043728298618,23.881827121310977],[84.78139431423617,23.88083862304711],[84.78179470486114,23.879156087239807],[84.78232964409725,23.878145141601934],[84.78193901909734,23.877783067491507],[84.78167209201425,23.876924506293648],[84.78499457465287,23.87617648654536],[84.78375000000031,23.874305555555765],[84.78305013020841,23.87443915473105],[84.78194986979182,23.875283067491694],[84.78038302951396,23.87555026584225],[84.77914116753473,23.874695705837894],[84.77809136284733,23.874737345377795],[84.7768088107641,23.881299709744198],[84.77723524305574,23.882516004774587],[84.77797905815979,23.882486504449105]]]]},"properties":{"id":"19488"}}]}