{"type":"FeatureCollection","features":[{"type":"Feature","geometry":{"type":"MultiPolygon","coordinates":[[[[76.74736952039987,30.870632595486285],[76.74807033962733,30.870261773003605],[76.74940375434099,30.870314670138995],[76.75108181423653,30.869159884982693],[76.75191026475753,30.8691927083334],[76.75299967447953,30.86861653645839],[76.75494411892399,30.870550130208386],[76.75519178602505,30.869469129774416],[76.75236111111147,30.86680555555573],[76.75082804362037,30.86693901909736],[76.74791978624191,30.86755967881956],[76.74693915473145,30.869161241319688],[76.746116400825,30.8710552300348],[76.74756890191028,30.873050130208554],[76.7480634223094,30.8719439019099],[76.74736952039987,30.870632595486285]]]]},"properties":{"id":"17483"}}]}