{"type":"FeatureCollection","features":[{"type":"Feature","geometry":{"type":"MultiPolygon","coordinates":[[[[102.68159016926776,16.168975423177287],[102.68334743923313,16.165353732639147],[102.68606255425047,16.161857910156456],[102.6875341796846,16.160974934896075],[102.68799994574354,16.163359917534933],[102.68933024088247,16.162904459635712],[102.69264160155936,16.158752712673845],[102.69381700303515,16.156772732205113],[102.6958387586777,16.15611653645857],[102.69649495442414,16.15543402777797],[102.69693196614267,16.151857096354476],[102.69824978298308,16.14891330295174],[102.70029568142067,16.1484749348962],[102.70207872178506,16.14968370225725],[102.70404188367766,16.149026963975885],[102.70402452256636,16.148174641927397],[102.70130208333038,16.147867024739938],[102.70012532551769,16.147069498698286],[102.69876871744512,16.14709716796908],[102.69754367404212,16.146530490451624],[102.69428629556987,16.14820855034756],[102.69313883463249,16.150516221788607],[102.69119818793084,16.150969509548815],[102.68858968098644,16.150300835503714],[102.68716281466729,16.14881564670172],[102.68851209852127,16.14703721788213],[102.6922159830701,16.14622422960099],[102.69342285155952,16.144190809462145],[102.69391330294835,16.142679850260564],[102.69312554253165,16.139606119791935],[102.69207492404209,16.140147298177325],[102.69207736544828,16.14167778862877],[102.69116563584757,16.142120225694768],[102.68985297308737,16.14348632812532],[102.68985405815678,16.144783799913384],[102.68809787326077,16.145935329861302],[102.6866956922714,16.146247287326773],[102.6862527126705,16.144820421007097],[102.68706705728871,16.142441406250256],[102.68856418185473,16.140586751302322],[102.68814127603869,16.139766167534987],[102.68638888888577,16.140476888021098],[102.68215060763592,16.138952094184305],[102.68093505859085,16.140217285156552],[102.67956163194154,16.139286024305818],[102.67792941622972,16.136421440972427],[102.67867187499681,16.13514160156278],[102.68021104600396,16.13630940755229],[102.68096950954546,16.135092773437762],[102.68003228081298,16.133273383246816],[102.68043538411146,16.129723036024558],[102.67903971353857,16.129045952691342],[102.6775962999101,16.12761420355919],[102.67624782985806,16.127641872830154],[102.67303982204552,16.126748860677395],[102.6737695312469,16.125672743055716],[102.67547960069166,16.124824490017687],[102.67596950954547,16.123037651909996],[102.67511149088241,16.1217719184031],[102.67707872178525,16.119881727430737],[102.67735839843462,16.119196234809223],[102.67595323350398,16.117919379340492],[102.67508707682,16.118747287326656],[102.67371934678525,16.11732367621552],[102.67305691188918,16.115957845052336],[102.67434705945882,16.114257269965535],[102.67428005642054,16.110969509548823],[102.67596950954547,16.109083116319653],[102.67372504339991,16.10741916232665],[102.67115722655959,16.106793348524548],[102.66928602430247,16.106802300347468],[102.66888888888573,16.106388888889157],[102.66816948784404,16.10711480034739],[102.66819932725403,16.108575846354412],[102.67043999565678,16.11016140408006],[102.67099121093443,16.111297471788504],[102.67095920138601,16.11286132812519],[102.66846950954564,16.11569173177115],[102.66819715711509,16.116290690104393],[102.66934868706304,16.1173971896704],[102.67182969834764,16.11734646267385],[102.67310899522258,16.118678114149688],[102.67349283853869,16.122602810330093],[102.67346571180266,16.123923882378733],[102.67253824869502,16.126210666233007],[102.67152723524018,16.125690104166935],[102.67069715711526,16.12627983940989],[102.67209228515318,16.127620171441208],[102.67207492404239,16.12846435546905],[102.67251790364296,16.12930284288214],[102.67433539496218,16.128197157118308],[102.67597493489293,16.12902506510447],[102.67764160155937,16.13124728732663],[102.67805636935444,16.132947862413417],[102.67729790581288,16.134420301649556],[102.67594238280944,16.13375271267381],[102.67484727647278,16.134316948784985],[102.67488064235803,16.135952962239827],[102.67388970268789,16.137258843316246],[102.67433322482336,16.13942382812519],[102.67703287760114,16.1413604058162],[102.68013427734101,16.142235243055822],[102.6823974609346,16.144062228732878],[102.68433132595172,16.146832953559255],[102.68511366102112,16.148445638021045],[102.68422607421556,16.151511773003676],[102.68147026909404,16.150589463975948],[102.67949896918086,16.152080620660115],[102.675087890622,16.147557508680762],[102.67364637586493,16.148050944010592],[102.67291937933734,16.148629014757063],[102.67513264973647,16.152668728298877],[102.674025065101,16.154302842882174],[102.67362765841719,16.15552761501762],[102.67180284287886,16.15624728732665],[102.66963270399017,16.157688259548905],[102.66873101128178,16.159063856337028],[102.66875352647278,16.160176595052334],[102.67000135633393,16.163252766927428],[102.67098605685445,16.16487657335098],[102.67096869574337,16.165725640191184],[102.67014268662902,16.167680664062686],[102.6713104926184,16.16880262586828],[102.67598605685467,16.16875298394119],[102.67679714626436,16.170425075955094],[102.67756157768812,16.171159396701626],[102.68019504122978,16.170034179687747],[102.68159016926776,16.168975423177287]]]]},"properties":{"id":"10258"}}]}