{"type":"FeatureCollection","features":[{"type":"Feature","geometry":{"type":"MultiPolygon","coordinates":[[[[79.72084743923673,25.589152560763992],[79.72083604600752,25.588052842881993],[79.72000271267424,25.586386176215356],[79.7177804904517,25.583374837239674],[79.72016981336859,25.58298583984387],[79.71965928819478,25.581493326822965],[79.71691948784766,25.581110839843888],[79.7158251953131,25.58054714626745],[79.71584635416698,25.57728325737851],[79.71725911458364,25.576939019097438],[79.71721299913256,25.574696451822973],[79.71871473524337,25.574727105034768],[79.71999186197948,25.57667507595498],[79.72114746093806,25.577235785590332],[79.72347493489642,25.57721082899309],[79.72304687500045,25.576380750868097],[79.72400716145873,25.574517415364696],[79.72203776041746,25.572846679687686],[79.723891601563,25.571947157118103],[79.7247195095492,25.570552842881952],[79.72586208767419,25.569998372395887],[79.72666395399366,25.56916395399307],[79.72725911458363,25.568891601562513],[79.7273790147577,25.571108398437545],[79.72944335937532,25.569717610677216],[79.73328016493124,25.57073106553831],[79.73388454861143,25.56886827256963],[79.73250271267412,25.567497016059164],[79.72992730034778,25.566725531684114],[79.72944715711853,25.567224934895876],[79.728319227431,25.567497287326617],[79.72833767361149,25.566580403645986],[79.7274593098966,25.565836046006993],[79.72639160156282,25.566947157118122],[79.72581976996574,25.56721950954868],[79.72521267361165,25.565968153211912],[79.72416395399355,25.5652804904514],[79.72331922743112,25.56415852864589],[79.72333930121587,25.563189019097337],[79.72249728732677,25.562780490451573],[79.72216091579915,25.561400010850818],[79.71957790798652,25.559866536458372],[79.71860351562563,25.558897840711907],[79.71934895833388,25.557060546875007],[79.71826605902837,25.55546332465279],[79.71862087673648,25.554427354600747],[79.71974717882009,25.55388102213543],[79.72028049045181,25.553891872829993],[79.7216639539935,25.55134277343754],[79.72077473958373,25.54961724175351],[79.71944173177124,25.548336046006952],[79.71914442274348,25.546205240885442],[79.71745930989627,25.5455582682292],[79.71502495659755,25.546386176215364],[79.71278049045193,25.545676540798624],[79.71363064236166,25.544422743055662],[79.71474555121571,25.54388183593764],[79.71555826822967,25.543058268229288],[79.7161154513893,25.54164632161465],[79.71668945312555,25.541094835069586],[79.7145491536464,25.53903862847224],[79.71585557725749,25.537783745659823],[79.71639702691013,25.538347439236176],[79.71748697916732,25.53832519531268],[79.718436414931,25.538650173611174],[79.72043945312569,25.538240017361133],[79.71998589409802,25.53691487630212],[79.71915473090323,25.53609293619796],[79.7179747178823,25.535520290798686],[79.71583062066017,25.53555257161466],[79.71469780816008,25.536136338975865],[79.7141693793408,25.537224934895946],[79.71245930989627,25.53755886501746],[79.71193630642418,25.53863606770841],[79.7119590928825,25.539746365017436],[79.71083062066018,25.540830620659946],[79.7105007595492,25.54184651692715],[79.7113861762156,25.543640950520867],[79.71080837673654,25.544762641059094],[79.71000000000052,25.545539279513974],[79.7097249348964,25.54694715711807],[79.70912489149342,25.548111979166762],[79.70834038628536,25.54886583116331],[79.7072151692714,25.55113416883701],[79.70639105902816,25.55192599826401],[79.70611382378505,25.552807617187568],[79.70743055555593,25.55407280815983],[79.70777506510476,25.555836046007116],[79.70833116319497,25.55637017144103],[79.7086664496533,25.557404513888997],[79.7102945963546,25.55819444444454],[79.71027180989628,25.559316677517415],[79.70942111545176,25.559729275173723],[79.70889160156312,25.560852322048774],[79.70968153211842,25.561611328125068],[79.70803927951428,25.56268825954875],[79.70644205729198,25.562141655816077],[79.70580078125036,25.56016601562507],[79.7044417317712,25.559724934895897],[79.70374023437549,25.559169379340375],[79.70323513454898,25.56021077473963],[79.70163682725732,25.560841200086927],[79.70103135850732,25.560828993055637],[79.69979058159757,25.55915554470498],[79.6994471571185,25.557882486979253],[79.70139160156296,25.557502712673738],[79.70137478298668,25.556666666666914],[79.70266764322972,25.556351453993088],[79.70193847656302,25.555276150173682],[79.70264865451449,25.55500271267384],[79.70349121093815,25.55638617621534],[79.70527506510476,25.556064995659852],[79.7042692057295,25.554112413194545],[79.70507161458389,25.551711968316027],[79.70497884114641,25.547156575520958],[79.70433213975733,25.54590115017372],[79.70166937934064,25.54444173177089],[79.70016818576428,25.544169379340318],[79.69803005642419,25.545274522569613],[79.6980805121531,25.54279649522576],[79.69775770399363,25.54248616536465],[79.69684082031281,25.542504882812608],[79.69500271267404,25.545379774305644],[79.69662923177114,25.545907660590373],[79.69543674045175,25.547053222656288],[79.6935975477434,25.54749728732648],[79.6923676215284,25.54447319878477],[79.69361382378517,25.544169379340318],[79.69416395399364,25.54378689236117],[79.69277506510488,25.543336046007056],[79.69137478298686,25.542505425347244],[79.6913427734381,25.541113823784812],[79.68972493489619,25.54194715711826],[79.68793674045193,25.542296278211808],[79.68414713541702,25.542218967013923],[79.68175238715313,25.539783257378687],[79.67845106336867,25.53913872612854],[79.67649468316009,25.539178602430624],[79.67611382378507,25.540101996527895],[79.6779372829865,25.540693901909847],[79.67833062066015,25.542042371961912],[79.67722493489637,25.541663953993137],[79.67487901475752,25.54137722439245],[79.6702913411464,25.541352267795304],[79.67000271267418,25.54194715711826],[79.66916937934062,25.54218153211812],[79.66979329427139,25.540359429253527],[79.66783420138941,25.53988172743071],[79.66665364583403,25.54028591579865],[79.66572319878506,25.540266927083422],[79.6669417317714,25.536375054253725],[79.66581000434067,25.535826280381954],[79.66513617621567,25.53512478298623],[79.66556803385456,25.533862847222437],[79.66415256076445,25.53250271267372],[79.66499728732688,25.530536566840368],[79.66440700954914,25.52996934678829],[79.66277832031321,25.529162597656338],[79.66222493489644,25.52753499348961],[79.66648328993088,25.526841905382],[79.66609754774336,25.526092393663262],[79.66611707899366,25.52512776692717],[79.66896918402821,25.52336371527788],[79.66997233072973,25.521833767361173],[79.6687500000003,25.51930555555566],[79.66833062066027,25.519441731770854],[79.66682291666731,25.522727864583473],[79.66482855902817,25.52170030381953],[79.66378200954901,25.523809950086815],[79.66245876736147,25.52445203993068],[79.65984809027825,25.524461805555617],[79.65944715711842,25.526130099826517],[79.66027506510457,25.526947157118215],[79.66140299479198,25.52722222222232],[79.66138183593787,25.528256564670286],[79.65943033854202,25.528889702691046],[79.65945746527817,25.530229492187644],[79.66111382378514,25.530552842882045],[79.66148003472264,25.532428656684104],[79.66079589843795,25.53308620876747],[79.65943413628511,25.533746744791742],[79.65707356770886,25.534163953993158],[79.65664767795172,25.533285861545238],[79.656671006945,25.532155490451444],[79.65416829427122,25.5297507052952],[79.65389160156306,25.528052842882047],[79.65204644097255,25.525854763454944],[79.649804144966,25.52502956814243],[79.64849175347283,25.525919053819536],[79.64730414496583,25.525307345920183],[79.64609700520887,25.52612521701397],[79.64611979166719,25.52722439236115],[79.64304741753537,25.527497558593808],[79.64340928819493,25.52784505208352],[79.64249294704896,25.53087565104171],[79.63958333333372,25.53081624348968],[79.63891059027819,25.532203233507005],[79.63721950954894,25.534163953993158],[79.63723090277816,25.53472384982649],[79.63578125000052,25.534997287326604],[79.6337613932296,25.531433919270953],[79.63268012152818,25.531083170572956],[79.6314718967017,25.52945285373268],[79.62824652777837,25.5290025499132],[79.62648600260454,25.52960503472235],[79.6237071397575,25.534080946180623],[79.61992404513924,25.533058268229226],[79.61889160156292,25.53364095052089],[79.61975965711869,25.53447509765634],[79.62147515191018,25.535307074652877],[79.62358018663227,25.535264214409878],[79.62559461805589,25.53357340494793],[79.62638617621568,25.53194173177083],[79.62742296006994,25.53126193576405],[79.62996419270874,25.53064236111122],[79.63255967881994,25.531979437934268],[79.6330528428825,25.533756239149312],[79.6298269314241,25.533058268229226],[79.6294476996533,25.536130913628583],[79.63057508680592,25.536107855902898],[79.63112467447948,25.535536024305628],[79.63236870659787,25.53556125217014],[79.63277723524337,25.5380712890626],[79.63357910156296,25.538841688368194],[79.63641059027808,25.539302571614698],[79.63724717881999,25.538871799045168],[79.63876953125057,25.53655002170146],[79.64116427951447,25.535966254340337],[79.64082845052141,25.536947157118192],[79.64501953125037,25.537219509548663],[79.64498589409757,25.535552842882026],[79.64555989583383,25.535001356336892],[79.6450043402784,25.53337863498288],[79.64724229600725,25.53249593098961],[79.64974121093789,25.530002712673806],[79.65028971354198,25.5305737304689],[79.65195258246561,25.531380479600756],[79.65265950520873,25.532116156684182],[79.65193956163259,25.53389133029522],[79.65369140625049,25.53423312717021],[79.65419162326444,25.534753689236098],[79.6541574435769,25.536424967448013],[79.65329589843813,25.537252875434277],[79.65221950954898,25.53777506510417],[79.6519471571186,25.538594292534782],[79.65598198784787,25.53888617621547],[79.6565456814242,25.537780490451453],[79.65751844618106,25.53978597005225],[79.65749674479227,25.54085286458327],[79.65666937934074,25.541669379340334],[79.65461371527849,25.541956380208376],[79.65266601562539,25.541916775173746],[79.65116644965318,25.542933213975758],[79.65081434461845,25.543658582899354],[79.6508534071186,25.545554199218913],[79.64971354166724,25.545831976996666],[79.64972927517411,25.547993164062603],[79.65195041232678,25.548761393229285],[79.65190266927127,25.546423611111166],[79.65289496527814,25.54509223090278],[79.6556532118062,25.544724934895925],[79.65527506510469,25.545830620659757],[79.65500271267413,25.54861382378479],[79.65408691406296,25.549965277777773],[79.65501953125059,25.550581325954866],[79.65499131944509,25.551952582465347],[79.65582356770884,25.55275173611136],[79.65775227864643,25.556245930989604],[79.65861382378503,25.556663953993194],[79.65888617621559,25.5572249348959],[79.66000868055593,25.557769639757026],[79.65972710503516,25.561217447916803],[79.66113064236143,25.56166395399326],[79.66109700520892,25.560008138020933],[79.66139160156288,25.559724934895897],[79.662100694445,25.557540418836908],[79.66309624566017,25.555836046007116],[79.66473524305636,25.55639702690982],[79.66532118055628,25.55638509114597],[79.66800509982696,25.555558268229262],[79.6684060329865,25.55761149088552],[79.66965874566037,25.558052842882063],[79.67000488281306,25.556632215711858],[79.6730528428823,25.558336046007014],[79.67397460937539,25.55860839843767],[79.67685112847263,25.556951497395872],[79.67944715711846,25.556669379340377],[79.68094563802154,25.556156412760586],[79.6821001519103,25.556751030816002],[79.68305284288257,25.556636827257037],[79.68165798611167,25.55529649522572],[79.68167860243133,25.55427842881953],[79.68352105034782,25.551995985243067],[79.68404568142418,25.551669379340396],[79.6852750651046,25.552502712673757],[79.68612955729222,25.552780219184143],[79.68729871961861,25.55399685329867],[79.68838704427142,25.55343614366342],[79.68994357638948,25.55461724175359],[79.69027506510471,25.558298068576477],[79.68805284288229,25.55860839843767],[79.68739366319491,25.55929443359382],[79.68889160156309,25.561386176215336],[79.68888020833398,25.561943088107753],[79.69050401475735,25.563146701388888],[79.69080349392434,25.564163953993173],[79.68887532552125,25.563336046007095],[79.68785915798676,25.56537245008694],[79.68913953993106,25.56660264756958],[79.68953559027815,25.567418077257088],[79.68886881510477,25.568058268229237],[79.69069064670171,25.568942057291792],[79.69138617621562,25.570002712673713],[79.69292643229224,25.570552842881952],[79.69333062066013,25.569719509548676],[79.69555826822963,25.569447157118205],[79.69804958767426,25.568784993489643],[79.69888617621578,25.56666395399317],[79.69918565538231,25.5663916015626],[79.69983886718805,25.56707139756955],[79.70166395399346,25.566925455729248],[79.70068630642433,25.56595269097224],[79.70115180121573,25.56555826822924],[79.70277506510476,25.56611382378476],[79.70472493489623,25.566386176215318],[79.70547688802125,25.56677327473966],[79.70599717881979,25.567846137152884],[79.70499186197955,25.569171278211897],[79.70500705295203,25.569915635850805],[79.70611382378505,25.570275065104184],[79.70650716145903,25.571486545138967],[79.70634277343802,25.573330620659874],[79.70472493489623,25.572497287326428],[79.7034944661464,25.57219726562525],[79.7024858940978,25.570825195312693],[79.70251953125049,25.569173719618263],[79.70203016493096,25.568891601562513],[79.70166937934064,25.570002712673713],[79.70081108941017,25.570827365451606],[79.6997032335075,25.570002712673713],[79.69860134548665,25.57083387586816],[79.70013888888931,25.57146484375002],[79.69942545572954,25.572775065104267],[79.69852430555605,25.571947157118103],[79.6980582682298,25.572601996527908],[79.69917968750039,25.573337131076443],[79.69776421441028,25.574441731770904],[79.69722493489635,25.573330620659874],[79.69650987413243,25.573058268229218],[79.69555013020872,25.575036621093773],[79.69216037326433,25.574967447916904],[79.68878960503534,25.572390950520926],[79.68833604600749,25.572656792534758],[79.68917697482712,25.57389756944451],[79.68778591579897,25.5738690863718],[79.68750271267422,25.57431504991328],[79.68887695312552,25.574981825086937],[79.68938639322957,25.57551188151048],[79.68770887586837,25.576611599392393],[79.68808539496595,25.576941731770987],[79.68953342013933,25.576195746527986],[79.69143229166727,25.576966145833495],[79.69221950954918,25.577807617187602],[79.68948513454896,25.580830620659768],[79.69198459201434,25.57997504340281],[79.69250000000065,25.579438747829983],[79.69335286458389,25.580303548177227],[79.6933257378478,25.58161485460076],[79.69138292100737,25.583055284288378],[79.69179253472262,25.583449164496642],[79.69473632812557,25.584166666666675],[79.69471516927118,25.585196126302165],[79.69675781250058,25.58449734158009],[79.69721950954906,25.58639160156264],[79.69787543402853,25.587359754774383],[79.70141167534766,25.588063693576558],[79.70754340277816,25.588059353298647],[79.71065483941035,25.589124348958393],[79.71993218316018,25.58977267795146],[79.72084743923673,25.589152560763992]]]]},"properties":{"id":"1759"}}]}