{"type":"FeatureCollection","features":[{"type":"Feature","geometry":{"type":"MultiPolygon","coordinates":[[[[74.35357031250018,25.322746093750027],[74.3534296875001,25.319838867187514],[74.35218359375014,25.31968945312515],[74.35194140625023,25.31956054687494],[74.35103906250006,25.319439453125156],[74.35056640625001,25.31968945312515],[74.34905859375002,25.319810546875118],[74.34881640625011,25.31993945312523],[74.34707031250005,25.320060546875098],[74.34591406250004,25.319039062500067],[74.34569140625015,25.318560546874977],[74.34480859375012,25.317564453125186],[74.34469140625023,25.317310546874936],[74.34430859375013,25.316814453125033],[74.34419140625008,25.316560546875152],[74.34386328125007,25.3160878906251],[74.34290234375013,25.31593457031265],[74.34250000000017,25.315500000000114],[74.34130859375003,25.31556054687509],[74.34103125000021,25.315708007812688],[74.34107031249997,25.316651367187575],[74.3420664062501,25.316810546875047],[74.34238671875008,25.316981445312678],[74.34255859375011,25.317658203125035],[74.34194140625007,25.318464843750093],[74.34219140625012,25.318935546875096],[74.34230859375,25.319337890625064],[74.34205078125015,25.319824218750128],[74.34106250000005,25.319785156250134],[74.3409414062501,25.321515625000202],[74.34138671875004,25.322162109374943],[74.34231640625015,25.3223105468751],[74.34257421875006,25.32244726562503],[74.34255859375011,25.322824218750185],[74.34205859375012,25.323060546874984],[74.34194140625007,25.32329785156263],[74.34269140625011,25.324185546874986],[74.34280859375,25.32442285156263],[74.34204687499997,25.32532714843761],[74.34207031250017,25.325915039062494],[74.34346093750023,25.32606054687514],[74.34393359375,25.325810546874976],[74.34569140625015,25.32568945312501],[74.34593359375012,25.325560546875167],[74.34644140624997,25.3254394531252],[74.34668359375016,25.325310546874988],[74.3481914062501,25.325189453125034],[74.34843359375,25.325060546875093],[74.34919140625013,25.324939453125126],[74.34943359375015,25.3248105468751],[74.35069140625015,25.324689453125146],[74.35093359375011,25.324560546875105],[74.35194140625023,25.324439453125237],[74.35218359375014,25.324310546875026],[74.3526914062501,25.324189453125157],[74.35293359375001,25.324060546874946],[74.35319140624998,25.323939453125078],[74.35343359374988,25.323810546875137],[74.35419140625024,25.323689453125084],[74.3544492187502,25.323552734374985],[74.35443359375014,25.3231757812501],[74.35393359375016,25.32293945312503],[74.35357031250018,25.322746093750027]]]]},"properties":{"id":"27039"}}]}