{"type":"FeatureCollection","features":[{"type":"Feature","geometry":{"type":"MultiPolygon","coordinates":[[[[75.94734693739159,23.407030164930973],[75.94667439778627,23.406654866536925],[75.94623074001717,23.40669053819491],[75.94473253038197,23.403323025174032],[75.94278679741737,23.40133232964463],[75.94128784179665,23.401452772352883],[75.9394961208765,23.40037990993976],[75.93908413357187,23.399258219401432],[75.93973836262992,23.39833550347261],[75.9390277777778,23.396805555555986],[75.93830613878006,23.397022840712168],[75.93843817816841,23.39866604275211],[75.93655076768644,23.39984822591201],[75.93708489312056,23.401622178819878],[75.9383060709633,23.401635335286898],[75.93933681911867,23.402210422092367],[75.94085896809904,23.402556287977802],[75.94241522894961,23.403250732422336],[75.94252997504324,23.404678955078566],[75.94214579264295,23.40572523329037],[75.94281032986109,23.407374945746966],[75.94507263183564,23.408679199219122],[75.94490112304666,23.410814208984817],[75.94704488118472,23.410986463759073],[75.94804524739575,23.408993869358127],[75.94734693739159,23.407030164930973]]]]},"properties":{"id":"19730"}}]}