{"type":"FeatureCollection","features":[{"type":"Feature","geometry":{"type":"MultiPolygon","coordinates":[[[[89.59508991278696,27.03596669174553],[89.59455479858033,27.03596668621182],[89.59293618304682,27.036234224949027],[89.59212904327845,27.03677375634264],[89.59077794949494,27.03785284387841],[89.58970328240687,27.038931996092927],[89.58997083742176,27.039199565256112],[89.58997083742176,27.039471566868542],[89.58970328240687,27.04000662175943],[89.5891637807027,27.04054618353406],[89.58889176205813,27.040818201477876],[89.58835663556246,27.041625279576806],[89.58808461133938,27.04216480267003],[89.58808461133938,27.042432400291787],[89.58835663556246,27.042432383798754],[89.58862419971322,27.042164845968728],[89.58862419971322,27.041897247996687],[89.58889176205813,27.041625308852943],[89.58943126748127,27.041625259005443],[89.58970328240687,27.041357730985084],[89.58997083742176,27.041085699234188],[89.58997083742176,27.04027636666477],[89.59104995513198,27.039199545160628],[89.59185704510654,27.03919954065117],[89.59293618304682,27.03865999178541],[89.59428281715296,27.037585364905922],[89.5948223206448,27.037045775607083],[89.59508991278696,27.036773818263512],[89.59508991278696,27.03596669174553]]]]},"properties":{"id":"38831"}}]}