{"type":"FeatureCollection","features":[{"type":"Feature","geometry":{"type":"MultiPolygon","coordinates":[[[[79.05007421875027,24.725789062499956],[79.05082421875008,24.725193359375083],[79.05131640624998,24.725306640625064],[79.05175390625013,24.725556640624973],[79.05244140624998,24.725443359374992],[79.05255859375004,24.72268164062521],[79.05305859375014,24.7220498046876],[79.05294140625014,24.719806640625194],[79.05082031250006,24.71968750000009],[79.05055859375003,24.719318359375094],[79.050390625,24.718577148437575],[79.04965234375001,24.718501953125013],[79.04931640625014,24.71869335937498],[79.04855859375013,24.718806640625232],[79.0483515624999,24.71928125000005],[79.04806640625011,24.719443359375035],[79.04730859375005,24.719556640625015],[79.04706640625014,24.719693359375214],[79.04680859375006,24.719806640625194],[79.04637109375014,24.720056640625003],[79.0455312500001,24.7199189453127],[79.04505859375004,24.719318359375094],[79.04484375000024,24.71882910156269],[79.04393359375004,24.71869335937498],[79.04369140625013,24.718556640625053],[79.04321875000008,24.7183505859377],[79.04294531250005,24.717875000000134],[79.04319140625014,24.71744335937521],[79.04325000000009,24.716999999999942],[79.04265234375,24.71707617187515],[79.04219140625017,24.717713867187527],[79.04230859375005,24.718443359375172],[79.04294140624998,24.719181640625166],[79.04305859375015,24.719943359375023],[79.04319140625014,24.720181640625043],[79.04330859375003,24.720443359375096],[79.04369140625013,24.720931640625096],[79.04380859375001,24.72144335937506],[79.04394140624996,24.72168164062508],[79.04407812500014,24.72289257812494],[79.04481640625013,24.72305664062506],[79.04555859375003,24.723693359375062],[79.0460078125,24.723889648437478],[79.04683203125003,24.724821289062575],[79.04676953125019,24.725437499999956],[79.04774218750023,24.725583007812517],[79.04794140625015,24.725931640625177],[79.04808593750013,24.726894531250096],[79.04881640625015,24.72705664062518],[79.04925390625013,24.727306640625088],[79.04992187500014,24.72713378906259],[79.05007421875027,24.725789062499956]]]]},"properties":{"id":"19241"}}]}