{"type":"FeatureCollection","features":[{"type":"Feature","geometry":{"type":"MultiPolygon","coordinates":[[[[86.50917347971378,25.131567848569844],[86.5098547525482,25.130818448451706],[86.51043902696236,25.13061522256848],[86.5122934631452,25.13191078757326],[86.51297935050073,25.132774497576435],[86.51572289992245,25.133409578460927],[86.5176535458119,25.13470514346581],[86.52039709523368,25.135746676116597],[86.52240395082944,25.136864418473763],[86.52413137083542,25.138261596419895],[86.52456322583706,25.138363209361245],[86.5257317746647,25.137626515535302],[86.52583338760647,25.136356353765763],[86.52466483877836,25.135060788761066],[86.52357249965709,25.135949901999837],[86.52240395082944,25.134933772584475],[86.51988903052589,25.131555142278003],[86.51844104610896,25.13071683551],[86.51767894904734,25.12990393197778],[86.51719628757539,25.128938609033],[86.51600233551196,25.129980141683887],[86.51544346433346,25.130081754625408],[86.51508781903803,25.13061522256848],[86.51219185020378,25.12904022197462],[86.51061684960993,25.128506754031463],[86.5096515266653,25.12853215726689],[86.50939749431123,25.128786189620627],[86.50967692990073,25.1300055449194],[86.508500835626,25.130894825795977],[86.50429524739641,25.129315863715433],[86.50267442491375,25.12797526041666],[86.50119181315162,25.127638346354146],[86.50083333333376,25.127222222222287],[86.50018432617262,25.127781575520984],[86.4998714192715,25.128482530381987],[86.49854912651952,25.129072808159933],[86.49806491428004,25.13084201388905],[86.50029866536502,25.13275499131946],[86.50204237196257,25.133532986111078],[86.50427964952317,25.13546061197924],[86.50558390299514,25.137542860243187],[86.50727186414994,25.138739691840485],[86.5090380859381,25.13848253038205],[86.51219835069523,25.135985785590506],[86.51150824652834,25.13443901909713],[86.50985080295189,25.132649197048877],[86.50917347971378,25.131567848569844]]]]},"properties":{"id":"4938"}}]}