{"type":"FeatureCollection","features":[{"type":"Feature","geometry":{"type":"MultiPolygon","coordinates":[[[[104.3143158637125,15.861260308159927],[104.3164274088513,15.859452311198098],[104.31939046223667,15.859989420573115],[104.32120551215004,15.859442816840527],[104.32128960503175,15.858396538628725],[104.31969699435464,15.856548122830176],[104.31527777777487,15.856483018663411],[104.31139377169862,15.85679524739605],[104.31055555555272,15.856111111111446],[104.30957302517069,15.856239691840543],[104.30698160807023,15.85745578342042],[104.30514919704595,15.859595540364765],[104.30636203341723,15.86089735243091],[104.30775716145556,15.861409505208513],[104.31009195963267,15.861835394965482],[104.31146402994514,15.862808430989858],[104.3143158637125,15.861260308159927]]]]},"properties":{"id":"22194"}}]}