{"type":"FeatureCollection","features":[{"type":"Feature","geometry":{"type":"MultiPolygon","coordinates":[[[[103.07263617621263,17.867358398437872],[103.07367811414625,17.867020263672174],[103.07524658202831,17.868286268446525],[103.07813530815682,17.866356879340614],[103.07934109157694,17.8643256293406],[103.08092041015342,17.865906032986587],[103.08433051214982,17.86473876953154],[103.0864005533825,17.863067898220805],[103.08590494791352,17.861620008681086],[103.08665174695889,17.860518391927442],[103.09126220702834,17.85901950412361],[103.09266954209781,17.85902438693617],[103.09420681423327,17.857424180772938],[103.09455864800063,17.856252712673978],[103.09209255642074,17.85792439778689],[103.09002821180272,17.857086859809428],[103.08736192491008,17.858475884332023],[103.08583550346916,17.858084716797393],[103.0850347222192,17.855617540148017],[103.0834695095455,17.85375271267398],[103.08318169487555,17.852572157118445],[103.08319742838259,17.851797146267742],[103.08385281032676,17.851810438368418],[103.08432834201099,17.853276367187988],[103.08599826388601,17.854880506727767],[103.08767415364284,17.85542439778689],[103.08925130208038,17.85539225260456],[103.09152506510137,17.853431396484766],[103.09097601996243,17.85147949218782],[103.09189615885103,17.849693196614936],[103.09380886501461,17.849227023654876],[103.09477159287891,17.84724243164095],[103.09513617621221,17.84552870008713],[103.09428982204545,17.84430826822951],[103.09273844400761,17.846674940321506],[103.08661485459757,17.845946451823266],[103.08527343749697,17.84503716362893],[103.08208062065663,17.84125271267409],[103.08171142577825,17.840492078993435],[103.08226074218456,17.838348659939626],[103.08134494357338,17.83746866862026],[103.07954481336517,17.8379300944014],[103.077385796438,17.83788601345522],[103.07399495442397,17.836510552300652],[103.07361111110802,17.83611111111145],[103.07273546006653,17.83639526367223],[103.07207926432002,17.838471950955338],[103.07270670572606,17.84001898871564],[103.07552897135108,17.842730577257257],[103.07510036892054,17.843469509548967],[103.07117106119503,17.840974934896167],[103.06834906683744,17.842428792318074],[103.0678789605004,17.843877766927534],[103.06706380208047,17.843457980686125],[103.06710801866038,17.841289740668813],[103.06679416232336,17.84068047417564],[103.06579969617755,17.840700819227777],[103.0625135633654,17.845133599175682],[103.06180826822609,17.84640679253505],[103.06272054036182,17.84775254991355],[103.06458062065659,17.846846381293858],[103.06399658202818,17.84855278862885],[103.06172688801783,17.85227105034764],[103.06208034938967,17.854597167969175],[103.06004503037909,17.855584581163583],[103.05938205294845,17.856951361762512],[103.05771782768792,17.858042534722586],[103.05643310546569,17.857602810330306],[103.05485568576105,17.85596082899346],[103.05408501518801,17.856762966580305],[103.05517415364275,17.860525716146185],[103.05597493489276,17.862080620660123],[103.05624728732332,17.864030490451896],[103.05758002386844,17.865681694878774],[103.05623969183719,17.869222954644457],[103.05626274956316,17.87035346137189],[103.05946695963254,17.8707450358077],[103.0628179253442,17.87067667643265],[103.06402506510116,17.86985839843787],[103.0673375108478,17.8684716796879],[103.0703347439206,17.868146023220874],[103.07263617621263,17.867358398437872]]]]},"properties":{"id":"10170"}}]}