{"type":"FeatureCollection","features":[{"type":"Feature","geometry":{"type":"MultiPolygon","coordinates":[[[[76.29406249999991,25.022436523437605],[76.29475781249997,25.021604492187492],[76.29543750000008,25.021438476562693],[76.29556250000016,25.021090820312494],[76.29493750000009,25.02093847656262],[76.29468750000004,25.020811523437445],[76.29443750000016,25.020688476562626],[76.29411328125005,25.020521484374996],[76.2938906250001,25.01961035156269],[76.29318750000007,25.0194384765625],[76.29293749999991,25.019311523437594],[76.29105078125016,25.01918847656269],[76.29056250000016,25.0194384765625],[76.28892578125001,25.019561523437673],[76.28842968750021,25.019305664062472],[76.28818750000008,25.01881152343752],[76.28799999999998,25.018500000000074],[76.28781250000017,25.01856152343744],[76.28756250000006,25.018688476562616],[76.28481250000007,25.01881152343752],[76.28437500000015,25.01903613281253],[76.28393750000001,25.01881152343752],[76.28368750000007,25.018688476562616],[76.2834374999999,25.01856152343744],[76.28295312500026,25.018438476562622],[76.28192578125018,25.01932519531252],[76.2816875,25.019813476562618],[76.28156250000015,25.020061523437562],[76.28143750000007,25.0205634765625],[76.28131250000004,25.020811523437445],[76.2811874999999,25.021063476562475],[76.28106249999999,25.021311523437603],[76.28093750000014,25.022112304687454],[76.28144921875005,25.022561523437474],[76.28200000000007,25.02227832031261],[76.28240625000004,25.022487304687573],[76.28256250000007,25.023438476562518],[76.28268750000015,25.023686523437476],[76.28292578125016,25.02417578125005],[76.28431250000014,25.02431152343759],[76.28492578125017,25.024775390625095],[76.28506250000001,25.026438476562674],[76.28518750000003,25.026686523437633],[76.28531250000006,25.026938476562563],[76.28593750000007,25.027686523437595],[76.28609765625023,25.028653320312586],[76.28706250000008,25.028811523437597],[76.28754296874993,25.02905761718759],[76.28832421875003,25.028426757812625],[76.28856250000004,25.027936523437674],[76.28918750000017,25.027188476562642],[76.28931250000008,25.026436523437454],[76.28969921875003,25.02592675781254],[76.29018750000003,25.02568847656252],[76.29143750000006,25.02456152343757],[76.29218750000015,25.02443847656248],[76.29243750000003,25.02431152343759],[76.2935742187502,25.024171875000064],[76.29381250000003,25.023686523437476],[76.29393750000017,25.023438476562518],[76.29406249999991,25.022436523437605]]]]},"properties":{"id":"19145"}}]}