{"type":"FeatureCollection","features":[{"type":"Feature","geometry":{"type":"MultiPolygon","coordinates":[[[[73.9313305664069,25.55582790798654],[73.93171034071239,25.554233669705425],[73.9313728841154,25.553596191406655],[73.93139458550431,25.553050672743524],[73.93048095703185,25.551859266493423],[73.93096571180641,25.550476074219276],[73.93200764974048,25.548738606771323],[73.9333387586814,25.54750542534768],[73.93365424262223,25.54650797526088],[73.93360080295204,25.545159233941362],[73.9321839735251,25.54472764756983],[73.93225179036543,25.54643961588583],[73.92990614149394,25.546398111979656],[73.92821858724025,25.54729112413233],[73.92735080295225,25.548227539062893],[73.92641899956672,25.547221679687993],[73.92492485894164,25.54693630642386],[73.92340359158058,25.545001627604577],[73.9230609809035,25.542494574653205],[73.92236111111194,25.540972222222692],[73.92110215928906,25.541106228298972],[73.92146131727489,25.542131076389282],[73.92070366753543,25.543563096788603],[73.92222764757028,25.54555013020881],[73.9236623806431,25.547990722656593],[73.92585991753558,25.548911132812947],[73.92582329644156,25.54983968098996],[73.92179497612906,25.547968478732997],[73.91915825737911,25.54944064670177],[73.91953260633747,25.550508897569983],[73.92066596137218,25.550827907986644],[73.9213837348099,25.549716525607977],[73.9220345052091,25.549742296007395],[73.92330186632009,25.551110297309407],[73.92444986979237,25.551383463542066],[73.92558078342077,25.552226291233083],[73.9261056857645,25.553338758680937],[73.92748155382012,25.55377414279556],[73.92627115885486,25.554345431858025],[73.92674045138958,25.55478054470528],[73.92960150824732,25.55582790798654],[73.93000515408059,25.55497260199695],[73.93055013020901,25.555560980903167],[73.9313305664069,25.55582790798654]]]]},"properties":{"id":"18962"}}]}