{"type":"FeatureCollection","features":[{"type":"Feature","geometry":{"type":"MultiPolygon","coordinates":[[[[80.86711751617969,23.749118695934783],[80.86713980823393,23.75129030440468],[80.86729585243951,23.751562257155452],[80.86796030349657,23.752003699022563],[80.86867819827998,23.752003776262985],[80.86907505572037,23.751829813339356],[80.86924891243379,23.751455233099794],[80.86924891243379,23.750269187185054],[80.86963690116173,23.749849982084374],[80.87150082510647,23.74940412688751],[80.87167467654385,23.74858356481804],[80.87149187499794,23.748200087159876],[80.8705643512429,23.74776313970344],[80.87010957781172,23.747763100484292],[80.86969482488861,23.74803515602897],[80.86886100626054,23.748035148725133],[80.86840613870073,23.747763124719924],[80.86755896524804,23.747941535587707],[80.86711751617969,23.749118695934783]]]]},"properties":{"id":"19553"}}]}