{"type":"FeatureCollection","features":[{"type":"Feature","geometry":{"type":"MultiPolygon","coordinates":[[[[78.90766655816006,25.28811740451394],[78.90898111979206,25.287173936631987],[78.9110199652782,25.287248263888955],[78.91248969184059,25.28778808593752],[78.91431532118085,25.288045247396056],[78.91471191406302,25.286522894965273],[78.91413004557327,25.28493869357645],[78.91229573567753,25.284120551215295],[78.91167697482692,25.282489691840283],[78.91046006944501,25.28132595486123],[78.91070068359423,25.278333333333407],[78.91053005642405,25.27621093750001],[78.90986111111144,25.275138888889146],[78.90911078559057,25.27527560763899],[78.90822591145886,25.276302625868112],[78.90835313585094,25.277886284722214],[78.90700954861151,25.280294596354366],[78.90664306640659,25.281512044270897],[78.9066224500871,25.282634548611213],[78.90533447265679,25.283744032118065],[78.90464138454914,25.282939453125124],[78.90295871310795,25.283074544270946],[78.90223253038229,25.283889431423816],[78.90362141927116,25.28637858072925],[78.903950195313,25.288536241319534],[78.90701090494841,25.288878580729232],[78.90766655816006,25.28811740451394]]]]},"properties":{"id":"19035"}}]}