{"type":"FeatureCollection","features":[{"type":"Feature","geometry":{"type":"MultiPolygon","coordinates":[[[[71.63758984718484,33.784918700259226],[71.63785738403587,33.78465111051561],[71.63974362598239,33.7846511658788],[71.6402831323218,33.78458198758459],[71.64182925671727,33.78357205695524],[71.64163202986597,33.78330001909465],[71.64136223294597,33.783032450209916],[71.64082272833119,33.782764964958446],[71.63920855506538,33.78276493593384],[71.63758984718484,33.78276492735485],[71.63758984718484,33.78249292381106],[71.63758984718484,33.78222536509534],[71.63758984718484,33.78195336000623],[71.6373223101186,33.781413833589355],[71.6373223101186,33.780878709860474],[71.63785738403587,33.78060670024412],[71.63839698394392,33.78033916732787],[71.63839698394392,33.780067156004534],[71.63785738403587,33.78006720749596],[71.63678279901788,33.78060675966762],[71.63624319651373,33.78087872656026],[71.63597122203939,33.781146302838195],[71.63570368367928,33.78141381673697],[71.63408504946054,33.78195341564776],[71.63301036183734,33.78114630062815],[71.63273838474882,33.78087874943131],[71.63219877575872,33.7803392068717],[71.63193123439837,33.78006714708428],[71.63193123439837,33.77898809453795],[71.63219877575878,33.77764143227287],[71.63273838474882,33.7765667703559],[71.63301036183734,33.77548766246433],[71.63273838474882,33.77440856680768],[71.63273838474882,33.77386904941895],[71.63301036183734,33.77306193464172],[71.63327790233515,33.77278995266629],[71.63327790233515,33.77198284181489],[71.63301036183734,33.77198279806704],[71.63219877575872,33.773061902517995],[71.63193123439837,33.77440855034156],[71.63193123439837,33.77494814531791],[71.63219877575872,33.775215686363836],[71.63219877575872,33.776027212210366],[71.63193123439837,33.77791339310744],[71.63165925643821,33.77818096468717],[71.63085330281942,33.77818096678922],[71.6305846516129,33.778452976091245],[71.63139171465585,33.77926005207017],[71.63139171465585,33.7804746426868],[71.63165925643821,33.78141382880136],[71.63193123439837,33.782225380043215],[71.63301036183734,33.78276496823716],[71.6338175096005,33.78357202270158],[71.63408504946054,33.783839545170196],[71.63408504946054,33.784111623525774],[71.6338175096005,33.784379119063146],[71.63327790233515,33.78437913694866],[71.63301036183734,33.78465115619498],[71.63301036183734,33.785190695215206],[71.63354544262657,33.785458190617746],[71.63462456488216,33.785725768512776],[71.63597122203939,33.78599775018259],[71.63678279901788,33.78599779187333],[71.6373223101186,33.785725750537466],[71.6373223101186,33.78519065110791],[71.63758984718484,33.784918700259226]]]]},"properties":{"id":"37028"}}]}