{"type":"FeatureCollection","features":[{"type":"Feature","geometry":{"type":"MultiPolygon","coordinates":[[[[73.90554279191073,31.25448222100171],[73.88882294291804,31.247608505304456],[73.88090102524487,31.242679412697413],[73.87629609867352,31.23093684994032],[73.86767055252724,31.219931842788625],[73.85755784325264,31.220824140665712],[73.85666554537553,31.224690764800286],[73.8623167652643,31.23212658044332],[73.86886028303039,31.239859828712184],[73.86529109152164,31.251459701115778],[73.8614244673872,31.255326325250167],[73.86915771565614,31.262167275642113],[73.8795341379221,31.265443010896803],[73.88715095801868,31.26024128009915],[73.88432677956806,31.259192949384726],[73.87570123342223,31.252649431618792],[73.88417854041987,31.24965204240364],[73.89681131521459,31.25726886250051],[73.91353116420751,31.265257234797048],[73.91555720526966,31.271387687039436],[73.91912639677841,31.274064580671165],[73.9209622082042,31.272502502693797],[73.92040487990451,31.268786980695467],[73.91615207052129,31.261274977764828],[73.90554279191073,31.25448222100171]]]]},"properties":{"id":"4677"}}]}