{"type":"FeatureCollection","features":[{"type":"Feature","geometry":{"type":"MultiPolygon","coordinates":[[[[76.09770372178829,23.7277339680994],[76.09791788736973,23.726952311198332],[76.10054857042078,23.727656792535143],[76.10287150065082,23.725208875868447],[76.10499220106337,23.725167236328716],[76.10332553439648,23.72084120008722],[76.10302530924449,23.719232855903257],[76.09932162814673,23.718000895182698],[76.09816365559871,23.716704915365014],[76.09633592393644,23.71586602105083],[76.09464341905354,23.715550130208726],[76.09402777777754,23.71486111111156],[76.0933835177951,23.71543674045185],[76.09392740885394,23.716437581380646],[76.09387213812923,23.717363959418932],[76.0913479953339,23.718047688802443],[76.09142896864128,23.716689046224445],[76.0877699788409,23.716118977864994],[76.08712978786875,23.715771077474443],[76.08667446560307,23.716554226345977],[76.08869974772134,23.717560221354603],[76.08830837673602,23.718650987413596],[76.08649244520379,23.71854275173655],[76.08579393174907,23.718922390408423],[76.08584404839402,23.7197629123269],[76.0918839518229,23.719515380859747],[76.09319356282529,23.721319851346024],[76.09484395345035,23.722280680338926],[76.09582553439665,23.723547363281725],[76.09477640787756,23.727464463976204],[76.09249220106327,23.72776991102475],[76.09170803493927,23.728196072049087],[76.09353752983938,23.730000406901638],[76.09533067491296,23.730874159071632],[76.09593146430123,23.732183159722794],[76.09706332736519,23.73249213324698],[76.09783671061192,23.730143093533385],[76.09917446560328,23.729730088976083],[76.09971442328552,23.729302164713914],[76.09770372178829,23.7277339680994]]]]},"properties":{"id":"9622"}}]}