{"type":"FeatureCollection","features":[{"type":"Feature","geometry":{"type":"MultiPolygon","coordinates":[[[[79.56029296875059,29.337762383355397],[79.55958333333368,29.336805555555912],[79.55864691840307,29.33707329644146],[79.5583517795142,29.339444444444737],[79.5588091362853,29.343120795356256],[79.55760742187536,29.345455457899646],[79.55612657335107,29.34730753580766],[79.55654324001793,29.348595716688735],[79.55842556423661,29.347949150933488],[79.56095757378503,29.345173882378873],[79.56230088975755,29.343334554036886],[79.56195963541737,29.341373494466595],[79.56029296875059,29.337762383355397]]]]},"properties":{"id":"17977"}}]}