{"type":"FeatureCollection","features":[{"type":"Feature","geometry":{"type":"MultiPolygon","coordinates":[[[[75.29571093750016,25.60813867187501],[75.29635156250012,25.60769140625021],[75.29756640625018,25.607808593750008],[75.29780859375009,25.60794140625002],[75.29806640625011,25.608058593750087],[75.29855859375024,25.608441406250094],[75.29881640625021,25.60855859375006],[75.29905859375012,25.608691406250088],[75.30006640625007,25.60880859374997],[75.30030859375009,25.608941406249983],[75.3008164062501,25.60905859375005],[75.30130859375012,25.609441406250056],[75.3015664062502,25.609558593750123],[75.3020273437501,25.609808593750103],[75.30305859375025,25.609675781250175],[75.3024414062501,25.60905859375005],[75.30218359375007,25.608941406249983],[75.30194140625011,25.60880859374997],[75.30143359375009,25.608691406250088],[75.3004414062502,25.607808593750008],[75.30018359375012,25.60769140625021],[75.29994140625021,25.6075585937501],[75.29968359375025,25.607441406250047],[75.29944140624994,25.60730859375012],[75.29918359375009,25.607191406250053],[75.29844140625008,25.606558593749966],[75.29773828125016,25.606395507812493],[75.29755859375027,25.606066406250136],[75.29733203125002,25.605576171875185],[75.2961835937501,25.605441406250208],[75.29569140625009,25.605058593750115],[75.29543359375006,25.604941406250134],[75.2951914062501,25.60480859375012],[75.29441796875014,25.60468847656263],[75.29425000000012,25.604500000000186],[75.29305859375026,25.604558593750042],[75.29281640625007,25.604691406250154],[75.29255859375027,25.60480859375012],[75.29156640624993,25.605691406250017],[75.29080859375009,25.605808593750083],[75.29031640625018,25.60619140625009],[75.28933593750006,25.60634375000015],[75.28919140625018,25.607566406250086],[75.28905859375024,25.607808593750008],[75.28889453125001,25.60851171875001],[75.28856640625017,25.608691406250088],[75.28830859375009,25.60880859374997],[75.28806640625018,25.608941406249983],[75.28758593750004,25.609161132812716],[75.28719140625006,25.60972753906252],[75.28730859375005,25.610441406250203],[75.28755859375005,25.610901367187623],[75.28740625000003,25.611755859375037],[75.28706640624992,25.611941406250054],[75.28630859375008,25.612058593750106],[75.28581640625018,25.612441406250028],[75.28489062500003,25.61258496093764],[75.28444140625007,25.61322656250009],[75.28469140625018,25.613683593750096],[75.28480859375006,25.613941406250063],[75.28494140625006,25.61418359375007],[75.28505859375005,25.61469140625003],[75.28519140625016,25.614933593749953],[75.2853085937501,25.615691406249994],[75.28544140625004,25.6159335937501],[75.28565625000013,25.616400390625117],[75.28755859375005,25.618191406250176],[75.28831640625006,25.61830859374996],[75.28896093750015,25.618808593749947],[75.28969140625017,25.618691406250065],[75.29043359375007,25.618058593750064],[75.2918320312501,25.617927734374987],[75.29205859375006,25.617433593750135],[75.29229296875016,25.616999999999976],[75.29205859375006,25.6165664062501],[75.29194140625017,25.614808593750098],[75.29169140625007,25.61434863281258],[75.29180859375023,25.613683593750096],[75.29194140625017,25.61344140624999],[75.29205859375006,25.612433593750055],[75.29269140624993,25.61169140625006],[75.2928085937501,25.611183593750013],[75.2929414062501,25.61094140625009],[75.29315625000018,25.610469726562698],[75.2939335937501,25.609808593750103],[75.2951914062501,25.60969140625005],[75.29543359375006,25.609558593750123],[75.29593359375,25.60933007812511],[75.2959765625001,25.608621093750088],[75.29571093750016,25.60813867187501]]]]},"properties":{"id":"27053"}}]}