{"type":"FeatureCollection","features":[{"type":"Feature","geometry":{"type":"MultiPolygon","coordinates":[[[[79.69205859374998,23.637435546875082],[79.6944414062502,23.634939453124986],[79.69455859375014,23.634484375000113],[79.69417187500008,23.6339189453125],[79.69366796875019,23.633682617187617],[79.69350000000017,23.63350000000011],[79.69280859375013,23.633560546875003],[79.69218359375012,23.63406933593771],[79.69192578125003,23.634059570312502],[79.69169140625004,23.633560546875003],[79.69098437500006,23.633439453125135],[79.69032421875002,23.633893554687702],[79.69019140625008,23.635314453125105],[79.68979296875003,23.63583203125009],[79.6893085937501,23.63606054687517],[79.68898828125,23.636230468750142],[79.6883203125,23.63571875000011],[79.68819140625007,23.633810546875083],[79.6880351562501,23.633521484375095],[79.6869257812501,23.63356542968755],[79.68669140625005,23.634064453125063],[79.68630859375023,23.634560546874965],[79.68619140625023,23.63488281250008],[79.68656640625002,23.635060546875124],[79.68692187500008,23.63524902343748],[79.6870585937501,23.636689453125],[79.68719140625021,23.63693554687501],[79.68730859375015,23.63718945312499],[79.6874414062502,23.637435546875082],[79.68755859374997,23.637922851562706],[79.68679687500023,23.6388271484376],[79.68682031250009,23.639427734375104],[79.68946093750017,23.639560546875046],[79.68993359375011,23.639310546875052],[79.69069140625024,23.639189453125084],[79.69158203124996,23.63841406249996],[79.69180859375015,23.63793554687497],[79.69194140625021,23.637689453124963],[79.69205859374998,23.637435546875082]]]]},"properties":{"id":"19611"}}]}