{"type":"FeatureCollection","features":[{"type":"Feature","geometry":{"type":"MultiPolygon","coordinates":[[[[80.46695614284911,28.08804890950583],[80.46680555555523,28.08763888888953],[80.46584367540154,28.088343641493708],[80.46420494927273,28.089074842665582],[80.46364332411,28.091126980252383],[80.46349941677502,28.09291775173672],[80.46445777045349,28.096100802952037],[80.46501034206781,28.095843641493687],[80.46528228759738,28.09141452365516],[80.46617960611954,28.089050021701993],[80.46692749023427,28.088405626085745],[80.46695614284911,28.08804890950583]]]]},"properties":{"id":"18438"}}]}