{"type":"FeatureCollection","features":[{"type":"Feature","geometry":{"type":"MultiPolygon","coordinates":[[[[102.30526692120978,13.035990168288578],[102.30607400724094,13.035722616408904],[102.3066136111465,13.035722638462644],[102.3071531303049,13.035990187665348],[102.30822780852284,13.035183127155378],[102.31011398030196,13.034915523272232],[102.31038601937442,13.034375984252009],[102.31011398030196,13.034103991811179],[102.3098464845942,13.033836441395934],[102.3098464845942,13.033029317716569],[102.31011398030196,13.032489833906766],[102.31065351637605,13.03195025521687],[102.31146509676827,13.031143156744093],[102.31146509676827,13.030331568087377],[102.31146509676827,13.029792065332188],[102.31146509676827,13.027905809695085],[102.31119305506391,13.026019678052833],[102.31092555676875,13.02521257242961],[102.3099155658144,13.024944976189076],[102.30876733548794,13.023054344600183],[102.30876733548794,13.022786764477502],[102.30903937128139,13.022247203753935],[102.30930686505783,13.021979668978176],[102.31011398030196,13.02197966142333],[102.31065351637605,13.02197970002392],[102.31092555676875,13.021440144348759],[102.31119305506391,13.020093518048867],[102.31092555676875,13.019821503267238],[102.31092555676875,13.019281961147541],[102.31119305506391,13.019014434672528],[102.31146509676827,13.018742377067909],[102.3117326837179,13.018474847834824],[102.31200018394432,13.01847480438336],[102.31227222761609,13.01847480184992],[102.31307927694186,13.018207316014582],[102.31415838035994,13.017667773697355],[102.31469793598112,13.017395759427671],[102.31469793598112,13.016321112408022],[102.313890874968,13.01578151132314],[102.31361882735271,13.015509553512658],[102.31361882735271,13.014969949130943],[102.31415838035994,13.014702432950443],[102.31469793598112,13.014162874445631],[102.31550500283302,13.012544264589181],[102.31469793598112,13.01254426492153],[102.31281177412816,13.012816209320448],[102.31068674511428,13.012816216233759],[102.31038601937442,13.013083778869898],[102.31065351637605,13.01335578473146],[102.31065351637605,13.013623342045904],[102.31038601937442,13.014162897154932],[102.31011398030196,13.014430453364568],[102.30957890216277,13.014430446672051],[102.30930686505783,13.014430442530838],[102.3084997556438,13.014162867834031],[102.30822780852284,13.013895383732233],[102.30634158126387,13.013623372417868],[102.30553449330145,13.013083822986246],[102.30499498196733,13.012544236148727],[102.30499498196733,13.01146960166946],[102.30553449330145,13.010118519815691],[102.30580206603119,13.00958338051899],[102.30607400724094,13.009043807524435],[102.30634158126387,13.008771823797431],[102.3066136111465,13.00877183628397],[102.3066136111465,13.009043872993573],[102.30688109911088,13.00904384344814],[102.3071531303049,13.008771818766874],[102.3071531303049,13.008504269591086],[102.3066136111465,13.008232251198024],[102.30526692120978,13.008232316083465],[102.30445538589518,13.008504263743234],[102.30391587977991,13.008771825944336],[102.3004154430262,13.009850976604724],[102.30014342825339,13.009850957272988],[102.29987586910616,13.009583425910762],[102.299603855654,13.009311361982313],[102.299603855654,13.008504294034282],[102.30014342825339,13.007964695707287],[102.30095501956006,13.00796471152664],[102.30122258130334,13.007964771884218],[102.30176207438356,13.007964769009803],[102.30176207438356,13.00661812987299],[102.30149005633191,13.006346074226613],[102.30095501956006,13.00607857091903],[102.30095501956006,13.005538988896404],[102.30149005633191,13.004999452409365],[102.30176207438356,13.004731929042265],[102.30230165743026,13.00445989557548],[102.30310872200951,13.004459870323856],[102.30310872200951,13.004731899999712],[102.30337628891809,13.004999417743221],[102.30391587977991,13.004999410197613],[102.30391587977991,13.003920354372298],[102.30364831156905,13.00338521258746],[102.30337628891809,13.001494565626075],[102.30337628891809,13.0009594946914],[102.30364831156905,13.000687496725917],[102.3041878163904,13.0004199664058],[102.3047274111781,13.00041996430393],[102.3047274111781,13.000687497157216],[102.30499498196733,13.000687472480337],[102.30499498196733,13.000147921629221],[102.30391587977991,12.999880388470572],[102.30337628891809,12.999880387688975],[102.30310872200951,13.000147942667951],[102.30176207438356,13.00068750919452],[102.30095501956006,13.000147962853049],[102.30095501956006,12.999073255304936],[102.30095501956006,12.998801323141308],[102.3004154430262,12.998801313286876],[102.30014342825339,12.99907330399364],[102.29987586910616,12.999340855136651],[102.29987586910616,12.999880410640927],[102.30014342825339,13.000419950092535],[102.30068300347577,13.000687494102863],[102.30095501956006,13.000959456773373],[102.30095501956006,13.001226993893653],[102.30068300347577,13.001494592377924],[102.29987586910616,13.001494605619058],[102.299603855654,13.001494578759392],[102.29933638514379,13.001494593303136],[102.2990688279281,13.001766551589952],[102.2990688279281,13.003385262623524],[102.29879681644323,13.003652780654633],[102.29825725035656,13.003920318745159],[102.29798969572815,13.003920337771362],[102.2977176868753,13.003652764736515],[102.2974501335494,13.003385237443851],[102.2974501335494,13.003113206222736],[102.29717812601692,13.002845719515818],[102.29664302258104,13.002845666578352],[102.29664302258104,13.003385243327585],[102.29664302258104,13.003920336100606],[102.29664302258104,13.00419236984574],[102.29637101701596,13.004731924514687],[102.2955639138631,13.005806533562378],[102.2950243634252,13.005806521776705],[102.29475681655819,13.005538985886986],[102.29475681655819,13.005271434007312],[102.29475681655819,13.004731931862935],[102.29448481560152,13.004459864529736],[102.2942172700281,13.004192329502544],[102.29394527039167,13.00419229780097],[102.29205911003922,13.004192336832588],[102.29151957657953,13.00473190498532],[102.29151957657953,13.005271412393853],[102.29151957657953,13.005538966878547],[102.28990535906271,13.006346104050849],[102.2885542417973,13.006885626326593],[102.2885542417973,13.007425148368483],[102.28882622827322,13.007697232347653],[102.28909376090198,13.007964697144445],[102.28936583603254,13.008232289933531],[102.29017289427858,13.008232299168014],[102.29044488470717,13.008504294716943],[102.29044488470717,13.00958334987736],[102.29044488470717,13.009850914971267],[102.29044488470717,13.010390447460892],[102.28990535906271,13.01093005257907],[102.28882622827322,13.011197589977883],[102.28801917978265,13.012009184321002],[102.28774710793985,13.01227672823255],[102.28640047126444,13.012276701444733],[102.28586096522142,13.012276677522536],[102.28532137444924,13.012276656439141],[102.28532137444924,13.01254423174683],[102.28559335302864,13.012816243689926],[102.286667998063,13.013623368366538],[102.28828671047106,13.014702437765166],[102.29097995838166,13.014702444233151],[102.29125195077748,13.014969960737119],[102.29151957657953,13.015242000222727],[102.29151957657953,13.015509577237054],[102.29125195077748,13.015781580026413],[102.2907124212256,13.017395771348347],[102.29125195077748,13.018207324566575],[102.29125195077748,13.019281978404322],[102.29044488470717,13.020093478244718],[102.28990535906271,13.020093477031722],[102.28963336995488,13.020093452992825],[102.28909376090198,13.019821463777134],[102.2885542417973,13.019821458782559],[102.2885542417973,13.021236151817092],[102.28747957855401,13.02251926042402],[102.28640047126444,13.022786765321896],[102.28640047126444,13.024405480281033],[102.28613294511254,13.024673017032981],[102.28586096522142,13.024944995980974],[102.28559335302864,13.025212538329598],[102.28532137444924,13.025212513095923],[102.28505385088434,13.025480051860129],[102.28505385088434,13.02629167195775],[102.28532137444924,13.026291650766524],[102.28613294511254,13.025752060856703],[102.28694006727372,13.025212513455102],[102.2885542417973,13.024945031419733],[102.28990535906271,13.02467295239039],[102.29017289427858,13.024673012837937],[102.29044488470717,13.024945032650393],[102.29044488470717,13.025752062267216],[102.2907124212256,13.027098763747148],[102.29125195077748,13.027098751574925],[102.29151957657953,13.026831201069541],[102.29259864612206,13.025752053346793],[102.2928661878058,13.025480109558956],[102.2931381848098,13.024945015627395],[102.29340572778713,13.024672987828794],[102.29394527039167,13.024672972934837],[102.29475681655819,13.025212563895735],[102.2950243634252,13.02548012835156],[102.29529191093908,13.025752093636342],[102.29583146267046,13.026559180619543],[102.29583146267046,13.027098780410881],[102.29583146267046,13.028177814766352],[102.2955639138631,13.028717371681054],[102.2977176868753,13.02898489952183],[102.29852926052112,13.02898495923273],[102.2990688279281,13.029252526572478],[102.299603855654,13.029792054749905],[102.3004154430262,13.030871149382392],[102.30149005633191,13.032217765279768],[102.30256922240736,13.033836434299204],[102.30256922240736,13.036529735596744],[102.30284115573906,13.036529734204436],[102.3047274111781,13.036262153560756],[102.30526692120978,13.035990168288578]]]]},"properties":{"id":"40309"}}]}