{"type":"FeatureCollection","features":[{"type":"Feature","geometry":{"type":"MultiPolygon","coordinates":[[[[103.50557183159734,14.80774541219094],[103.50706380208342,14.806412302653158],[103.50918674045144,14.806538814968718],[103.51050591362863,14.80582187228758],[103.51084852430571,14.801446380615587],[103.51163194444442,14.800746392144305],[103.51465386284738,14.800097774929696],[103.51624484592006,14.798986375597053],[103.5192955186632,14.799803382026042],[103.52047281901045,14.798485700819327],[103.52079915364604,14.797045559353506],[103.51802924262168,14.79568239000136],[103.51675238715276,14.796314629449085],[103.51508734809065,14.796215379503309],[103.51270968967012,14.793757019043127],[103.51276529947913,14.792824791802488],[103.51339735243081,14.791661393907575],[103.5144552951389,14.792400292290765],[103.51565565321184,14.792328745524301],[103.5160799153646,14.79095464070663],[103.51760145399325,14.79213367038328],[103.51942382812516,14.792091946072347],[103.52042426215272,14.791732923719778],[103.51937879774326,14.79038369072832],[103.51943196614602,14.78949145846913],[103.51998155381963,14.788480038113306],[103.52040445963556,14.786662733290242],[103.5194406467015,14.785702243381294],[103.51738959418404,14.787447170681546],[103.51448025173605,14.787398783366058],[103.5115006510417,14.789997609456563],[103.5066178385417,14.791949005127123],[103.50254150390643,14.794678446452082],[103.49875705295139,14.794452870686996],[103.49609971788217,14.795164608425694],[103.49448649088558,14.7950684611004],[103.49303710937491,14.796257815891053],[103.49139485677077,14.796519961887242],[103.48875596788187,14.795358445909443],[103.48715494791665,14.791519131130812],[103.4871790907118,14.786941596137453],[103.4860438368058,14.784852464464109],[103.48553710937514,14.780686645508098],[103.48511257595479,14.780000000000172],[103.48418619791667,14.780286085340919],[103.48384168836824,14.782860582139875],[103.48182834201381,14.785227423774018],[103.48267252604163,14.787257317437309],[103.4816324869793,14.788186628553817],[103.48136691623259,14.79073488023566],[103.48029269748261,14.791694675021887],[103.47998155381944,14.790686628553985],[103.47867296006947,14.789091678195717],[103.47705566406265,14.787646738688295],[103.47458685980902,14.788307969835373],[103.47372775607656,14.790179833306354],[103.47538357204857,14.792316521538837],[103.47579915364602,14.795424482557777],[103.47621988932312,14.796198832194193],[103.48220377604176,14.801242184109299],[103.48410481770841,14.803369835747816],[103.48542426215315,14.80564498901387],[103.48715033637157,14.807187211778569],[103.4880371093752,14.809019961887131],[103.48834174262149,14.810330030653489],[103.49007948133689,14.811591152615193],[103.4923605685764,14.81246266682976],[103.49410210503484,14.814411655002388],[103.49795762803811,14.81643786960214],[103.50222086588539,14.819789496528088],[103.50327473958359,14.820131072998223],[103.5048068576389,14.817721947564152],[103.50524359809029,14.816143646240462],[103.50193684895837,14.814295416938066],[103.50137044270829,14.812777353922769],[103.5027248806426,14.810586174859154],[103.50414822048609,14.810146704779896],[103.50501790364572,14.809539099799437],[103.50557183159734,14.80774541219094]]]]},"properties":{"id":"10317"}}]}