{"type":"FeatureCollection","features":[{"type":"Feature","geometry":{"type":"MultiPolygon","coordinates":[[[[103.96029622395545,16.980490993923937],[103.96144883897287,16.979735243055828],[103.96266764322618,16.98015245225733],[103.96366400824368,16.98013210720528],[103.9640974934866,16.97746880425386],[103.96551432291383,16.97795383029542],[103.97018012152492,16.97516574435791],[103.97204698350382,16.972967936198188],[103.97448893228878,16.973594021267658],[103.97763699001453,16.973191460503912],[103.98121148003193,16.973207736545405],[103.98240180121226,16.972902832031593],[103.98338161892062,16.97188286675376],[103.98260904947622,16.970383300781563],[103.9808517795112,16.969231228298995],[103.97912190754934,16.96743082682326],[103.97572157117767,16.964645724826767],[103.97540934244492,16.961132541232956],[103.973815917966,16.95903266059061],[103.97117811414651,16.960173882378868],[103.9700973849796,16.96129882812538],[103.970163574216,16.964543457031553],[103.96982503254927,16.965200737847553],[103.9688156466984,16.966170518663645],[103.96701741536165,16.9648060438371],[103.96625271267064,16.962042643229466],[103.96680121527473,16.96005886501773],[103.96537597655956,16.95900254991345],[103.96373182508401,16.95729112413227],[103.96217909070882,16.95768907335109],[103.95941351996228,16.957632649739978],[103.96054361978864,16.953898383246795],[103.96181939018791,16.950949707031597],[103.96181559244516,16.949513888889257],[103.96372477213257,16.947679578993373],[103.96475260416358,16.946292860243403],[103.96420003254926,16.945220269097547],[103.96273003471916,16.946750488281538],[103.96013075086503,16.94849175347251],[103.96013536241023,16.949613986545558],[103.95497178819144,16.954785698785088],[103.95430826822636,16.953975965712047],[103.95500732421598,16.951248101128755],[103.95429904513614,16.949873046875368],[103.9546237521673,16.94860595703156],[103.95113037109078,16.946719835069842],[103.95033311631656,16.94713053385442],[103.94910834418121,16.94840549045169],[103.94871880425049,16.95000352647591],[103.94831542968464,16.95069173177106],[103.94703586154239,16.949824218750265],[103.94708740234077,16.9472957356774],[103.9484817165771,16.944589301215515],[103.94742648654218,16.943198513455187],[103.94689643011853,16.941025119358045],[103.94481743706288,16.94152398003517],[103.9429492187472,16.940884602864855],[103.94353976779232,16.93973795572957],[103.94586886935477,16.93898220486136],[103.94624728732336,16.93816460503504],[103.94345920138599,16.935363498264152],[103.94347954643811,16.934368218316266],[103.94605170355615,16.935027398003726],[103.94796549478869,16.936572265625287],[103.95016411675047,16.935680338541985],[103.95013509114281,16.93426378038224],[103.9487950303791,16.93297634548638],[103.94708062065664,16.932641601562878],[103.94606553819156,16.931953667534998],[103.94569715711506,16.929267035590613],[103.94940266926815,16.927469346788527],[103.95121310763594,16.927027994791985],[103.95236816405966,16.928229980469013],[103.95291395399002,16.928164605035064],[103.95153049044839,16.925092773437797],[103.95294542100388,16.92234646267393],[103.95147488063967,16.92237630208362],[103.9490275065074,16.92492377387181],[103.94703993055256,16.925707736545434],[103.94623046874719,16.92569118923639],[103.94518256293108,16.92460042317741],[103.94396592881654,16.92399169921906],[103.94266303168123,16.922635633680883],[103.94096381293107,16.92208414713592],[103.94099636501434,16.920486924913533],[103.93958062065693,16.92014160156282],[103.93903049044835,16.919751790364998],[103.94014729817431,16.91791015625037],[103.94013536241019,16.917330457899624],[103.93824300129907,16.915512424045502],[103.94229573567449,16.9145182291669],[103.94263617621263,16.912080620660035],[103.94324842664636,16.90996446397601],[103.94236490885115,16.90704155816006],[103.94414143879922,16.905334743923888],[103.94314208984068,16.9030219184031],[103.94061170789624,16.901231825087024],[103.93931884765331,16.901258138021177],[103.9381296115424,16.900851236979506],[103.93625271267078,16.899124620225933],[103.93884006076078,16.896042480469106],[103.93805555555261,16.895277777778148],[103.93735649956298,16.89550455729207],[103.9350097656222,16.897474500868427],[103.93222683376436,16.898572048611342],[103.93114501952832,16.899698350694763],[103.93221354166386,16.901772189670424],[103.93468939886864,16.9009247504343],[103.9361637369764,16.901302625868354],[103.93943684895547,16.903287489149648],[103.93989312065705,16.904692925347646],[103.93892089843442,16.909153645833612],[103.94095648871226,16.91048828125028],[103.94004828558727,16.9122512478302],[103.93791124131658,16.912772352430835],[103.93585964626433,16.914328884548866],[103.93372965494493,16.914285210503778],[103.93374674478858,16.918213975694727],[103.93290256076111,16.919025065104506],[103.9329212782088,16.91995117187524],[103.93683946397275,16.922391764323194],[103.93810980902472,16.924329427083748],[103.93713378905963,16.92718098958366],[103.93861002603884,16.9285991753476],[103.93958062065693,16.93073513454901],[103.93660617404205,16.93370795355935],[103.9360701497366,16.934025065104464],[103.93411349826081,16.931557074653],[103.93197862412896,16.930521375868565],[103.93097222221914,16.92844672309056],[103.92954861110829,16.928475748698247],[103.92822102864281,16.92709418402812],[103.92606743706298,16.925873209635768],[103.92401502820897,16.926399197048866],[103.92261935763602,16.925680067274726],[103.92264268662896,16.924539659288556],[103.92325547959771,16.922749294705298],[103.9218980577227,16.919992404514147],[103.9215304904483,16.918426106771264],[103.92260904947628,16.91597493489627],[103.92146592881645,16.91656385633705],[103.9205878363687,16.917477484809297],[103.92005832247989,16.919649793837067],[103.91802517360813,16.92098307291701],[103.91468126084769,16.920984429253835],[103.91301405164623,16.91971950954894],[103.91260199652501,16.918029513889252],[103.91136800129945,16.917430826823292],[103.91021294487567,16.91802598741343],[103.91139431423304,16.91916124131987],[103.91180284287887,16.920419379340657],[103.91265597872976,16.921826171875395],[103.91380859374723,16.922385525173908],[103.91930799695879,16.92236409505233],[103.92002251518798,16.92199598524347],[103.92096950954559,16.92266872829886],[103.91837266709777,16.925259602864955],[103.91954752603866,16.927197265625324],[103.91985839843491,16.928496907552386],[103.91859890407696,16.93035481770859],[103.91577880859066,16.933064236111562],[103.91655761718462,16.933747287326625],[103.91788818359069,16.93306179470511],[103.92042670355593,16.931012641059326],[103.92374782985817,16.930413682725984],[103.9240473090247,16.93041992187537],[103.92533989800049,16.93176540798642],[103.92794406466712,16.93208360460099],[103.92896185980604,16.933142632378818],[103.92723659938954,16.93588541666695],[103.92670600043121,16.938061252170456],[103.92531629774007,16.939396701389228],[103.92577121310464,16.94027967664968],[103.9275461154484,16.93907660590311],[103.92875515407687,16.936228841146118],[103.92934868706297,16.935658365885757],[103.93155327690712,16.93570339626767],[103.9326361762123,16.938502061632363],[103.93190131293122,16.939928385416962],[103.93402506510117,16.941012912326656],[103.9334681532089,16.942639702691295],[103.93430284287919,16.94390136718782],[103.93140543619492,16.9462982855906],[103.93185248480611,16.947166069878847],[103.93411593966724,16.94650960286495],[103.93521891275762,16.9465321180559],[103.93634195963253,16.948047146267683],[103.93680284287919,16.950435655382165],[103.93623589409438,16.950980360243477],[103.9348746744761,16.950952690972514],[103.93330268011877,16.951762424045455],[103.93402506510117,16.95386908637191],[103.93180284287914,16.95430284288227],[103.93001085069139,16.955749511719077],[103.92898328992791,16.95539767795171],[103.92654703775739,16.955397135416987],[103.9254120551187,16.956258409288495],[103.92431749131643,16.9562361653649],[103.92302056206321,16.957220052083585],[103.92391248914632,16.959418945312763],[103.92312608506663,16.961716308594063],[103.92150716145554,16.962501627604425],[103.91965359157697,16.96202663845517],[103.91875271267074,16.962690700955264],[103.92124728732355,16.965179578993514],[103.92067816839997,16.96684244791696],[103.91846950954553,16.96791395399336],[103.9176416015595,16.968669976128737],[103.91934977213245,16.969789767795504],[103.92330729166363,16.966376681857895],[103.92717719183727,16.96084065755244],[103.92959852430275,16.96005479600727],[103.93096950954586,16.96019070095518],[103.93012939452828,16.963467881944695],[103.93091552734066,16.964302842882248],[103.93267523871239,16.962882215712213],[103.93439832899011,16.96028672960111],[103.93541829426798,16.960977918837088],[103.93599093966705,16.959526095920623],[103.93596001518816,16.958006998698295],[103.93711859808721,16.9576310221357],[103.93783230251435,16.95764567057327],[103.93822347004934,16.95885118272595],[103.93819064669859,16.960464952257382],[103.93730007595204,16.962193739149598],[103.9377623155352,16.963544650607943],[103.94046413845197,16.964880099826715],[103.9415435112821,16.96485785590312],[103.94314805772277,16.96241075303851],[103.94516737195906,16.962081976996828],[103.94699896918095,16.960175781250328],[103.9480848524278,16.959648980035055],[103.95016194661159,16.96070149739606],[103.95084391275745,16.961411404080167],[103.94907389322614,16.963174641927367],[103.94597493489309,16.965516764323212],[103.94685167100417,16.96624728732681],[103.9489938693549,16.965143771701705],[103.95258436414647,16.964187011719005],[103.956114095049,16.96179416232677],[103.95696397569165,16.961811523437717],[103.95790310329576,16.96374755859418],[103.95892849392064,16.964245062934395],[103.958430718313,16.965211046007298],[103.95596950954561,16.9656917317712],[103.95426649305281,16.967121039496888],[103.95330864800044,16.96909532335107],[103.95569498697628,16.9687467447919],[103.95723198784438,16.96906168619836],[103.96009901258387,16.969003092448247],[103.96071370442425,16.969319661458627],[103.96154622395548,16.971035970052455],[103.96150417751434,16.97310411241355],[103.96055962456299,16.97449761284753],[103.95886284721925,16.975136176215486],[103.95641764322627,16.974310709635688],[103.9559749348928,16.97501166449686],[103.95820827907707,16.97682562934054],[103.9581911892333,16.97765842013935],[103.95755886501453,16.97826578776079],[103.95642361110819,16.977877332899624],[103.95569715711522,16.97802788628502],[103.9570860460041,16.979858398437898],[103.95735839843448,16.98061631944492],[103.95613254122983,16.98223144531282],[103.95770155164647,16.983191731771072],[103.96029622395545,16.980490993923937]],[[103.93966335720202,16.951130913628788],[103.9392602539032,16.949559733073173],[103.94055555555278,16.949444444444836],[103.94127549912892,16.950113389757234],[103.9420038519934,16.9514900716149],[103.94120930989303,16.95178005642404],[103.93966335720202,16.951130913628788]],[[103.9373814561603,16.94716796875022],[103.93801432291363,16.94614583333383],[103.93916666666391,16.94583333333364],[103.94024603949387,16.94671956380239],[103.93915337456335,16.948057725694795],[103.93771050346916,16.949007432725935],[103.9373814561603,16.94716796875022]]]]},"properties":{"id":"1906"}}]}