{"type":"FeatureCollection","features":[{"type":"Feature","geometry":{"type":"MultiPolygon","coordinates":[[[[77.13613471137168,25.061089952257177],[77.13605685763903,25.05978461371548],[77.13647650824672,25.057536349826464],[77.13886569552969,25.057556423611146],[77.13951836480047,25.056530490451465],[77.1443187120228,25.056649305555624],[77.14555501302098,25.05751302083341],[77.14693806966184,25.05665798611119],[77.14832071940126,25.056740451388904],[77.14837361653682,25.055852322048793],[77.14453531901077,25.05496961805561],[77.14323296441009,25.055047200520946],[77.14041978624144,25.054446072048606],[77.13582424587693,25.054114040798567],[77.13501152886326,25.053388129340334],[77.13513888888926,25.052083333333528],[77.13365912543438,25.052281358506946],[77.13334201388906,25.054729817708377],[77.1326858181425,25.05503092447927],[77.13160359700575,25.056579861111118],[77.13169026692728,25.0580343967014],[77.13111897786482,25.05908582899312],[77.13250000000042,25.059125434027848],[77.13283772786494,25.060576714409663],[77.13439358181441,25.060483940972205],[77.13474582248281,25.06113226996527],[77.1346837022572,25.062173394097243],[77.13539564344629,25.06443684895838],[77.13557942708351,25.064149305555603],[77.13553643120699,25.06259494357657],[77.13613471137168,25.061089952257177]]]]},"properties":{"id":"19133"}}]}