{"type":"FeatureCollection","features":[{"type":"Feature","geometry":{"type":"MultiPolygon","coordinates":[[[[77.51170844184034,23.675412326389264],[77.51306423611103,23.67278442382863],[77.51388020833346,23.669715169271285],[77.51432128906256,23.66932115342928],[77.51484537760408,23.667623291016042],[77.51561306423625,23.666937391493533],[77.51548502604177,23.664787190755618],[77.51304768880217,23.663896755642867],[77.51173529730912,23.661548258463924],[77.51015245225685,23.661118977865115],[77.50856255425353,23.661982964410086],[77.50762396918415,23.661926947700152],[77.50723008897577,23.65951131184943],[77.50806342230888,23.657507866753917],[77.50819444444434,23.656250000000497],[77.50716932508666,23.65670749240499],[77.50665147569433,23.65783569335977],[77.50594102647554,23.658470458984823],[77.50556342230888,23.658047688802483],[77.50400146484364,23.657230088976334],[77.5034735785591,23.65838012695363],[77.5039591471353,23.65927381727475],[77.50480821397574,23.66011271158912],[77.50545545789939,23.661522759332044],[77.50444118923602,23.662553439670546],[77.50328206380189,23.663047688802394],[77.50278564453131,23.66249213324714],[77.50217095269088,23.662230088976145],[77.50156684027772,23.66290622287373],[77.50170681423626,23.665256754557774],[77.50138102213546,23.665547688802477],[77.50056722005198,23.668489583333738],[77.49923095703113,23.669102918837197],[77.49745415581592,23.67048000759587],[77.49758816189242,23.67272949218807],[77.49880371093732,23.67310479058203],[77.49915879991309,23.675007866753873],[77.49958550347216,23.675792914496952],[77.50083333333342,23.67511474609428],[77.50219102647569,23.675852457682808],[77.50249213324642,23.67778564453171],[77.50306342230888,23.678047688802707],[77.50497558593756,23.679933946397895],[77.51048638237845,23.678756510417173],[77.51170844184034,23.675412326389264]]]]},"properties":{"id":"9629"}}]}