{"type":"FeatureCollection","features":[{"type":"Feature","geometry":{"type":"MultiPolygon","coordinates":[[[[83.12644140625022,24.207056640625055],[83.12580859375001,24.206318359375146],[83.12569140625013,24.205806640625113],[83.12555859375013,24.205568359375093],[83.12544140625008,24.20530664062521],[83.12530859375002,24.20506835937502],[83.12519140625014,24.20480664062505],[83.12501953125005,24.20450000000008],[83.12530859375002,24.203995117187716],[83.12517578125002,24.2029033203125],[83.12463281249998,24.202512695312592],[83.12425000000016,24.202732421875055],[83.12394140625011,24.202556640625048],[83.12364843749995,24.202428710937582],[83.12350000000006,24.202250000000078],[83.12330859375012,24.20230664062497],[83.12281640625011,24.202693359375147],[83.12144531250001,24.20281640624998],[83.12072265625008,24.20365624999998],[83.1210664062501,24.20380664062509],[83.12130859375,24.203943359375018],[83.1226796875001,24.204066406250192],[83.12294140625013,24.204431640625202],[83.12306250000015,24.20655371093757],[83.12350000000006,24.20680371093755],[83.12412500000008,24.20644628906261],[83.1245585937501,24.20669335937491],[83.12506640625011,24.206806640624976],[83.12593750000016,24.207556640625043],[83.1265585937501,24.20741796875008],[83.12644140625022,24.207056640625055]]]]},"properties":{"id":"19389"}}]}