{"type":"FeatureCollection","features":[{"type":"Feature","geometry":{"type":"MultiPolygon","coordinates":[[[[76.32805175781286,26.459722222222368],[76.32836317274322,26.45889160156274],[76.33249728732667,26.460558268229292],[76.33494425455754,26.46103597005218],[76.33597574869796,26.462109646267493],[76.33721950954893,26.462459309896033],[76.33651652018253,26.460405544705054],[76.33418280707488,26.45964843750022],[76.32942694769977,26.456827256944564],[76.32941908094622,26.45361924913219],[76.33029446072092,26.453194715711945],[76.33122721354178,26.453675130208495],[76.33166395399323,26.452775065104447],[76.33244764539941,26.452394748264027],[76.33277506510424,26.45138617621548],[76.33458333333343,26.45047987196196],[76.33578477647578,26.451098632812702],[76.33694173177096,26.450175781250067],[76.33553995768241,26.44972086588548],[76.33655042860269,26.448750000000288],[76.33300862630247,26.447488335503678],[76.33136393229208,26.446658799913422],[76.32989569769975,26.4466886393232],[76.32930555555564,26.445694444444513],[76.32888020833346,26.446102973090362],[76.32888576931455,26.447236328125157],[76.32751193576425,26.447208387586926],[76.32500271267381,26.449196506076575],[76.32555826822923,26.450275065104265],[76.3261435275609,26.45327256944465],[76.32612481011321,26.456086968316114],[76.32533989800359,26.458022189670302],[76.32667466905414,26.460302734375205],[76.32638536241356,26.463056640625183],[76.32678819444479,26.46383897569453],[76.3278080240888,26.463313530816166],[76.32873413085971,26.46140462239603],[76.32805175781286,26.459722222222368]]]]},"properties":{"id":"9442"}}]}