{"type":"FeatureCollection","features":[{"type":"Feature","geometry":{"type":"MultiPolygon","coordinates":[[[[75.97786749945797,31.6091235351564],[75.97740370008714,31.608084038628604],[75.97319288465766,31.60710747612859],[75.9716488986551,31.6050002712675],[75.97231424967501,31.604061686198094],[75.9722511800135,31.60144476996541],[75.97041666666698,31.599861111111395],[75.96838053385446,31.600005154079966],[75.96930711534341,31.602081705729447],[75.97137858072941,31.603006184896003],[75.97012335883292,31.604673665364814],[75.96862141927133,31.605967610677226],[75.96907057020448,31.6076920572918],[75.97073133680587,31.60886962890632],[75.97112013075119,31.608900824652935],[75.97160007052995,31.60834364149315],[75.97251030816003,31.6086008029515],[75.9728047688807,31.608942599826477],[75.9748621961808,31.608777126736314],[75.97612141927115,31.609156358507093],[75.97713453504824,31.61033230251745],[75.97943413628505,31.609912651909937],[75.97889919704895,31.609434136284946],[75.97786749945797,31.6091235351564]]]]},"properties":{"id":"17131"}}]}