{"type":"FeatureCollection","features":[{"type":"Feature","geometry":{"type":"MultiPolygon","coordinates":[[[[77.03612399631086,25.20556857638894],[77.0365767415366,25.20502332899308],[77.03775661892396,25.20506835937499],[77.03784098307315,25.20424153645847],[77.03657945421045,25.201549479166715],[77.0366817220054,25.200546332465365],[77.03625000000048,25.19986111111112],[77.03314548068604,25.201016710069425],[77.03206787109403,25.202514105902978],[77.03229302300375,25.204722222222273],[77.03209920247426,25.206623263888943],[77.03612399631086,25.20556857638894]]]]},"properties":{"id":"19072"}}]}