{"type":"FeatureCollection","features":[{"type":"Feature","geometry":{"type":"MultiPolygon","coordinates":[[[[107.93678249900009,12.532629438000129],[107.93785543400011,12.532607542000093],[107.93862995300034,12.533132552000197],[107.93936220400028,12.533117608000026],[107.93962750100027,12.533372500000155],[107.94034750000017,12.534121888000158],[107.9408750000002,12.53413265300017],[107.94328187400023,12.5340835330001],[107.94387750100012,12.534372500000202],[107.94506431400029,12.535273047000103],[107.94610250100018,12.533133112000058],[107.94760334800023,12.533102483000107],[107.94939629400025,12.534026121000139],[107.95205438600024,12.534397194000206],[107.95253313100014,12.535872500000053],[107.95462041900029,12.53522446400008],[107.95462759800014,12.534872782000122],[107.95412749900007,12.533411716000018],[107.95484740800006,12.532627500000146],[107.95537749900015,12.532872500000266],[107.95562250100014,12.53312750000022],[107.9558774990002,12.533372500000155],[107.95635789100035,12.533872500000129],[107.95712250100027,12.533177680000023],[107.95679880900005,12.531122988000007],[107.95636758800018,12.529863152000047],[107.95641722100018,12.52743110100026],[107.95584637800013,12.526588966000205],[107.95513750100017,12.5251278060002],[107.95413785200034,12.5251074050001],[107.95385460700024,12.52565723600003],[107.95300197200024,12.528284737000092],[107.95177051900001,12.52911947800024],[107.95045335400013,12.52914636000007],[107.94862790700014,12.52739250000026],[107.9486177330003,12.526893951000133],[107.94937250100011,12.525622499000093],[107.95008259600016,12.524574932000277],[107.94958370600003,12.521650061000031],[107.95059808700009,12.521127501000237],[107.95137749900019,12.52137249900025],[107.95334001500012,12.522221611000248],[107.95462749900034,12.521377501000217],[107.95652768700009,12.519782360000136],[107.95885077300025,12.518655317000054],[107.9599522630003,12.517508867000046],[107.96142099400024,12.517032261000054],[107.96304209100023,12.515747007000115],[107.96412250100016,12.514622501000147],[107.96553611800019,12.51369569000029],[107.9665099980003,12.512759998000234],[107.96735413700023,12.511881409000281],[107.9681300010001,12.511505001000131],[107.96945634500017,12.510821732000181],[107.97197164200011,12.510093807000175],[107.97387229500023,12.510132599000187],[107.97387755200023,12.509875000000008],[107.97386770200032,12.509392445000131],[107.97457049900012,12.508320499000078],[107.97575735900008,12.50754235800018],[107.97663000100013,12.506255001000241],[107.97738987000022,12.50509600800018],[107.97811859100014,12.50439586300007],[107.97859638200006,12.503411034000209],[107.97912750200001,12.502627499000127],[107.98011094700021,12.501127499000276],[107.98059709400022,12.500549209000127],[107.98099961900019,12.499997250000192],[107.98158398400008,12.498833984000228],[107.98191601600027,12.498666016000186],[107.98200000000011,12.498250000000226],[107.98133398400009,12.49833398400024],[107.98058546400003,12.499826641000027],[107.98050000000015,12.50025000000015],[107.97963203400028,12.499981976000171],[107.97992240100027,12.49645724900013],[107.98086796600026,12.496117970000213],[107.98163203400011,12.495882030000232],[107.98302552000021,12.495382030000073],[107.98513203400009,12.495617970000325],[107.98578768900026,12.495974258000047],[107.98799889400007,12.495382030000073],[107.988860329,12.495912510000082],[107.99065110000024,12.495964890000153],[107.99015988900018,12.494671059000126],[107.99112249800012,12.493372501000152],[107.99162209300019,12.492892502000146],[107.9916566390003,12.491199505000125],[107.99037750200014,12.48781951900007],[107.99162017100022,12.485387856000216],[107.99287239800034,12.485362297000151],[107.9947460330001,12.486327499000069],[107.99622333500011,12.486833157000163],[107.99810515600021,12.486222500000267],[107.9981426090001,12.484387020000185],[107.99762790700018,12.483892502000131],[107.99760795600011,12.482914986000068],[107.9978775020002,12.482127502000111],[107.99824962600027,12.48098075100026],[107.9993427660003,12.479930481000139],[107.99987249800009,12.479122498000251],[108.00131250000018,12.477738968000082],[108.00187249800015,12.476651909000111],[108.00148693100024,12.475031860000101],[107.99991230000026,12.472907700000022],[107.99867545300023,12.471969185000177],[107.99642467500027,12.471238800000236],[107.99562750200019,12.469273491000152],[107.99597174100026,12.46800754500022],[107.99687209300006,12.467142502000144],[107.99690757000027,12.465404114000009],[107.9958775020003,12.464622497999997],[107.99508276400016,12.464364609000071],[107.99412750200028,12.463872498000214],[107.99242172200016,12.463539497000184],[107.99235780300003,12.460407539000215],[107.99287249800014,12.459622498000016],[107.99412249800022,12.457975151000042],[107.9937625430002,12.45672242700013],[107.99283896600033,12.456096382000112],[107.99162000300018,12.45550499700012],[107.99087750200002,12.455122498000009],[107.98992933700012,12.454662498000133],[107.98912712100017,12.453891747000227],[107.98886825600025,12.453094009000125],[107.9873974990002,12.451680931000084],[107.9871224980001,12.450877502000225],[107.98685273700008,12.448669876000082],[107.98567993200012,12.445907089000016],[107.98471014400016,12.445407501000076],[107.9842241820003,12.446485001000227],[107.9850924990001,12.447319267000154],[107.98539723200011,12.447910797000247],[107.98537240600027,12.449126968000073],[107.98562750200026,12.450622498000001],[107.98590535700012,12.454881088000107],[107.98755445900022,12.456597504000186],[107.98837249800013,12.456877502000083],[107.9895956730002,12.457274422000069],[107.98987249800027,12.458127502000224],[107.99036622600002,12.459569946000101],[107.99040177900011,12.461312149000108],[107.99011859100014,12.461895866000177],[107.98887750200018,12.463088287000161],[107.9901224980002,12.463627502000094],[107.990905991,12.463881744000176],[107.99206951900024,12.465092766000183],[107.99361519600015,12.46610615500019],[107.99390167200025,12.466943115000078],[107.993862801,12.468847740000186],[107.99533580000022,12.47132909400024],[107.99582127400018,12.471834389000122],[107.99707250200024,12.472682533000139],[107.99837249800012,12.473127502000096],[107.99937750200016,12.473372498000202],[107.99962249800015,12.47362750200007],[108.00006033300028,12.474048157000155],[108.00137249800022,12.475983932000176],[107.99998973800038,12.478480064000124],[107.99912750200028,12.47937750200012],[107.99861750000017,12.479867500000253],[107.9981275020003,12.480377502000081],[107.99766249800027,12.48082426500028],[107.9968737950002,12.482355278000128],[107.99659024000013,12.486122501000168],[107.99612249800012,12.485877499000239],[107.9953773570002,12.48537240200018],[107.99465226000015,12.485387199000073],[107.99337249800013,12.484627499000197],[107.99308394600027,12.484327171000217],[107.99187249800022,12.484622501000047],[107.9907982330001,12.48543764900026],[107.98981343100027,12.487413570000143],[107.99016862500017,12.489957928000251],[107.99137249800023,12.491733936000202],[107.99106205000012,12.492866211000006],[107.98673985300016,12.493130615000041],[107.98613735200004,12.494372501000115],[107.98578435500016,12.494045963000104],[107.98537538900027,12.493620304000146],[107.98437750200017,12.49437749900018],[107.98084843400031,12.49466522600018],[107.97916390200001,12.496283707000245],[107.97878703300003,12.499367863000174],[107.97783938600011,12.5017041400002],[107.97734027100032,12.503242229000278],[107.97537648400001,12.506550350000083],[107.97412250100015,12.507372501000162],[107.9726512410003,12.508369797000071],[107.97187250100015,12.508622501000204],[107.97141132400012,12.509102501000129],[107.97087749900035,12.509377499000138],[107.96891165200023,12.510015422999984],[107.96703195200016,12.510756821000044],[107.96437749900022,12.513127499000092],[107.96387250100011,12.513372501000106],[107.96334276200017,12.513645393000132],[107.96058121900026,12.514541527000205],[107.95892462900017,12.517068245000274],[107.95795019500028,12.518082451000083],[107.95554980500006,12.51841754900019],[107.95439250200027,12.519622091000102],[107.95363572700026,12.519637537000136],[107.95258158500027,12.518837660000216],[107.95107514200024,12.51913174400012],[107.94921500000012,12.52009000000001],[107.94725000000008,12.520130102000124],[107.94662500000018,12.520117348000227],[107.94466379500008,12.520157372000071],[107.94437249900014,12.519877501000195],[107.94389250000015,12.519377909000156],[107.94338684800019,12.519367588000094],[107.94240524900025,12.5197035730001],[107.94209351300023,12.518792816000243],[107.94212594400025,12.517203739000024],[107.94227300300017,12.516313522000274],[107.94239115300005,12.51599776100008],[107.94310211000018,12.515506889000136],[107.94245611600027,12.514931210000029],[107.94175000000016,12.514750000000134],[107.94189789000009,12.515352110000038],[107.94205417800006,12.516343765000201],[107.94180382200014,12.517157879000138],[107.94126516700007,12.517435369000182],[107.93958673700027,12.51675456000008],[107.93837750100008,12.517377501000013],[107.93697146800017,12.517651985000171],[107.93549500100013,12.518620001000144],[107.93501000000006,12.51961969400017],[107.93460854500015,12.519627888000144],[107.9325147060002,12.518549242000063],[107.93110211800021,12.51927693900015],[107.92831592000024,12.518706272000188],[107.92722250000028,12.519756813000328],[107.92687250000009,12.521122499000086],[107.92639911000035,12.523064363000259],[107.92575390900006,12.52494936400008],[107.9252443120001,12.527559748000058],[107.9244597310001,12.527963926000197],[107.92388453500016,12.530721483000093],[107.92487750000012,12.531372500000046],[107.92619538100021,12.532372500000193],[107.92713084700014,12.532036504000104],[107.92712035100024,12.531522182000273],[107.92862750000026,12.530627501000225],[107.92910789200019,12.530127501000152],[107.93057588800016,12.530410784000054],[107.93099317200026,12.532122500000284],[107.93162750100024,12.531877500000093],[107.93210789300011,12.531377500000104],[107.93387249900016,12.531718021000216],[107.93337750100008,12.533377500000029],[107.93287750100026,12.534838284000202],[107.93316597900034,12.538122500000057],[107.93365755700026,12.537595263000043],[107.9336127550001,12.535399990000215],[107.9343998700003,12.534199440000279],[107.93637750100024,12.533877500000187],[107.93678249900009,12.532629438000129]]]]},"properties":{"id":"7090"}}]}