{"type":"FeatureCollection","features":[{"type":"Feature","geometry":{"type":"MultiPolygon","coordinates":[[[[99.8834667968753,19.356800265842352],[99.88499999999996,19.354916653103757],[99.88547526041683,19.35292195638077],[99.88681098090282,19.35318915473124],[99.88835557725682,19.354006551107247],[99.88986056857638,19.354365030924896],[99.89064995659723,19.356617092556917],[99.89038302951391,19.363344455295532],[99.89074164496523,19.364476453993504],[99.89375434027792,19.36403347439277],[99.8948665364583,19.363477511936168],[99.89520562065982,19.362758653429225],[99.89699707031272,19.361810845269446],[99.89862630208356,19.362172851562917],[99.9001047092016,19.36376790364632],[99.90172254774293,19.36370374891527],[99.90264377170158,19.36459967719226],[99.90371582031244,19.3645571560334],[99.90533040364605,19.36541137695353],[99.90650607638887,19.364718763563786],[99.9065852864583,19.362712131076677],[99.90579210069464,19.36185567220103],[99.90368489583321,19.360936279297277],[99.90220594618066,19.36099487304722],[99.89830186631943,19.360003933377072],[99.89763020833331,19.359027777778138],[99.89862521701414,19.35758131239183],[99.89739637586828,19.356255289713943],[99.89630533854157,19.357334662543906],[99.89465983072913,19.357911376953467],[99.8932042100694,19.356907212999516],[99.8931369357638,19.35520982530423],[99.89398546006939,19.35397671169737],[99.89432128906245,19.350468207465596],[99.89568901909726,19.34868462456636],[99.89539822048604,19.348145616319883],[99.89239529079853,19.348168267144473],[99.891388888889,19.34870076497431],[99.8900754123263,19.348005913628867],[99.8895502387152,19.34849256727469],[99.88878200954852,19.350121120877063],[99.886781141493,19.35011040581631],[99.88572970920146,19.35124471028675],[99.88405653211802,19.35073316786074],[99.88319986979187,19.349114312066348],[99.88388129340265,19.346729668511628],[99.88292209201384,19.34491699218792],[99.88457790798608,19.343466932509102],[99.88621148003463,19.342695922851917],[99.88653591579859,19.34208333333369],[99.88585394965273,19.340794542101023],[99.88871690538193,19.33879767523912],[99.88930013020823,19.337694769965793],[99.88838433159717,19.336533067491743],[99.88731119791683,19.337138943142733],[99.88656412760409,19.338722737630732],[99.88526367187515,19.33941087510884],[99.88433430989605,19.338550008138427],[99.88380316840275,19.33742465549082],[99.88175889756943,19.33601772732237],[99.88033691406238,19.33668884277384],[99.88149359809043,19.3385780843103],[99.88158420138896,19.340871175130545],[99.88063096788218,19.342347073025564],[99.87844889322932,19.342332695855433],[99.87942382812523,19.344514024522994],[99.87742404513901,19.344895833333695],[99.87902235243067,19.346492241753822],[99.87753960503463,19.347957763672312],[99.88014431423628,19.348744710286937],[99.88235568576405,19.35156087239632],[99.8818522135418,19.35255540635879],[99.88100748697926,19.35346693250908],[99.87892089843749,19.352300821940446],[99.87795193142367,19.351255289713862],[99.87757107204877,19.35190673828167],[99.87766601562512,19.35430026584244],[99.87409288194456,19.35401658799954],[99.87258409288214,19.351738755968185],[99.87156901041689,19.349588623047325],[99.87106391059021,19.35000474717927],[99.87065592447911,19.351715901693098],[99.86917805989603,19.35241346571226],[99.86969835069456,19.35339633517826],[99.86814290364597,19.354837239583645],[99.86848849826387,19.356645304362345],[99.87075683593767,19.358159586588982],[99.87286729600683,19.358562554253908],[99.87400119357645,19.360965643989104],[99.87456705729156,19.360988091363282],[99.8767789713543,19.356256578233896],[99.87743923611114,19.356230400933484],[99.88046278211803,19.35994601779558],[99.88038194444451,19.36365946451859],[99.8807709418405,19.36448452419748],[99.88270399305574,19.365966932509053],[99.88299479166679,19.365239529080355],[99.8821006944444,19.36394022623736],[99.88345377604165,19.36268656412794],[99.88338650173606,19.35977939181892],[99.88444444444443,19.35944444444482],[99.88431098090271,19.358744710286828],[99.88319986979187,19.357295735677468],[99.8834667968753,19.356800265842352]]]]},"properties":{"id":"10049"}}]}