{"type":"FeatureCollection","features":[{"type":"Feature","geometry":{"type":"MultiPolygon","coordinates":[[[[104.42412760416707,11.761262749566],[104.42233479817716,11.758333333333297],[104.42117268880227,11.759137369791688],[104.42101996527808,11.760636935763884],[104.42167344835079,11.761011284722116],[104.42249891493057,11.760927191840395],[104.42551649305582,11.763668891058984],[104.42498643663194,11.764040527343653],[104.4230810546878,11.764380154079817],[104.42165310329867,11.76556613498255],[104.42205430772574,11.766232638888837],[104.42354627821183,11.765378146701423],[104.42594835069465,11.764673394097244],[104.42716200086832,11.763664822048511],[104.42723497178824,11.762948947482485],[104.42486789279522,11.762291666666584],[104.42412760416707,11.761262749566]]]]},"properties":{"id":"23019"}}]}