{"type":"FeatureCollection","features":[{"type":"Feature","geometry":{"type":"MultiPolygon","coordinates":[[[[74.73363769531338,24.697180548774767],[74.73444390191034,24.696405877008118],[74.73471950954954,24.695274997288124],[74.73555826822982,24.69389166938008],[74.73583062066038,24.691663886176926],[74.73638780382024,24.690582207574494],[74.73680013020893,24.68804999457548],[74.73807020399366,24.685818854438665],[74.73748426649374,24.685280558268886],[74.7363281250006,24.687044033475104],[74.73471950954954,24.690274997288043],[74.7344471571187,24.69194722493569],[74.73304741753552,24.69417215983148],[74.73304199218833,24.69551574707107],[74.73110839843824,24.69583055284373],[74.73000271267423,24.69666944715783],[74.72881944444524,24.69694166395466],[74.72805826822972,24.694959208171312],[74.72916937934096,24.691391669380167],[74.72976671006998,24.68757781982498],[74.72944010416748,24.68694444444519],[74.72974717882008,24.68634911431272],[74.72971950954937,24.68499738905237],[74.73028591579927,24.6841611735033],[74.73027398003549,24.683577100966644],[74.73116319444514,24.68185173882452],[74.73107747395889,24.677646145291618],[74.73027560763953,24.675259162055937],[74.72916612413249,24.674193250868967],[74.7287500000007,24.67069444444519],[74.72833170573003,24.67109615749858],[74.72801106770893,24.674047919380087],[74.7288861762161,24.6769469875767],[74.73030761718829,24.680056796604504],[74.73027452257006,24.681686096192195],[74.72969618055615,24.682241651747702],[74.72768988715345,24.682892795139622],[74.72876247829939,24.685285949707833],[74.72611382378525,24.691391669380167],[74.72500271267441,24.692656724718617],[74.72601508246603,24.694150119358383],[74.72331434461867,24.694441663954677],[74.71954644097278,24.690622151693532],[74.71861382378543,24.69113013373547],[74.72166395399361,24.693908182780675],[74.71891059027851,24.694801703559733],[74.71950683593846,24.695274997288124],[74.72222384982703,24.694718560113557],[74.72333062066033,24.6955583360468],[74.72475206163253,24.69583055284373],[74.72583550347306,24.695272454156637],[74.72649359809103,24.697894660102705],[74.72723036024368,24.69891387939532],[74.72721137152845,24.70093797471857],[74.72582465277841,24.70138797336226],[74.72584092882025,24.70216573079503],[74.73417534722304,24.703052537706924],[74.73416992187569,24.70221377902638],[74.73555284288281,24.702181430393622],[74.73396918402861,24.70062238905244],[74.73359809027855,24.699099934896637],[74.73363769531338,24.697180548774767]]]]},"properties":{"id":"9551"}}]}