{"type":"FeatureCollection","features":[{"type":"Feature","geometry":{"type":"MultiPolygon","coordinates":[[[[108.091626993814,12.558178982205234],[108.09330261230386,12.556086697048997],[108.09494974772045,12.556291503906522],[108.09664842393576,12.55706787109412],[108.09509379068894,12.554256998698207],[108.09560323079344,12.552932128906647],[108.09585008409195,12.551234537760678],[108.09702602810219,12.549032660590754],[108.09890563964737,12.547734103733063],[108.09822665744267,12.546666666666951],[108.09432773166142,12.546841362847502],[108.09391594780729,12.548281521267754],[108.09282545301559,12.54932101779545],[108.09180331759873,12.549751519097526],[108.08874993218225,12.54866292317736],[108.08804219563686,12.549078776042037],[108.08817457410916,12.550142957899695],[108.08965976291123,12.55200005425381],[108.09001675075856,12.55312255859414],[108.08945848252935,12.554575466580317],[108.08954338921333,12.55525851779565],[108.08807230631427,12.555678982205151],[108.08754767523803,12.556077473958709],[108.08997660318894,12.557925889757357],[108.091626993814,12.558178982205234]],[[108.09200541178299,12.551541341146134],[108.09294887966499,12.551388888889363],[108.09381774902229,12.552090386285087],[108.09473164876201,12.553884548611435],[108.09400492350167,12.554405110677422],[108.09190097384894,12.553985188802372],[108.09144388834525,12.552425672743425],[108.09200541178299,12.551541341146134]]]]},"properties":{"id":"22891"}}]}