{"type":"FeatureCollection","features":[{"type":"Feature","geometry":{"type":"MultiPolygon","coordinates":[[[[73.8211165364589,24.57944973415873],[73.82236436631993,24.5791227552634],[73.82386908637224,24.579182400174446],[73.8244501410596,24.578338046604458],[73.82447102864657,24.577247755263244],[73.82372694227482,24.576166687012417],[73.8239518229174,24.57049285888749],[73.82319444444491,24.5679166666674],[73.82026692708385,24.568050503201874],[73.82080159505287,24.56906080457972],[73.82092258029584,24.57211480034792],[73.81870415581662,24.57426639133098],[73.8164651150179,24.57780493842303],[73.8187377929693,24.57982866075382],[73.8211165364589,24.57944973415873]]]]},"properties":{"id":"19284"}}]}