{"type":"FeatureCollection","features":[{"type":"Feature","geometry":{"type":"MultiPolygon","coordinates":[[[[79.2063085937501,25.646935546875113],[79.2064414062501,25.64668945312512],[79.20655859375026,25.646435546875225],[79.20719140625019,25.645689453125073],[79.20730859375007,25.645185546875183],[79.20744140624996,25.64493945312519],[79.20755859375024,25.64443554687513],[79.20845312500009,25.64342382812511],[79.20842968750006,25.642824218750064],[79.20618359375007,25.642689453125186],[79.20582812500007,25.64250195312512],[79.20574999999988,25.641750000000016],[79.20555859375,25.641810546875178],[79.20506640625021,25.642189453125113],[79.20459374999999,25.642310546875066],[79.20394140625021,25.641810546875178],[79.20358203125002,25.641689453124954],[79.20344140625005,25.642533203125225],[79.20398046875007,25.643238281250177],[79.20375781249996,25.643659179687788],[79.20280859375006,25.643810546875017],[79.2025664062501,25.643939453124958],[79.2015585937501,25.64406054687518],[79.20106640625019,25.644439453125116],[79.20030859375007,25.64456054687517],[79.20006640625004,25.64468945312511],[79.19955859375008,25.64481054687515],[79.19931640625006,25.64493945312519],[79.1990585937501,25.645060546875058],[79.19881640625019,25.645189453125],[79.19855859375022,25.645310546875223],[79.19844140624994,25.645681640625085],[79.2003164062501,25.64581054687511],[79.20055859375006,25.645939453125052],[79.20081640625008,25.64606054687502],[79.20105859374999,25.64618945312496],[79.20231640625005,25.646310546875185],[79.20257812500026,25.64645019531244],[79.20291015625006,25.64715136718749],[79.20353125,25.64731054687506],[79.20423828125016,25.646769531250044],[79.2045781250001,25.646950195312698],[79.20492187500011,25.647674804687682],[79.20617187500014,25.647810546875135],[79.2063085937501,25.646935546875113]]]]},"properties":{"id":"18934"}}]}