{"type":"FeatureCollection","features":[{"type":"Feature","geometry":{"type":"MultiPolygon","coordinates":[[[[81.98469140625016,23.24444238281272],[81.98514062500001,23.244192382812642],[81.98556640625011,23.244307617187474],[81.98601562500014,23.244557617187652],[81.9863085937499,23.2443662109376],[81.98616015625001,23.24365527343771],[81.98548437500014,23.243353515625103],[81.98430859375006,23.242067382812678],[81.98419140625018,23.241057617187508],[81.98350000000008,23.24024999999999],[81.98030859375004,23.240307617187625],[81.97931640625015,23.241192382812656],[81.97857421875008,23.24136132812498],[81.9785312500002,23.24189355468762],[81.97869140624996,23.24218261718751],[81.97880859375013,23.242442382812527],[81.97894140625002,23.242682617187583],[81.97905859375001,23.2429423828125],[81.97944140625012,23.24343261718765],[81.97958593750027,23.24467382812506],[81.98018750000008,23.244722656250147],[81.98032812500011,23.243505859374977],[81.98089062500011,23.24319238281268],[81.98224218750008,23.243325195312693],[81.98248046875008,23.243750000000034],[81.98219140625,23.244265625000153],[81.98230859375016,23.24444238281272],[81.98306640625017,23.244557617187652],[81.98351562500002,23.244807617187632],[81.98419140625018,23.24469238281253],[81.98443359375014,23.244557617187652],[81.98469140625016,23.24444238281272]]]]},"properties":{"id":"19832"}}]}