{"type":"FeatureCollection","features":[{"type":"Feature","geometry":{"type":"MultiPolygon","coordinates":[[[[102.28669487846909,16.362940538194763],[102.28809353298314,16.362508680555862],[102.29171034070865,16.362619628906458],[102.2952859157954,16.361662055121926],[102.29763102213226,16.360686577691183],[102.30459120008388,16.358757866753734],[102.31101562499683,16.35631971571196],[102.31323215060476,16.353688151041965],[102.3129741753443,16.349361979167014],[102.31203938801767,16.34815565321206],[102.31114067925054,16.34820936414971],[102.30954996744478,16.35184488932333],[102.30842312282672,16.35177788628502],[102.30721435546573,16.35313042534746],[102.30558485242747,16.354079318576595],[102.30407335069143,16.353988986545318],[102.30260579426769,16.35296386718774],[102.29993055555238,16.35234157986136],[102.29950385199342,16.350959201389145],[102.2985828993026,16.349641113281507],[102.29704535589977,16.348413357205146],[102.29772189669839,16.343890787760685],[102.29758544921563,16.34160210503495],[102.2962421332434,16.33986897786481],[102.29598008897275,16.339019911024693],[102.29370062933734,16.33648925781273],[102.29188883463249,16.336597222222494],[102.29094889322616,16.337108018663372],[102.29104193793083,16.338669162326696],[102.29033935546565,16.33967502170168],[102.29077284070874,16.34088378906273],[102.29030626084776,16.34151991102459],[102.28549886067415,16.339937608507142],[102.28459120008367,16.339245062934253],[102.28654541015342,16.338347981771207],[102.28735324435453,16.33730984158015],[102.2866259765594,16.336659884982893],[102.28486355251422,16.33729248046903],[102.28365722655954,16.3364496527781],[102.28270833333036,16.33438259548636],[102.28127224392043,16.33516303168426],[102.28047227647286,16.334728190104357],[102.2797222222193,16.333888888889163],[102.27901991102155,16.334019911024527],[102.2781713867158,16.334612630208568],[102.27821587456279,16.337028266059292],[102.28014675563927,16.339297688802276],[102.28040879991025,16.340200466580143],[102.27923746744486,16.34068657769123],[102.2755215114988,16.3383382161461],[102.27459350585625,16.33937689887179],[102.27642713758391,16.34210394965308],[102.27783772786157,16.34534315321214],[102.28038872612532,16.346072591146196],[102.28223008897285,16.348700358073103],[102.28271538628158,16.350786404080054],[102.28545572916371,16.35204427083366],[102.2862879774274,16.352975531684223],[102.28621365017065,16.354220648871802],[102.28755560980588,16.3590722656253],[102.28644178602113,16.360509711371733],[102.28418023003164,16.36194797092044],[102.28551893445885,16.36357964409754],[102.28669487846909,16.362940538194763]]]]},"properties":{"id":"10250"}}]}